Store Name,Street Address,Borough,"Zip 
Code",Year Awarded,Latitude,Longitude
Ideal Food Basket,1488,Brooklyn,11212,2017,40.668494,-73.91872
LA PODEROSA GROCERY STORE CORP,27 EAST 175TH ST,Bronx,10453,2020,40.847498,-73.911887
Cherry Gourmet Deli,1575,New York,10029,2017,40.78874,-73.948825
Oxford 2 Deli Grocery,2024,New York,10029,2017,40.789379,-73.943332
Jamao Grocery,174,Brooklyn,11212,2017,40.665097,-73.913206
Reyes & G Mini Market,120,Brooklyn,11208,2015,40.687414,-73.871065
ROSANNA FOOD CORP,592 LENOX AVE,New York,10037,2020,40.817088,-73.93866899999999
THREE TIMES C FOOD CORP,1707 UNIVERSITY AVE,Bronx,10453,2020,40.849338,-73.917089
Abdur Sami,2262,New York,10035,2016,40.797155,-73.937651
JADE FOOD CENTER,3822,Bronx,10457,2017,40.837875,-73.901412
Asunan Inc.,1665,New York,10029,2017,40.79131,-73.946949
La Linda Deli Grocery,1157,Brooklyn,11212,2017,40.658163,-73.91597900000001
Chester Food Market,241,Brooklyn,11212,2017,40.665518,-73.910487
Madison Deli and Grocery,1550,New York,10029,2015,40.792753000000005,-73.950144
J A TOMPKINS FOOD CORP,920 MYRTLE AVE,Brooklyn,11206,2020,40.695814,-73.94534399999999
Juan Calito Meat Corp./City Fresh,2212,New York,10035,2016,40.80083,-73.937926
Tejada Castillo Food Corporation,1675,Bronx,10458,2013,40.836404,-73.889409
GAVA FOOD CORP,127 WEST BURNSIDE AVE,Bronx,10453,2020,40.853829,-73.913899
Luna Grocery,1082,Brooklyn,11208,2015,40.667838,-73.873244
Amelia Grocery,954,Bronx,10459,2014,40.822696,-73.90035400000001
Celia,966,Bronx,10459,2014,40.817424,-73.898101
477 FOOD CORP,477 LENOX AVE,New York,10037,2020,40.813274,-73.94148
194 THROOP FOOD CORP,777 PARK AVE,Brooklyn,11206,2020,40.698191,-73.944311
Lex & 103rd Inc.,1629,New York,10029,2017,40.790216,-73.947744
Little Mexico Meat Grocery,2119,New York,10029,2017,40.797752,-73.94015
New Way Supermarket,1167,Brooklyn,11212,2017,40.659951,-73.917592
A-Mart,2433,Bronx,10458,2013,40.857023,-73.887585
Pitikin Ave Deli & Grocery,1801,Brooklyn,11212,2017,40.670326,-73.906487
LOS PALMARITOS DELI GROCERY,2080,Bronx,10457,2017,40.852753,-73.899897
City Fresh Market,235,New York,10029,2015,40.791026,-73.943359
LOS PRIMOS DELI GROCERY,1798,Bronx,10457,2017,40.842792,-73.893526
MANDS FOOD CORP,2482 7TH AVE,New York,10030,2020,40.821167,-73.939431
CENTRAL ORGANIC,67 CENTRAL AVE,Brooklyn,11206,2020,40.701096,-73.93044499999999
Brianelly,2308,Bronx,10458,2013,40.855606,-73.892808
109 AJ DELI GROCERY CORP,109 EAST TREMONT AVE,Bronx,10453,2020,40.850673,-73.907372
FUNFAIR DELI CORP,537 LENOX AVE,New York,10037,2020,40.815499,-73.939852
SABOR CRIOLLO GROCERY CORP,1841 GRAND CONCOURSE,Bronx,10453,2020,40.848022,-73.907336
Key Foods,1050,Bronx,10459,2013,,
SAER & JAMAL MARKET 2,563,Bronx,10457,2017,40.846509000000005,-73.894814
LINCOLN DELI GROCERY INC 1,2095 MADISON AVE,New York,10037,2020,40.809959,-73.937238
Plaza Meat Market,100,Brooklyn,11207,2016,40.68619,-73.908898
AANDE DIRECT LLC,40 LEWIS AVE,Brooklyn,11206,2020,40.696576,-73.937777
Danilo's Corp Deli Grocery,731,Brooklyn,11207,2016,40.662374,-73.884828
NUNEZ DOMINGO,2591 8TH AVE,New York,10030,2020,40.818518,-73.945088
Associated Supermarket,190,Brooklyn,11212,2017,40.66264,-73.92031999999999
1030 Deli & Food Corp,1030,Bronx,10460,2013,40.840342,-73.88087
1408ÃÂ Deli & Grocery Corp.,1408,Bronx,10456,2016,40.834741,-73.901771
EEJ Deli,550,Bronx,10458,2013,40.856355,-73.889094
Bronx Zoo Deli Corp,732,Bronx,10460,2013,40.853821,-73.883351
Bravo Supermarket,80,Brooklyn,11212,2017,40.662455,-73.926964
La Hermadad Supermarket Inc.,193,Bronx,10456,2016,40.832698,-73.917847
TRES K DELI GRCY FRUITANDMEAT INC,125 WEST TREMONT AVE,Bronx,10453,2020,40.850041,-73.913619
Webster Food Corp,2031,Bronx,10457,2015,40.85091,-73.89903199999999
HARLEM EMPIRE DELI INC,251 WEST 135TH ST,New York,10030,2020,40.815938,-73.94518000000001
Jade Food Center,3822,Bronx,10457,2015,40.837875,-73.901412
Eye Deli & Grocery,1540,Brooklyn,11212,2017,40.672108,-73.911243
El Flaco Food,1093,Brooklyn,11212,2017,40.654327,-73.917775
135TH STREET DELI AND GROCERY CORP,266 WEST 135TH ST,New York,10030,2020,40.816056,-73.94550500000001
JJ Food Market,153,New York,10029,2017,40.787686,-73.94923
Food Bazaar,535,Bronx,10456,2016,40.834931,-73.903144
VR Vegetable N Grocery,928,Bronx,10459,2014,,
Deli Grocery,275,Bronx,10458,2013,40.863691,-73.894244
South Side Food,726,Bronx,10455,2014,40.816005,-73.907976
CHICKEN DELI GROCERY,555,Bronx,10457,2017,40.850351,-73.893326
OJ DELI GROCERY,230,Bronx,10457,2017,40.84472,-73.907427
Dari's Grocery,224,Brooklyn,11208,2015,40.684755,-73.869599
Family Express Deli & Grocery,112,Brooklyn,11212,2017,40.670289,-73.90803000000001
Raspberry Deli,2127,New York,10029,2017,40.792853,-73.940822
Tasty Pick Deli & Grocery,1878,New York,10035,2016,40.799202,-73.94121
Annabelle Deli,2121,New York,10029,2015,40.792729,-73.940913
Deli Farm Meat and Grocery,850,Bronx,10459,2014,40.819376,-73.90137800000001
L&O Deli Grocery,1618,New York,10029,2017,40.795008,-73.948495
Cache Grocery,804,Bronx,10460,2013,40.844534,-73.887046
FELOMAR GROCERY STORE,154,Bronx,10457,2017,40.846798,-73.908111
Emerald Food Store,2709-11,Bronx,10458,2013,40.866359,-73.891673
Food Bazaar,417,Brooklyn,11212,2017,40.664415000000005,-73.901629
PAULINO GROCERY,4378,Bronx,10457,2017,40.850821,-73.893958
Associated supermarket,103,Brooklyn,11212,2017,40.656153,-73.908172
Sunny Supermarket,200,Brooklyn,11207,2016,40.68039,-73.892682
East Side Gourmet Deli,1863,New York,10029,2015,40.789515,-73.946163
Third Avenue Gourmet,2105,New York,10029,2017,40.797447,-73.94037
Family 1st Deli,2105,New York,10029,2017,40.791007,-73.93906899999999
Santana,4664,Bronx,10458,2013,40.85817,-73.89286899999999
JANET FOOD CORP,2630 FREDERICK DOUGLASS BLVD,New York,10030,2020,40.819764,-73.94415500000001
48 BURNSIDE FOOD CORP,40 WEST BURNSIDE AVE,Bronx,10453,2020,40.853839,-73.909077
MJT Grocery Store,666,Brooklyn,11212,2017,40.663255,-73.90910600000001
Super Fi Emporium,1635,New York,10029,2017,40.790501,-73.947538
