School Name,Project Description,Project type,Building ID,Building Address,City,Latitude,Longitude
P.S. 147 - BROOKLYN,WATER INFILTRATION/ROOFS,CIP,K147,325 BUSHWICK AVENUE,Brooklyn,40.705204,-73.93940699999999
P.S. 110 - BROOKLYN,FY18 RESO A ELECTRICAL SYSTEMS,CIP,K110,124 MONITOR STREET,Brooklyn,40.723897,-73.942312
P.S. 78 - BRONX,FLOOD ELIMINATION/EXTERIOR MASONRY/PARAPETS,CIP,X078,1400 NEEDHAM AVENUE,Bronx,40.878577,-73.851163
P.S. 69 - QUEENS,FIRE ALARM REPLACEMENT,CIP,Q069,77-02 37 AVENUE,Queens,40.749266,-73.888817
I.S. 78 - BROOKLYN,LSP VACUUM PUMPS,CIP,K078,1420 EAST 68 STREET,Brooklyn,40.621224,-73.91287
P.S. 279 - BROOKLYN,FY19 RESO A PLAYGROUND,CIP,K279,1070 EAST 104 STREET,Brooklyn,40.644203000000005,-73.892264
I.S. 49 - STATEN ISLAND,IP DIGITAL VIDEO SURVEILLANCE SYSTEM,CIP,R049,101 WARREN STREET,Staten Island,40.620347,-74.081643
P.S. 162 - QUEENS,PLANYC BOILER CONVERSION/CLIMATE CTRL,CIP,Q162,201-02 53 AVENUE,Queens,40.749036,-73.777213
P.S. 142 - MANHATTAN,PLAY YARD SINKHOLE,CIP,M142,100 ATTORNEY STREET,Manhattan,40.718383,-73.984452
I.S. 244 - BRONX,PLANYC BOILER/PLANYC CLIMATE CTRL,CIP,X143,120 WEST 231 STREET,Bronx,40.875911,-73.901099
P.S. 80 - STATEN ISLAND,GAS SERVICE,CIP,R880,715 OCEAN TERRACE,Staten Island,40.608517,-74.102078
FASHION INDUSTRIES VOC HS - M,ELECTRICAL WORK FOR A/C INITIATIVE,CIP,M600,225 WEST 24 STREET,Manhattan,40.745156,-73.996074
HS OF GRAPHIC COMM. ARTS (VOC),EXT MASONRY/ROOFS/PARAPETS,CIP,M625,439 WEST 49 STREET,Manhattan,40.76337,-73.990593
P.S. 335 - BROOKLYN,PARTIAL ACESSIBILITY,CIP,K335,130 ROCHESTER AVENUE,Brooklyn,40.674656,-73.92779399999999
P.S. 24 ADDITION - QUEENS,Addition,CAP,Q024,141-11 HOLLY AVENUE,Queens,40.75146,-73.817849
K000 - BROOKLYN,FY18 RESO A PLAYGROUNDS,CIP,K768,7301 15TH AVENUE,Brooklyn,40.618718,-74.001898
LONG ISLAND CITY HS - Q,CULINARY ARTS ROOM,CIP,Q452,14-30 BROADWAY,Queens,40.765826,-73.9328
I.S. 217 - QUEENS,FY15 RESO A SCIENCE LAB UPGRADE,CIP,Q217,85-05 144 STREET,Queens,40.710024,-73.812508
X186 SPED - BRONX,PLANYC BOILER CONVERSION/PLANYC CLIMATE CONTROL/FLOOD ELIMINATION,CIP,X136,750 JENNINGS STREET,Bronx,40.83182,-73.898075
P.S. 20 - QUEENS,FLOOD ELIMINATION/EXTERIOR MASONRY/ROOFS/PARAPETS,CIP,Q020,142-30 BARCLAY AVENUE,Queens,40.758689,-73.824832
I.S. 382 - BROOKLYN,STRUCTURAL DEFECTS AND ROOF,CIP,K465,911 FLATBUSH AVENUE,Brooklyn,40.649787,-73.95855
I.S. 265 - BROOKLYN,PLANYC BOILER CONVERSION/PLANYC CLIMATE CONTROL,CIP,K265,101 PARK AVENUE,Brooklyn,40.696324,-73.97578
I.S. 34 - STATEN ISLAND,FULL PROGRAM ACCESSIBILITY/FIRE ALARM SYSTEM,CIP,R034,528 ACADEMY AVE,Staten Island,40.508284,-74.24342800000001
P.S. 298 - BROOKLYN,ENY PLAYGROUND UPGRADE,CIP,K298,85 WATKINS STREET,Brooklyn,40.670986,-73.908194
P.S. 101 - MANHATTAN,PLANYC BOILER CNVRSN/PLANYC CLIMATE CTRL,CIP,M101,141 EAST 111 STREET,Manhattan,40.79564,-73.94440999999999
P.S. 50 - MANHATTAN,FY RESO A AUDITORIUM UPGRADE,CIP,M050,433 EAST 100 STREET,Manhattan,40.785258,-73.941526
P.S. 47 - BRONX,FY17 RESO A AUDITORIUM UPGRADE,CIP,X047,1794 EAST 172 STREET,Bronx,40.832902,-73.866848
I.S. 88 - BROOKLYN,ELECTRICAL WORK FOR A/C INITIATIVE,CIP,K088,544 7TH AVENUE,Brooklyn,40.660024,-73.987637
P.S. 105 - BRONX,WATER INFILTRATION/PARAPETS,CIP,X105,725 BRADY AVENUE,Bronx,40.852398,-73.866617
P.S. 170 - BRONX,MASONRY ISSUE/PARAPETS/ROOFS,CIP,X170,1598 TOWNSEND AVENUE,Bronx,40.844316,-73.913604
ALTRNATIVE LEARNING CENTER - Q,LSP INTERIOR SPACES,CIP,Q859,30-48 LINDEN PLACE,Queens,40.770185,-73.832925
P.S. 143 - QUEENS,Addition,CAP,Q143,34-74 113 STREET,Queens,40.755451,-73.855192
P.S. 384 - BROOKLYN,LSP DOMESTIC WATER BOOSTER PUMP REPLACEMENT,CIP,K384,242 COOPER STREET,Brooklyn,40.690353,-73.904803
PERFORMING ARTS AND TECH. HS -,WATER INFILTRATION,CIP,K435,400 PENNSYLVANIA AVENUE,Brooklyn,40.667456,-73.894747
P.S. 115 - QUEENS,PLANYC BOILER CNVRSN/PLANYC CLIMATE CTRL,CIP,Q115,80-51 261 STREET,Queens,40.744099,-73.709845
P.S. 33 - QUEENS,ROOF REPAIR/PARAPETS/EXTERIOR MASONRY,CIP,Q033,91-37 222 STREET,Queens,40.727134,-73.735077
J.H.S. 860 - MANHATTAN,SCIENCE LAB UPGRADE,CIP,M088,215 WEST 114 STREET,Manhattan,40.802207,-73.954142
ADULT AND CONTINUING EDUCATION,EXT MSNRY/LOW VOLT/VENT/ROOFS/WIN/ PARAPETS/FLOOD,CIP,K743,475 NOSTRAND AVENUE,Brooklyn,40.681233,-73.949737
P.S. 15 - MANHATTAN,FY17 RESO A IPDVS CAMERA INSTALLATION,CIP,M015,333 EAST 4 STREET,Manhattan,40.721807,-73.979022
P.S. 333 - QUEENS,SANDY NEW A/C CHILLERS,CIP,Q198,3-65 BEACH 56 STREET,Queens,40.593967,-73.786182
P.S. 132 - MANHATTAN,IRON FENCE/FY16 RESO PLAYGRD/WATER INFILTRA/BOILER,CIP,M132,185 WADSWORTH AVENUE,Manhattan,40.850626,-73.934377
FRANCIS LEWIS HS - QUEENS,FY15RESO A AUDITORIUM UPGRADE,CIP,Q430,58-20 UTOPIA PKWY,Queens,40.740724,-73.79283000000001
P.S. 143 ANNEX - QUEENS,Lease,CAP,Q908,98-07 38TH AVENUE,Queens,40.750246,-73.867825
P.S. 33 - QUEENS,TCU REMOVAL/PLAYGROUND REDEVELOPMENT,CIP,Q033,91-37 222 STREET,Queens,40.727134,-73.735077
M.S. 282 - QUEENS,ELECTRICAL WORK FOR A/C INITIATIVE,CIP,Q465,8-21 BAY 25 STREET,Queens,40.60201,-73.762795
P.S. 43 - QUEENS,SANDY-INTERIOR/HEATING/FLOOD/ SHINGLE ROOF/CLIMATE,CIP,Q043,160 BEACH 29TH STREET,Queens,40.593834,-73.76174
3K CENTER @ 100-02 ROCKAWAY BOULEVARD - QUEENS,Lease,CAP,Q468,100-02 ROCKAWAY BOULEVARD,Queens,40.679938,-73.839399
MARBLE HILL INTERNATIONAL HS -,EXT MASONRY/FLOOD/PARAPETS/ROOFS,CIP,X475,99 TERRACE VIEW AVENUE,Bronx,40.877105,-73.912256
P.S. 22 - STATEN ISLAND,ELECTRICAL WORK FOR A/C INITIATIVE,CIP,R022,1860 FOREST AVENUE,Staten Island,40.625369,-74.15097
J.H.S. 216 - QUEENS,FY19 RESO A AUDITORIUM UPGRADE,CIP,Q216,64-20 175 STREET,Queens,40.737517,-73.794031
I.S. 167 - MANHATTAN,FACADE DAMAGE/SITE WORK/FLOOD/PARAPETS/WINDOWS,CIP,M167,220 EAST 76 STREET,Manhattan,40.77205,-73.958066
P.S. 176 - QUEENS,ELECTRICAL WORK FOR A/C INITIATIVE/LSP LL26 CODE COMPLIANCE/EXIT SIGN REPLACEMENT,CIP,Q176,120-45 235 STREET,Queens,40.685492,-73.72998199999999
P.S. 230 - BRONX,SEWAGE LEAK/FIRE SYS SPRINKLER/CRACKED CONCRETE/FA,CIP,X229,275 HARLEM RIVER PARK BRIDGE,Bronx,40.852536,-73.921467
I.S. 24 - STATEN ISLAND,LSP CAFETERIA FLOOR REPLACEMENT,CIP,R024,225 CLEVELAND AVENUE,Staten Island,40.545281,-74.14631999999999
I.S. 226 - QUEENS,PUBLIC ADDRESS SYSTEM,CIP,Q226,121-10 ROCKAWAY BOULEVARD,Queens,40.675771000000005,-73.81693800000001
BRONX HS OF SCIENCE - X,IPDVS CAMERA INSTALLATION,CIP,X445,75 W 205 STREET,Bronx,40.877590000000005,-73.89104
I.S. 244 - BRONX,PLANYC BOILER/PLANYC CLIMATE CTRL,CIP,X143,120 WEST 231 STREET,Bronx,40.875911,-73.901099
P.S. 72 - MANHATTAN,LSP VACUUM CONDENSATE PUMPS,CIP,M072,131 EAST 104 STREET,Manhattan,40.791179,-73.947776
BROOKLYN TECH HS - K,ELECTRICAL WORK FOR A/C INITIATIVE,CIP,K430,29 FT GREENE PLACE,Brooklyn,40.688834,-73.976905
P.S. 92 - MANHATTAN,COLLAPSED WALL,CIP,M092,222 WEST 134 STREET,Manhattan,40.815016,-73.945123
EAST NY FAMILY ACADEMY - K,New,CAP,K599,2057 LINDEN BLVD,Brooklyn,40.661072,-73.886942
P.S. 290 - BROOKLYN,ROOFS/WINDOWS/PARAPETS,CIP,K290,135 SCHENCK AVENUE,Brooklyn,40.677890000000005,-73.889758
BROOKLYN HS OF THE ARTS - BROO,ANSUL SYS/FIRE ALARM/MECHANICAL SYS - VENTILATION,CIP,K655,345 DEAN STREET,Brooklyn,40.683559,-73.98026999999999
P.S. 119 - BRONX,ELECTRICAL WORK FOR A/C INITIATIVE,CIP,X125,1111 PUGSLEY AVENUE,Bronx,40.829232,-73.856734
P.S. 97 ADDITION,Addition,CAP,X097,1375 MACE AVENUE,Bronx,40.862839,-73.84679100000001
P.S. 30 - STATEN ISLAND,EXTERIOR MASONRY/ROOFS/PARAPETS,CIP,R030,200 WARDWELL AVE,Staten Island,40.618439,-74.132645
P.S. 230 - BROOKLYN,ELECTRICAL WORK FOR A/C INITIATIVE,CIP,K230,1 ALBEMARLE ROAD,Brooklyn,40.645017,-73.980761
AUTOMOTIVE TRADES VOC HS - K,ELECTRICAL LIGHTING FIXTURES,CIP,K610,50 BEDFORD AVENUE,Brooklyn,40.721981,-73.953281
P.S. 132 - MANHATTAN,REMOVE OIL TANK - FUEL CONVERSION,CIP,M233,601 WEST 183 STREET,Manhattan,40.850592,-73.93304300000001
FOREST HILLS HS - QUEENS,HAZARDOUS VIOLATION- FACADE/EXTERIOR DOORS,CIP,Q440,67-01 110 STREET,Queens,40.729402,-73.845637
J.H.S. 57 - BROOKLYN,PUBLIC ADDRESS SYSTEM REPLACEMENT,CIP,K057,125 STUYVESANT AVENUE,Brooklyn,40.691274,-73.933697
P.S. 253 - BROOKLYN,EXTERIOR MASONRY/FLOOD ELIMINATION/PARAPETS/ROOFS,CIP,K253,601 OCEANVIEW AVENUE,Brooklyn,40.579607,-73.962071
I.S. 419 - QUEENS ADDITION,New,CAP,Q419,111-10 ASTORIA BOULEVARD,Queens,40.7599,-73.859218
P.S. 129 - QUEENS,Demo,CAP,Q129,128-02 7TH AVENUE,Queens,40.790638,-73.839771
PARK WEST H. S. (ECF),C OF O/C OF O VENT/WATER PLANT/BOILER/ENERGY MGMT,CIP,M535,525 WEST 50 STREET,Manhattan,40.765184000000005,-73.992953
P.S. 109 - BRONX,WATER PENETRATION/ROOF/ PARAPET/MASONRY,CIP,X109,1771 POPHAM AVENUE,Bronx,40.851414,-73.918533
JOHN BOWNE HS - QUEENS,EXTERIOR MASONRY/ROOFS,CIP,Q425,63-25 MAIN STREET,Queens,40.738139,-73.82494399999999
P.S. 159 - QUEENS,FLOOD ELIMINATION,CIP,Q159,205-01 33 AVENUE,Queens,40.76936,-73.78394300000001
P.S. 12 - QUEENS,BOILER REPLACE/ELEC SWITCH UPG/PLANYC CLIMATE CTRL,CIP,Q012,42-00 72 STREET,Queens,40.742633000000005,-73.89280500000001
HS FOR ENVIRONMENTAL STUDIES -,6TH FLOOR EGRESS/FIRE ALARM,CIP,M834,444 WEST 56 STREET,Manhattan,40.767791,-73.987531
I.S. 281 - BROOKLYN,SANDY:ELEVATOR UPG/FLOOD/FIRE ALARM,CIP,K281,8787 24 AVENUE,Brooklyn,40.595341,-73.99345699999999
I.S. 51 - STATEN ISLAND,FY15 RESO A SCHOOL YARD RENOVATION,CIP,R051,20 HOUSTON STREET,Staten Island,40.622585,-74.14488
BRONX CNTR FOR SCIENCE & MATH,FY17 RESO A AUDITORIUM  UPGRADE,CIP,X002,1365 FULTON AVENUE,Bronx,40.833696,-73.902477
P.S. 16 - STATEN ISLAND,FY18 RESO A GYMNASIUM UPGRADE,CIP,R016,80 MONROE AVENUE,Staten Island,40.6397,-74.079141
ALFRED E. SMITH HS - X,FY16 RESO A AUDITORIUM UPGRADE,CIP,X600,333 EAST 151 STREET,Bronx,40.818232,-73.91986700000001
P.S. 277 - BROOKLYN,FY18 RESO A SCIENCE LAB UPGRADES,CIP,K277,2529 GERRITSEN AVENUE,Brooklyn,40.596145,-73.928793
P.S. 56 - BROOKLYN,DEFECTIVE PLAYGROUND SURFACES/EXTERIOR MASONRY/PARAPETS/ROOFS,CIP,K056,170 GATES AVENUE,Brooklyn,40.68505,-73.96065899999999
J.H.S. 52 - MANHATTAN,FLOOD ELIMINATION/EXTERIOR MASONRY,CIP,M052,650 ACADEMY STREET,Manhattan,40.866053,-73.924835
P.S. 199 - BRONX,5TH SBHC,CIP,X104,1449 SHAKESPEARE AVENUE,Bronx,40.842943,-73.920563
I.S. 220 - BROOKLYN,FY18 RESO A AUDITORIUM  UPGRADE,CIP,K220,4812 9TH AVENUE,Brooklyn,40.640545,-74.000731
HS FOR MEDICAL PROFESSIONS - K,PLANYC BOILER CONVERSION/PLANYC CLIMATE CONTROL/FLOOD ELIMINATION,CIP,K500,1600 ROCKAWAY PKWY,Brooklyn,40.641474,-73.89825400000001
P.S. 219 - QUEENS,ROOFS,CIP,Q219,144-39 GRAVETT ROAD,Queens,40.735275,-73.823778
TELECOM. ARTS & TECH. HS - K,C OF O/ELECTRICAL WORK FOR A/C INITIATIVE,CIP,K485,350 67 STREET,Brooklyn,40.637282,-74.023849
P.S. 333 - MANHATTAN,EXTERIOR MASONRY/ROOFS/PARAPETS,CIP,M118,154 WEST 93 STREET,Manhattan,40.791728000000006,-73.970845
P.S. 32 - BRONX,EXTERIOR MASONRY/WINDOWS/PARAPETS,CIP,X032,690 EAST 183 STREET,Bronx,40.852103,-73.885935
WASHINGTON IRVING H.S.,WATER STORAGE TANK,CIP,M460,40 IRVING PLACE,Manhattan,40.735494,-73.987659
LONGWOOD PREPARATORY ACADEMY,IP DIGITAL VIDEO SURVEILLANCE SYSTEM,CIP,X039,965 LONGWOOD AVENUE,Bronx,40.817512,-73.898212
ADULT AND CONTINUING EDUCATION,EXTERIOR MASONRY/LOW VOLTAGE ELECTRICAL SYSTEMS/VENTILATION/ROOFS/WINDOWS/PARAPETS/FLOOD ELIMINATION,CIP,K743,475 NOSTRAND AVENUE,Brooklyn,40.681233,-73.949737
P.S. 205 - QUEENS,PLANYC BOILER CONVERSION/PLANYC CLIMATE CONTROL/FLOOD ELIMINATION/EXTERIOR MASONRY/ROOFS/PARAPETS,CIP,Q205,75-25 BELL BLVD,Queens,40.737678,-73.756791
P.S./I.S. 338 - BROOKLYN,Demo,CAP,K338,510 CONEY ISLAND AVE,Brooklyn,40.645199,-73.97052
P.S. @ 4513 8TH AVENUE - BROOKLYN,New,CAP,K730,4513 8TH AVENUE,Brooklyn,40.643781,-74.000926
P.S. 244 - BROOKLYN,ELECTRICAL WORK FOR A/C INITIATIVE,CIP,K244,5404 TILDEN AVENUE,Brooklyn,40.648423,-73.92594799999999
P.S. 277 - BRONX,FLOOD ELIMINATION/ROOFS/EXTERIOR MASONRY,CIP,X027,519 ST ANNS AVENUE,Bronx,40.813517,-73.913402
I.S. 125 ADDITION - QUEENS,Addition,CAP,Q125,46-02 47 AVENUE,Queens,40.741131,-73.918945
I.S. 51 - BROOKLYN,PARAPET/EXTERIOR MASONRY/ROOFS,CIP,K051,350 5TH AVENUE,Brooklyn,40.672015,-73.983947
P.S. 212 - BROOKLYN,EXT MASONRY - WATER PENETRATION/PARAPETS/ROOFS/WIN,CIP,K212,87 BAY 49 STREET,Brooklyn,40.587616,-73.985948
P.S. 94 - BROOKLYN,EXT MASONRY/WINDOWS/FLOOD ELIMINATION,CIP,K094,5010 6TH AVENUE,Brooklyn,40.64366,-74.008252
P.S. 24 - QUEENS,Addition,CAP,Q024,141-11 HOLLY AVENUE,Queens,40.75146,-73.817849
P.S. 201 - QUEENS,PLANYC CLIMATE CONTROL/PLANYC BOILER CONVERSION,CIP,Q201,65-11 155 STREET,Queens,40.736653,-73.813346
FRANCIS LEWIS HS ANNEX - QUEENS,New,CAP,Q434,58-20 UTOPIA PARKWAY,Queens,40.740724,-73.79283000000001
P.S. 57 - BRONX,FY18 RESO A GYMNASIUM UPGRADE,CIP,X057,2111 CROTONA AVENUE,Bronx,40.848472,-73.888561
P.S. 95 - BRONX,DEFECTIVE MASONRY/PARAPETS,CIP,X095,3961 HILLMAN AVENUE,Bronx,40.882898,-73.891256
P.S. 242 - MANHATTAN,PLANYC CLIMATE CTRL/PLANYC BOILER CONVERSION,CIP,M144,134 WEST 122 STREET,Manhattan,40.8063,-73.948013
P.S. 152 - MANHATTAN,M847 DEMOLITION/M152 PLAYGROUND REDEVELOPMENT,CIP,M847,93 NAGLE AVENUE,Manhattan,40.860412,-73.927936
NORMAN THOMAS HS - MANHATTAN,SCIENCE LAB,CIP,M620,111 EAST 33 STREET,Manhattan,40.746176,-73.981241
P.S. 128 ADDITION - QUEENS,Addition,CAP,Q247,69-10 65TH DRIVE,Queens,40.715344,-73.886215
P.S. 122 - QUEENS,FY16 RESO A SOLAR PANELS,CIP,Q122,21-21 DITMARS BLVD,Queens,40.780347,-73.916655
P.S. 315 - BROOKLYN,LOW VOLTAGE ELECTRICAL SYSTEM,CIP,K152,725 EAST 23 STREET,Brooklyn,40.632562,-73.954724
ACHIEVEMENT FIRST ASPIRE CHART,TCU REMOVAL/PLAYGROUND REDEVELOPMENT,CIP,K202,982 HEGEMAN AVENUE,Brooklyn,40.666417,-73.876563
P.S. 315 - BROOKLYN,FY18 RESO A AUDITORIUM  UPGRADE,CIP,K152,725 EAST 23 STREET,Brooklyn,40.632562,-73.954724
I.S. 529 - BRONX,ELECTRICAL WORK FOR A/C INITIATIVE/LSP LL26 CODE COMPLIANCE/EXIT SIGN REPLACEMENT,CIP,X142,3750 BAYCHESTER AVENUE,Bronx,40.884953,-73.840524
P.S. 33 ANNEX - BRONX,New,CAP,X347,2424 JEROME AVENUE,Bronx,40.86185,-73.90176
P.S. 8 - BROOKLYN,SCIENCE LAB UPGRADES,CIP,K580,105 JOHNSON STREET,Brooklyn,40.694926,-73.98601500000001
I.S. 34 - STATEN ISLAND,FY18 RESO A ROOM CONVERSIONS/PARTITIONING,CIP,R034,528 ACADEMY AVE,Staten Island,40.508284,-74.24342800000001
I.S. 226 - QUEENS,TCU REMOVAL AND PLAYGROUND REDEVELOPMENT,CIP,Q226,121-10 ROCKAWAY BOULEVARD,Queens,40.675771000000005,-73.81693800000001
P.S. 121 - BROOKLYN,FY15 RESO A AIR CONDITIONING SPLIT SYSTEM,CIP,K121,5301 20TH AVENUE,Brooklyn,40.623273,-73.978822
P.S. 884 - BROOKLYN,Lease,CAP,K884,15 SNYDER AVENUE,Brooklyn,40.648568,-73.957639
I.S. 231 - QUEENS,FY14 RESO A PLAYGROUND REDEVELOPMENT,CIP,Q231,145-00 SPRINGFIELD BLVD,Queens,40.664597,-73.758748
BROOKLYN GENERATION SCHOOL - K,ATHLETIC FIELD - TRACK,CIP,K516,6565 FLATLANDS AVENUE,Brooklyn,40.633285,-73.916735
HS OF GRAPHIC COMM. ARTS (VOC),EXT MASONRY/ROOFS/PARAPETS,CIP,M625,439 WEST 49 STREET,Manhattan,40.76337,-73.990593
P.S. 165 - MANHATTAN,ELECTRICAL WORK FOR A/C INITIATIVE/LL26 CODE COMPLIANCE/EXIT SIGN REPLACEMENT,CIP,M165,234 WEST 109 STREET,Manhattan,40.802917,-73.965613
P.S. 315 - BROOKLYN,FY18 RESO A AUDITORIUM  UPGRADE,CIP,K152,725 EAST 23 STREET,Brooklyn,40.632562,-73.954724
R025 SPED - STATEN ISLAND,FY16 RESO A ROOM CONVERSIONS / PART,CIP,R825,6581 HYLAN BLVD,Staten Island,40.508809,-74.222403
P.S. 24 - BRONX,C OF O/FIRE ALARM/PLANYC BOILER/PLANYC CLIMATE CTR,CIP,X024,660 WEST 236 STREET,Bronx,40.887111,-73.913697
NEW UTRECHT HS - BROOKLYN,ATHLETIC FIELD REPAIRS,CIP,K446,1601 80 STREET,Brooklyn,40.613262,-74.003404
P.S. 124 - BROOKLYN,FY16 RESO A SUPPLEMENTAL COOLING,CIP,K124,515 4TH AVENUE,Brooklyn,40.667545,-73.991046
THE BROOKLYN SCHOOL FOR SOCIAL,FY17 RESO A GYMNASIUM UPGRADE,CIP,K480,400 IRVING AVENUE,Brooklyn,40.69697,-73.910791
I.S. 136 - BROOKLYN,ELECTRICAL SYSTEM UPGRADE/FLOOD ELIMINATION,CIP,K136,4004 4TH AVENUE,Brooklyn,40.651977,-74.006862
I.S. 127 - BRONX,ACCESSIBILITY/WINDOWS/PARAPETS/EXT MASONRY/ROOFS,CIP,X127,1560 PURDY STREET,Bronx,40.837931,-73.853524
NEW UTRECHT HS - BROOKLYN,WATER PENETRATION INTO BASEMENT/NATATORIUM RECONST,CIP,K445,1601 80 STREET,Brooklyn,40.613262,-74.003404
Q721 SPED - QUEENS,FY16 RESO A AUDITORIUM UPGRADE,CIP,Q722,57-12 94TH STREET,Queens,40.736003,-73.867478
I.S. 104 - MANHATTAN,FY17 RESO A SUPPLEMENTAL COOLING,CIP,M104,330 EAST 21 STREET,Manhattan,40.736094,-73.980663
SATELLITE AT FORSYTHE,PARAPET/FLOOD ELIMINATION/EXTERIOR MASONRY/ROOFS,CIP,M510,198 FORSYTH STREET,Manhattan,40.72252,-73.990728
MARBLE HILL INTERNATIONAL HS -,EXT MASONRY/FLOOD/PARAPETS/ROOFS,CIP,X475,99 TERRACE VIEW AVENUE,Bronx,40.877105,-73.912256
P.S. 45 - STATEN ISLAND,ROOFS/PARAPETS /EXTERIOR MASONRY/FLOOD ELIMINATION,CIP,R045,58 LAWRENCE AVENUE,Staten Island,40.628558,-74.107148
HAMILTON GRANGE MIDDLE SCHOOL,FY18 RESO A GYMNASIUM UPGRADE,CIP,M192,500 WEST 138 STREET,Manhattan,40.820953,-73.951145
GRAMERCY ARTS HS - MANHATTAN,ELECTRICAL SYSTEMS/PA SYSTEM,CIP,M460,40 IRVING PLACE,Manhattan,40.735494,-73.987659
M.S./H.S. 368 - BRONX,PAVED AREAS CONCRETE,CIP,X368,2975 TIBBETT AVENUE,Bronx,40.879368,-73.909896
P.S. 55 - BRONX,MASONRY/WINDOWS/ROOFS/PARAPETS,CIP,X055,450 ST PAULS PLACE,Bronx,40.836404,-73.90501400000001
Q721 SPED - QUEENS,EXTERIOR MASONRY/ROOFS,CIP,Q722,57-12 94TH STREET,Queens,40.736003,-73.867478
P.S. 282 - BROOKLYN,LSP VACUUM PUMP,CIP,K282,180 6TH AVENUE,Brooklyn,40.67634,-73.977367
TOTTENVILLE HS - STATEN ISLAND,FY 16 RESO A WIRING UPGRADE,CIP,R455,100 LUTEN AVENUE,Staten Island,40.528092,-74.192032
QUEENS ACADEMY HIGH SCHOOL - Q,TOILETS-STUDENT,CIP,Q023,138-11 35 AVENUE,Queens,40.765162,-73.8288
P.S. 57 - BRONX,EXTERIOR MASONRY/FLOOD ELIMINATION/ROOFS/PARAPETS,CIP,X057,2111 CROTONA AVENUE,Bronx,40.848472,-73.888561
J.H.S. 190 - QUEENS,ROOFS,CIP,Q190,68-17 AUSTIN STREET,Queens,40.722707,-73.851699
P.S. 26 - STATEN ISLAND,FY18 RESO A LIBRARY UPGRADE,CIP,R026,4108 VICTORY BLVD,Staten Island,40.591702000000005,-74.190648
P.S. 32 - QUEENS,FY15 RESO A AUDITORIUM UPGRADE,CIP,Q032,171-11 35 AVENUE,Queens,40.764763,-73.79468299999999
P.S. 167 - BROOKLYN,EXTERIOR MASONRY- WATER PENETRATION/PARAPETS/ROOFS,CIP,K167,1025 EASTERN PARKWAY,Brooklyn,40.669001,-73.934635
I.S. 53 - QUEENS,COURTYARD CONCRETE SPALLING/FLOOD ELIMINATION/PARAPETS/ROOFS/WINDOWS/C OF O,CIP,Q053,10-45 NAMEOKE STREET,Queens,40.603622,-73.74909699999999
P.S. 236 - BROOKLYN,EXTERIOR MASONRY/ROOFS/PARAPETS/FLOOD ELIMINATION/TCU REMOVAL/PLAYGROUND REDEVELOPMENT/WROUGHT IRON FENCE,CIP,K236,6302 AVENUE U,Brooklyn,40.615998,-73.912989
P.S. 18 - BROOKLYN,STANDALONE GYM ANNEX,CIP,K673,101 MAUJER STREET,Brooklyn,40.710609000000005,-73.946977
X721 SPED - BRONX,EXTERIOR MASONRY WATER PENETRATION/WINDOWS/ROOFS/FLOOD ELIMINATION/PARAPETS,CIP,X722,2697 WESTCHESTER AVENUE,Bronx,40.842289,-73.838949
P.S. 69 - QUEENS,FIRE ALARM REPLACEMENT,CIP,Q069,77-02 37 AVENUE,Queens,40.749266,-73.888817
P.S. 167 - BROOKLYN,EXT MASONRY - WATER PENETRATION/PARAPETS/ROOFS,CIP,K167,1025 EASTERN PARKWAY,Brooklyn,40.669001,-73.934635
P.S. 213 - BROOKLYN,"LSP VACUUM PUMP SETS, CHEMICAL FEEDER",CIP,K213,580 HEGEMAN AVENUE,Brooklyn,40.66051,-73.890288
P.S. 164 - QUEENS,FY19 RESO A LIBRARY UPGRADE,CIP,Q164,138-01 77 AVENUE,Queens,40.720924,-73.823362
P.S. 199 - BRONX,5TH SBHC,CIP,X104,1449 SHAKESPEARE AVENUE,Bronx,40.842943,-73.920563
P.S. 48 - STATEN ISLAND,LSP DOMESTIC HOT WATER 500- GALLON STORAGE TANK,CIP,R071,1050 TARGEE STREET,Staten Island,40.603484,-74.09123699999999
P.S. 181 - QUEENS,FY18 RESO A LIBRARY UPGRADES,CIP,Q181,148-15 230 STREET,Queens,40.656126,-73.75320699999999
EAST NY FAMILY ACADEMY - K,New,CAP,K599,2057 LINDEN BLVD,Brooklyn,40.661072,-73.886942
P.S. 104 - QUEENS,BOILER REPLACEMENT/CLIMATE CONTROL/HVAC,CIP,Q104,26-01 MOTT AVENUE,Queens,40.608467,-73.764548
P.S./I.S. 189 (@STEENWICK AVE),IPDVS CAMERA INSTALLATION,CIP,X189,3441 STEENWICK AVENUE,Bronx,40.883025,-73.830366
P.S. 203 - QUEENS,WINDOWS,CIP,Q203,53-11 SPRINGFIELD BLVD,Queens,40.754201,-73.760636
SUSAN E. WAGNER HS ANNEX - STA,Addition,CAP,R462,1220 MANOR ROAD,Staten Island,40.596624,-74.12433399999999
P.S. 384 - BROOKLYN,LSP DOMESTIC WATER BOOSTER PUMP REPLACEMENT,CIP,K384,242 COOPER STREET,Brooklyn,40.690353,-73.904803
I.S. 51 - STATEN ISLAND,IPDVS CAMERA INSTALLATION,CIP,R051,20 HOUSTON STREET,Staten Island,40.622585,-74.14488
P.S. 101 - QUEENS,FY19 RESO A AUDITORIUM UPGRADE,CIP,Q101,2 RUSSELL PLACE,Queens,40.715585,-73.843898
I.S. 22 - BRONX,FY18 RESO A PLAYGROUNDS,CIP,X022,270 EAST 167 STREET,Bronx,40.833131,-73.914027
GEORGE WESTINGHOUSE VOC. HS,PARAPETS/EXTERIOR MASONRY/ROOFS/FLOOD ELIMINATION,CIP,K580,105 JOHNSON STREET,Brooklyn,40.694926,-73.98601500000001
BAYSIDE HIGH SCHOOL - QUEENS,FY18 RESO A GYMNASIUM UPGRADE,CIP,Q405,32-24 CORPORAL KENNEDY STREET,Queens,40.771755,-73.78029599999999
P.S. 72 - MANHATTAN,LSP VACUUM CONDENSATE PUMPS,CIP,M072,131 EAST 104 STREET,Manhattan,40.791179,-73.947776
P.S. 43 - BRONX,WATER PENE/BOILER/SUPPORT/MASONRY/CLIM CTRL/PIPING,CIP,X043,165 BROWN PLACE,Bronx,40.806351,-73.921196
P.S. 121 - QUEENS,FY17 RESO A AUDITORIUM,CIP,Q121,126-10 109 AVENUE,Queens,40.68405,-73.815834
SUSAN E. WAGNER HS - STATEN IS,EXT DOORS/EXT MASONRY/WINDOWS/PARAPETS/ROOFS,CIP,R460,1200 MANOR ROAD,Staten Island,40.596803,-74.124227
I.S. 302 - BRONX,FY18 RESO A PLAYGROUNDS,CIP,X052,681 KELLY STREET,Bronx,40.815429,-73.902139
P.S. 129 - MANHATTAN,SCIENCE LAB UPGRADES,CIP,M129,425 WEST 130 STREET,Manhattan,40.814637,-73.951912
P.S. 80 - STATEN ISLAND,GAS SERVICE,CIP,R880,715 OCEAN TERRACE,Staten Island,40.608512,-74.102067
P.S. 191 - BROOKLYN,EXTERIOR MASONRY/PARAPETS/ROOFS,CIP,K191,1600 PARK PLACE,Brooklyn,40.672005,-73.924329
BARD COLLEGE HS - MANHATTAN,NON-SANDY:MASONRY/ROOF/PARAPET/SANDY:FLOOD/MASONRY,CIP,M097,525 EAST HOUSTON STREET,Manhattan,40.719029,-73.975891
D75 REPLACEMENT @ 15 FAIRFIELD,Demo,CAP,R089,15 FAIRFIELD STREET,Staten Island,40.56397,-74.150885
P.S. 104 - QUEENS,BOILER REPLACEMENT/CLIMATE CONTROL/HVAC,CIP,Q104,26-01 MOTT AVENUE,Queens,40.608467,-73.764548
P.S. 44 - BRONX,EXTERIOR MASONRY/PARAPETS/ROOFS,CIP,X044,1825 PROSPECT AVENUE,Bronx,40.842084,-73.891116
P.S. 143 ADDITION - QUEENS,Addition,CAP,Q143,34-74 113 STREET,Queens,40.755451,-73.855192
P.S. 71 - QUEENS,ELECTRICAL WORK FOR A/C INITIATIVE/LL26 CODE COMPLIANCE/EXIT SIGN REPLACEMENT,CIP,Q071,62-85 FOREST AVENUE,Queens,40.711203000000005,-73.905286
BROOKLYN TECH HS - K,FY14 RESO A ATHLETIC FIELDS,CIP,K431,490 CLERMONT AVENUE,Brooklyn,40.682986,-73.968852
FORT HAMILTON HS - K,POOL BOILER,CIP,K490,8301 SHORE ROAD,Brooklyn,40.627898,-74.039985
I.S. 73 - QUEENS,LOW VOLT ELECTRICAL SYSTEMS,CIP,Q073,70-02 54 AVENUE,Queens,40.729215,-73.893624
WILLIAM C. BRYANT HS - QUEENS,IPDVS CAMERA INSTALLATION,CIP,Q445,48-10 31 AVENUE,Queens,40.75823,-73.910514
EAST NY FAMILY ACADEMY - K,New,CAP,K599,2057 LINDEN BLVD,Brooklyn,40.661072,-73.886942
I.S. 88 - BROOKLYN,PLAYNYC BOILER CONVERSION/CLIMATE CONTROL,CIP,K088,544 7TH AVENUE,Brooklyn,40.660024,-73.987637
M.S./H.S. 368 - BRONX,PAVED AREAS CONCRETE,CIP,X368,2975 TIBBETT AVENUE,Bronx,40.879368,-73.909896
P.S. 244 - BROOKLYN,MORTAR JOINTS DETERIOR /FLOOD/PARAPETS/ROOF/WINDOW,CIP,K244,5404 TILDEN AVENUE,Brooklyn,40.648423,-73.92594799999999
I.S. 68 - BROOKLYN,LSP CHARTER MATCH LOCKER REPLACEMENT,CIP,K068,956 EAST 82 STREET,Brooklyn,40.635553,-73.91079
PRE-K CENTER @ 1355 84TH STREET - BROOKLYN,Lease,CAP,K762,1355 84TH STREET,Brooklyn,40.614466,-74.011425
P.S. 11 - BRONX,DEFECTIVE RETAINING WALL & PAVEMENTS,CIP,X011,1257 OGDEN AVENUE,Bronx,40.839378,-73.925714
P.S. 169 - QUEENS,Demo,CAP,Q169,18-25 212 STREET,Queens,40.782298,-73.779099
P.S. 37 - QUEENS,FLOOD/FA/EXT MASONRY/ELEVATOR/PARAPETS/FLOOD,CIP,Q037,179-37 137 AVENUE,Queens,40.67588,-73.758505
P.S. 155 - BROOKLYN,ENY LIBRARY UPGRADE,CIP,K155,1355 HERKIMER STREET,Brooklyn,40.677415,-73.908734
I.S. 88 - BROOKLYN,ELECTRICAL WORK FOR A/C INITIATIVE,CIP,K088,544 7TH AVENUE,Brooklyn,40.660024,-73.987637
P.S. 81 - QUEENS,STANDALONE GYM ANNEX,CIP,Q342,1716 BLEECKER STREET,Queens,40.704168,-73.912235
P.S. 33 - QUEENS,ROOF REPAIR/PARAPETS/EXTERIOR MASONRY,CIP,Q033,91-37 222 STREET,Queens,40.727134,-73.735077
BOYS & GIRLS HS - BROOKLYN,LSP REPLACE DAMAGED SECTION OF 2000 AMP SWITCHGEAR,CIP,K455,1700 FULTON STREET,Brooklyn,40.67944,-73.932407
J.H.S. 237 - QUEENS,FY19 RESO A DOOR REPLACEMENT,CIP,Q237,46-21 COLDEN STREET,Queens,40.749545,-73.822073
FRANCIS LEWIS HS - QUEENS,FY15RESO A AUDITORIUM UPGRADE,CIP,Q430,58-20 UTOPIA PKWY,Queens,40.740724,-73.79283000000001
P.S. 67 - BRONX,FLOOD ELIMINATION/ROOFS/PARAPETS/WINDOWS/EXTERIOR MASONRY/TCU REMOVAL/PLAYGROUND REDEVELOPMENT/PAVED AREAS- CONCRETE/CAFETERIA FLOOR REPLACEMENT,CIP,X067,2024 MOHEGAN AVENUE,Bronx,40.843945,-73.884788
E NY VOC HS OF TRANSIT TECH.-K,ENY AUDITORIUM UPGRADE,CIP,K615,1 WELLS STREET,Brooklyn,40.678276,-73.87595999999999
IS/HS 336 - QUEENS,Lease,CAP,Q336,124-06 14TH AVENUE,Queens,40.785327,-73.843749
K753 SPED - BROOKLYN,LOW VOLTAGE ELEC SYSTEM/ANSUL SYSTEM,CIP,K085,510 CLERMONT AVENUE,Brooklyn,40.682533,-73.968769
VISTA ACADEMY - BROOKLYN,IP DIGITAL VIDEO SURVEILLANCE SYSTEM,CIP,K302,350 LINWOOD STREET,Brooklyn,40.677104,-73.883433
I.S. 123 - BRONX,RENEWAL SCHOOL BASED HEALTH CENTER,CIP,X123,1025 MORRISON AVENUE,Bronx,40.825403,-73.873666
P.S. 103 - BRONX,PARAPET/EXTERIOR MASONRY/FLOOD ELIMINATION,CIP,X103,4125 CARPENTER AVENUE,Bronx,40.892151,-73.86146600000001
P.S. 132 - BROOKLYN,STANDALONE GYM ANNEX,CIP,K745,320 MANHATTAN AVENUE,Brooklyn,40.71466,-73.946108
P.S. 746 - BROOKLYN,New,CAP,K746,256 59TH STREET,Brooklyn,40.643337,-74.021011
P.S. 160 - QUEENS,CHIMNEY/ROOFS/PARAPETS/FLOOD,CIP,Q160,109-59 INWOOD STREET,Queens,40.688103000000005,-73.800415
AUGUST MARTIN HS - QUEENS,IP DIGITAL VIDEO SURVEILLANCE SYSTEM,CIP,Q400,156-10 BAISLEY BLVD,Queens,40.675633000000005,-73.783342
JOHN DEWEY HS - BROOKLYN,FY17 RESO A CULINARY ARTS KITCHEN UPGRADES,CIP,K540,50 AVENUE X,Brooklyn,40.589268,-73.981738
P.S. @ 4302 4TH AVENUE - BROOKLYN,Demo,CAP,K557,4302 4TH AVENUE,Brooklyn,40.650305,-74.008602
P.S. 340 ANNEX - BRONX,New,CAP,X448,25 WEST 195TH STREET,Bronx,40.869007,-73.89749
P.S. 196 - BROOKLYN,FY16 RESO A LIBRARY UPGRADE,CIP,K196,207 BUSHWICK AVENUE,Brooklyn,40.708723,-73.940002
BERGTRAUM HS - MANHATTAN,PUBLIC ADDRESS & CLOCK SYSTEMS,CIP,M520,411 PEARL STREET,Manhattan,40.711442,-74.000851
P.S. 48 - BROOKLYN,FLOOD ELIMINATION/EXTERIOR MASONRY/WINDOWS,CIP,K048,6015 18 AVENUE,Brooklyn,40.621871,-73.98739599999999
P.S. 101 - BROOKLYN,Addition,CAP,K101,2360 BENSON AVENUE,Brooklyn,40.597863,-73.99169300000001
P.S. 198 - MANHATTAN,WINDOWS/ROOFS/PARAPETS,CIP,M198,1700 3RD AVENUE,Manhattan,40.784826,-73.949611
P.S. 251 - BROOKLYN,PLANYC BOILER CONVERSION/PLANYC CLIMATE CONTROL,CIP,K251,1037 EAST 54 STREET,Brooklyn,40.632524,-73.924417
P.S. 398 - QUEENS,New,CAP,Q398,69-01 34TH AVENUE,Queens,40.752493,-73.896922
P.S. @ 4302 4TH AVENUE - BROOKLYN,New,CAP,K557,4302 4TH AVENUE,Brooklyn,40.650305,-74.008602
BRONX CNTR FOR SCIENCE & MATH,PLANYC BOILER CONVERSION/PLANYC CLIMATE CTRL,CIP,X002,1365 FULTON AVENUE,Bronx,40.833696,-73.902477
P.S. 93 - BRONX,ROOFS/EXTERIOR MASONRY/PARAPETS,CIP,X093,1535 STORY AVENUE,Bronx,40.821776,-73.876918
P.S. 161 - BROOKLYN,FLOOD ELIMINATION,CIP,K161,330 CROWN STREET,Brooklyn,40.666181,-73.949013
P.S. 65 - BRONX,FY16 RESO A AUDITORIUM UPGRADE/EXTERIOR MASONRY/PARAPETS/ROOFING,CIP,X065,677 EAST 141 STREET,Bronx,40.807335,-73.91273100000001
RIVERDALE AVENUE MIDDLE SCHOOL,FY18 RESO A LIBRARY UPGRADES,CIP,K183,76 RIVERDALE AVENUE,Brooklyn,40.660204,-73.913933
I.S. 459 - BRONX,REPAIR STEPS & VPS/ROOFS/PARTIAL ACCESSIBILITY,CIP,X115,120 EAST 184 STREET,Bronx,40.859752,-73.900161
FREDERICK DOUGLASS ACADEMY III,ELECTRICAL WORK FOR A/C INITIATIVE,CIP,X148,3630 THIRD AVENUE,Bronx,40.833511,-73.90449
P.S. 3 - STATEN ISLAND,LSP-REPLACE HOT WATER HEATER,CIP,R003,80 SOUTH GOFF AVENUE,Staten Island,40.520699,-74.211264
P.S. 69 - BROOKLYN,ROOFS/EXTERIOR MASONRY,CIP,K069,6302 9TH AVENUE,Brooklyn,40.632379,-74.00922299999999
MILLENIUM ART ACADEMY - BRONX,TCU REMOVAL/PLAYGROUND REDEVELOPMENT,CIP,X450,1980 LAFAYETTE AVENUE,Bronx,40.82229,-73.856167
P.S. 39 - STATEN ISLAND,STANDALONE GYM ANNEX,CIP,R099,71  SAND LANE,Staten Island,40.597679,-74.071529
BRONX INTERNATIONAL - BRONX,ELECTRICAL WORK FOR A/C INITIATIVE,CIP,X400,1110 BOSTON RD,Bronx,40.827642,-73.904473
I.S. 123 - BRONX,RENEWAL SCHOOL BASED HEALTH CENTER,CIP,X123,1025 MORRISON AVENUE,Bronx,40.825403,-73.873666
D75 REPLACEMENT @ 15 FAIRFIELD STREET - STATEN ISLAND,New,CAP,R089,15 FAIRFIELD STREET,Staten Is,40.56397,-74.150885
SUNSET PARK HS - BROOKLYN,FY17 RESO A LIBRARY UPGRADES,CIP,K564,153 35TH STREET,Brooklyn,40.65571,-74.005197
P.S. 101 - BROOKLYN,Addition,CAP,K101,2360 BENSON AVENUE,Brooklyn,40.597863,-73.99169300000001
P.S. 2 - QUEENS,ELECTRICAL WORK FOR A/C INITIATIVE,CIP,Q002,75-10 21 AVENUE,Queens,40.770335,-73.894476
P.S. 105 - BROOKLYN,LSP-REPLACE DOMESTIC WATER HEATER,CIP,K105,1031 59 STREET,Brooklyn,40.632936,-74.00374000000001
P.S. 171 - MANHATTAN,FLOOD ELIM/WINDOWS/EXT MASONRY/HEATING PLANT UPG,CIP,M171,19 EAST 103 STREET,Manhattan,40.792122,-73.951961
P.S. 134 - BRONX,MINI BUILDING CONDITIONS/PLAYGROUND REDEVELOPMENT,CIP,X134,1330 BRISTOW STREET,Bronx,40.831194,-73.894773
PERFORMING ARTS AND TECH. HS -,FY14 RESO A GYMNASIUM UPGRADE,CIP,K435,400 PENNSYLVANIA AVENUE,Brooklyn,40.667456,-73.894747
P.S. 49 - QUEENS,Addition,CAP,Q049,63-60 80TH STREET,Queens,40.719867,-73.875093
RED HOOK NEIGHBORHOOD SCHOOL,FY19 RESO A LIBRARY UPGRADE,CIP,K027,27 HUNTINGTON STREET,Brooklyn,40.677564,-74.005166
P.S. 229 - BROOKLYN,FLOOD ELIMINATION/ROOFS/PARAPETS/EXTERIOR MASONRY/PAVED AREA- BLACKTOP,CIP,K229,1400 BENSON AVENUE,Brooklyn,40.610963,-74.013376
P.S. 52 - QUEENS,ELECTRICAL LIGHTING FIXTURES,CIP,Q052,178-37 146 TERRACE,Queens,40.661122,-73.766733
X012 SPED - BRONX,STRUCTURAL CRACKS/WINDOWS/PARAPETS,CIP,X012,2555 TRATMAN AVENUE,Bronx,40.840145,-73.84441899999999
THE URBAN ASSEMBLY SCHOOL FOR,FY17 RESO A ROOM CONVERSIONS/PARTITIONING,CIP,M470,145 WEST 84 STREET,Manhattan,40.785803,-73.974614
I.S. 187 - BROOKLYN,LSP REPLACE VACUUM CONDENSATE PUMP AND STEAM TRAPS,CIP,K486,1171 65 STREET,Brooklyn,40.627784000000005,-74.004485
BERGTRAUM HS - MANHATTAN,PUBLIC ADDRESS & CLOCK SYSTEMS,CIP,M520,411 PEARL STREET,Manhattan,40.711442,-74.000851
P.S. 75 - MANHATTAN,PLAYNYC BOILER CONVERSION/CLIMATE CONTROL,CIP,M075,735 WEST END AVENUE,Manhattan,40.795157,-73.973292
P.S. 174 - QUEENS,FY17 RESO A AUDITORIUMÃ¯Â¿Â½ UPGRADE,CIP,Q174,65-10 DIETERLE CRESCENT,Queens,40.720924,-73.86135
P.S. 130 - BROOKLYN,WATER PENETRATION THROUGH EXTERIOR/PARAPETS/ROOFS,CIP,K130,70 OCEAN PARKWAY,Brooklyn,40.648884,-73.975607
P.S. 46 ADDITION,Addition,CAP,X046,2760 BRIGGS AVENUE,Bronx,40.867623,-73.890518
P.S. 215 - QUEENS,FIRE ALARM,CIP,Q215,535 BRIAR PLACE,Queens,40.5993,-73.758206
PERFORMING ARTS AND TECH. HS -,FY14 RESO A GYMNASIUM UPGRADE,CIP,K435,400 PENNSYLVANIA AVENUE,Brooklyn,40.667456,-73.894747
I.S. 218 - BROOKLYN,WATER PENETRATION/EXT MASONRY,CIP,K218,370 FOUNTAIN AVENUE,Brooklyn,40.670724,-73.874208
P.S. 62 - BRONX,EXT MASONRY/PARAPETS,CIP,X062,660 FOX STREET,Bronx,40.814031,-73.900609
DISTRICT 27 PRE-K CENTER @ 160-06 CROSS BAY BOULEVARD - QUEENS,Lease,CAP,Q486,160-06 CROSS BAY BOULEVARD,Queens,40.657176,-73.839392
P.S. 46 ADDITION - BRONX,Addition,CAP,X046,279 EAST 196 STREET,Bronx,40.866827,-73.890725
P.S. 48 - BROOKLYN,FLOOD ELIMINATION/EXTERIOR MASONRY/WINDOWS,CIP,K048,6015 18 AVENUE,Brooklyn,40.621871,-73.98739599999999
CHELSEA VOC HS - MANHATTAN,LOW VOLTAGE ELECTRICAL SYSTEM/ANSUL SYSTEM,CIP,M615,131 AVE OF THE AMERICAS,Manhattan,40.7244,-74.004625
COMMUNITY VOICES MIDDLE SCHOOL,FY18 RESO A SUPPLEMENTAL COOLING,CIP,Q231,145-00 SPRINGFIELD BLVD,Queens,40.664608,-73.75878399999999
P.S. 35 - QUEENS,STORM WATER DRAINAGE,CIP,Q035,191-02 90TH AVENUE,Queens,40.713759,-73.769439
P.S. 254 - QUEENS,ROOF/PARAPETS/EXT MASONRY/PAVED AREA CONCRETE,CIP,Q254,84-40 101ST STREET,Queens,40.697961,-73.84796
BROOKLYN TECH HS - K,EXTERIOR MASONRY/ROOFS/PARAPETS/WINDOWS/PAVED AREA,CIP,K430,29 FT GREENE PLACE,Brooklyn,40.688834,-73.976905
P.S. 54 - BRONX,FY18 RESO A AUDITORIUM  UPGRADE,CIP,X054,2703 WEBSTER AVENUE,Bronx,40.864527,-73.88782900000001
P.S. 19 - BRONX,Addition,CAP,X019,4318 KATONAH AVENUE,Bronx,40.899295,-73.8675
P.S. 31 - QUEENS,CHIMNEY LINER REPLAC/PLANYC BOILER/CLIMATE/MASONRY,CIP,Q031,211-45 46 ROAD,Queens,40.757064,-73.770122
MIDWOOD HS - BROOKLYN,CRACKED CONCRETE STRUCTURE/FIELD HOUSE,CIP,K406,1124 EAST 17 STREET,Brooklyn,40.622641,-73.958988
TEACHER'S COLLEGE COMMUNITY SCHOOL ANNEX - MANHATTAN,Lease,CAP,M484,223-233 WEST 132 STREET,Manhattan,40.813781,-73.946024
P.P.A.S. - MANHATTAN,MASONRY/AUD UPG/WIN/FLOOD/PARAPETS/ROOFS/FA,CIP,M017,328 WEST 48 STREET,Manhattan,40.761448,-73.988019
P.S. 50 - QUEENS,Addition,CAP,Q050,143-26 101 AVENUE,Queens,40.695238,-73.807364
P.S. 98 - QUEENS,WATER PENETRATION,CIP,Q098,40-20 235 STREET,Queens,40.769271,-73.749369
J.H.S. 194 - QUEENS,PLANYC BOILER CNVRSN/PLANYC CLIMATE CTRL,CIP,Q194,154-60 17 AVENUE,Queens,40.78365,-73.807838
P.S. 282 - BROOKLYN,LSP VACUUM PUMP,CIP,K282,180 6TH AVENUE,Brooklyn,40.67634,-73.977367
GROVER CLEVELAND HS - QUEENS,FY18 RESO A ELECTRICAL SYSTEM,CIP,Q485,21-27 HIMROD STREET,Queens,40.711033,-73.908814
P.S. 317 - QUEENS,ELECTRICAL WORK FOR A/C INITIATIVE,CIP,Q225,1-90 BEACH 110 STREET,Queens,40.580928,-73.831836
I.S. 382 - BROOKLYN,STRUCTURAL DEFECTS AND ROOF,CIP,K465,911 FLATBUSH AVENUE,Brooklyn,40.649787,-73.95855
DEWITT CLINTON HS - X,EXTERIOR MASONRY/FLOOD ELIMINATION/PARAPETS/ROOF,CIP,X440,100 W MOSHOLU PKWY S,Bronx,40.882178,-73.88691
GROVER CLEVELAND HS - QUEENS,FY18 RESO A ELECTRICAL SYSTEM,CIP,Q485,21-27 HIMROD STREET,Queens,40.711033,-73.908814
P.S. 344 - BRONX,FY19 RESO A PLAYGROUND,CIP,X095,3961 HILLMAN AVENUE,Bronx,40.882898,-73.891256
BRONX CNTR FOR SCIENCE & MATH,FY17 RESO A AUDITORIUM  UPGRADE,CIP,X002,1365 FULTON AVENUE,Bronx,40.833696,-73.902477
P.S. 183 - MANHATTAN,FY19 RESO A SUPPLEMENTAL COOLING,CIP,M183,419 EAST 66 STREET,Manhattan,40.763736,-73.95815
I.S. 118 - BRONX,CAST PANELS/FLOOD ELIMINATION/PARAPETS/ROOFS,CIP,X118,577 EAST 179 STREET,Bronx,40.848339,-73.89308
P.S. 312 - BROOKLYN,WATER PENETRATION,CIP,K312,7103 AVENUE T,Brooklyn,40.621413,-73.908987
I.S. 78 - BROOKLYN,IP DIGITAL VIDEO SURVEILLANCE SYSTEM,CIP,K078,1420 EAST 68 STREET,Brooklyn,40.621224,-73.91287
P.S. 28 - BRONX,ELECTRICAL WORK FOR A/C INITIATIVE/LL26 CODE COMPLIANCE/EXIT SIGN REPLACEMENT,CIP,X028,1861 ANTHONY AVENUE,Bronx,40.848057,-73.903522
CONCOURSE VILLAGE ELEMENTARY S,ROOFS/PARAPETS/EXTERIOR MASONRY,CIP,X156,750 CONCOURSE VILLAGE WEST,Bronx,40.823174,-73.923326
J.H.S. 237 - QUEENS,FY16 RESO A SUPPLEMENTAL COOLING,CIP,Q237,46-21 COLDEN STREET,Queens,40.749545,-73.822073
I.S. 372 - MANHATTAN,SCIENCE LAB UPGRADE,CIP,M117,240 EAST 109 STREET,Manhattan,40.79307,-73.94230300000001
P.S. 46 - BRONX,Addition,CAP,X046,279 EAST 196 STREET,Bronx,40.866827,-73.890725
LIFE SCIENCE SECONDARY SCHOOL,HAZARDOUS - FACADE REPAIR,CIP,M645,320 EAST 96 STREET,Manhattan,40.783625,-73.945637
I.S. 286 - MANHATTAN,WINDOWS/EXTERIOR MASONRY/ROOFS/PARAPETS,CIP,M043,509 WEST 129 STREET,Manhattan,40.815256,-73.955325
P.S. 212 - BROOKLYN,ELECTRICAL WORK FOR A/C INITIATIVE,CIP,K212,87 BAY 49 STREET,Brooklyn,40.587616,-73.985948
THE BROOKLYN SCHOOL FOR SOCIAL,RNWL SBHC,CIP,K480,400 IRVING AVENUE,Brooklyn,40.697185,-73.91117
FORT HAMILTON HS - K,MASONRY DEFECTS/ROOFS/FLOOD/PARAPETS,CIP,K490,8301 SHORE ROAD,Brooklyn,40.627835,-74.04004599999999
P.S. 175 HENRY H GARNET - M,FY18 RESO A AUDITORIUM  UPGRADE,CIP,M175,175 WEST 134 STREET,Manhattan,40.814422,-73.943664
I.S. 266 - BROOKLYN,MASONRY/PIPING/DOOR/FLOOD/WIN/PARAPETS/ROOF/HVAC,CIP,K902,62 PARK PLACE,Brooklyn,40.678983,-73.976497
P.S. 160 - QUEENS,CHIMNEY/ROOFS/PARAPETS/FLOOD,CIP,Q160,109-59 INWOOD STREET,Queens,40.688103000000005,-73.800415
J.H.S. 158 - QUEENS,ELECTRICAL WORK FOR A/C INITIATIVE/LOW VOLTAGE ELECTRICAL/LL26 CODE COMPLIANCE/EXIT SIGN REPLACEMENT,CIP,Q158,46-35 OCEANIA STREET,Queens,40.756139000000005,-73.772862
WIILIAMSBURG PREP- BROOKLYN,IPDVS CAMERA INSTALLATION,CIP,K650,257 N 6TH STREET,Brooklyn,40.715073,-73.95475400000001
P.S. 21 - BROOKLYN,LOW VOLTAGE ELECTRICAL SYSTEMS,CIP,K021,180 CHAUNCEY STREET,Brooklyn,40.680727000000005,-73.926597
P.S. 398 - QUEENS,New,CAP,Q398,69-01 34TH AVENUE,Queens,40.752493,-73.896922
P.S. 225 - BROOKLYN,FLOOD ELMNTN/ROOFS/EXTERIOR MASONRY/PARAPETS,CIP,K225,1075 OCEAN VIEW AVENUE,Brooklyn,40.579737,-73.956329
RALPH R. MCKEE CAREER AND TECH,EXTERIOR MASONRY/PARAPETS/ROOFS/FLOOD ELIMINATION,CIP,R600,290 ST MARKS PLACE,Staten Island,40.642793,-74.07873000000001
I.S. 98 - BRONX,STH SBHC,CIP,X098,1619 BOSTON RD,Bronx,40.8359,-73.890458
I.S. 125 - BRONX,LIGHTING REPLACEMENT (DCAS),CIP,X125,1111 PUGSLEY AVENUE,Bronx,40.829232,-73.856734
P.S. 31 - QUEENS,CHIMNEY LINER REPLAC/PLANYC BOILER/CLIMATE/MASONRY,CIP,Q031,211-45 46 ROAD,Queens,40.757064,-73.770122
EAST FLATBUSH COMMUNITY RESCH,PARAPETS/EXTERIOR MASONRY/ROOFS,CIP,K232,905 WINTHROP STREET,Brooklyn,40.65843,-73.929076
P.S. 288 - BROOKLYN,ROOF,CIP,K288,2950 WEST 25 STREET,Brooklyn,40.574411,-73.99194
P.S. 746 - BROOKLYN,New,CAP,K746,256 59TH STREET,Brooklyn,40.643337,-74.021011
EDUCATIONAL CAMPUS @ 500 19TH STREET - BROOKLYN,Lease,CAP,K280,500 19TH STREET,Brooklyn,40.656944,-73.983115
JAMES MADISON HS - BROOKLYN,SWIMMING POOL,CIP,K425,3787 BEDFORD AVENUE,Brooklyn,40.609912,-73.948512
P.S. 30 - STATEN ISLAND,EXTERIOR MASONRY/ROOFS/PARAPETS,CIP,R030,200 WARDWELL AVE,Staten Island,40.618439,-74.132645
P.S. 105 - BROOKLYN,EXT MASONRY/FLOOD ELIMINATION/ROOFS,CIP,K105,1031 59 STREET,Brooklyn,40.632936,-74.00374000000001
P.S. 375 - BROOKLYN,PLANYC BOILER CNVRSN/PLANYC CLIMATE CTRL,CIP,K320,46 MCKEEVER PLACE,Brooklyn,40.665035,-73.95903100000001
HS OF GRAPHIC COMM. ARTS (VOC),PLANYC BOILERS CONVERSION/CLIMATE CONTROL,CIP,M625,439 WEST 49 STREET,Manhattan,40.76337,-73.990593
BRONX INTERNATIONAL - BRONX,TERRA COTTA REPL/FLOOD/ROOFS/WINDOW/INTERIOR SPACE,CIP,X400,1110 BOSTON RD,Bronx,40.827642,-73.904473
P.S. 108 - MANHATTAN,ELECTRICAL WORK FOR A/C INITIATIVE,CIP,M108,1615 MADISON AVENUE,Manhattan,40.795146,-73.948368
"QNS HS OF TEACH., LIB. ARTS&SC",LSP-GYMNASIUM BLEACHERS REPLACEMENT,CIP,Q566,74-20 COMMONWEALTH BLVD,Queens,40.746088,-73.727535
I.S. 53 - QUEENS,ELECTRICAL UPGRADE,CIP,Q053,10-45 NAMEOKE STREET,Queens,40.603622,-73.74909699999999
P.S. 203 - BROOKLYN,ELECTRICAL WORK FOR A/C INITIATIVE,CIP,K203,5101 AVENUE M,Brooklyn,40.621436,-73.925989
P.S. 108 - MANHATTAN,PLANYC BOILER/PLANC CLIMATE CTRL/LOW VOLT/KITCHEN,CIP,M108,1615 MADISON AVENUE,Manhattan,40.795146,-73.948368
P.S. 80 - STATEN ISLAND,GAS SERVICE,CIP,R880,715 OCEAN TERRACE,Staten Island,40.608517,-74.102078
FRANCIS LEWIS HS - QUEENS,WATER PENETRATION,CIP,Q430,58-20 UTOPIA PKWY,Queens,40.740724,-73.79283000000001
DEWITT CLINTON HS - X,EXTERIOR MASONRY/FLOOD ELIMINATION/PARAPETS/ROOF,CIP,X440,100 W MOSHOLU PKWY S,Bronx,40.882178,-73.88691
P.S. 129 - QUEENS,Addition,CAP,Q129,128-02 7TH AVENUE,Queens,40.790638,-73.839771
MILLENIUM ART ACADEMY - BRONX,LSP CEILING REPLACEMENT,CIP,X450,1980 LAFAYETTE AVENUE,Bronx,40.82229,-73.856167
P.S. 104 - BROOKLYN,WATER INFILTRATION/FLOOD/PARAPETS/ROOFS,CIP,K104,9115 5TH AVENUE,Brooklyn,40.618415,-74.028842
I.S. 5 - QUEENS,PUBLIC ADDRESS SYSTEM/HVAC,CIP,Q005,50-40 JACOBUS STREET,Queens,40.737718,-73.887429
I.S. 127 - BRONX,ACCESSIBILITY/WINDOWS/PARAPETS/EXT MASONRY/ROOFS,CIP,X127,1560 PURDY STREET,Bronx,40.837931,-73.853524
CHELSEA VOC HS - MANHATTAN,LOW VOLTAGE ELECTRICAL SYSTEM/ANSUL SYSTEM,CIP,M615,131 AVE OF THE AMERICAS,Manhattan,40.7244,-74.004625
P.S. 312 - BROOKLYN,WATER PENETRATION,CIP,K312,7103 AVENUE T,Brooklyn,40.621413,-73.908987
P.S. 1 - STATEN ISLAND,EXTERIOR MASONRY,CIP,R802,58 SUMMIT STREET,Staten Island,40.509037,-74.244118
ADULT AND CONTINUING EDUCATION,EXTERIOR MASONRY/LOW VOLTAGE ELECTRICAL SYSTEMS/VENTILATION/ROOFS/WINDOWS/PARAPETS/FLOOD ELIMINATION,CIP,K743,475 NOSTRAND AVENUE,Brooklyn,40.681233,-73.949737
FASHION INDUSTRIES VOC HS - M,EXTERIOR MASONRY/PARAPETS/FLOOD ELIMINATION,CIP,M600,225 WEST 24 STREET,Manhattan,40.745156,-73.996074
AVIATION HS - QUEENS,FUEL FIRE/ROOFS/PARAPETS/MSNRY/ FLOOD/GYM UPG/WIN,CIP,Q610,45-30 36 STREET,Queens,40.743509,-73.929076
ACHIEVEMENT FIRST ASPIRE CHART,TCU REMOVAL/PLAYGROUND REDEVELOPMENT,CIP,K202,982 HEGEMAN AVENUE,Brooklyn,40.666417,-73.876563
P.S. 9 - BRONX,PLANYC BOILER CNVSN/PLANYC CLIMATE CTRL,CIP,X009,230 EAST 183 STREET,Bronx,40.857067,-73.89893599999999
ADULT AND CONTINUING EDUCATION,EXT MSNRY/LOW VOLT/VENT/ROOFS/WIN/ PARAPETS/FLOOD,CIP,K743,475 NOSTRAND AVENUE,Brooklyn,40.681233,-73.949737
X721 SPED - BRONX,EXT MSNRY WATER PENETR/WINDOW/ROOF/ FLOOD/PARAPET,CIP,X722,2697 WESTCHESTER AVENUE,Bronx,40.842289,-73.838949
Q075 SPED - QUEENS,EXTERIOR MASONRY/ROOFS,CIP,Q048,155-02 108 AVENUE,Queens,40.694119,-73.797003
I.S. 34 - STATEN ISLAND,FULL PROGRAM ACCESSIBILITY/FIRE ALARM SYSTEM,CIP,R034,528 ACADEMY AVE,Staten Island,40.508284,-74.24342800000001
J.H.S. 157 - QUEENS,FY16 RESO A ROOM CONVERSIONS / PART,CIP,Q157,63-55 102ND STREET,Queens,40.732289,-73.853825
I.S. 229 - BRONX,STH SBHC,CIP,X229,275 HARLEM RIVER PARK BRIDGE,Bronx,40.852536,-73.921467
P.S. 131 - BROOKLYN,WATER PENETRATION/FLOOD/PARAPETS/ROOFS,CIP,K131,4305 FT HAMILTON PKWY,Brooklyn,40.641157,-73.993482
P.S. 86 - QUEENS,ELECTRICAL WORK FOR A/C INITIATIVE/LL26 CODE COMPLIANCE/EXIT SIGN REPLACEMENT,CIP,Q086,87-41 PARSONS BOULEVARD,Queens,40.708898,-73.803938
I.S. 259 - BROOKLYN,CRACKED EXTERIOR MASONRY/ROOFS/PARAPETS,CIP,K259,7305 FT HAMILTON PKWY,Brooklyn,40.62668,-74.01512
THE URBAN ASSEMBLY SCHOOL FOR,FY17 RESO A ROOM CONVERSION/PARTITIONING,CIP,M470,145 WEST 84 STREET,Manhattan,40.785803,-73.974614
P.S. 42 - STATEN ISLAND,ELECTRICAL WORK FOR A/C INITIATIVE/LL26 CODE COMPLIANCE/EXIT SIGN REPLACEMENT,CIP,R848,25 AUGUSTA AVENUE,Staten Island,40.551882,-74.168869
P.S. 121 - QUEENS,FY17 RESO A AUDITORIUM  UPGRADE,CIP,Q121,126-10 109 AVENUE,Queens,40.68405,-73.815834
P.S. 241 - MANHATTAN,FLOOD ELIMINATION,CIP,M113,240 WEST 113 STREET,Manhattan,40.801689,-73.95490799999999
P.S. 288 - BROOKLYN,ROOF,CIP,K288,2950 WEST 25 STREET,Brooklyn,40.574411,-73.99194
M.S./H.S. 225 - BRONX,FY15 RESO A GREEN ROOF,CIP,X137,2225 WEBSTER AVENUE,Bronx,40.854493,-73.89671700000001
P.S. 37 - QUEENS,FLOOD/FA/EXT MASONRY/ELEVATOR/PARAPETS/FLOOD,CIP,Q037,179-37 137 AVENUE,Queens,40.67588,-73.758505
P.S. 246 - BRONX,ELEVATOR/EXT MSNRY/FLOOD/ PARAPETS/ROOFS/WALL,CIP,X843,2641 GRAND CONCOURSE,Bronx,40.865593,-73.894758
P.S. 97 - BRONX,Addition,CAP,X097,1375 MACE AVENUE,Bronx,40.862839,-73.84679100000001
SUSAN E. WAGNER HS - STATEN IS,EXT DOORS/EXT MASONRY/WINDOWS/PARAPETS/ROOFS,CIP,R460,1200 MANOR ROAD,Staten Island,40.596803,-74.124227
I.S. 5 - QUEENS,LSP VACUUM/CONDENSATE PUMP SYSTEM REPLACEMENT,CIP,Q005,50-40 JACOBUS STREET,Queens,40.737718,-73.887429
P.S. 115 - QUEENS,PLANYC BOILER CNVRSN/PLANYC CLIMATE CTRL,CIP,Q115,80-51 261 STREET,Queens,40.744099,-73.709845
P.S. 163 - QUEENS,Addition,CAP,Q163,159-01 59 AVENUE,Queens,40.740565,-73.80913100000001
G MCCOWN EXPEDITIONARY LRNG SC,FY18 RESO A GYMNASIUM UPGRADE,CIP,R043,100 ESSEX DRIVE,Staten Island,40.581315,-74.158589
URBN ASSY SCHL CRIM JUSTICE -,SCIENCE LAB UPGRADE,CIP,K223,4200 16 AVENUE,Brooklyn,40.634875,-73.981528
P.S. 46 - BRONX,Addition,CAP,X046,279 EAST 196 STREET,Bronx,40.866827,-73.890725
I.S. 35 - BROOKLYN,FULL PROGRAM ACCESSIBILITY,CIP,K035,272 MACDONOUGH STREET,Brooklyn,40.681896,-73.935963
P.S. 200 - QUEENS,FY18 RESO A AUDITORIUM  UPGRADE,CIP,Q200,70-10 164 STREET,Queens,40.731369,-73.805116
I.S. 24 - STATEN ISLAND,FY17 RESO A SCIENCE LAB UPGRADES,CIP,R024,225 CLEVELAND AVENUE,Staten Island,40.545281,-74.14631999999999
WILLIAM E. GRADY VOC HS - K,FY16 RESO A CULINARY ARTS ROOM,CIP,K620,25 BRIGHTON 4TH ROAD,Brooklyn,40.582585,-73.963477
I.S. 136 - BROOKLYN,ELECTRICAL SYSTEMS UPGRADE,CIP,K136,4004 4TH AVENUE,Brooklyn,40.651977,-74.006862
P.S. 399 - BROOKLYN,FY16 RESO A SCIENCE LAB UPGRADE,CIP,K399,2707 ALBEMARLE ROAD,Brooklyn,40.648044,-73.951891
X811 SPED - BRONX,PROBES-REPAIRS/PARAPETS/ ROOFS/WINDOWS,CIP,X084,1434 LONGFELLOW AVENUE,Bronx,40.830589,-73.887587
P.S. 161 - QUEENS,FY19 RESO A LIBRARY UPGRADE,CIP,Q161,101-33 124TH STREET,Queens,40.690798,-73.821657
P.S. 9 - BRONX,CRACKED MASONRY/PARAPETS/ROOFS,CIP,X009,230 EAST 183 STREET,Bronx,40.857067,-73.89893599999999
FOREST HILLS HS - QUEENS,CONCRETE RETAINING WALL,CIP,Q441,67-01 110 STREET,Queens,40.729402,-73.845637
I.S. 419 - QUEENS,New,CAP,Q419,111-10 ASTORIA BOULEVARD,Queens,40.7599,-73.859218
MASPETH HIGH SCHOOL - QUEENS,FY18 RESO A AUDITORIUM  UPGRADE,CIP,Q585,54-40 74TH STREET,Queens,40.729939,-73.88748199999999
YOUNG W. LEADERSHIP SCL ASTORI,CHAPEL ROOM CONVERSION,CIP,Q739,23-15 NEWTOWN AVENUE,Queens,40.771215000000005,-73.924591
HS OF GRAPHIC COMM. ARTS (VOC),EXTERIOR MASONRY/ROOFS/PARAPETS,CIP,M625,439 WEST 49 STREET,Manhattan,40.76337,-73.9906
LYFE PROGRAM,FY17 RESO A PLAYGROUND REDEVELOPMENT,CIP,Q420,143-10 SPRINGFIELD BLVD,Queens,40.668235,-73.756839
P.S. 42 - QUEENS,FY19 RESO A AUDITORIUM UPGRADE,CIP,Q042,488 BEACH 66 STREET,Queens,40.594538,-73.795304
P.S. 54 - BRONX,FYRESO A PLAYGROUNDS,CIP,X054,2703 WEBSTER AVENUE,Bronx,40.864527,-73.88782900000001
HS OF BUSINESS - BRONX,ATHLETIC FIELD RETAINING WALL,CIP,X410,240 EAST 172 STREET,Bronx,40.840422,-73.91091
P.S. 199 - QUEENS,PLANYC BOILER/PLANYC CLIMATE CONTROL,CIP,Q199,39-20 48 AVENUE,Queens,40.740088,-73.926214
P.S. 24 - QUEENS,Addition,CAP,Q024,45-57 UNION STREET,Queens,40.75207,-73.818789
I.S. 343 - BRONX,FY16 RESO A SUPPLEMENTAL COOLING,CIP,X139,345 BROOK AVENUE,Bronx,40.81004,-73.917792
FREDERICK DOUGLASS ACADEMY VI,MSNRY/ROOFS/WINDOWS/PARAPETS/NATATORIUM STRUC REPR,CIP,Q465,8-21 BAY 25 STREET,Queens,40.60201,-73.762795
P.S. 152 - MANHATTAN,ELECTRICAL SYSTEMS,CIP,M152,93 NAGLE AVENUE,Manhattan,40.860412,-73.927936
P.S. 157 - BRONX,ROOFS/WINDOWS,CIP,X157,757 CAULDWELL AVENUE,Bronx,40.819258000000005,-73.908553
FORDHAM HS FOR THE ARTS - BRON,FY16 RESO A LIBRARY UPGRADE,CIP,X435,500 EAST FORDHAM ROAD,Bronx,40.860043,-73.888267
Q811 SPED - QUEENS,LL 41/16 COMPLIANCE,CIP,Q811,61-25 MARATHON PKWY,Queens,40.756778,-73.729487
MIDWOOD HS - BROOKLYN,CRACKED CONCRETE STRUCTURE/FIELD HOUSE,CIP,K406,1124 EAST 17 STREET,Brooklyn,40.622641,-73.958988
TELECOM. ARTS & TECH. HS - K,LSP REPLACE BURNER CONTROLS,CIP,K485,350 67 STREET,Brooklyn,40.637282,-74.023849
P.S. 229 - QUEENS,ELECTRICAL WORK FOR A/C INITIATIVE/LL26 CODE COMPLIANCE/EXIT SIGN REPLACEMENT,CIP,Q229,67-25 51 ROAD,Queens,40.734294,-73.89755699999999
P.S. 146 - BROOKLYN,FALLING MASONRY,CIP,K142,610 HENRY STREET,Brooklyn,40.68007,-74.001377
P.S. 26 - QUEENS,FY18 RESO A PLAYGROUNDS,CIP,Q026,195-02 69 AVENUE,Queens,40.736922,-73.77799
P.S. 317 - QUEENS,SANDY: HEAT/FLOOD/ELEC/ INTERIOR/NON-SANDY:CLIMATE,CIP,Q225,1-90 BEACH 110 STREET,Queens,40.580928,-73.831836
P.S. 158 - MANHATTAN,PLAYGROUNDS,CIP,M158,1458 YORK AVENUE,Manhattan,40.770419,-73.951135
I.S. 259 - BROOKLYN,PLANYC BOILER CONVERSION/PLANYC CLIMATE CONTROL,CIP,K259,7305 FT HAMILTON PKWY,Brooklyn,40.62668,-74.01512
I.S. 232 - BRONX,OIL VAULT & STAIRWAY/PIPING/TOILETS/FLOOD,CIP,X082,1700 MACOMBS ROAD,Bronx,40.849623,-73.91606999999999
J.H.S. 292 - MANHATTAN,ROOFS,CIP,M056,220 HENRY STREET,Manhattan,40.713684,-73.986336
P.S. 354 - QUEENS,WATER INFILTRATION,CIP,Q030,126-10 BEDELL STREET,Queens,40.68031,-73.77443199999999
SEWARD PARK H.S.,WINDOWS/PARAPETS/FLOOD/EXT MASONRY/ROOFS,CIP,M445,350 GRAND STREET,Manhattan,40.716778000000005,-73.989337
LYFE PROGRAM,LYFE CENTER,CIP,M081,212 W 120TH ST,Manhattan,40.806063,-73.95134
P.S. 53 - STATEN ISLAND,FY18 RESO A AUDITORIUM UPGRADE,CIP,R053,330 DURANT AVENUE,Staten Island,40.55258,-74.13705999999999
P.S. 41 - QUEENS,FY17 RESO A ELECTRICAL SYSTEMS,CIP,Q041,214-43 35 AVENUE,Queens,40.769601,-73.770863
BERGTRAUM HS - MANHATTAN,PUBLIC ADDRESS & CLOCK SYSTEMS,CIP,M520,411 PEARL STREET,Manhattan,40.711442,-74.000851
HS FOR MEDICAL PROFESSIONS - K,PLANYC BOILER CONVERSION/PLANYC CLIMATE CTRL/FLOOD,CIP,K500,1600 ROCKAWAY PKWY,Brooklyn,40.641474,-73.89825400000001
P.S. 9 - BRONX,PLANYC BOILER CNVSN/PLANYC CLIMATE CTRL,CIP,X009,230 EAST 183 STREET,Bronx,40.857067,-73.89893599999999
P.S. 257 - BROOKLYN,FY18 RESO A AUDITORIUM UPGRADE,CIP,K257,60 COOK STREET,Brooklyn,40.702392,-73.941801
P.S. 125 - MANHATTAN,ROOFS/FLOOD ELIMINATION/EXTERIOR MASONRY/PARAPETS,CIP,M125,425 WEST 123 STREET,Manhattan,40.810431,-73.955809
MIDDLE SCHOOL FOR ART & PHILOS,EXTERIOR MASONRY/PARAPETS/ROOFS,CIP,K252,1084 LENOX ROAD,Brooklyn,40.658295,-73.920109
P.S. 105 - BRONX,WATER INFILTRATION/PARAPETS,CIP,X105,725 BRADY AVENUE,Bronx,40.852398,-73.866617
I.S. 109 - QUEENS,FY15RESO A SCIENCE LAB UPGRADES,CIP,Q109,213-10 92 AVENUE,Queens,40.720713,-73.747001
FREDERICK DOUGLAS ACADEMY - M,SCIENCE LAB ACID WASTE LINES,CIP,M010,2581 7TH AVENUE,Manhattan,40.824319,-73.93712
P.S. 144 - QUEENS,Addition,CAP,Q144,93-02 69 AVENUE,Queens,40.714978,-73.853372
PRE-K CENTER @ 369 93RD STREET - BROOKLYN,New,CAP,K613,369 93RD STREET,Brooklyn,40.618041,-74.03138100000001
P.S. 377 - BROOKLYN,LL 41-16 COMPLIANCE,CIP,K377,200 WOODBINE STREET,Brooklyn,40.694018,-73.915263
MANHTN CT FOR MATH & SCI. HS -,ELECTRICAL WORK FOR A/C INITIATIVE,CIP,M435,260 PLEASANT AVENUE,Manhattan,40.793856,-73.934028
P.S. 155 - BROOKLYN,LSP PUMP SYSTEM REPLACEMENT,CIP,K155,1355 HERKIMER STREET,Brooklyn,40.677415,-73.908734
P.S. 217 - BROOKLYN,EXT MASONRY/FLOOD/WINDOWS/PARAPETS,CIP,K217,1100 NEWKIRK AVENUE,Brooklyn,40.63398,-73.96655799999999
JULIA RICHMAN H.S.,LL 41-16 COMPLIANCE,CIP,M480,317 EAST 67 STREET,Manhattan,40.765359,-73.960059
P.S. 158 - BROOKLYN,ENY PLAYGROUND UPGRADE,CIP,K158,400 ASHFORD STREET,Brooklyn,40.672579,-73.884803
CURTIS HS - STATEN ISLAND,LSP- BOILER FEED WATER TANK REPLACEMENT,CIP,R450,105 HAMILTON AVENUE,Staten Island,40.644735,-74.081222
M811 SPED - MANHATTAN,FY17 RESO A PLAYGROUND REDEVELOPMENT,CIP,M841,466 WEST END AVENUE,Manhattan,40.786616,-73.979507
P.S. 7 - QUEENS,CLIMATE CONTROL/LOW VOLTAGE ELECTRICAL SYSTEM,CIP,Q007,80-55 CORNISH AVENUE,Queens,40.739115000000005,-73.882487
P.S. 90 - QUEENS,AUDITORIUM UPGRADE,CIP,Q090,86-50 109 STREET,Queens,40.697033000000005,-73.839213
JAMES MADISON HS - BROOKLYN,FY16 RESO A AUDITORIUM UPGRADE,CIP,K425,3787 BEDFORD AVENUE,Brooklyn,40.609912,-73.948512
P.S. 279 - BROOKLYN,FY19 RESO A PLAYGROUND,CIP,K279,1070 EAST 104 STREET,Brooklyn,40.644203000000005,-73.892264
P.S. 182 - BRONX,PLUMBING/REINFORCING SUPPORT ELEMENTS/PAVED AREAS- CONCRETE,CIP,X182,601 STICKBALL BLVD,Bronx,40.818228000000005,-73.856302
BOYS & GIRLS HS - BROOKLYN,REPLACE CHILLERS & COOLING TOWERS,CIP,K455,1700 FULTON STREET,Brooklyn,40.67944,-73.932407
P.S. 354 - QUEENS,TCU REMOVAL AND PLAYGROUND REDEVELOPMENT,CIP,Q030,126-10 BEDELL STREET,Queens,40.68031,-73.77443199999999
FRANCIS LEWIS HS - QUEENS,FY15RESO A AUDITORIUM UPGRADE,CIP,Q430,58-20 UTOPIA PKWY,Queens,40.740724,-73.79283000000001
P.S. 13 - QUEENS,ELECTRICAL WORK FOR A/C INITIATIVE,CIP,Q013,55-01 94TH STREET,Queens,40.737613,-73.86851
P.S. 158 - BROOKLYN,LSP DETERIORATED GYM FLOOR,CIP,K158,400 ASHFORD STREET,Brooklyn,40.672579,-73.884803
Q721 SPED - QUEENS,EXTERIOR MASONRY/ROOFS,CIP,Q722,57-12 94TH STREET,Queens,40.736003,-73.867478
BROOKLYN TECH HS - K,EXTERIOR MASONRY/ROOFS/PARAPETS/WINDOWS/PAVED AREAS CONCRETE,CIP,K430,29 FT GREENE PLACE,Brooklyn,40.688834,-73.976905
P.S. 340 ANNEX - BRONX,New,CAP,X448,25 WEST 195TH STREET,Bronx,40.869007,-73.89749
P.S. 196 - QUEENS,Addition,CAP,Q196,71-25 113 STREET,Queens,40.722782,-73.837946
P.S. 193 - QUEENS,FY17 RESO A AUDITORIUM UPGRADE,CIP,Q193,152-20 11 AVENUE,Queens,40.792483,-73.809741
P.S. 307 - BROOKLYN,FY17 RESO A LIBRARY UPGRADES,CIP,K307,209 YORK STREET,Brooklyn,40.701343,-73.982314
FREDERICK DOUGLASS ACADEMY VI,MSNRY/ROOFS/WINDOWS/PARAPETS/NATATORIUM STRUC REPR,CIP,Q465,8-21 BAY 25 STREET,Queens,40.60201,-73.762795
HS FOR ARTS & TECHNOLOGY - M,IPDVS CAMERA INSTALLATION,CIP,M490,122 AMSTERDAM AVENUE,Manhattan,40.774351,-73.984753
COY L. COX SCHOOL,DEFECTIVE EXT WALL/FLOOD ELIMINATION/PARAPETS/ROOF,CIP,K369,383 STATE STREET,Brooklyn,40.687257,-73.983579
I.S. 529 - BRONX,ELECTRICAL WORK FOR A/C INITIATIVE/LSP LL26 CODE COMPLIANCE/EXIT SIGN REPLACEMENT,CIP,X142,3750 BAYCHESTER AVENUE,Bronx,40.884953,-73.840524
P.S. 133 - QUEENS,FY15 RESO A PLAYGROUND REDEVELOPMENT,CIP,Q133,248-05 86 AVENUE,Queens,40.731729,-73.71785899999999
EL PUENTE ACADEMY - BROOKLYN,MASONRY/WINDOWS/PARAPETS/ROOFS,CIP,K778,250 HOOPER STREET,Brooklyn,40.705898,-73.955611
A-TECH HIGH SCHOOL - K,FLOOD ELIMINATION/ROOFS/PARAPETS/ WINDOWS/EXTERIOR MASONRY,CIP,K610,50 BEDFORD AVENUE,Brooklyn,40.721981,-73.953281
P.S. 175 HENRY H GARNET - M,FY17 RESO A GYMNASIUM UPGRADE,CIP,M175,175 WEST 134 STREET,Manhattan,40.814422,-73.943664
NORMAN THOMAS HS - MANHATTAN,SCIENCE LAB,CIP,M620,111 EAST 33 STREET,Manhattan,40.746176,-73.981241
QUEENS COLLEGIATE SCHOOL - QUE,IP DIGITAL VIDEO SURVEILLANCE SYSTEM,CIP,Q470,167-01 GOTHIC DRIVE,Queens,40.713218,-73.797237
P.S. 38 - MANHATTAN,PARAPETS,CIP,M121,232 EAST 103 STREET,Manhattan,40.788952,-73.944538
QUEENS COLLEGIATE SCHOOL - QUE,ELECTRICAL WORK FOR A/C INITIATIVE,CIP,Q470,167-01 GOTHIC DRIVE,Queens,40.713218,-73.797237
THE URBAN ASSEMBLY SCHOOL FOR,HVAC (BMS) WORK/BACKFLOW PREVENTER & WATER METER,CIP,M470,145 WEST 84 STREET,Manhattan,40.785803,-73.974614
P.S. 7 - BROOKLYN,LSP- VACUUM CONDENSATE PUMPS,CIP,K007,858 JAMAICA AVENUE,Brooklyn,40.689697,-73.873109
P.S. 307 - BROOKLYN,CRACKED EXT MASONRY/ROOFS/PARAPETS,CIP,K307,209 YORK STREET,Brooklyn,40.701343,-73.982314
P.S. 97 - BRONX,Addition,CAP,X097,1375 MACE AVENUE,Bronx,40.862839,-73.84679100000001
BARD COLLEGE HS - MANHATTAN,NON-SANDY:MASONRY/ROOF/PARAPET/SANDY FLOOD/MSNRY,CIP,M097,525 EAST HOUSTON STREET,Manhattan,40.719029,-73.975891
BUSHWICK HS OF SOCIAL JUSTICE,SCHOOL BASED HEALTH CENTER,CIP,K480,400 IRVING AVENUE,Brooklyn,40.69697,-73.910791
WASHINGTON IRVING HS - MANHATT,EXT. MASONRY/ROOF/PARAPET/ FLOOD ELIM./WINDOWS/GYM,CIP,M460,40 IRVING PLACE,Manhattan,40.735494,-73.987659
I.S. 34 - STATEN ISLAND,LSP REPLACE VACUUM CONDENSATE UNIT,CIP,R034,528 ACADEMY AVE,Staten Island,40.508284,-74.24342800000001
P.S. 48 - BRONX,FULL PROGRAM ACCESSIBILITY,CIP,X048,1290 SPOFFORD AVENUE,Bronx,40.814425,-73.886953
I.S. 34 - STATEN ISLAND,FULL PROGRAM ACCESSIBILITY/FIRE ALARM SYSTEM,CIP,R034,528 ACADEMY AVE,Staten Island,40.508284,-74.24342800000001
K753 SPED - BROOKLYN,PLANYC BOILER CNVRSN/PLANYC CLIMATE CTRL,CIP,K085,510 CLERMONT AVENUE,Brooklyn,40.682533,-73.968769
NYC SCHOOL CONSTRUCTION AUTHOR,VP ADMN RELOCATION AND 1ST FLOOR HR/IT BUILDOUT,CIP,Q998,30-30 THOMSON AVENUE,Queens,40.745042,-73.93619100000001
P.S. 71 - QUEENS,PARAPETS/EXTERIOR MASONRY/ROOFS,CIP,Q071,62-85 FOREST AVENUE,Queens,40.711203000000005,-73.905286
URBAN ASSEMBLY SCHOOL FOR THE,LSP VACUUM CONDESATE PUMPS,CIP,M043,509 WEST 129 STREET,Manhattan,40.815256,-73.955325
P.S. 163 - MANHATTAN,TCU REMOVAL & PLAYGROUND REDEVELOPMENT,CIP,M163,163 WEST 97 STREET,Manhattan,40.794264,-73.96870600000001
COLLEGIATE INST FOR MATH & SCI,FIRE ALARM SYSTEM,CIP,X415,925 ASTOR AVENUE,Bronx,40.859665,-73.861006
P.S. 50 - MANHATTAN,EXTERIOR MASONRY/ROOFS/PARAPETS/SITE WALLS,CIP,M050,433 EAST 100 STREET,Manhattan,40.785258,-73.941526
Q811 SPED - QUEENS,PLANYC BOILER CNVRSN/PLANYC CLIMATE CTRL,CIP,Q811,61-25 MARATHON PKWY,Queens,40.756778,-73.729487
I.S. 75 - STATEN ISLAND,CHILLER REPLACEMENT,CIP,R075,455 HUGUENOT AVENUE,Staten Island,40.54438,-74.197897
BAYSIDE HIGH SCHOOL - QUEENS,IPDVS CAMERA INSTALLATION,CIP,Q405,32-24 CORPORAL KENNEDY STREET,Queens,40.771755,-73.78029599999999
P.S. 197 - BROOKLYN,EXTERIOR MASONRY/PARAPETS/ROOFS/WINDOWS/FLOOD ELIMINATION/PIPING REPLACEMENT,CIP,K197,1599 EAST 22 STREET,Brooklyn,40.612623,-73.95190600000001
THE RIVERSIDE SCHOOL - MANHATTAN,New,CAP,M342,300 WEST 61ST STREET,Manhattan,40.772883,-73.989609
HS FOR HEALTH CAREER & SCIENCE,IPDVS CAMERA INSTALLATION,CIP,M465,549 AUDUBON AVENUE,Manhattan,40.855855,-73.92712
P.S. 50 - BRONX,SWITCH GEAR REPLACEMENT,CIP,X050,1550 VYSE AVENUE,Bronx,40.834157,-73.887512
P.S. 316 - BROOKLYN,ROOFS,CIP,K316,750 CLASSON AVENUE,Brooklyn,40.674406,-73.960254
P.S. 219 - QUEENS,LOW VOLTAGE ELECTRICAL/KITCHEN UPGRADE,CIP,Q219,144-39 GRAVETT ROAD,Queens,40.735275,-73.823778
P.S. 183 - MANHATTAN,PLANYC BOILER/PLANYC CLIMATE CONTROL/VENTILATION,CIP,M183,419 EAST 66 STREET,Manhattan,40.763736,-73.95815
P.S. 19 - BRONX,Addition,CAP,X019,4318 KATONAH AVENUE,Bronx,40.899295,-73.8675
PRE-K CENTER AT BISHOP FORD SC,PLAYGROUND,CIP,K280,500 19TH STREET,Brooklyn,40.656944,-73.983115
P.S. 40 - QUEENS,EXTERIOR MASONRY/TCU REMOVAL & PLAYGROUND/FLOOD,CIP,Q040,109-20 UNION HALL STREET,Queens,40.694125,-73.790675
BROOKLYN TECH HS - K,PA SYSTEM,CIP,K430,29 FT GREENE PLACE,Brooklyn,40.688834,-73.976905
RALPH R. MCKEE CAREER AND TECH,EXTERIOR MASONRY/PARAPETS/ROOFS/FLOOD ELIMINATION,CIP,R600,290 ST MARKS PLACE,Staten Island,40.642793,-74.07873000000001
MIDDLE SCHOOL FOR ART & PHILOS,PLANYC BOILER CONVERSION/CLIMATE CONTROL,CIP,K252,1084 LENOX ROAD,Brooklyn,40.658295,-73.920109
P.S. 46 - BROOKLYN,AUDITORIUM UPGRADE,CIP,K046,100 CLERMONT AVENUE,Brooklyn,40.694633,-73.971165
I.S. 171 - BROOKLYN,WINDOWS/FLOOD ELMNTN/ROOFS/FIRE ALARM/HVAC VTLTN,CIP,K171,528 RIDGEWOOD AVENUE,Brooklyn,40.68618,-73.869625
I.S. 12 - MANHATTAN,GYM CEILING,CIP,M117,240 EAST 109 STREET,Manhattan,40.79307,-73.94230300000001
P.S. 253 - BROOKLYN,EXTERIOR MASONRY/FLOOD ELIMINATION/PARAPETS/ROOFS,CIP,K253,601 OCEANVIEW AVENUE,Brooklyn,40.579607,-73.962071
K753 SPED - BROOKLYN,IP DIGITAL VIDEO SURVEILLANCE SYSTEM,CIP,K085,510 CLERMONT AVENUE,Brooklyn,40.682533,-73.968769
PRE-K CENTER @ 104-04 CORONA AVENUE - QUEENS,New,CAP,Q373,104-04 CORONA AVENUE,Queens,40.744001,-73.85840400000001
J.H.S. 72 - QUEENS,SCIENCE LAB UPGRADES,CIP,Q072,133-25 GUY R BREWER BOULEVARD,Queens,40.673769,-73.775951
LONG ISLAND CITY HS - Q,FIRE ALARM SYSTEM/BUILDING MGMT SYSTEM,CIP,Q452,14-30 BROADWAY,Queens,40.765826,-73.9328
P.S. 19 - BRONX,Addition,CAP,X019,4318 KATONAH AVENUE,Bronx,40.899295,-73.8675
P.S. 165 - MANHATTAN,EXT MASONRY/ROOFS,CIP,M165,234 WEST 109 STREET,Manhattan,40.802917,-73.965613
P.S. 20 - QUEENS,FLOOD ELIMINATION/EXTERIOR MASONRY/ROOFS/PARAPETS,CIP,Q020,142-30 BARCLAY AVENUE,Queens,40.758689,-73.824832
P.S. 158 - BROOKLYN,STRUCTURAL DEFECTS,CIP,K158,400 ASHFORD STREET,Brooklyn,40.672579,-73.884803
P.S. @ 1570 BOONE AVENUE - BRONX,New,CAP,X320,1570 BOONE AVENUE,Bronx,40.833224,-73.88497
P.S. 82 - QUEENS,WATER PENETRATION/ROOFS/PARAPETS,CIP,Q082,88-02 144 STREET,Queens,40.704072,-73.811771
P.S. 254 - QUEENS,ROOF/PARAPETS/EXT MASONRY/PAVED AREA CONCRETE,CIP,Q254,84-40 101ST STREET,Queens,40.697961,-73.84796
K753 SPED - BROOKLYN,PLANYC BOILER CONVERSION/PLANYC CLIMATE CONTROL,CIP,K085,510 CLERMONT AVENUE,Brooklyn,40.682533,-73.968769
P.S. 55 - BRONX,FY18 RESO A SUPPLEMENTAL COOLING,CIP,X055,450 ST PAULS PLACE,Bronx,40.836404,-73.90501400000001
P.S. 124 - BROOKLYN,FY16 RESO A SUPPLEMENTAL COOLING,CIP,K124,515 4TH AVENUE,Brooklyn,40.667545,-73.991046
P.S. 101 - BROOKLYN,Addition,CAP,K101,2360 BENSON AVENUE,Brooklyn,40.597863,-73.99169300000001
P.S. 159 - QUEENS,FLOOD ELIMINATION,CIP,Q159,205-01 33 AVENUE,Queens,40.76936,-73.78394300000001
P.S. 246 - BRONX,GYM STANDALONE GYM ANNEX,CIP,X472,2641 GRAND CONCOURSE,Bronx,40.865593,-73.894758
JULIA RICHMAN H.S.,LL 41-16 COMPLIANCE,CIP,M480,317 EAST 67 STREET,Manhattan,40.765359,-73.960059
P.S. 31 - QUEENS,CHIMNEY LINER REPLACEMENT/PLANYC BOILER CONVERSION/PLANYC CLIMATE CONTROL/REINFORCING SUPPORT ELEMENTS/EXTERIOR MASONRY/ROOFS/PARAPETS,CIP,Q031,211-45 46 ROAD,Queens,40.757064,-73.770122
WILLIAM E. GRADY VOC HS - K,ELECTRICAL WORK FOR A/C INITIATIVE,CIP,K620,25 BRIGHTON 4TH ROAD,Brooklyn,40.582585,-73.963477
MULTICULTURAL HS - BROOKLYN,PARAPETS/FLOOD ELIMINATION/ROOFS/EXTERIOR MASONRY,CIP,K420,999 JAMAICA AVENUE,Brooklyn,40.691146,-73.868328
P.S. 31 - QUEENS,CHIMNEY LINER REPLAC/PLANYC BOILER/CLIMATE/MASONRY,CIP,Q031,211-45 46 ROAD,Queens,40.757064,-73.770122
BEACH CHANNEL HS - QUEENS,SANDY REPAIRS-ATHLETIC FIELD,CIP,Q411,100-00 BEACH CHANNEL DRIVE,Queens,40.586066,-73.822624
P.S. 9 - BRONX,PLANYC BOILER CONVERSION/PLANYC CLIMATE CONTROL,CIP,X009,230 EAST 183 STREET,Bronx,40.857067,-73.89893599999999
P.S. 63 - MANHATTAN,FY17 RESO A SECURITY CAMERAS,CIP,M063,121 EAST 3 STREET,Manhattan,40.724117,-73.98638100000001
P.S. 7 - QUEENS,CLIMATE CONTROL/LOW VOLTAGE ELECTRICAL SYSTEM,CIP,Q007,80-55 CORNISH AVENUE,Queens,40.739115000000005,-73.882487
P.S. 34 - BROOKLYN,PLANYC BOILER CNVRSN/PLANYC CLIMATE CTRL,CIP,K034,131 NORMAN AVENUE,Brooklyn,40.726135,-73.949649
P.S. 11 - QUEENS,Addition,CAP,Q011,54-25 SKILLMAN AVENUE,Queens,40.745244,-73.90872
P.S./I.S. 217 - MANHATTAN,FY14 RESO A GREEN ROOF,CIP,M271,645 MAIN STREET,Manhattan,40.763894,-73.947916
Q721 SPED - QUEENS,EXTERIOR MASONRY/ROOFS,CIP,Q722,57-12 94TH STREET,Queens,40.736003,-73.867478
P.S. 22 - STATEN ISLAND,FY18 RESO A AUDITORIUM UPGRADE,CIP,R022,1860 FOREST AVENUE,Staten Island,40.625369,-74.15097
P.S. 128 - QUEENS,Addition,CAP,Q247,69-10 65TH DRIVE,Queens,40.715344,-73.886215
P.S. 223 - QUEENS,WINDOWS/EXT MASONRY/PARAPETS,CIP,Q223,125-20 SUTPHIN BLVD,Queens,40.674519,-73.789399
BRONX CNTR FOR SCIENCE & MATH,PLANYC BOILER CONVERSION/PLANYC CLIMATE CTRL,CIP,X002,1365 FULTON AVENUE,Bronx,40.833696,-73.902477
P.S. 306 - BROOKLYN,ELECTRICAL WORK FOR A/C INITIATIVE/LL26 CODE COMPLIANCE/EXIT SIGN REPLACEMENT,CIP,K306,970 VERMONT STREET,Brooklyn,40.655997,-73.886547
P.S. 160 - BRONX,FY17 RESO A PLAYGROUND REDEVELOPMENT,CIP,X160,4140 HUTCHINSON RIVER PARKWAY EAST,Bronx,40.864676,-73.824303
P.S. 176 - QUEENS,Addition,CAP,Q176,120-45 235 STREET,Queens,40.685492,-73.72998199999999
K396 SPED - BROOKLYN,ELEVATOR,CIP,K396,110 CHESTER STREET,Brooklyn,40.668856,-73.91149899999999
FORT HAMILTON HS - K,MASONRY DEFECTS/ROOFS/FLOOD/PARAPETS,CIP,K490,8301 SHORE ROAD,Brooklyn,40.627898,-74.039985
PRE-K CENTER @ 369 93RD STREET,New,CAP,K613,369 93RD STREET,Brooklyn,40.618041,-74.03138100000001
P.S. 21 - QUEENS,CEILING REPAIR,CIP,Q021,147-36 26TH AVENUE,Queens,40.774512,-73.819284
J.H.S. 8 - QUEENS,FY18 RESO A AUDITORIUM UPGRADE,CIP,Q008,108-35 167 STREET,Queens,40.69719,-73.787192
P.S. 256 ANNEX - QUEENS,New,CAP,Q816,445 BEACH 135 STREET,Queens,40.577026,-73.854539
LONG ISLAND CITY HS - Q,CULINARY ARTS ROOM,CIP,Q452,14-30 BROADWAY,Queens,40.765826,-73.9328
P.S. 249 - BROOKLYN,LOW VOLT/PLANYC CLIMATE CTRL/PLANYC BOILER CONV,CIP,K249,18 MARLBOROUGH ROAD,Brooklyn,40.64971,-73.96604599999999
P.S. 90 - BROOKLYN,FY18 RESO A LIBRARY UPGRADES,CIP,K090,2840 WEST 12 STREET,Brooklyn,40.578255,-73.979628
I.S. 24 - STATEN ISLAND,LSP CAFETERIA FLOOR REPLACEMENT,CIP,R024,225 CLEVELAND AVENUE,Staten Island,40.545281,-74.14631999999999
P.S. 133 - QUEENS,FY15 RESO A PLAYGROUND REDEVELOPMENT,CIP,Q133,248-05 86 AVENUE,Queens,40.731729,-73.71785899999999
P.S. 145 - MANHATTAN,PLANYC BOILER CONVERSION/PLANYC CLIMATE CONTROL,CIP,M145,150 WEST 105 STREET,Manhattan,40.799376,-73.965308
Q811 SPED - QUEENS,PLANYC BOILER CNVRSN/PLANYC CLIMATE CTRL,CIP,Q811,61-25 MARATHON PKWY,Queens,40.756778,-73.729487
JOHN ADAMS HS - QUEENS,TCU REMOVAL/PLAYGROUND REDEVELOPMENT,CIP,Q480,102-10 ROCKAWAY BOULEVARD,Queens,40.679487,-73.836476
P.S. 20 - QUEENS,FLOOD ELIMINATION/EXTERIOR MASONRY/ROOFS/PARAPETS,CIP,Q020,142-30 BARCLAY AVENUE,Queens,40.758689,-73.824832
3K CENTER @ 1939 WEST FARMS ROAD  - BRONX,Lease,CAP,X484,1939 WEST FARMS ROAD,Bronx,40.839162,-73.88059399999999
P.S. 176 - QUEENS,FY19 RESO A AUDITORIUM UPGRADE,CIP,Q176,120-45 235 STREET,Queens,40.685492,-73.72998199999999
GRAMERCY ARTS HS - MANHATTAN,ELECTRICAL SYSTEMS/PA SYSTEM,CIP,M460,40 IRVING PLACE,Manhattan,40.735494,-73.987659
P.S. 84 - MANHATTAN,RESO A GREENROOF,CIP,M084,32 WEST 92 STREET,Manhattan,40.789526,-73.967574
SATELLITE AT FORSYTHE,PARAPET/FLOOD ELIMINATION/EXTERIOR MASONRY/ROOFS,CIP,M510,198 FORSYTH STREET,Manhattan,40.72252,-73.990728
P.S. 183 - MANHATTAN,EXTERIOR MASONRY/FLOOD ELIMINATION/ PARAPETS/ROOFS,CIP,M183,419 EAST 66 STREET,Manhattan,40.763736,-73.95815
P.S. 26 - BROOKLYN,FY13 RESO A PLAYGROUND REDEVELOPMENT,CIP,K026,1014 LAFAYETTE AVENUE,Brooklyn,40.692126,-73.931731
X811 SPED - BRONX,PARTIAL ACCESSIBILITY,CIP,X084,1434 LONGFELLOW AVENUE,Bronx,40.830589,-73.887587
I.S. 231 - QUEENS,FY14 RESO A PLAYGROUND REDEVELOPMENT,CIP,Q231,145-00 SPRINGFIELD BLVD,Queens,40.664597,-73.758748
P.S. 183 - MANHATTAN,FY18 RESO A SCIENCE LAB UPGRADES,CIP,M183,419 EAST 66 STREET,Manhattan,40.763736,-73.95815
M.S. 354 - BROOKLYN,PLANYC BOILER CONVERSION/PLANYC CLIMATE CONTROL,CIP,K390,1224 PARK PLACE,Brooklyn,40.672713,-73.936924
P.S. 167 - BROOKLYN,EXT MASONRY - WATER PENETRATION/PARAPETS/ROOFS,CIP,K167,1025 EASTERN PARKWAY,Brooklyn,40.669001,-73.934635
P.S./I.S. 323 - BROOKLYN,ELECTRICAL WORK FOR A/C INITIATIVE,CIP,K263,210 CHESTER STREET,Brooklyn,40.666545,-73.910904
I.S. 61 - QUEENS,MASONRY/ROOFS/PARAPETS,CIP,Q061,98-50 50 AVENUE,Queens,40.742668,-73.86330699999999
I.S. 14 - BROOKLYN,WATER PENETRATION/PLANYC BOILER/PLANYC CLIMATE,CIP,K014,2424 BATCHELDER STREET,Brooklyn,40.593521,-73.93767199999999
P.S. 32 - BRONX,EXTERIOR MASONRY/WINDOWS/PARAPETS,CIP,X032,690 EAST 183 STREET,Bronx,40.852103,-73.885935
I.S. 286 - MANHATTAN,WINDOWS/EXTERIOR MASONRY/ROOFS/PARAPETS,CIP,M043,509 WEST 129 STREET,Manhattan,40.815256,-73.955325
P.S. 43 - QUEENS,SANDY-INTERIOR/HEATING/FLOOD/SHINGLE ROOF/CLIMATE,CIP,Q043,160 BEACH 29TH STREET,Queens,40.593834,-73.76174
YOUNG W. LEADERSHIP SCL ASTORI,CHAPEL ROOM CONVERSION,CIP,Q739,23-15 NEWTOWN AVENUE,Queens,40.771215000000005,-73.924591
P.S. 94 - BROOKLYN,EXT MASONRY/WINDOWS/FLOOD ELIMINATION,CIP,K094,5010 6TH AVENUE,Brooklyn,40.64366,-74.008252
P.S. 312 - BROOKLYN,WATER PENETRATION,CIP,K312,7103 AVENUE T,Brooklyn,40.621413,-73.908987
P.S. 50 - QUEENS,Addition,CAP,Q050,143-26 101 AVENUE,Queens,40.695238,-73.807364
MARTIN VAN BUREN HS - QUEENS,IP DIGITAL VIDEO SURVEILLANCE SYSTEM,CIP,Q435,230-17 HILLSIDE AVENUE,Queens,40.733066,-73.73875600000001
MARTIN VAN BUREN HS - QUEENS,RENEWAL SCHOOL BASED HEALTH CENTER,CIP,Q435,230-17 HILLSIDE AVENUE,Queens,40.733066,-73.73875600000001
P.S. 287 - BROOKLYN,ROOFS/PARAPETS/EXTERIOR MASONRY,CIP,K287,50 NAVY STREET,Brooklyn,40.697901,-73.98054
P.S. 132 - MANHATTAN,ELECTRICAL WORK FOR A/C INITIATIVE,CIP,M132,185 WADSWORTH AVENUE,Manhattan,40.850626,-73.934377
P.S. 88 - QUEENS,LSP DOMESTIC WATER PRESSURE PUMP REPLACEMENT,CIP,Q088,60-85 CATALPA AVENUE,Queens,40.703779,-73.896374
SUSAN E. WAGNER HS - STATEN IS,IPDVS CAMERA INSTALLATION,CIP,R460,1200 MANOR ROAD,Staten Island,40.596803,-74.124227
P.S. 253 - BROOKLYN,EXTERIOR MASONRY/FLOOD ELIMINATION/PARAPETS/ROOFS,CIP,K253,601 OCEANVIEW AVENUE,Brooklyn,40.579607,-73.962071
P.S. 5 - MANHATTAN,PARAPETS/ROOFS/WINDOWS,CIP,M005,3703 TENTH AVENUE,Manhattan,40.858990000000006,-73.922894
PATHWAYS TO GRADUATION - CITYW,EXTERIOR MASONRY,CIP,Q595,162-02 HILLSIDE AVENUE,Queens,40.70848,-73.800065
P.S. 280 - BRONX,FY 17 RESO A AUDITORIUM UPGRADE,CIP,X080,149 EAST MOSHOLU PKWY N,Bronx,40.876299,-73.88153199999999
MILLENIUM ART ACADEMY - BRONX,ELECTRICAL WORK FOR A/C INITIATIVE,CIP,X450,1980 LAFAYETTE AVENUE,Bronx,40.82229,-73.856167
THE BROOKLYN SCHOOL OF INQUIRY,RESO A ROOFTOP GREENHOUSE,CIP,K237,50 AVENUE P,Brooklyn,40.60731,-73.986595
J.H.S. 157 - QUEENS,FY16 RESO A ROOM CONVERSIONS / PART,CIP,Q157,63-55 102ND STREET,Queens,40.732289,-73.853825
P.S. 124 - BROOKLYN,FLOOD ELIMINATION/ROOFS/PARAPETS/EXTERIOR MASONRY,CIP,K124,515 4TH AVENUE,Brooklyn,40.667545,-73.991046
BROOKLYN HS OF THE ARTS - BROO,PLANYC BOILER CONVERSION/PLANYC CLIMATE CTRL,CIP,K656,500 PACIFIC STREET,Brooklyn,40.684504,-73.980678
P.S. 183 - MANHATTAN,PLANYC BOILER CONVERSION/PLANYC CLIMATE CONTROL/VENTILATION,CIP,M183,419 EAST 66 STREET,Manhattan,40.763736,-73.95815
BRONX INTERNATIONAL - BRONX,TERRA COTTA REPL/FLOOD/ROOFS/WINDOW/INTERIOR SPACE,CIP,X400,1110 BOSTON RD,Bronx,40.827642,-73.904473
J.H.S. 50 - BROOKLYN,FY17 RESO A ROOM CONVERSIONS/PARTITIONING,CIP,K050,183 SOUTH 3RD STREET,Brooklyn,40.711704,-73.960275
WASHINGTON IRVING H.S.,WATER STORAGE TANK,CIP,M460,40 IRVING PLACE,Manhattan,40.735494,-73.987659
P.S. 13 - QUEENS,ELECTRICAL WORK FOR A/C INITIATIVE,CIP,Q013,55-01 94TH STREET,Queens,40.737613,-73.86851
P.S. @ 736 48TH STREET - BROOKLYN,Lease,CAP,K682,736 48TH STREET,Brooklyn,40.643018,-74.003856
P.S. 317 - QUEENS,SANDY: HEAT/FLOOD/ELECTRICAL SYSTEMS/ INTERIOR/NON-SANDY:CLIMATE,CIP,Q225,1-90 BEACH 110 STREET,Queens,40.580928,-73.831836
I.S. 53 - QUEENS,ELECTRICAL UPGRADE,CIP,Q053,10-45 NAMEOKE STREET,Queens,40.603622,-73.74909699999999
P.S. 32 - STATEN ISLAND,WATER INFILTRATION/EXT MASONRY/GYM ROOF,CIP,R032,232 BARLOW AVENUE,Staten Island,40.558966,-74.155517
BROOKLYN TECH HS - K,FY14 RESO A ATHLETIC FIELDS,CIP,K431,490 CLERMONT AVENUE,Brooklyn,40.682986,-73.968852
P.S. 91 - BROOKLYN,LSP REPLACE (2) VACUUM PUMP UNITS,CIP,K091,532 ALBANY AVENUE,Brooklyn,40.661886,-73.93994
P.S. 236 - BRONX,FALLING COPING STONES/EXT MASONRY,CIP,X173,1871 WALTON AVENUE,Bronx,40.848899,-73.90952800000001
P.S. 17 - BROOKLYN,BUILDING FAN REPLACEMENT/ELEC UPGRADE,CIP,K017,208 NORTH 5 STREET,Brooklyn,40.715351,-73.956716
THE BROOKLYN SCHOOL FOR SOCIAL,SCHOOL BASED HEALTH CENTER,CIP,K480,400 IRVING AVENUE,Brooklyn,40.69697,-73.910791
K077 SPED - BROOKLYN,ROOFS/FLOOD/PARAPETS/EXT MASONRY/WINDOWS/LEAD SVC,CIP,K178,2163 DEAN STREET,Brooklyn,40.675024,-73.915778
P.S. 144 - QUEENS,Addition,CAP,Q144,93-02 69 AVENUE,Queens,40.714978,-73.853372
P.S. 152 - BRONX,WINDOWS,CIP,X152,1007 EVERGREEN AVENUE,Bronx,40.824054,-73.880039
I.S. 61 - QUEENS,MASONRY/ROOFS/PARAPETS,CIP,Q061,98-50 50 AVENUE,Queens,40.742668,-73.86330699999999
BERGTRAUM HS - MANHATTAN,SCIENCE LAB UPGRADE/FIRE ALARM SYSTEMS,CIP,M520,411 PEARL STREET,Manhattan,40.711442,-74.000851
P.S. 87 - BRONX,FLOOD ELIMINATION/EXTERIOR MASONRY/WINDOWS/PARAPETS,CIP,X087,1935 BUSSING AVENUE,Bronx,40.895104,-73.845968
3K CENTER @ 92-80 220TH STREET - QUEENS,Lease,CAP,Q442,92-80 220 STREET,Queens,40.723336,-73.736561
I.S. 210 - QUEENS,IPDVS CAMERA INSTALLATION,CIP,Q210,93-11 101 AVENUE,Queens,40.683858,-73.84747
P.S. 58 - STATEN ISLAND,METAL ROOFING,CIP,R058,77 MARSH AVENUE,Staten Island,40.583139,-74.161862
J.H.S. 190 - QUEENS,ROOFS,CIP,Q190,68-17 AUSTIN STREET,Queens,40.722707,-73.851699
P.S. 178 - BRONX,WINDOWS,CIP,X178,850 BAYCHESTER AVENUE,Bronx,40.875894,-73.833863
WILLIAM E. GRADY VOC HS - K,FY16 RESO A CULINARY ARTS ROOM,CIP,K620,25 BRIGHTON 4TH ROAD,Brooklyn,40.582585,-73.963477
HEADQTRS 65 CNTRL ADMIN. - K,LSP AIR COMPRESSOR,CIP,K801,65 COURT STREET,Brooklyn,40.692012,-73.991227
P.S. 288 - BROOKLYN,FY19 RESO A SUPPLEMENTAL COOLING,CIP,K288,2950 WEST 25 STREET,Brooklyn,40.574411,-73.99194
PERFORMING ARTS AND TECH. HS -,FY14 RESO A GYMNASIUM UPGRADE,CIP,K435,400 PENNSYLVANIA AVENUE,Brooklyn,40.667456,-73.894747
PRE-K CENTER @ 108-18 ROOSEVELT AVENUE - QUEENS,Lease,CAP,Q422,108-18 ROOSEVELT AVENUE,Queens,40.750844,-73.858303
P.S. 503 - BROOKLYN,EXTERIOR MASONRY/PARAPETS/ROOFS,CIP,K314,330 59 STREET,Brooklyn,40.642121,-74.018997
FORT HAMILTON HS - K,POOL BOILER,CIP,K490,8301 SHORE ROAD,Brooklyn,40.627835,-74.04004599999999
NEW DORP HS - STATEN ISLAND,ATHLETIC FIELDS,CIP,R436,465 NEW DORP LANE,Staten Island,40.569393,-74.107737
JULIA RICHMAN H.S.,LL 41-16 COMPLIANCE,CIP,M480,317 EAST 67 STREET,Manhattan,40.765359,-73.960059
P.S. 161 - BRONX,FULL ACCESSIBILITY/LOW VOLTAGE ELECTRICAL SYSTEM,CIP,X161,628 TINTON AVENUE,Bronx,40.814916,-73.905518
P.S. 183 - MANHATTAN,FY18 RESO A SCIENCE LAB UPGRADES,CIP,M183,419 EAST 66 STREET,Manhattan,40.763736,-73.95815
I.S. 265 -BROOKLYN,PLANYC BOILER CNVRSN/PLANYC CLIMATE CTRL,CIP,K265,101 PARK AVENUE,Brooklyn,40.696324,-73.97578
P.S. 3 - BRONX,DTERIORATED COPING STONES/PAVED AREA CONCRETE/ROOF,CIP,X003,2100 LAFONTAINE AVE,Bronx,40.849897,-73.892289
P.S. 199 - BRONX,FLOOD ELIMINATION,CIP,X104,1449 SHAKESPEARE AVENUE,Bronx,40.842943,-73.920563
P.S. 246 - BRONX,GYM STANDALONE GYM ANNEX,CIP,X472,2641 GRAND CONCOURSE,Bronx,40.865593,-73.894758
P.S. 176 - QUEENS,FY19 RESO A AUDITORIUM UPGRADE,CIP,Q176,120-45 235 STREET,Queens,40.685492,-73.72998199999999
P.S. 54 - STATEN ISLAND,STANDALONE GYM ANNEX,CIP,R702,1060 WILLOWBROOK ROAD,Staten Island,40.603232,-74.13798100000001
I.S. 88 - BROOKLYN,ELECTRICAL WORK FOR A/C INITIATIVE,CIP,K088,544 7TH AVENUE,Brooklyn,40.660024,-73.987637
P.S. /I.S 295 - QUEENS,FY19 RESO A AUDITORIUM UPGRADE,CIP,Q263,222-14 JAMAICA AVENUE,Queens,40.720619,-73.73199699999999
P.S. 208 - BROOKLYN,"CRACKED MASONRY, DETERIORATED MORTAR/FLOOD/WINDOWS",CIP,K208,4801 AVENUE D,Brooklyn,40.642031,-73.931151
WIILIAMSBURG PREP- BROOKLYN,IP DIGITAL VIDEO SURVEILLANCE SYSTEM,CIP,K650,257 N 6TH STREET,Brooklyn,40.715073,-73.95475400000001
CAMBRIA HEIGHTS ACADEMY - QUEE,LSP DANFOSS RADIATOR STEAM VALVES,CIP,Q799,188-04 91ST AVENUE,Queens,40.711849,-73.77119499999999
P.S. 65 - BRONX,FY16 RESO A AUDITORIUM UPGRADE/EXTERIOR MASONRY/PARAPETS/ROOFING,CIP,X065,677 EAST 141 STREET,Bronx,40.807335,-73.91273100000001
P.S. 21 - BRONX,DETERIORATED RETAINING WALLS,CIP,X021,715 EAST 225 STREET,Bronx,40.887582,-73.85973299999999
J.H.S. 185 - QUEENS,IP DIGITAL VIDEO SURVEILLANCE SYSTEMS,CIP,Q185,147-26 25 DRIVE,Queens,40.775253,-73.819347
P.S. 15 - MANHATTAN,FY17 RESO A IPDVS CAMERA INSTALLATION,CIP,M015,333 EAST 4 STREET,Manhattan,40.721807,-73.979022
X186 SPED - BRONX,PARAPET/FLOOD ELIM/EXT MASONRY/ROOFS,CIP,X136,750 JENNINGS STREET,Bronx,40.83182,-73.898075
P.S. 76 - BRONX,ROOFS/FLOOD ELIMINATION/PARAPETS/EXTERIOR MASONRY,CIP,X076,900 ADEE AVENUE,Bronx,40.869593,-73.86128199999999
P.S. 179 - BRONX,FY17 RESO A SUPPLEMENTAL COOLING,CIP,X040,468 EAST 140 STREET,Bronx,40.809534,-73.919903
UNIVERSITY HEIGHTS HS - BRONX,IP DIGITAL VIDEO SURVEILLANCE SYSTEM,CIP,X470,701 ST ANNS AVENUE,Bronx,40.81825,-73.91103000000001
I.S. 126 - QUEENS,IP DIGITAL VIDEO SURVEILLANCE SYSTEM,CIP,Q126,31-51 21 STREET,Queens,40.766264,-73.930709
P.S. 196 - BROOKLYN,DEFECTIVE FOUNDATION WALLS- WATER INFILTRATION/DEFECTIVE FACADE/ROOFS,CIP,K196,207 BUSHWICK AVENUE,Brooklyn,40.708723,-73.940002
P.S. 229 - QUEENS,ELECTRICAL WORK FOR A/C INITIATIVE/LL26 CODE COMPLIANCE/EXIT SIGN REPLACEMENT,CIP,Q229,67-25 51 ROAD,Queens,40.734294,-73.89755699999999
HS FOR ARTS & TECHNOLOGY - M,FY16 RESO A TERRACE SURFACING AND PAVEMENTS/ROOFS/WINDOWS,CIP,M490,122 AMSTERDAM AVENUE,Manhattan,40.774351,-73.984753
P.S. 57 - BRONX,FY18 RESO A GYMNASIUM UPGRADE,CIP,X057,2111 CROTONA AVENUE,Bronx,40.848472,-73.888561
P.S. 133 - QUEENS,FY15 RESO A PLAYGROUND REDEVELOPMENT,CIP,Q133,248-05 86 AVENUE,Queens,40.731729,-73.71785899999999
CHELSEA VOC HS - MANHATTAN,LOW VOLTAGE ELECTRICAL SYSTEM/ANSUL SYSTEM,CIP,M615,131 AVE OF THE AMERICAS,Manhattan,40.7244,-74.004625
P.S. 48 - BRONX,FULL ACCESSIBILITY,CIP,X048,1290 SPOFFORD AVENUE,Bronx,40.814425,-73.886953
P.S. 124 - BROOKLYN,FY16 RESO A SUPPLEMENTAL COOLING,CIP,K124,515 4TH AVENUE,Brooklyn,40.667545,-73.991046
I.S. 54 - MANHATTAN,MASONRY & GRANITE STEP DEFECTS,CIP,M054,103 WEST 107 STREET,Manhattan,40.800119,-73.962837
MIDDLE SCHOOL FOR ART & PHILOS,PLANYC BOILER CONVERSION/CLIMATE CONTROL,CIP,K252,1084 LENOX ROAD,Brooklyn,40.658295,-73.920109
NEWCOMERS HIGH SCHOOL - Q,RPZ VALVES,CIP,Q450,28-01 41ST AVENUE,Queens,40.751356,-73.937445
P.S. 198 - MANHATTAN,FY17 RESO A SUPPLEMENTAL COOLING,CIP,M198,1700 3RD AVENUE,Manhattan,40.784826,-73.949611
AUGUST MARTIN HS - QUEENS,RENEWAL SCHOOL BASED HEALTH CENTER,CIP,Q400,156-10 BAISLEY BLVD,Queens,40.675633000000005,-73.783342
WORLD JOURNALISM PREPARATORY-Q,FY19 RESO A IPDVS CAMERA INSTALLATION,CIP,Q025,34-65 192 STREET,Queens,40.765133,-73.790083
HOLCOMBE L. RUCKER SCHOOLOF CO,FY16 RESO A AUDITORIUM UPGRADE,CIP,X039,965 LONGWOOD AVENUE,Bronx,40.817512,-73.898212
P.S. 108 - MANHATTAN,PLANYC BOILER/PLANC CLIMATE CTRL/LOW VOLT/KITCHEN,CIP,M108,1615 MADISON AVENUE,Manhattan,40.795146,-73.948368
P.S. 342 (RIVERSIDE CENTER) - MANHATTAN,New,CAP,M342,21 WEST END AVENUE,Manhattan,40.772463,-73.98984399999999
P.S. 124 - QUEENS,PLANYC BOILER CONVERSION/CLIMATE CTRL,CIP,Q124,129-15 150 AVENUE,Queens,40.665058,-73.811701
P.S. 132 - MANHATTAN,REMOVE OIL TANK - FUEL CONVERSION,CIP,M233,601 WEST 183 STREET,Manhattan,40.850592,-73.93304300000001
P.S. 29 - STATEN ISLAND,FY16 RESO A AIR CONDITIONING,CIP,R029,1581 VICTORY BLVD,Staten Island,40.613604,-74.115988
PROGRESS HS - K,ROOFS/WINDOWS/EXTERIOR MASONRY/PARAPETS,CIP,K450,850 GRAND STREET,Brooklyn,40.712184,-73.939722
ISHS @ M837,Lease,CAP,M837,227-243 WEST 61 STREET,Manhattan,40.772007,-73.98747900000001
X811 SPED - BRONX,PROBES-REPAIRS/PARAPETS/ ROOFS/WINDOWS,CIP,X084,1434 LONGFELLOW AVENUE,Bronx,40.830589,-73.887587
P.S. 21 - BRONX,DETERIORATED RETAINING WALLS,CIP,X021,715 EAST 225 STREET,Bronx,40.887582,-73.85973299999999
CASCADES CTR FOR TCHING & LNG,ENY AUDITIORIUM UPGRADE,CIP,M510,198 FORSYTH STREET,Manhattan,40.72252,-73.990728
COAL. SCHOOL FOR SOCIAL CHANGE,FLOOD ELIMINATION/EXTERIOR MASONRY,CIP,M045,2351 1ST AVENUE,Manhattan,40.798884,-73.933319
P.S. 183 - MANHATTAN,FY19 RESO A SUPPLEMENTAL COOLING,CIP,M183,419 EAST 66 STREET,Manhattan,40.763736,-73.95815
QUEENS METROPOLITAN HIGH SCHOO,FY16 RESO A GREEN ROOF,CIP,Q686,91-30 METROPOLITAN AVENUE,Queens,40.711367,-73.856698
P.S. 144 - QUEENS,Addition,CAP,Q144,93-02 69 AVENUE,Queens,40.714978,-73.853372
QUEENS COLLEGIATE SCHOOL - QUE,IPDVS CAMERA INSTALLATION,CIP,Q470,167-01 GOTHIC DRIVE,Queens,40.713218,-73.797237
NEW UTRECHT HS - BROOKLYN,WATER PENETRATION INTO BASEMENT/NATATORIUM RECONST,CIP,K445,1601 80 STREET,Brooklyn,40.613262,-74.003404
P.S. 229 - QUEENS,WINDOWS,CIP,Q229,67-25 51 ROAD,Queens,40.734294,-73.89755699999999
P.S. 36 - BRONX,EXT MASONRY/ROOFS/PARAPETS/WINDOWS/EXT DOORS/FLOOD,CIP,X036,1070 CASTLE HILL AVENUE,Bronx,40.829344,-73.85042800000001
PATHWAYS IN TECHNOLOGY EARLY C,EXTERIOR MASONRY/ROOFS/PARAPETS/WINDOWS/FLOOD ELIMINATION,CIP,K625,150 ALBANY AVENUE,Brooklyn,40.675612,-73.938843
SUSAN E. WAGNER HS ANNEX - STATEN ISLAND,Addition,CAP,R462,1220 MANOR ROAD,Staten Is,40.596624,-74.12433399999999
HEADQTRS 65 CNTRL ADMIN. - K,LSP AIR COMPRESSOR,CIP,K801,65 COURT STREET,Brooklyn,40.692012,-73.991227
P.S. 121 - BRONX,FLOOD ELIMINATION/PARAPETS/EXTERIOR MASONRY/ROOFS,CIP,X121,2750 THROOP AVENUE,Bronx,40.86608,-73.850982
FRANCIS LEWIS HS ANNEX - QUEENS,Demo,CAP,Q434,58-20 UTOPIA PARKWAY,Queens,40.740724,-73.79283000000001
P.S. 205 - QUEENS,BOILER/CLIMATE CTRL/FLOOD/MASONRY/ ROOFS/PARAPETS,CIP,Q205,75-25 BELL BLVD,Queens,40.737678,-73.756791
NYC SCHOOL CONSTRUCTION AUTHOR,CAPITAL PLANNING NEW OFFICE BUILDOUT,CIP,Q998,30-30 THOMSON AVENUE,Queens,40.745042,-73.93619100000001
I.S. 254 - BRONX,FACADE/ROOFS,CIP,X254,2452 WASHINGTON AVENUE,Bronx,40.858815,-73.890232
Q811 SPED - QUEENS,LL 41/16 COMPLIANCE,CIP,Q811,61-25 MARATHON PKWY,Queens,40.756778,-73.729487
FORT HAMILTON HS - K,POOL BOILER,CIP,K490,8301 SHORE ROAD,Brooklyn,40.627835,-74.04004599999999
BRONX INTERNATIONAL - BRONX,TERRA COTTA REPL/FLOOD/ROOFS/WINDOW/INTERIOR SPACE,CIP,X400,1110 BOSTON RD,Bronx,40.827642,-73.904473
P.S. 36 - BRONX,FULL PROGRAM ACCESSIBILITY,CIP,X036,1070 CASTLE HILL AVENUE,Bronx,40.829344,-73.85042800000001
BENJAMIN N. CARDOZO HS - QUEEN,ATHLETIC FIELDS/TCU REMOVAL & PLAYGROUND REDEVELOP,CIP,Q415,57-00 223 STREET,Queens,40.752333,-73.75599
I.S. 371 - BRONX,EXTERIOR MASONRY,CIP,X192,650 HOLLYWOOD AVENUE,Bronx,40.826526,-73.81841700000001
I.S. 227 - BROOKLYN,WATER PENETRATION/ROOFS/EXT MASONRY/PARAPETS,CIP,K227,6500 16 AVENUE,Brooklyn,40.62191,-73.99502199999999
P.S. 303 - QUEENS,Addition,CAP,Q003,108-55 69TH AVENUE,Queens,40.725098,-73.845091
P.S. 375 - BROOKLYN,PLANYC CLIMATE CONTROL/PLANYC BOILER CONVERSION,CIP,K320,46 MCKEEVER PLACE,Brooklyn,40.665035,-73.95903100000001
I.S. 220 - BROOKLYN,FY18 RESO A AUDITORIUM  UPGRADE,CIP,K220,4812 9TH AVENUE,Brooklyn,40.640545,-74.000731
P.S. 184 - MANHATTAN,PLAYGROUNDS,CIP,M137,327 CHERRY STREET,Manhattan,40.711549,-73.986542
PORT RICHMOND HS - R,TCU REMOVAL/MASONRY/ROOFS/PARAPETS/FLOOD ELIM,CIP,R445,85 ST JOSEPHS AVENUE,Staten Island,40.634573,-74.141818
P.S. 41 - QUEENS,FY17 RESO A ELECTRICAL SYSTEMS,CIP,Q041,214-43 35 AVENUE,Queens,40.769601,-73.770863
PRE-K CENTER @ 104-04 CORONA AVENUE - QUEENS,New,CAP,Q373,104-04 CORONA AVENUE,Queens,40.744001,-73.85840400000001
I.S. 24 - STATEN ISLAND,FY15 RESO A AUDITORIUM UPGRADE/PARTIAL ACCESSIBILITY,CIP,R024,225 CLEVELAND AVENUE,Staten Island,40.545281,-74.14631999999999
Q811 SPED - QUEENS,PLANYC BOILER CONVERSION/PLANYC CLIMATE CONTROL,CIP,Q811,61-25 MARATHON PKWY,Queens,40.756778,-73.729487
P.S. 3 - BROOKLYN,ELECTRICAL WORK FOR A/C INITIATIVE,CIP,K003,50 JEFFERSON AVENUE,Brooklyn,40.682663,-73.955338
P.S. 312 - BROOKLYN,FY19 RESO A AUDITORIUM UPGRADE,CIP,K312,7103 AVENUE T,Brooklyn,40.621413,-73.908987
P.S. 107 - BROOKLYN,EXTERIOR MASONRY/ROOFS/PARAPETS,CIP,K107,1301 8TH AVENUE,Brooklyn,40.663251,-73.981289
NEW UTRECHT HS - BROOKLYN,WATER PENETRATION INTO BASEMENT/NATATORIUM RECONSTRUCTION,CIP,K445,1601 80 STREET,Brooklyn,40.613262,-74.003404
P.S. 50 - MANHATTAN,EXTERIOR MASONRY/ROOFS/PARAPETS/SITE WALLS,CIP,M050,433 EAST 100 STREET,Manhattan,40.785258,-73.941526
M.S. 354 - BROOKLYN,PLANYC BOILER CONVERSION/PLANYC CLIMATE CONTROL,CIP,K390,1224 PARK PLACE,Brooklyn,40.672713,-73.936924
P.S. 130 - MANHATTAN,STRUCTURAL DEFICIENCIES,CIP,M130,143 BAXTER STREET,Manhattan,40.718903000000005,-73.99843800000001
I.S. 484 - BROOKLYN,FY18 RESO A SCIENCE LAB UPGRADES,CIP,K012,430 HOWARD AVE,Brooklyn,40.673073,-73.91959399999999
P.S. 14 - QUEENS,FY19 RESO A AUDITORIUM UPGRADE,CIP,Q014,107-01 OTIS AVENUE,Queens,40.74056,-73.85413100000001
CURTIS HS - STATEN ISLAND,BRIDGE & REPAIR WK/PARAPETS/WASTE SYS/WINDOWS/ROOF,CIP,R450,105 HAMILTON AVENUE,Staten Island,40.644735,-74.081222
P.S. 254 - QUEENS,ROOF/PARAPETS/EXT MASONRY/PAVED AREA CONCRETE,CIP,Q254,84-40 101ST STREET,Queens,40.697961,-73.84796
I.S. 136 - BROOKLYN,RPZ VALVES/LOW VOLTAGE ELEC SYSTEM,CIP,K136,4004 4TH AVENUE,Brooklyn,40.651977,-74.006862
HERBERT H. LEHMAN HS - X,IP DIGITAL VIDEO SURVEILLANCE SYSTEM,CIP,X405,3000 EAST TREMONT AVENUE,Bronx,40.840702,-73.838545
P.S. 36 - QUEENS,PLANYC CLIMATE CTRL/PLANYC BOILER CONVERSION,CIP,Q036,187-01 FOCH BLVD,Queens,40.690828,-73.76390699999999
FOREST HILLS HS - QUEENS,HAZARDOUS VIOLATION- FACADE/EXTERIOR DOORS,CIP,Q440,67-01 110 STREET,Queens,40.729402,-73.845637
BRONX HS OF SCIENCE - X,IPDVS CAMERA INSTALLATION,CIP,X445,75 W 205 STREET,Bronx,40.877590000000005,-73.89104
P.S. 282 - BROOKLYN,ELECTRICAL WORK FOR A/C INITIATIVE/LSP LL26 CODE COMPLIANCE/EXIT SIGN REPLACEMENT,CIP,K282,180 6TH AVENUE,Brooklyn,40.67634,-73.977367
STATEN ISLAND TECHNICAL HS - R,FLOOD ELIMINATION/EXTERIOR MASONRY/PARAPETS,CIP,R440,485 CLAWSON STREET,Staten Island,40.567873,-74.11537299999999
P.S. 139 - QUEENS,LSP PLAYGROUND SAFETY SURFACING,CIP,Q139,93-06 63 DRIVE,Queens,40.72814,-73.863582
P.S. 197 - BROOKLYN,EXT MASONRY/PARAPETS/ROOFS/WINDOWS/FLOOD/PIPING,CIP,K197,1599 EAST 22 STREET,Brooklyn,40.612623,-73.95190600000001
P.S. 219 - QUEENS,FY11 RESO A SUPPLEMENTAL COOLING,CIP,Q219,144-39 GRAVETT ROAD,Queens,40.735275,-73.823778
I.S. 34 - STATEN ISLAND,FULL PROGRAM ACCESSIBILITY/FIRE ALARM SYSTEM,CIP,R034,528 ACADEMY AVE,Staten Island,40.508284,-74.24342800000001
3K CENTER @ 104-06 101 AVENUE - QUEENS,Lease,CAP,Q474,104-06 101 AVENUE,Queens,40.686281,-73.838882
P.S. 114 - QUEENS,SANDY:INT/HEATING/ELEC/FLOOD/CLIM/PLAYGRND/PIPING,CIP,Q114,134-01 CRONSTON AVE,Queens,40.578261,-73.854403
Q811 SPED - QUEENS,LL 41/16 COMPLIANCE,CIP,Q811,61-25 MARATHON PKWY,Queens,40.756778,-73.729487
P.S. 297 - BROOKLYN,FY19 RESO A AUDITORIUM UPGRADE,CIP,K297,700 PARK AVENUE,Brooklyn,40.697781,-73.94780899999999
P.S. 69 - QUEENS,DEFECTIVE CHIMNEY MASONRY/FLOOD/ROOFS/FLOORING,CIP,Q069,77-02 37 AVENUE,Queens,40.749266,-73.888817
P.S. 230 - BROOKLYN,ELECTRICAL WORK FOR A/C INITIATIVE,CIP,K230,1 ALBEMARLE ROAD,Brooklyn,40.645017,-73.980761
K753 SPED - BROOKLYN,PLANYC BOILER CNVRSN/PLANYC CLIMATE CTRL,CIP,K085,510 CLERMONT AVENUE,Brooklyn,40.682533,-73.968769
FIORELLO LAGUARDIA HS - MANHAT,IPDVS CAMERA INSTALLATION,CIP,M485,100 AMSTERDAM AVENUE,Manhattan,40.773629,-73.98527299999999
P.S. 33 - BRONX,PLANYC BOILER CNVSN/PLANYC CLIMATE CTRL,CIP,X033,2424 JEROME AVENUE,Bronx,40.86185,-73.90176
P.S. 19 ADDITION,Addition,CAP,Q019,98-02 ROOSEVELT AVENUE,Queens,40.749381,-73.867354
P.S. 198 - BROOKLYN,LSP REPLACE STEAM TRAPS,CIP,K198,4105 FARRAGUT ROAD,Brooklyn,40.63694,-73.937339
P.S. 12 - QUEENS,BOILER REPLACE/ELEC SWITCH UPG/PLANYC CLIMATE CTRL,CIP,Q012,42-00 72 STREET,Queens,40.742633000000005,-73.89280500000001
MOTT HALL CHARTER SCHOOL,LOW VOLTAGE ELECTRICAL SYSTEM,CIP,X862,1260 FRANKLIN AVENUE,Bronx,40.830995,-73.90270500000001
P.S. 214 - BRONX,EXTERIOR MASONRY/ROOFS,CIP,X167,1970 WEST FARMS ROAD,Bronx,40.839565,-73.880358
P.S. 153 - QUEENS,CRACKED LOOSE WINDOW SILLS/ROOFS/PARAPETS/MASONRY,CIP,Q153,60-02 60 LANE,Queens,40.716609000000005,-73.903669
P.S. 99 - QUEENS,WATER PENETRATION/PARAPETS,CIP,Q099,82-37 KEW GARDENS ROAD,Queens,40.711419,-73.82862800000001
PRE-K CENTER @ JACKSON AVENUE - QUEENS,Lease,CAP,Q972,27-35 JACKSON AVENUE,Queens,40.747962,-73.940046
EDUCATIONAL CAMPUS @ 500 19TH,Lease,CAP,K280,500 19TH STREET,Brooklyn,40.656944,-73.983115
P.S. 108 - MANHATTAN,PLANYC BOILER/PLANC CLIMATE CTRL/LOW VOLT/KITCHEN,CIP,M108,1615 MADISON AVENUE,Manhattan,40.795146,-73.948368
FIORELLO LAGUARDIA HS - MANHAT,PARTIAL ACCESSIBILITY,CIP,M485,100 AMSTERDAM AVENUE,Manhattan,40.773629,-73.98527299999999
EDUCATIONAL CAMPUS @ 500 19TH STREET - BROOKLYN,Lease,CAP,K280,500 19TH STREET,Brooklyn,40.656944,-73.983115
P.S. 131 - BROOKLYN,WATER PENETRATION THROUGH EXTERIOR/FLOOD ELIMINATION/PARAPETS/ROOFS,CIP,K131,4305 FT HAMILTON PKWY,Brooklyn,40.641157,-73.993482
P.S. 105 - BROOKLYN,EXT MASONRY/FLOOD ELIMINATION/ROOFS,CIP,K105,1031 59 STREET,Brooklyn,40.632936,-74.00374000000001
I.S. 53 - QUEENS,CONCRETE/FLOOD/PARAPETS/ ROOFS/WINDOWS/C OF O,CIP,Q053,10-45 NAMEOKE STREET,Queens,40.603622,-73.74909699999999
BROOKLYN ACADEMY HS - BROOKLYN,PARAPETS/EXTERIOR MASONRY/ROOFS,CIP,K458,832 MARCY AVENUE,Brooklyn,40.685004,-73.947152
P.S. 312 - BROOKLYN,WATER PENETRATION,CIP,K312,7103 AVENUE T,Brooklyn,40.621413,-73.908987
P.S. 206 - QUEENS,EARLY PACKAGE TO RENOVATE ECC PLAYGROUND,CIP,Q206,61-21 97TH PLACE,Queens,40.73425,-73.86154599999999
K077 SPED - BROOKLYN,ROOFS/FLOOD/PARAPETS/EXT MASONRY/WINDOWS/LEAD SVC,CIP,K178,2163 DEAN STREET,Brooklyn,40.675024,-73.915778
P.S. 24 - QUEENS,Addition,CAP,Q024,45-57 UNION STREET,Queens,40.75207,-73.818789
J.H.S. 72 - QUEENS,FY17 RESO A LIBRARY UPGRADES,CIP,Q072,133-25 GUY R BREWER BOULEVARD,Queens,40.673769,-73.775951
P.S. 74 - STATEN ISLAND,FY18 RESO A ROOM CONVERSIONS/PARTITIONING,CIP,R831,211 DANIEL LOW TERRACE,Staten Island,40.639087,-74.079922
A-TECH HIGH SCHOOL - K,FLOOD ELIMINATION/ROOFS/PARAPETS/WINDOWS/EXTERIOR MASONRY,CIP,K610,50 BEDFORD AVENUE,Brooklyn,40.721981,-73.953281
P.S. 176 - QUEENS,Addition,CAP,Q176,120-45 235 STREET,Queens,40.685492,-73.72998199999999
I.S. 343 - BRONX,FY16 RESO A SUPPLEMENTAL COOLING,CIP,X139,345 BROOK AVENUE,Bronx,40.81004,-73.917792
I.S. 239 - BROOKLYN,SANDY:INTERIOR/CONCRETE/HEAT/ELEC/FLOOD/FA,CIP,K239,2401 NEPTUNE AVENUE,Brooklyn,40.578188,-73.99203
UNIVERSITY HEIGHTS HS - BRONX,IP DIGITAL VIDEO SURVEILLANCE SYSTEM,CIP,X470,701 ST ANNS AVENUE,Bronx,40.81825,-73.91103000000001
P.S. 43 - QUEENS,SANDY- ELEVATOR REPAIR,CIP,Q043,160 BEACH 29TH STREET,Queens,40.593834,-73.76174
P.S. 123 - MANHATTAN,FLOOD ELIMINATION,CIP,M123,301 WEST 140 STREET,Manhattan,40.819767,-73.94443299999999
I.S. 75 - STATEN ISLAND,IP DIGITAL VIDEO SURVEILLANCE SYSTEM,CIP,R075,455 HUGUENOT AVENUE,Staten Island,40.54438,-74.197897
FORT HAMILTON HS - K,FY14 RESO A AUDITORIUM UPGRADE,CIP,K490,8301 SHORE ROAD,Brooklyn,40.627835,-74.04004599999999
I.S. 340 - BROOKLYN,EXTERIOR MASONRY/FLOOD ELIMINATION,CIP,K874,227 STERLING PLACE,Brooklyn,40.676094,-73.97038
P.S. 123 - QUEENS,TCU REMOVAL & PLAYGROUND REDEVELOPMENT,CIP,Q123,145-01 119 AVENUE,Queens,40.678296,-73.79562
P.S./I.S. 338 - BROOKLYN,New,CAP,K338,510 CONEY ISLAND AVE,Brooklyn,40.645199,-73.97052
JAMES MADISON HS - BROOKLYN,SWIMMING POOL,CIP,K425,3787 BEDFORD AVENUE,Brooklyn,40.609912,-73.948512
BROOKLYN COLLEGIATE: A COLLEGE,LSP CONDENSATE PUMP,CIP,K055,2021 BERGEN STREET,Brooklyn,40.674103,-73.913273
J.H.S. 216 - QUEENS,ELECTRICAL WORK FOR A/C INITIATIVE/LSP LL26 CODE COMPLIANCE/EXIT SIGN REPLACEMENT,CIP,Q216,64-20 175 STREET,Queens,40.737517,-73.794031
I.S. 12 - MANHATTAN,GYM CEILING,CIP,M117,240 EAST 109 STREET,Manhattan,40.79307,-73.94230300000001
P.S. 284 - BROOKLYN,LOW VOLTAGE ELECTRICAL SYSTEM/WATER PENETRATION,CIP,K284,213 OSBORN STREET,Brooklyn,40.667377,-73.908214
I.S. 187 - BROOKLYN,FY17 RESO A ROOM CONVERSIONS/PARTITIONING,CIP,K486,1171 65 STREET,Brooklyn,40.627784000000005,-74.004485
I.S. 24 - STATEN ISLAND,FY18 RESO A SCIENCE LAB UPGRADES,CIP,R024,225 CLEVELAND AVENUE,Staten Island,40.545281,-74.14631999999999
NEW EXPLORATIONS - M,PLAYGROUND UPGRADE,CIP,M022,111 COLUMBIA STREET,Manhattan,40.718895,-73.97930799999999
I.S. 14 - BROOKLYN,WATER PENETRATION/PLANYC BOILER/PLANYC CLIMATE,CIP,K014,2424 BATCHELDER STREET,Brooklyn,40.593521,-73.93767199999999
FREDERICK DOUGLASS ACADEMY VI,MASONRY/ROOFS/WINDOWS/PARAPETS/NATATORIUM STRUCTURAL REPAIRS,CIP,Q465,8-21 BAY 25 STREET,Queens,40.60201,-73.762795
P.S. 92 - BROOKLYN,NYS IPDVS CAMERAS,CIP,K092,601 PARKSIDE AVENUE,Brooklyn,40.656046,-73.953742
P.S. 128 - QUEENS,Addition,CAP,Q247,69-10 65TH DRIVE,Queens,40.715344,-73.886215
K053 SPED - BROOKLYN,IPDVS CAMERA INSTALLATION,CIP,K296,125 COVERT STREET,Brooklyn,40.688387,-73.910276
P.S. 109 - BROOKLYN,DEFECTIVE GYMNASIUM WALLS/ROOFS/PARAPETS,CIP,K395,1001 EAST 45 STREET,Brooklyn,40.636455,-73.933582
I.S. 75 - STATEN ISLAND,CHILLER REPLACEMENT,CIP,R075,455 HUGUENOT AVENUE,Staten Island,40.54438,-74.197897
P.S. @ 357 TARGEE STREET - STATEN ISLAND,Demo,CAP,R070,357 TARGEE STREET,Staten Is,40.618679,-74.084846
P.S. 171 - MANHATTAN,FLOOD ELIM/WINDOWS/EXT MASONRY/HEATING PLANT UPG,CIP,M171,19 EAST 103 STREET,Manhattan,40.792122,-73.951961
P.S. 176 - QUEENS,Addition,CAP,Q176,120-45 235 STREET,Queens,40.685492,-73.72998199999999
I.S. 204 - QUEENS,LSP GYM ACOUSTICAL CEILING TILE REPLACEMENT,CIP,Q204,36-41 28 STREET,Queens,40.757065,-73.932664
P.S. 377 - BROOKLYN,LL 41-16 COMPLIANCE,CIP,K377,200 WOODBINE STREET,Brooklyn,40.694018,-73.915263
BRONX HS FOR THE VISUAL ARTS -,COMPLETION OF PHASE II MERCY COLLEGE,CIP,X839,2040 ANTIN PLACE,Bronx,40.851405,-73.865036
I.S. 145 - QUEENS,PLANYC BOILER CNVRSN/PLANYC CLIMATE CTRL,CIP,Q145,33-34 80 STREET,Queens,40.754661,-73.887112
P.S. 183 - MANHATTAN,PLANYC BOILER/PLANYC CLIMATE CONTROL/VENTILATION,CIP,M183,419 EAST 66 STREET,Manhattan,40.763736,-73.95815
P.S. 136 - QUEENS,FY18 RESO A AUDITORIUM  UPGRADE,CIP,Q136,201-15 115 AVENUE,Queens,40.698279,-73.752654
JAMES MADISON HS - BROOKLYN,SWIMMING POOL,CIP,K425,3787 BEDFORD AVENUE,Brooklyn,40.609912,-73.948512
P.S. 132 - MANHATTAN,IRON FENCE & HANDRAILS/WATER INFILTRATION/BOILER,CIP,M132,185 WADSWORTH AVENUE,Manhattan,40.850626,-73.934377
FORT HAMILTON HS - K,IP DIGITAL VIDEO SURVEILLANCE SYSTEM,CIP,K490,8301 SHORE ROAD,Brooklyn,40.627898,-74.039985
PRE-K CENTER @ 2 LAFAYETTE STREET - MANHATTAN,Interior,CAP,M453,2 LAFAYETTE STREET,Manhattan,40.713723,-74.003586
P.S. 138 - QUEENS,ELECTRICAL WORK FOR A/C INITIATIVE/LL26 CODE COMPLIANCE/EXIT SIGN REPLACEMENT,CIP,Q138,251-11 WELLER AVENUE,Queens,40.659728,-73.735176
P.S. 219 - BROOKLYN,WATER INFILTRATION/ROOFS/EXT MASONRY/PARAPETS,CIP,K219,1060 CLARKSON AVENUE,Brooklyn,40.659288,-73.922919
MURRAY HILL ACADEMY HS - M,IP DIGITAL VIDEO SURVEILLANCE SYSTEM,CIP,M620,111 EAST 33 STREET,Manhattan,40.746176,-73.981241
P.S. 132 - MANHATTAN,FUEL OIL TANK REPLACEMENT,CIP,M233,601 WEST 183 STREET,Manhattan,40.850592,-73.93304300000001
I.S. 117 - BRONX,SCIENCE LAB UPGRADES/SCIENCE LAB UPGRADES,CIP,X117,1865 MORRIS AVENUE,Bronx,40.848547,-73.908416
P.S. 193 - BROOKLYN,FY18 RESO A AUDITORIUM  UPGRADE,CIP,K193,2515 AVENUE L,Brooklyn,40.621507,-73.950473
P.S. 196 - BROOKLYN,DEFECTIVE FOUNDATION WALLS- WATER INFILTRATION/DEFECTIVE FACADE/ROOFS,CIP,K196,207 BUSHWICK AVENUE,Brooklyn,40.708723,-73.940002
Q009 SPED - QUEENS,EXT MSNRY/PARAPET/FLOOD/ ACCESSIBILITY/FIRE ALARM,CIP,Q009,58-74 57 STREET,Queens,40.718935,-73.91220799999999
P.S. 175 - BRONX,LSP LL26 CODE COMPLIANCE/EXIT SIGN REPLACEMENT,CIP,X175,200 CITY ISLAND AVENUE,Bronx,40.843873,-73.785219
I.S. 145 - BRONX,REPAIR SINK HOLE,CIP,X145,1000 TELLER AVENUE,Bronx,40.827941,-73.914374
BERGTRAUM HS - MANHATTAN,IPDVS CAMERA INSTALLATION,CIP,M520,411 PEARL STREET,Manhattan,40.711442,-74.000851
JOHN BOWNE HS - QUEENS,EXTERIOR MASONRY/ROOFS,CIP,Q425,63-25 MAIN STREET,Queens,40.738139,-73.82494399999999
P.S. 200 - QUEENS,FY18 RESO A AUDITORIUM  UPGRADE,CIP,Q200,70-10 164 STREET,Queens,40.731369,-73.805116
P.S. 87 - MANHATTAN,WINDOWS/RPZ BACKFLOW PREVENTION DEVICES/PLANYC BOILER CONVERSION/PLANYC CLIMATE CONTROL/ROOFS/PARAPETS/EXTERIOR MASONRY/EXTERIOR DOORS,CIP,M087,160 WEST 78 STREET,Manhattan,40.781958,-73.977638
P.S. 131 - QUEENS,Addition,CAP,Q131,170-45 84TH AVENUE,Queens,40.716617,-73.794637
PRE-K CENTER @ 98-22 55 AVENUE - QUEENS,Lease,CAP,Q437,98-22 55 AVENUE,Queens,40.739192,-73.862261
P.S. 230 - BROOKLYN,ELECTRICAL WORK FOR A/C INITIATIVE,CIP,K230,1 ALBEMARLE ROAD,Brooklyn,40.645017,-73.980761
P.S. 219 - BROOKLYN,BOILER REPLACEMENT,CIP,K860,9517 KINGS HIGHWAY,Brooklyn,40.65911,-73.92036800000001
I.S. 187 - BROOKLYN,LSP REPLACE VACUUM CONDENSATE PUMP AND STEAM TRAPS,CIP,K486,1171 65 STREET,Brooklyn,40.627784000000005,-74.004485
THE RIVERSIDE SCHOOL FOR MAKER,FY17 RESO A LIBRARY UPGRADE,CIP,M191,210 WEST 61 STREET,Manhattan,40.771925,-73.987328
P.S. 13 - QUEENS,ELECTRICAL WORK FOR A/C INITIATIVE,CIP,Q013,55-01 94TH STREET,Queens,40.737613,-73.86851
P.S. 078 - STATEN ISLAND,FY18 RESO A AUDITORIUM  UPGRADE,CIP,R014,100 TOMPKINS AVENUE,Staten Island,40.622455,-74.078508
P.S. 175 - QUEENS,ELECTRICAL WORK FOR A/C INITIATIVE/LL26 CODE COMPLIANCE/EXIT SIGN REPLACEMENT,CIP,Q175,64-35 102 STREET,Queens,40.730941,-73.853164
WILLIAM C. BRYANT HS - QUEENS,ELECTRICAL WORK FOR A/C INITIATIVE/LL26 CODE COMPLIANCE/EXIT SIGN REPLACEMENT,CIP,Q445,48-10 31 AVENUE,Queens,40.75823,-73.910514
CURTIS HS - STATEN ISLAND,LSP- BOILER FEED WATER TANK REPLACEMENT,CIP,R450,105 HAMILTON AVENUE,Staten Island,40.644735,-74.081222
I.S. 187 - BROOKLYN,FY17 RESO A ROOM CONVERSIONS/PARTITIONING,CIP,K486,1171 65 STREET,Brooklyn,40.627784000000005,-74.004485
PRE-K CENTER @ 32-52 37TH STREET - QUEENS,Lease,CAP,Q397,32-52 37TH STREET,Queens,40.759308,-73.920948
P.S. 1 - STATEN ISLAND,EXTERIOR MASONRY/PARAPETS/ROOFS/WINDOWS,CIP,R001,58 SUMMIT STREET,Staten Island,40.509037,-74.244118
P.S. 45 - BROOKLYN,LSP VACUUM PUMPS,CIP,K045,84 SCHAEFER STREET,Brooklyn,40.686746,-73.91069300000001
P.S. 75 - MANHATTAN,PLAYNYC BOILER CONVERSION/CLIMATE CONTROL,CIP,M075,735 WEST END AVENUE,Manhattan,40.795157,-73.973292
P.S. 6 - BRONX,STANDALONE GYM ANNEX,CIP,X449,1000 EAST TREMONT AVENUE,Bronx,40.840755,-73.88170699999999
P.S. 123 - QUEENS,TCU REMOVAL & PLAYGROUND REDEVELOPMENT,CIP,Q123,145-01 119 AVENUE,Queens,40.678296,-73.79562
MONROE ACAD FOR VISUAL ARTS -,EXTERIOR MASONRY/FLOOD ELIMINATION/PARAPETS/ROOFS/WINDOWS,CIP,X420,1300 BOYNTON AVENUE,Bronx,40.831601,-73.878912
P.S. 66 - BRONX,RENEWAL SCHOOL BASED HEALTH CENTER,CIP,X066,1001 JENNINGS STREET,Bronx,40.831165000000006,-73.88709399999999
I.S. 61 - QUEENS,MASONRY/ROOFS/PARAPETS,CIP,Q061,98-50 50 AVENUE,Queens,40.742668,-73.86330699999999
I.S. 232 - BRONX,LSP ELECTRICAL PANEL REPLACEMENT,CIP,X082,1700 MACOMBS ROAD,Bronx,40.849532,-73.916077
P.S. 229 - QUEENS,WINDOWS,CIP,Q229,67-25 51 ROAD,Queens,40.734294,-73.89755699999999
P.S. 81 - BRONX,WINDOW/ROOFS/EXT MASONRY/FLOOD,CIP,X081,5550 RIVERDALE AVENUE,Bronx,40.903553,-73.905229
MURRAY HILL ACADEMY HS - M,IP DIGITAL VIDEO SURVEILLANCE SYSTEM,CIP,M620,111 EAST 33 STREET,Manhattan,40.746176,-73.981241
QUEENS COLLEGIATE SCHOOL - QUE,TENNIS COURT SURFACE,CIP,Q470,167-01 GOTHIC DRIVE,Queens,40.713218,-73.797237
P.S. 64 - MANHATTAN,FY18 RESO A GYMNASIUM UPGRADE,CIP,M064,600 EAST 6 STREET,Manhattan,40.724435,-73.981521
I.S. 5 - QUEENS,LSP VACUUM/CONDENSATE PUMP SYSTEM REPLACEMENT,CIP,Q005,50-40 JACOBUS STREET,Queens,40.737718,-73.887429
YOUNG SCHOLAR'S ACADEMY - BROO,STRUCTURAL DEFECTS/EXT MASONRY,CIP,K304,280 HART STREET,Brooklyn,40.694086,-73.940744
NEW MILLENNIUM BRONX ACADEMY O,ELECTRICAL WORK FOR A/C INITIATIVE/LSP LL26 CODE COMPLIANCE/EXIT SIGN REPLACEMENT,CIP,X145,1000 TELLER AVENUE,Bronx,40.827941,-73.914374
P.S. 19 - BRONX,Addition,CAP,X019,4318 KATONAH AVENUE,Bronx,40.899295,-73.8675
I.S. 35 - BROOKLYN,FULL PROGRAM ACCESSIBILITY,CIP,K035,272 MACDONOUGH STREET,Brooklyn,40.681896,-73.935963
P.S. 315 - BROOKLYN,LOW VOLTAGE ELECTRICAL SYSTEM,CIP,K152,725 EAST 23 STREET,Brooklyn,40.632562,-73.954724
FORT HAMILTON HS - K,POOL BOILER,CIP,K490,8301 SHORE ROAD,Brooklyn,40.627898,-74.039985
PRE-K CENTER @ 606 WEST 57TH STREET - MANHATTAN,Lease,CAP,M444,606 WEST 57TH STREET,Manhattan,40.770531,-73.991945
P.S. 335 - QUEENS,New,CAP,Q335,150-15 RALEIGH STREET,Queens,40.668127,-73.837189
ESSEX STREET ACADEMY - MANHATT,FY17 RESO A BOYS LOCKER ROOM UPGRADE,CIP,M445,350 GRAND STREET,Manhattan,40.716778000000005,-73.989337
P.S. 11 - MANHATTAN,EXTERIOR MASONRY/PARAPETS,CIP,M011,320 WEST 21 STREET,Manhattan,40.744349,-74.000253
P.S. 37 - QUEENS,PLANYC BOILER CONVERSION/PLANYC CLIMATE CONTROL,CIP,Q037,179-37 137 AVENUE,Queens,40.67588,-73.758505
ACADEMY OF AMERICAN STUDIES - QUEENS,New,CAP,Q575,28-01 41ST AVENUE,Queens,40.751356,-73.937445
P.S. 26 - QUEENS,PLANYC BOILER CONVERSION/PLANYC CLIMATE CONTROL,CIP,Q026,195-02 69 AVENUE,Queens,40.736922,-73.77799
I.S. 144 - BRONX,PLANYC BOILER CONVERSION/CLIMATE CONTROL,CIP,X144,2545 GUNTHER AVENUE,Bronx,40.863735,-73.83606999999999
BARD COLLEGE HS - MANHATTAN,FY18 RESO A AUDITORIUM  UPGRADE,CIP,M097,525 EAST HOUSTON STREET,Manhattan,40.719029,-73.975891
P.S. 107 - BROOKLYN,EXTERIOR MASONRY/ROOFS/PARAPETS,CIP,K107,1301 8TH AVENUE,Brooklyn,40.663251,-73.981289
J.H.S. 216 - QUEENS,PLANYC BOILER CNVRSN/PLANYC CLIMATE CTRL,CIP,Q216,64-20 175 STREET,Queens,40.737517,-73.794031
P.S. 32 - BRONX,EXTERIOR MASONRY/WINDOWS/PARAPETS,CIP,X032,690 EAST 183 STREET,Bronx,40.852103,-73.885935
P.S. 238 - BROOKLYN,EXTERIOR MASONRY/PARAPETS,CIP,K238,1633 EAST 8 STREET,Brooklyn,40.608862,-73.965058
P.S. 230 - BRONX,SEWAGE LEAK/FIRE SYS SPRINKLER/CRACKED CONCRETE/FA,CIP,X229,275 HARLEM RIVER PARK BRIDGE,Bronx,40.852536,-73.921467
P.S. 29 - BRONX,ROOFS/FLOOD ELIMINATION/EXT MASONRY/PARAPETS,CIP,X029,758 COURTLANDT AVENUE,Bronx,40.821515000000005,-73.91727900000001
G. WASHINGTON CARVER HS FOR SC,IPDVS CAMERA INSTALLATION,CIP,Q420,143-10 SPRINGFIELD BLVD,Queens,40.668235,-73.756839
NEW UTRECHT HS - BROOKLYN,WATER PENETRATION,CIP,K445,1601 80 STREET,Brooklyn,40.613262,-74.003404
P.S. 215 - BROOKLYN,LSP REPLACE PVI DOMESTIC WATER HEATER,CIP,K215,415 AVENUE S,Brooklyn,40.602084000000005,-73.970013
HILLCREST HS - QUEENS,ELECTRICAL WORK FOR A/C INITIATIVE,CIP,Q505,160-05 HIGHLAND AVENUE,Queens,40.709446,-73.80166
P.S. 234 - QUEENS,IP DIGITAL VIDEO SURVEILLANCE SYSTEM,CIP,Q234,30-15 29TH STREET,Queens,40.767305,-73.92324599999999
I.S. 522 - BROOKLYN,PLANYC BOILER CONVERSION/PLANYC CLIMATE CONTROL,CIP,K271,1137 HERKIMER STREET,Brooklyn,40.677805,-73.91584300000001
P.S. 146 - QUEENS,TCU REMOVAL/PLAYGROUND REDEVELOPMENT/PATH OF TRAVEL TCU REMOVAL / PLAYGROUND REDEVELOPMENT,CIP,Q146,98-01 159 AVENUE,Queens,40.659873,-73.835068
MONROE ACAD FOR VISUAL ARTS -,IP DIGITAL VIDEO SURVEILLANCE SYSTEM,CIP,X420,1300 BOYNTON AVENUE,Bronx,40.831601,-73.878912
P.S. 206 - MANHATTAN,FY17 RESO A AUDITORIUM UPGRADE,CIP,M206,508 EAST 120 STREET,Manhattan,40.797467,-73.930868
P.S. 75 - MANHATTAN,PLAYNYC BOILER CONVERSION/CLIMATE CONTROL,CIP,M075,735 WEST END AVENUE,Manhattan,40.795157,-73.973292
P.S. 33 ANNEX - BRONX,New,CAP,X347,2424 JEROME AVENUE,Bronx,40.86185,-73.90176
P.S. 64 - QUEENS,PLANYC BOILER CONVERSION/PLANYC CLIMATE CONTROL/FIRE ALARM SYSTEMS,CIP,Q064,82-01 101 AVENUE,Queens,40.681172,-73.85691800000001
P.S. 46 - BRONX,Demo,CAP,X046,279 EAST 196 STREET,Bronx,40.866827,-73.890725
J.H.S. 72 - QUEENS,SCIENCE LAB UPGRADES,CIP,Q072,133-25 GUY R BREWER BOULEVARD,Queens,40.673769,-73.775951
P.S. 131 - BROOKLYN,WATER PENETRATION/FLOOD/PARAPETS/ROOFS,CIP,K131,4305 FT HAMILTON PKWY,Brooklyn,40.641157,-73.993482
P.S. 132 - QUEENS,EXTERIOR MASONRY/ROOFS/PARAPETS/FLOOD ELIMINATION,CIP,Q132,132-15 218 STREET,Queens,40.682114,-73.74991999999999
I.S. 218 - BROOKLYN,WATER PENETRATION/EXT MASONRY,CIP,K218,370 FOUNTAIN AVENUE,Brooklyn,40.670724,-73.874208
P.S. 312 - BROOKLYN,WATER PENETRATION,CIP,K312,7103 AVENUE T,Brooklyn,40.621413,-73.908987
P.S. 333 - MANHATTAN,EXTERIOR MASONRY/ROOFS/PARAPETS,CIP,M118,154 WEST 93 STREET,Manhattan,40.791728000000006,-73.970845
P.S. 1 - MANHATTAN,FLOOD ELIMINATION/WINDOWS/EXTERIOR MASONRY/ROOF,CIP,M001,8 HENRY STREET,Manhattan,40.71276,-73.997489
BROOKLYN HS OF THE ARTS - BROO,DAMAGED EXTERIOR WALLS/ROOFS,CIP,K655,345 DEAN STREET,Brooklyn,40.683559,-73.98026999999999
P.S. 213 - BROOKLYN,PLANYC CLIMATE CONTROL/PLANYC BOILER CONVERSION,CIP,K213,580 HEGEMAN AVENUE,Brooklyn,40.66051,-73.890288
P.S. 205 - BROOKLYN,FLOOD ELIMINATION/PARAPETS/EXTERIOR MASONRY/ROOFS,CIP,K205,6701 20 AVENUE,Brooklyn,40.61527,-73.987149
P.S. 189 - BROOKLYN,STANDALONE GYM ANNEX,CIP,K707,1100  EAST NEW YORK AVENUE,Brooklyn,40.665565,-73.92624599999999
DEWITT CLINTON HS - X,EXTERIOR MASONRY/FLOOD ELIMINATION/PARAPETS/ROOF,CIP,X440,100 W MOSHOLU PKWY S,Bronx,40.882178,-73.88691
WIILIAMSBURG PREP- BROOKLYN,ROOFS/WINDOWS/PARAPETS/EXT MASONRY,CIP,K650,257 N 6TH STREET,Brooklyn,40.715073,-73.95475400000001
P.S. 26 - QUEENS,FY18 RESO A PLAYGROUNDS,CIP,Q026,195-02 69 AVENUE,Queens,40.736922,-73.77799
P.S. 225 - BROOKLYN,FLOOD ELMNTN/ROOFS/EXTERIOR MASONRY/PARAPETS,CIP,K225,1075 OCEAN VIEW AVENUE,Brooklyn,40.579737,-73.956329
P.S. 24 - QUEENS,Addition,CAP,Q024,45-57 UNION STREET,Queens,40.75207,-73.818789
P.S. 50 - MANHATTAN,EXTERIOR MASONRY/ROOFS/PARAPETS/SITE WALLS,CIP,M050,433 EAST 100 STREET,Manhattan,40.785258,-73.941526
P.S. 192 - BROOKLYN,DETERIORATED WINDOW WELL WALLS/FLOOD/PARAPETS/ROOF,CIP,K192,4715 18 AVENUE,Brooklyn,40.629303,-73.979995
P.S. 191 - BROOKLYN,EXTERIOR MASONRY/PARAPETS/ROOFS,CIP,K191,1600 PARK PLACE,Brooklyn,40.672005,-73.924329
M.S./H.S. 342 - BRONX,BOILER FOR SWIMMING,CIP,X430,2780 RESERVOIR AVENUE,Bronx,40.870293,-73.898309
P.S. 6 - STATEN ISLAND,FY18 RESO A ROOM CONVERSIONS/PARTITIONING,CIP,R006,555 PAGE AVENUE,Staten Island,40.510735,-74.231109
AVIATION HS - QUEENS,FUEL FIRE/ROOFS/PARAPETS/MSNRY/ FLOOD/GYM UPG/WIN,CIP,Q610,45-30 36 STREET,Queens,40.743509,-73.929076
KHALIL GIBRAN INTERNATIONAL AC,LSP-VACUUM/PUMP SET/RADIATOR VALVE/FLOAT AND THERMOSTATIC STEAM TRAPS,CIP,K806,362 SCHERMERHORN STREET,Brooklyn,40.686499,-73.979649
COY L. COX SCHOOL,DEFECTIVE EXTERIOR WALL/FLOOD ELIMINATION/PARAPETS/ROOFS,CIP,K369,383 STATE STREET,Brooklyn,40.687257,-73.983579
I.S. 77 - QUEENS,ELECTRICAL WORK FOR A/C INITIATIVE,CIP,Q849,976 SENECA AVENUE,Queens,40.699516,-73.90214
P.S. 230 - BROOKLYN,FY18 RESO A SUPPLEMENTAL COOLING,CIP,K230,1 ALBEMARLE ROAD,Brooklyn,40.645017,-73.980761
P.S. 129 ADDITION,Demo,CAP,Q129,128-02 7TH AVENUE,Queens,40.790638,-73.839771
I.S. 125 - BRONX,LIGHTING REPLACEMENT (DCAS),CIP,X125,1111 PUGSLEY AVENUE,Bronx,40.829232,-73.856734
P.S. 346 - BROOKLYN,PARTIAL ACCESSIBILITY RAMPS,CIP,K346,1400 PENNSYLVANIA AVENUE,Brooklyn,40.64726,-73.881114
P.S. 333 - QUEENS,REINFORCING/HEATING PLT/ELEC/FLOOD ELIM/CLIMATE CO,CIP,Q198,3-65 BEACH 56 STREET,Queens,40.593967,-73.786182
P.S. 159 - BROOKLYN,STANDALONE GYM ANNEX,CIP,K368,2781  PITKIN AVENUE,Brooklyn,40.675766,-73.869469
P.S. 39 - STATEN ISLAND,STANDALONE GYM ANNEX,CIP,R099,71  SAND LANE,Staten Island,40.597679,-74.071529
MARTIN VAN BUREN HS - QUEENS,ELECTRICAL WORK FOR A/C INITIATIVE,CIP,Q435,230-17 HILLSIDE AVENUE,Queens,40.733066,-73.73875600000001
BROOKLYN SCHOOL FOR MATH AND R,LOW VOLTAGE ELECTRICAL SYSTEMS,CIP,K480,400 IRVING AVENUE,Brooklyn,40.69697,-73.910791
I.S. 101 - BRONX,WINDOW SILL ISSUE/ROOFS,CIP,X101,2750 LAFAYETTE AVENUE,Bronx,40.827471,-73.829753
P.S. 36 - QUEENS,ELECTRICAL WORK FOR A/C INITIATIVE,CIP,Q036,187-01 FOCH BLVD,Queens,40.690828,-73.76390699999999
MOTT HAVEN COMMUNITY HIGH SCHO,FLOOD ELIMINATION/WINDOWS,CIP,X655,455 SOUTHERN BLVD,Bronx,40.810803,-73.907015
P.S. 158 - BROOKLYN,ELECTRICAL WORK FOR A/C INITIATIVE,CIP,K158,400 ASHFORD STREET,Brooklyn,40.672579,-73.884803
P.S. 37 - QUEENS,FLOOD/FA/EXT MASONRY/ELEVATOR/PARAPETS/FLOOD,CIP,Q037,179-37 137 AVENUE,Queens,40.67588,-73.758505
P.S. 382 - BRONX,DAMAGE STONE/PARAPETS/ROOFS/WINDOWS,CIP,X079,125 EAST 181 STREET,Bronx,40.854872,-73.903458
A-TECH HIGH SCHOOL - K,ELECTRICAL WORK FOR A/C INITIATIVE,CIP,K610,50 BEDFORD AVENUE,Brooklyn,40.721981,-73.953281
P.S. 68 - QUEENS,ELECTRICAL WORK FOR A/C INITIATIVE/LL26 CODE COMPLIANCE/EXIT SIGN REPLACEMENT,CIP,Q068,59-09 ST FELIX AVENUE,Queens,40.696556,-73.897405
P.S. 70 - BRONX,EXT MASONRY/ROOFS/PARAPETS,CIP,X070,1691 WEEKS AVENUE,Bronx,40.844253,-73.907616
I.S. 145 - QUEENS,PLANYC BOILER CNVRSN/PLANYC CLIMATE CTRL,CIP,Q145,33-34 80 STREET,Queens,40.754661,-73.887112
Q177 SPED - QUEENS,PARTIAL ACCESSIBILITY/FLOOD ELIMINATION/ROOFS/PARAPETS/EXTERIOR MASONRY/WINDOWS,CIP,Q177,56-37 188 STREET,Queens,40.74391,-73.788133
P.S. 158 - BROOKLYN,ENY AUDITORIUM UPGRADE,CIP,K158,400 ASHFORD STREET,Brooklyn,40.672579,-73.884803
BAYSIDE HIGH SCHOOL - QUEENS,FY16 RESO A ROOM CONVERSIONS / PART,CIP,Q405,32-24 CORPORAL KENNEDY STREET,Queens,40.771755,-73.78029599999999
HS OF GRAPHIC COMM. ARTS (VOC),EXT MASONRY/ROOFS/PARAPETS,CIP,M625,439 WEST 49 STREET,Manhattan,40.76337,-73.990593
"QNS HS OF TEACH., LIB. ARTS&SC",LSP-GYMNASIUM BLEACHERS REPLACEMENT,CIP,Q566,74-20 COMMONWEALTH BLVD,Queens,40.746088,-73.727535
I.S. 93 - QUEENS,ACCESSIBILITY/WINDOWS/ROOFS/EXT MASONRY/PARAPETS,CIP,Q093,66-56 FOREST AVENUE,Queens,40.706041,-73.90258399999999
J.H.S. 237 - QUEENS,ELEVATOR MODERNIZATION,CIP,Q237,46-21 COLDEN STREET,Queens,40.749545,-73.822073
MIDDLE SCHOOL FOR ART & PHILOS,EXTERIOR MASONRY/PARAPETS/ROOFS,CIP,K252,1084 LENOX ROAD,Brooklyn,40.658295,-73.920109
NEW UTRECHT HS - BROOKLYN,WATER PENETRATION INTO BASEMENT/NATATORIUM RECONST,CIP,K445,1601 80 STREET,Brooklyn,40.613262,-74.003404
FLUSHING HS - QUEENS,FY15 RESO A AUDITORIUM UPGRADE,CIP,Q460,35-01 UNION STREET,Queens,40.765166,-73.82789
I.S. 217 - QUEENS,PLANYC BOILER/PLANYC CLIMATE CONTROL,CIP,Q217,85-05 144 STREET,Queens,40.710024,-73.812508
P.S. 97 - BROOKLYN,Addition,CAP,K097,1855 STILLWELL AVENUE,Brooklyn,40.601433,-73.986139
Q177 SPED - QUEENS,PLANYC BOILER CONVERSION/PLANYC CLIMATE CONTROL,CIP,Q177,56-37 188 STREET,Queens,40.74391,-73.788133
J.H.S. 157 - QUEENS,FY16 RESO A ROOM CONVERSIONS / DANCE STUDIO,CIP,Q157,63-55 102ND STREET,Queens,40.732289,-73.853825
NORMAN THOMAS HS - MANHATTAN,SCIENCE LAB,CIP,M620,111 EAST 33 STREET,Manhattan,40.746176,-73.981241
P.S. 176 - BROOKLYN,FY18 RESO A MAKERSPACE,CIP,K176,1225 69 STREET,Brooklyn,40.624611,-74.00537800000001
P.S. 69 - QUEENS,COOLING TOWER REPLACEMENT,CIP,Q069,77-02 37 AVENUE,Queens,40.749266,-73.888817
ALFRED E. SMITH HS - X,ROOM CONVERSION/UPG PLUMBING SHOP-RM B-50,CIP,X600,333 EAST 151 STREET,Bronx,40.818232,-73.91986700000001
I.S. 117 - BRONX,FY18 RESO A GYMNASIUM UPGRADE,CIP,X117,1865 MORRIS AVENUE,Bronx,40.848547,-73.908416
P.S. 6 - STATEN ISLAND,FY18 RESO A ROOM CONVERSIONS/PARTITIONING,CIP,R006,555 PAGE AVENUE,Staten Island,40.510735,-74.231109
3K CENTER @ 20 EBBITTS STREET - STATEN ISLAND,Demo,CAP,R091,20 EBBITTS STREET,Staten Is,40.565319,-74.111823
P.S. 170 - BRONX,MASONRY ISSUE/PARAPETS/ROOFS,CIP,X170,1598 TOWNSEND AVENUE,Bronx,40.844316,-73.913604
P.S. 163 - BROOKLYN,LSP- REPLACE DUPLEX SEWAGE EJECTOR PUMPS,CIP,K807,109 BAY 14TH STREET,Brooklyn,40.606792,-74.00806
I.S. 145 - QUEENS,PLANYC BOILER CNVRSN/PLANYC CLIMATE CTRL,CIP,Q145,33-34 80 STREET,Queens,40.754661,-73.887112
P.S. 884 - BROOKLYN,Lease,CAP,K884,15 SNYDER AVENUE,Brooklyn,40.648568,-73.957639
I.S. 223 - BROOKLYN,FLOOD ELIMINATION/ROOFS/PARAPETS/EXTERIOR MASONRY,CIP,K223,4200 16 AVENUE,Brooklyn,40.634875,-73.981528
I.S. 259 - BROOKLYN,PLANYC BOILER CONVERSION/CLIMATE CTRL,CIP,K259,7305 FT HAMILTON PKWY,Brooklyn,40.62668,-74.01512
FRANCIS LEWIS HS ANNEX - QUEENS,New,CAP,Q434,58-20 UTOPIA PARKWAY,Queens,40.740724,-73.79283000000001
,,CAP,M777,227 WEST 27TH STREET,Manhattan,40.747031,-73.99476
P.S. @ 357 TARGEE STREET - STATEN ISLAND,New,CAP,R070,357 TARGEE STREET,Staten Is,40.618679,-74.084846
P.S. 127 ADDITION,Addition,CAP,K127,7805 7 AVENUE,Brooklyn,40.624132,-74.018826
FLUSHING HS - QUEENS,PARAPETS/EXTERIOR MASONRY/ROOFS,CIP,Q460,35-01 UNION STREET,Queens,40.765166,-73.82789
P.S. 62 - BRONX,EXT MASONRY/PARAPETS,CIP,X062,660 FOX STREET,Bronx,40.814031,-73.900609
QUEENS COLLEGIATE SCHOOL - QUE,WEST AREAWAY DRAINS,CIP,Q470,167-01 GOTHIC DRIVE,Queens,40.713218,-73.797237
P.S. 197 - BROOKLYN,EXT MASONRY/PARAPETS/ROOFS/WINDOWS/FLOOD/PIPING,CIP,K197,1599 EAST 22 STREET,Brooklyn,40.612623,-73.95190600000001
P.S. 360 - BRONX,FY18 RESO A PLAYGROUNDS,CIP,X360,2880 KINGSBRIDGE TERRACE,Bronx,40.874411,-73.902573
G. WASHINGTON CARVER HS FOR SC,IP DIGITAL VIDEO SURVEILLANCE SYSTEM,CIP,Q420,143-10 SPRINGFIELD BLVD,Queens,40.668235,-73.756839
P.S. 71 - QUEENS,PARAPETS/EXTERIOR MASONRY/ROOFS,CIP,Q071,62-85 FOREST AVENUE,Queens,40.711203000000005,-73.905286
P.S. 186 - BROOKLYN,ELECTRICAL WORK FOR A/C INITIATIVE,CIP,K186,7601 19 AVENUE,Brooklyn,40.611483,-73.994677
,,CAP,M777,227 WEST 27TH STREET,Manhattan,,
TELECOM. ARTS & TECH. HS - K,C OF O/ELECTRICAL WORK FOR A/C INITIATIVE,CIP,K485,350 67 STREET,Brooklyn,40.637282,-74.023849
P.S. 5 - MANHATTAN,FIRE ALARM SYSTEM/SMOKE DAMPERS,CIP,M005,3703 TENTH AVENUE,Manhattan,40.858990000000006,-73.922894
P.S. 160 - BRONX,FY17 RESO A PLAYGROUND REDEVELOPMENT,CIP,X160,4140 HUTCHINSON RIVER PARKWAY EAST,Bronx,40.864676,-73.824303
P.S. 677 - BROOKLYN,Lease,CAP,K677,139 MENAHAN STREET,Brooklyn,40.695717,-73.919473
I.S. 145 - QUEENS,PLANYC BOILER CNVRSN/PLANYC CLIMATE CTRL,CIP,Q145,33-34 80 STREET,Queens,40.754661,-73.887112
P.S. 32 - QUEENS,ELECTRICAL WORK FOR A/C INITIATIVE,CIP,Q032,171-11 35 AVENUE,Queens,40.764763,-73.79468299999999
P.S. 20 - STATEN ISLAND,STANDALONE GYM ANNEX,CIP,R098,161  PARK AVENUE,Staten Island,40.636598,-74.132919
FLUSHING HS - QUEENS,ELECTRICAL WORK FOR A/C INITIATIVE,CIP,Q460,35-01 UNION STREET,Queens,40.765166,-73.82789
P.S. 236 - BROOKLYN,FY18 RESO A ELECTRICAL SYSTEMS,CIP,K236,6302 AVENUE U,Brooklyn,40.615998,-73.912989
P.S. 297 - BROOKLYN,FY19 RESO A AUDITORIUM UPGRADE,CIP,K297,700 PARK AVENUE,Brooklyn,40.697781,-73.94780899999999
P.S. 61 - BRONX,FLOOD ELIMINATION/ROOFS/PARAPETS/EXTERIOR MASONRY,CIP,X061,1550 CROTONA PARK EAST,Bronx,40.836575,-73.89281700000001
P.S. 199 - BRONX,5TH SBHC,CIP,X104,1449 SHAKESPEARE AVENUE,Bronx,40.842943,-73.920563
P.S. 244 - BROOKLYN,FY18 RESO A AUDITORIUM  UPGRADE,CIP,K244,5404 TILDEN AVENUE,Brooklyn,40.648423,-73.92594799999999
P.S. 16 - QUEENS,FY15 RESO A AUDITORIUM UPGRADE,CIP,Q721,41-15 104 STREET,Queens,40.748987,-73.86123
I.S. 49 - STATEN ISLAND,FY18 RESO A GYMNASIUM UPGRADE,CIP,R049,101 WARREN STREET,Staten Island,40.620347,-74.081643
HOLCOMBE L. RUCKER SCHOOLOF CO,FY16 RESO A AUDITORIUM UPGRADE,CIP,X039,965 LONGWOOD AVENUE,Bronx,40.817512,-73.898212
P.S. 295 - BROOKLYN,GYM & CAFE FLOOR/FLOOD/FLOOR/PARAPETS/MASONRY/ROOF,CIP,K845,330 18 STREET,Brooklyn,40.660976,-73.988297
P.S. 19 - MANHATTAN,ROOFS,CIP,M019,185 1ST AVENUE,Manhattan,40.729636,-73.983818
J.H.S. 292 - MANHATTAN,ROOFS,CIP,M056,220 HENRY STREET,Manhattan,40.713684,-73.986336
P.S. 14 - QUEENS,ELECTRICAL WORK FOR A/C INITIATIVE/LSP LL26 CODE COMPLIANCE/EXIT SIGN REPLACEMENT,CIP,Q322,89-11 43RD AVENUE,Queens,40.742724,-73.876522
BAYSIDE HIGH SCHOOL - QUEENS,ELECTRICAL WORK FOR A/C INITIATIVE/LL26 CODE COMPLIANCE/EXIT SIGN REPLACEMENT,CIP,Q405,32-24 CORPORAL KENNEDY STREET,Queens,40.771755,-73.78029599999999
I.S. 35 - BROOKLYN,FY18 RESO A GYMNASIUM UPGRADE,CIP,K035,272 MACDONOUGH STREET,Brooklyn,40.681896,-73.935963
I.S. 232 - BRONX,OIL VAULT & STAIRWAY/PIPING/TOILETS/FLOOD,CIP,X082,1700 MACOMBS ROAD,Bronx,40.849623,-73.91606999999999
P.S. 193 - BROOKLYN,LSP PVI DOMESTIC WATER HEATER,CIP,K193,2515 AVENUE L,Brooklyn,40.621507,-73.950473
CURTIS HIGH SCHOOL ANNEX - STATEN ISLAND,Addition,CAP,R453,105B HAMILTON AVENUE,Staten Is,40.644735,-74.081222
I.S. 221 - BRONX,FY18 RESO A SUPPLEMENTAL COOLING,CIP,X149,360 EAST 145 STREET,Bronx,40.813983,-73.92078199999999
EL PUENTE ACADEMY - BROOKLYN,MASONRY/WINDOWS/PARAPETS/ROOFS,CIP,K778,250 HOOPER STREET,Brooklyn,40.705898,-73.955611
P.S./I.S. 217 - MANHATTAN,FY14 RESO A GREEN ROOF,CIP,M271,645 MAIN STREET,Manhattan,40.763894,-73.947916
FREDERICK DOUGLASS ACADEMY VI,MSNRY/ROOFS/WINDOWS/PARAPETS/NATATORIUM STRUC REPR,CIP,Q465,8-21 BAY 25 STREET,Queens,40.60201,-73.762795
P.S. 116 - MANHATTAN,BULGING WALLS AND RUSTED GRATING SUPPORTS,CIP,M116,210 EAST 33 STREET,Manhattan,40.744838,-73.978116
I.S. 75 - STATEN ISLAND,FY18 RESO A AUDITORIUM  UPGRADE,CIP,R075,455 HUGUENOT AVENUE,Staten Island,40.54438,-74.197897
P.S. 25 - BRONX,EXTERIOR MASONRY/PARAPETS/ROOFS/WINDOWS,CIP,X025,811 EAST 149 STREET,Bronx,40.812619,-73.906063
I.S. 339 - BRONX,FY14 RESO A SUPPLEMENTAL COOLING,CIP,X147,1600 WEBSTER AVENUE,Bronx,40.840878,-73.904754
P.S. 36 - QUEENS,PLANYC CLIMATE CONTROL/PLANYC BOILER CONVERSION,CIP,Q036,187-01 FOCH BLVD,Queens,40.690828,-73.76390699999999
P.S. 114 - BROOKLYN,FY18 RESO A AUDITORIUM  UPGRADE,CIP,K114,1077 REMSEN AVENUE,Brooklyn,40.642545,-73.908529
P.S. 28 - BRONX,ELECTRICAL WORK FOR A/C INITIATIVE/LL26 CODE COMPLIANCE/EXIT SIGN REPLACEMENT,CIP,X028,1861 ANTHONY AVENUE,Bronx,40.848057,-73.903522
P.S. 307 - BROOKLYN,RENOVATION OF CLASSROOM 332,CIP,K307,209 YORK STREET,Brooklyn,40.701343,-73.982314
P.S. 162 - QUEENS,ELECTRICAL WORK FOR A/C INITIATIVE,CIP,Q162,201-02 53 AVENUE,Queens,40.749036,-73.777213
P.S. 206 ADDITION,Addition,CAP,Q206,61-21 97TH PLACE,Queens,40.73425,-73.86154599999999
P.S. 30 - MANHATTAN,ROOFS/EXTERIOR MASONRY,CIP,M030,144-176 EAST 128 STREET,Manhattan,40.805953,-73.935179
WIILIAMSBURG PREP- BROOKLYN,ROOFS/WINDOWS/PARAPETS/EXT MASONRY,CIP,K650,257 N 6TH STREET,Brooklyn,40.715073,-73.95475400000001
