School Name,Project Description,Project type,Building ID,Building Address,City,Latitude,Longitude
P.S. 99 - QUEENS,WATER PENETRATION/PARAPETS,CIP,Q099,82-37 KEW GARDENS ROAD,Queens,40.711419,-73.82862800000001
THE INTERNATIONAL HS - BROOKLY,MASONRY/WINDOWS/PARAPETS/ROOFS/FLOOD ELIMINATION,CIP,K440,883 CLASSON AVENUE,Brooklyn,40.670349,-73.96169499999999
P.S. 163 - BROOKLYN,LSP- REPLACE DUPLEX SEWAGE EJECTOR PUMPS,CIP,K807,109 BAY 14TH STREET,Brooklyn,40.606792,-74.00806
P.S. 146 - BROOKLYN,DETERIORATED MASONRY,CIP,K142,610 HENRY STREET,Brooklyn,40.68007,-74.001377
GEORGE WESTINGHOUSE VOC. HS,ELECTRICAL WORK FOR A/C INITIATIVE/LL26 CODE COMPLIANCE/EXIT SIGN REPLACEMENT,CIP,K580,105 JOHNSON STREET,Brooklyn,40.694926,-73.98601500000001
P.S. 280 - BRONX,FY 17 RESO A AUDITORIUM UPGRADE,CIP,X080,149 EAST MOSHOLU PKWY N,Bronx,40.876299,-73.88153199999999
LIFE SCIENCE SECONDARY SCHOOL,LSP HOT WATER HEATER,CIP,M645,320 EAST 96 STREET,Manhattan,40.783625,-73.945637
K811 SPED - BROOKLYN,FY18 RESO A IPDVS CAMERA INSTALLATION,CIP,K286,2525 HARING STREET,Brooklyn,40.591109,-73.9391
P.S. 161 - BRONX,FULL PROGRAM ACCESSIBILITY/LOW VOLTAGE ELECTRICAL SYSTEM,CIP,X161,628 TINTON AVENUE,Bronx,40.814916,-73.905518
P.S. 64 - QUEENS,FY16 RESO A AUDITORIUM,CIP,Q064,82-01 101 AVENUE,Queens,40.681172,-73.85691800000001
P.S. 37 - QUEENS,FLOOD/FA/EXT MASONRY/ELEVATOR/PARAPETS/FLOOD,CIP,Q037,179-37 137 AVENUE,Queens,40.67588,-73.758505
I.S. 221 - BRONX,GYMNASIUM UPGRADE/ROOFS,CIP,X149,360 EAST 145 STREET,Bronx,40.813983,-73.92078199999999
I.S. 424 - BRONX,DEFECTIVE RETAINING WALL,CIP,X074,730 BRYANT AVENUE,Bronx,40.815477,-73.88577
P.S. 122 - QUEENS,FY16 RESO A SOLAR PANELS,CIP,Q122,21-21 DITMARS BLVD,Queens,40.780347,-73.916655
Q177 SPED - QUEENS,PLANYC BOILER CONVERSION/PLANYC CLIMATE CONTROL,CIP,Q177,56-37 188 STREET,Queens,40.74391,-73.788133
HILLCREST HS - QUEENS,ELECTRICAL WORK FOR A/C INITIATIVE,CIP,Q505,160-05 HIGHLAND AVENUE,Queens,40.709446,-73.80166
NEW UTRECHT HS - BROOKLYN,WATER PENETRATION INTO BASEMENT/NATATORIUM RECONSTRUCTION,CIP,K445,1601 80 STREET,Brooklyn,40.613262,-74.003404
P.S. 54 - QUEENS,FY15 RESO A PLAYGROUND REDEVELOPMENT,CIP,Q054,86-02 127 STREET,Queens,40.70292,-73.824221
I.S. 394 - BROOKLYN,WATER PENETRATION,CIP,K210,188 ROCHESTER AVENUE,Brooklyn,40.672762,-73.927973
E NY VOC HS OF TRANSIT TECH.-K,ENY LIBRARY UPGRADE,CIP,K615,1 WELLS STREET,Brooklyn,40.678276,-73.87595999999999
P.S. @ 836-841 5TH AVENUE - BROOKLYN,Demo,CAP,K671,836-841 5TH AVENUE,Brooklyn,40.653319,-74.001791
HS FOR ARTS & TECHNOLOGY - M,IP DIGITAL VIDEO SURVEILLANCE SYSTEM,CIP,M490,122 AMSTERDAM AVENUE,Manhattan,40.774351,-73.984753
BENJAMIN N. CARDOZO HS - QUEEN,IP DIGITAL VIDEO SURVEILLANCE SYSTEM,CIP,Q415,57-00 223 STREET,Queens,40.752333,-73.75599
P.S. 151 - MANHATTAN,FY16 RESO A ROOFTOP PLAYGROUND,CIP,M066,421 EAST 88 STREET,Manhattan,40.777911,-73.947757
P.S. 503 - BROOKLYN,EXTERIOR MASONRY/PARAPETS/ROOFS,CIP,K314,330 59 STREET,Brooklyn,40.642121,-74.018997
P.S. 184 - QUEENS,FY19 RESO A IPDVS CAMERA INSTALLATION,CIP,Q184,163-15 21 ROAD,Queens,40.778095,-73.800163
I.S. 204 - QUEENS,ELECTRICAL WORK FOR A/C INITIATIVE,CIP,Q204,36-41 28 STREET,Queens,40.757065,-73.932664
I.S. @ 47-10 BARNETT AVENUE - QUEENS,New,CAP,Q429,47-10 BARNETT AVENUE,Queens,40.750017,-73.915867
THE INTERNATIONAL HS - BROOKLY,LSP- REPLACE BOILER FEED WATER TANK,CIP,K440,883 CLASSON AVENUE,Brooklyn,40.670349,-73.96169499999999
P.S. 155 - BROOKLYN,LSP PUMP SYSTEM REPLACEMENT,CIP,K155,1355 HERKIMER STREET,Brooklyn,40.677415,-73.908734
P.S. 7 - QUEENS,CLIMATE CONTROL/LOW VOLTAGE ELECTRICAL SYSTEM,CIP,Q007,80-55 CORNISH AVENUE,Queens,40.739115000000005,-73.882487
P.S. 66 - BROOKLYN,FIRE ALARM SYSTEM REPLACEMENT,CIP,K066,845 EAST 96 STREET,Brooklyn,40.64883,-73.907774
P.S. 66 - QUEENS,Addition,CAP,Q066,85-11 102 STREET,Queens,40.697836,-73.846558
I.S. 286 - MANHATTAN,WINDOWS/EXT MASONRY/ROOFS/PARAPETS,CIP,M043,509 WEST 129 STREET,Manhattan,40.815256,-73.955325
P.S. 105 - BROOKLYN,EXT MASONRY/FLOOD ELIMINATION/ROOFS,CIP,K105,1031 59 STREET,Brooklyn,40.632936,-74.00374000000001
P.S. 335 - BROOKLYN,PARTIAL ACESSIBILITY,CIP,K335,130 ROCHESTER AVENUE,Brooklyn,40.674656,-73.92779399999999
ALFRED E. SMITH HS - X,ROOM CONVERSION/UPG PLUMBING SHOP-RM B-50,CIP,X600,333 EAST 151 STREET,Bronx,40.818232,-73.91986700000001
I.S. 51 - STATEN ISLAND,IPDVS CAMERA INSTALLATION,CIP,R051,20 HOUSTON STREET,Staten Island,40.622585,-74.14488
P.S. @ 56-10 214 STREET - QUEENS,Lease,CAP,Q361,56-10 214 STREET,Queens,40.750221,-73.764732
P.S. 7 - BROOKLYN,LSP- VACUUM CONDENSATE PUMPS,CIP,K007,858 JAMAICA AVENUE,Brooklyn,40.689697,-73.873109
P.S. 131 - QUEENS,Addition,CAP,Q131,170-45 84TH AVENUE,Queens,40.716617,-73.794637
P.S. 146 - QUEENS,TCU REMOVAL/PLAYGROUND REDEVELOPMENT,CIP,Q146,98-01 159 AVENUE,Queens,40.659873,-73.835068
HOLCOMBE L. RUCKER SCHOOLOF CO,FY16 RESO A AUDITORIUM UPGRADE,CIP,X039,965 LONGWOOD AVENUE,Bronx,40.817512,-73.898212
FORDHAM HS FOR THE ARTS - BRON,FY16 RESO A LIBRARY UPGRADE,CIP,X435,500 EAST FORDHAM ROAD,Bronx,40.860043,-73.888267
I.S. 204 - QUEENS,IP DIGITAL VIDEO SURVEILLANCE SYSTEM,CIP,Q204,36-41 28 STREET,Queens,40.757065,-73.932664
EAST FLATBUSH COMMUNITY RESCH,PARAPETS/EXTERIOR MASONRY/ROOFS,CIP,K232,905 WINTHROP STREET,Brooklyn,40.65843,-73.929076
P.S. 246 - BRONX,ELEVATOR REPLACEMENT/EXTERIOR MASONRY/FLOOD ELIMINATION/PARAPETS/ROOFS/RETAINING WALL,CIP,X843,2641 GRAND CONCOURSE,Bronx,40.865593,-73.894758
P.S. 212 - BROOKLYN,FY17 RESO A LIBRARY UPGRADES,CIP,K212,87 BAY 49 STREET,Brooklyn,40.587616,-73.985948
P.S. 124 - BROOKLYN,FY16 RESO A SUPPLEMENTAL COOLING,CIP,K124,515 4TH AVENUE,Brooklyn,40.667545,-73.991046
P.S. 36 - QUEENS,PLANYC CLIMATE CONTROL/PLANYC BOILER CONVERSION,CIP,Q036,187-01 FOCH BLVD,Queens,40.690828,-73.76390699999999
P.S. 196 - QUEENS,Addition,CAP,Q196,71-25 113 STREET,Queens,40.722782,-73.837946
P.S. 41 - BRONX,PLANYC BOILER CONVERSION/CLIMATE CONTROL,CIP,X041,3352 OLINVILLE AVENUE,Bronx,40.874313,-73.868157
P.S. 75 - MANHATTAN,TEMPORARY BOILER,CIP,M075,735 WEST END AVENUE,Manhattan,40.795157,-73.973292
P.S. 249 - BROOKLYN,LOW VOLTAGE ELECTRICAL/PLANYC CLIMATE CONTROL/PLANYC BOILER CONVERSION,CIP,K249,18 MARLBOROUGH ROAD,Brooklyn,40.64971,-73.96604599999999
J.H.S. 237 - QUEENS,FY16 RESO A AIR CONDITIONING SPLIT SYSTEM,CIP,Q237,46-21 COLDEN STREET,Queens,40.749545,-73.822073
P.S. 123 - BROOKLYN,LSP DOMESTIC WATER BOOSTER PUMP REPLACEMENT,CIP,K123,100 IRVING AVENUE,Brooklyn,40.703767,-73.922702
P.S. 16 - BRONX,TCU REMOVAL/PLAYGROUND REDEVELOPMENT,CIP,X016,4550 CARPENTER AVENUE,Bronx,40.902205,-73.85482900000001
I.S. 278 - BROOKLYN,FY19 RESO A FLOORING,CIP,K278,1925 STUART STREET,Brooklyn,40.60665,-73.939176
P.S. 54 - BRONX,FYRESO A PLAYGROUNDS,CIP,X054,2703 WEBSTER AVENUE,Bronx,40.864527,-73.88782900000001
P.S. 277 - BRONX,FLOOD ELIMINATION/ROOFS/EXTERIOR MASONRY,CIP,X027,519 ST ANNS AVENUE,Bronx,40.813517,-73.913402
P.S. 20 - QUEENS,FIRE ALARM SYSTEM/MECHANICAL SYSTEMS REPAIR/CERTIFICATE OF OCCUPANCY,CIP,Q020,142-30 BARCLAY AVENUE,Queens,40.758689,-73.824832
LONGWOOD PREPARATORY ACADEMY,IP DIGITAL VIDEO SURVEILLANCE SYSTEM,CIP,X039,965 LONGWOOD AVENUE,Bronx,40.817512,-73.898212
P.S. 116 - BROOKLYN,FY17 RESO A VISUAL ART LAB,CIP,K116,515 KNICKERBOCKER AVENUE,Brooklyn,40.697779,-73.916521
I.S. 167 - MANHATTAN,FY15 RESO A SCIENCE LAB UPGRADES,CIP,M167,220 EAST 76 STREET,Manhattan,40.77205,-73.958066
HS FOR HEALTH CAREER & SCIENCE,IP DIGITAL VIDEO SURVEILLANCE SYSTEM,CIP,M465,549 AUDUBON AVENUE,Manhattan,40.855855,-73.92712
P.S. 127 - BROOKLYN,Addition,CAP,K127,7805 7 AVENUE,Brooklyn,40.624132,-74.018826
BROOKLYN TECH HS - K,FY14 RESO A ATHLETIC FIELDS,CIP,K431,490 CLERMONT AVENUE,Brooklyn,40.682986,-73.968852
WILLIAM E. GRADY VOC HS - K,FY16 RESO A CULINARY ARTS ROOM,CIP,K620,25 BRIGHTON 4TH ROAD,Brooklyn,40.582585,-73.963477
P.S. 161 - QUEENS,FY19 RESO A LIBRARY UPGRADE,CIP,Q161,101-33 124TH STREET,Queens,40.690798,-73.821657
M.S. 282 - QUEENS,LSP VACUUM PUMP REPLACEMENT,CIP,Q465,8-21 BAY 25 STREET,Queens,40.60201,-73.762795
P.S. 201 - QUEENS,PLANYC CLIMATE CONTROL/PLANYC BOILER CONVERSION,CIP,Q201,65-11 155 STREET,Queens,40.736653,-73.813346
P.S. 58 - STATEN ISLAND,IPDVS CAMERA INSTALLATION,CIP,R058,77 MARSH AVENUE,Staten Island,40.583139,-74.161862
P.S. 333 - QUEENS,SANDY NEW A/C CHILLERS,CIP,Q198,3-65 BEACH 56 STREET,Queens,40.593967,-73.786182
I.S. 51 - STATEN ISLAND,FY15 RESO A SCHOOL YARD RENOVATION,CIP,R051,20 HOUSTON STREET,Staten Island,40.622585,-74.14488
P.S. 69 - BROOKLYN,LSP- MULTIPLE GREASE TRAP REPLACEMENTS,CIP,K069,6302 9TH AVENUE,Brooklyn,40.632379,-74.00922299999999
MILLENIUM ART ACADEMY - BRONX,ELECTRICAL WORK FOR A/C INITIATIVE,CIP,X450,1980 LAFAYETTE AVENUE,Bronx,40.82229,-73.856167
P.S. 078 - STATEN ISLAND,FY16 RESO A AUDITORIUM UPGRADE,CIP,R014,100 TOMPKINS AVENUE,Staten Island,40.622455,-74.078508
P.S. 121 - QUEENS,TCU REMOVAL & PLAYGROUND REDEVELOPMENT,CIP,Q121,126-10 109 AVENUE,Queens,40.68405,-73.815834
J.H.S. 185 - QUEENS,IP DIGITAL VIDEO SURVEILLANCE SYSTEMS,CIP,Q185,147-26 25 DRIVE,Queens,40.775253,-73.819347
P.S. 151 - QUEENS,TCU REMOVAL/PLAYGROUND REDEVELOPMENT,CIP,Q151,50-05 31 AVENUE,Queens,40.757499,-73.908898
P.S. 48 - BROOKLYN,FLOOD ELIMINATION/EXTERIOR MASONRY/WINDOWS,CIP,K048,6015 18 AVENUE,Brooklyn,40.621871,-73.98739599999999
P.S. 282 - BROOKLYN,ELECTRICAL WORK FOR A/C INITIATIVE/LSP LL26 CODE COMPLIANCE/EXIT SIGN REPLACEMENT,CIP,K282,180 6TH AVENUE,Brooklyn,40.67634,-73.977367
P.S. 152 - MANHATTAN,WATER INFILTRATION,CIP,M152,93 NAGLE AVENUE,Manhattan,40.860412,-73.927936
P.S. 129 - QUEENS,Demo,CAP,Q129,128-02 7TH AVENUE,Queens,40.790638,-73.839771
I.S. 265 - BROOKLYN,PLANYC BOILER CNVRSN/PLANYC CLIMATE CTRL,CIP,K265,101 PARK AVENUE,Brooklyn,40.696324,-73.97578
P.S. 19 - STATEN ISLAND,PARAPETS/FLOOD/AREAWAY WINDOWS/EXT MASONRY/ROOFS,CIP,R019,780 POST AVENUE,Staten Island,40.631214,-74.127101
FREDERICK DOUGLASS ACADEMY III,ELECTRICAL WORK FOR A/C INITIATIVE,CIP,X148,3630 THIRD AVENUE,Bronx,40.833511,-73.90449
THE RIVERSIDE SCHOOL - MANHATTAN,New,CAP,M342,300 WEST 61ST STREET,Manhattan,40.772883,-73.989609
HS FOR HEALTH CAREER & SCIENCE,WINDOWS/ROOFS/PARAPETS/EXTERIOR MASONRY,CIP,M465,549 AUDUBON AVENUE,Manhattan,40.855855,-73.92712
P.S. 26 - STATEN ISLAND,FY18 RESO A LIBRARY UPGRADE,CIP,R026,4108 VICTORY BLVD,Staten Island,40.591702000000005,-74.190648
NYC SCHOOL CONSTRUCTION AUTHOR,3RD FLOOR PANTRY AND OFFICE BUILD OUT,CIP,Q998,30-30 THOMSON AVENUE,Queens,40.745042,-73.93619100000001
P.S. 257 - BROOKLYN,FY18 RESO A AUDITORIUM UPGRADE,CIP,K257,60 COOK STREET,Brooklyn,40.702392,-73.941801
P.S. 103 - BRONX,PARAPET/EXTERIOR MASONRY/FLOOD ELIMINATION,CIP,X103,4125 CARPENTER AVENUE,Bronx,40.892151,-73.86146600000001
NEW MILLENNIUM BRONX ACADEMY O,ELECTRICAL WORK FOR A/C INITIATIVE/LSP LL26 CODE COMPLIANCE/EXIT SIGN REPLACEMENT,CIP,X145,1000 TELLER AVENUE,Bronx,40.827941,-73.914374
P.S. 56 - BROOKLYN,DEFECTIVE PLAYGROUND SURFACES/EXTERIOR MASONRY/PARAPETS/ROOFS,CIP,K056,170 GATES AVENUE,Brooklyn,40.68505,-73.96065899999999
THE BROOKLYN SCHOOL FOR SOCIAL,FY17 RESO A GYMNASIUM UPGRADE,CIP,K480,400 IRVING AVENUE,Brooklyn,40.69697,-73.910791
P.S. 43 - QUEENS,SANDY- ELEVATOR REPAIR,CIP,Q043,160 BEACH 29TH STREET,Queens,40.593834,-73.76174
P.S. 12 - QUEENS,BOILER REPLACE/ELEC SWITCH UPG/PLANYC CLIMATE CTRL,CIP,Q012,42-00 72 STREET,Queens,40.742633000000005,-73.89280500000001
G MCCOWN EXPEDITIONARY LRNG SC,FY15 RESO A SECURITY CAMERAS,CIP,R043,100 ESSEX DRIVE,Staten Island,40.581315,-74.158589
HS FOR MEDICAL PROFESSIONS - K,PLANYC BOILER CONVERSION/PLANYC CLIMATE CTRL/FLOOD,CIP,K500,1600 ROCKAWAY PKWY,Brooklyn,40.641474,-73.89825400000001
SATELLITE AT FORSYTHE,PARAPET/FLOOD ELIMINATION/EXTERIOR MASONRY/ROOFS,CIP,M510,198 FORSYTH STREET,Manhattan,40.72252,-73.990728
I.S. 201 - BROOKLYN,PARAPETS/EXT MASONRY/CONCRETE/FLOOD/ROOF,CIP,K201,8010 12 AVENUE,Brooklyn,40.618676,-74.012722
K753 SPED - BROOKLYN,PLANYC BOILER CNVRSN/PLANYC CLIMATE CTRL,CIP,K085,510 CLERMONT AVENUE,Brooklyn,40.682533,-73.968769
P.S. 31 - STATEN ISLAND,FY18 RESO A AUDITORIUM UPGRADE,CIP,R031,55 LAYTON AVENUE,Staten Island,40.641595,-74.085135
P.S. 140 - QUEENS,FY19 RESO A AUDITORIUM UPGRADE,CIP,Q140,166-01 116 AVENUE,Queens,40.686798,-73.781247
JOHN ADAMS HS - QUEENS,EXTERIOR MASONRY/ROOFS/PARAPETS/WINDOWS/FLOOD ELIMINATION,CIP,Q480,102-10 ROCKAWAY BOULEVARD,Queens,40.679487,-73.836476
P.S. 92 - BROOKLYN,EXTERIOR MASONRY/ROOFS/PARAPETS,CIP,K092,601 PARKSIDE AVENUE,Brooklyn,40.656046,-73.953742
P.S. 101 - BROOKLYN,Addition,CAP,K101,2360 BENSON AVENUE,Brooklyn,40.597863,-73.99169300000001
P.S. 183 - MANHATTAN,PLANYC BOILER/PLANYC CLIMATE CONTROL/VENTILATION,CIP,M183,419 EAST 66 STREET,Manhattan,40.763736,-73.95815
QUEENS METROPOLITAN HIGH SCHOO,FY16 RESO A GREEN ROOF,CIP,Q686,91-30 METROPOLITAN AVENUE,Queens,40.711367,-73.856698
Q811 SPED - QUEENS,PLANYC BOILER CNVRSN/PLANYC CLIMATE CTRL,CIP,Q811,61-25 MARATHON PKWY,Queens,40.756778,-73.729487
P.S. 97 - BRONX,Addition,CAP,X097,1375 MACE AVENUE,Bronx,40.862839,-73.84679100000001
I.S. 72 - STATEN ISLAND,FY19 RESO A IPDVS CAMERA INSTALLATION,CIP,R072,33 FERNDALE AVENUE,Staten Island,40.593005,-74.158988
I.S. 24 - STATEN ISLAND,LSP CAFETERIA FLOOR REPLACEMENT,CIP,R024,225 CLEVELAND AVENUE,Staten Island,40.545281,-74.14631999999999
P.S. /I.S 295 - QUEENS,FY19 RESO A AUDITORIUM UPGRADE,CIP,Q263,222-14 JAMAICA AVENUE,Queens,40.720619,-73.73199699999999
I.S. 35 - BROOKLYN,FULL PROGRAM ACCESSIBILITY,CIP,K035,272 MACDONOUGH STREET,Brooklyn,40.681896,-73.935963
P.S. 112 - BROOKLYN,STANDALONE GYM ANNEX,CIP,K693,7115 15 AVENUE,Brooklyn,40.61978,-74.000792
M.S. 354 - BROOKLYN,PLANYC BOILER CONVERSION/PLANYC CLIMATE CONTROL,CIP,K390,1224 PARK PLACE,Brooklyn,40.672713,-73.936924
P.S. 382 - BRONX,DAMAGE STONE/PARAPETS/ROOFS/WINDOWS,CIP,X079,125 EAST 181 STREET,Bronx,40.854872,-73.903458
HS FOR ARTS & TECHNOLOGY - M,IP DIGITAL VIDEO SURVEILLANCE SYSTEM,CIP,M490,122 AMSTERDAM AVENUE,Manhattan,40.774351,-73.984753
CAMBRIA HEIGHTS ACADEMY - QUEE,LSP DANFOSS RADIATOR STEAM VALVES,CIP,Q799,188-04 91ST AVENUE,Queens,40.711849,-73.77119499999999
P.S. 42 - QUEENS,ELECTRICAL WORK FOR A/C INITIATIVE,CIP,Q042,488 BEACH 66 STREET,Queens,40.594538,-73.795304
THE BROOKLYN SCHOOL FOR SOCIAL,EXTERIOR MASONRY/PARAPETS/ROOFS,CIP,K480,400 IRVING AVENUE,Brooklyn,40.69697,-73.910791
P.S. 175 HENRY H GARNET - M,FY18 RESO A AUDITORIUM  UPGRADE,CIP,M175,175 WEST 134 STREET,Manhattan,40.814422,-73.943664
P.S. 176 - QUEENS,Addition,CAP,Q176,120-45 235 STREET,Queens,40.685492,-73.72998199999999
HERBERT H. LEHMAN HS - X,IP DIGITAL VIDEO SURVEILLANCE SYSTEM,CIP,X405,3000 EAST TREMONT AVENUE,Bronx,40.840702,-73.838545
I.S. 372 - MANHATTAN,SCIENCE LAB UPGRADE,CIP,M117,240 EAST 109 STREET,Manhattan,40.79307,-73.94230300000001
P.S. 69 - BROOKLYN,ROOFS/EXTERIOR MASONRY,CIP,K069,6302 9TH AVENUE,Brooklyn,40.632379,-74.00922299999999
FRANCIS LEWIS HS - QUEENS,WATER PENETRATION,CIP,Q430,58-20 UTOPIA PKWY,Queens,40.740724,-73.79283000000001
P.S. 166 - MANHATTAN,FY18 RESO A LIBRARY UPGRADES,CIP,M166,132 WEST 89 STREET,Manhattan,40.788865,-73.971847
WILLIAM C. BRYANT HS - QUEENS,IPDVS CAMERA INSTALLATION,CIP,Q445,48-10 31 AVENUE,Queens,40.75823,-73.910514
KINGSBOROUGH EARLY COLLEGE SCH,SANDY:INT/HEAT/FLOOD/PIPING/NON-SANDY:PIPING/FLOOD,CIP,K400,2630 BENSON AVENUE,Brooklyn,40.594291,-73.98577
P.S. 79 - QUEENS,C OF O/EXT MASONRY/TCU REMOVAL/PLAYGROUND/LOW VOLT,CIP,Q079,147-27 15 DRIVE,Queens,40.785909,-73.818058
P.S. 317 - QUEENS,SANDY: HEAT/FLOOD/ELEC/ INTERIOR/NON-SANDY:CLIMATE,CIP,Q225,1-90 BEACH 110 STREET,Queens,40.580928,-73.831836
P.S. 40 - QUEENS,ELECTRICAL WORK FOR A/C INITIATIVE/LSP LL26 CODE COMPLIANCE/EXIT SIGN REPLACEMENT,CIP,Q040,109-20 UNION HALL STREET,Queens,40.694125,-73.790675
"MIDDLE SCHL MEDIA, LAW AND FIN",PARAPETS/EXTERIOR MASONRY/ROOFS,CIP,K232,905 WINTHROP STREET,Brooklyn,40.65843,-73.929076
I.S. 371 - BRONX,EXTERIOR MASONRY,CIP,X192,650 HOLLYWOOD AVENUE,Bronx,40.826526,-73.81841700000001
P.S. @ 270 59TH STREET- BROOKLYN,New,CAP,K746,270 59TH STREET,Brooklyn,40.643211,-74.020802
P.S. 143 - QUEENS,Demo,CAP,Q143,34-74 113 STREET,Queens,40.755451,-73.855192
THE URBAN ASSEMBLY SCHOOL FOR,FACADE/PAVED AREAS CONCRETE,CIP,M501,2005 MADISON AVENUE,Manhattan,40.807383,-73.939433
RICHMOND HILL HS - QUEENS,LSP GYMNASIUM  BLEACHERS REPLACEMENT,CIP,Q475,89-30 114 STREET,Queens,40.695888,-73.833681
HARVEY MILK SCHOOL - MANHATTAN,FY15 RESO A SECURITY CAMERAS,CIP,M807,2-10 ASTOR PLACE,Manhattan,40.730038,-73.992632
P.S. /I.S 295 - QUEENS,FY19 RESO A AUDITORIUM UPGRADE,CIP,Q263,222-14 JAMAICA AVENUE,Queens,40.720619,-73.73199699999999
HS FOR ENVIRONMENTAL STUDIES -,6TH FLOOR EGRESS/FIRE ALARM,CIP,M834,444 WEST 56 STREET,Manhattan,40.767791,-73.987531
P.S. 29 - BRONX,FY18 RESO A AUDITORIUM  UPGRADE,CIP,X029,758 COURTLANDT AVENUE,Bronx,40.821515000000005,-73.91727900000001
BROOKLYN TECH HS - K,IPDVS CAMERA INSTALLATION,CIP,K430,29 FT GREENE PLACE,Brooklyn,40.688834,-73.976905
P.S. 1 - MANHATTAN,FLOOD ELIMINATION/WINDOWS/EXTERIOR MASONRY/ROOF,CIP,M001,8 HENRY STREET,Manhattan,40.71276,-73.997489
P.S. @ PARCEL F - QUEENS,Demo,CAP,Q375,1-35 57TH AVENUE,Queens,40.738836,-73.96060899999999
P.S. 32 - STATEN ISLAND,LSP LL26 CODE COMPLIANCE/EXIT SIGN REPLACEMENT,CIP,R032,232 BARLOW AVENUE,Staten Island,40.558966,-74.155517
JOHN BOWNE HS - QUEENS,EXTERIOR MASONRY/ROOFS,CIP,Q425,63-25 MAIN STREET,Queens,40.738139,-73.82494399999999
P.S. 36 - QUEENS,STANDALONE GYM ANNEX,CIP,Q357,187-01 FOCH BLVD,Queens,40.690828,-73.76390699999999
P.S. 284 - BROOKLYN,LOW VOLTAGE ELECTRICAL SYSTEM/WATER PENETRATION,CIP,K284,213 OSBORN STREET,Brooklyn,40.667377,-73.908214
CURTIS HIGH SCHOOL ANNEX - STA,Addition,CAP,R453,105B HAMILTON AVENUE,Staten Island,40.644735,-74.081222
MULTICULTURAL HS - BROOKLYN,PARAPETS/FLOOD ELIMINATION/ROOFS/EXTERIOR MASONRY,CIP,K420,999 JAMAICA AVENUE,Brooklyn,40.691146,-73.868328
P.S. 115 - QUEENS,PLANYC BOILER CNVRSN/PLANYC CLIMATE CTRL,CIP,Q115,80-51 261 STREET,Queens,40.744099,-73.709845
I.S. 51 - STATEN ISLAND,FY15 RESO A SCHOOL YARD RENOVATION,CIP,R051,20 HOUSTON STREET,Staten Island,40.622585,-74.14488
WORLD JOURNALISM PREPARATORY-Q,FY19 RESO A IPDVS CAMERA INSTALLATION,CIP,Q025,34-65 192 STREET,Queens,40.765133,-73.790083
EAST SIDE COMMUNITY SCHOOL,FIFTH FLOOR CEILING REPLACEMENT,CIP,M060,420 EAST 12 STREET,Manhattan,40.729589,-73.982555
P.S. 2 - QUEENS,FY15 RESO A ACCESSIBILITY,CIP,Q002,75-10 21 AVENUE,Queens,40.770335,-73.894476
P.S. 38 - MANHATTAN,PARAPETS,CIP,M121,232 EAST 103 STREET,Manhattan,40.788952,-73.944538
P.S. 193 - QUEENS,TCU REMOVAL/PLAYGROUND REDEVELOPMENT/PLANYC CLIMATE CONTROL/PLANYC BOILER CONVERSION,CIP,Q193,152-20 11 AVENUE,Queens,40.792483,-73.809741
I.S. 343 - BRONX,FY16 RESO A SUPPLEMENTAL COOLING,CIP,X139,345 BROOK AVENUE,Bronx,40.81004,-73.917792
P.S. 229 - QUEENS,WINDOWS,CIP,Q229,67-25 51 ROAD,Queens,40.734294,-73.89755699999999
P.S. 206 - MANHATTAN,FY17 RESO A AUDITORIUM UPGRADE,CIP,M206,508 EAST 120 STREET,Manhattan,40.797467,-73.930868
RALPH R. MCKEE CAREER AND TECH,EXTERIOR MASONRY/PARAPETS/ROOFS/FLOOD ELIMINATION,CIP,R600,290 ST MARKS PLACE,Staten Island,40.642793,-74.07873000000001
P.S./I.S. 217 - MANHATTAN,FY14 RESO A GREEN ROOF,CIP,M271,645 MAIN STREET,Manhattan,40.763894,-73.947916
P.S. 132 - QUEENS,EXT MASONRY/ROOFS/PARAPETS/FLOOD ELIMINATION,CIP,Q132,132-15 218 STREET,Queens,40.682114,-73.74991999999999
P.S. 1 - BROOKLYN,PUBLIC ADDRESS/CLOCK SYSTEM,CIP,K001,309 47 STREET,Brooklyn,40.649042,-74.012289
P.S. 37 - QUEENS,FLOOD/FA/EXT MASONRY/ELEVATOR/PARAPETS/FLOOD,CIP,Q037,179-37 137 AVENUE,Queens,40.67588,-73.758505
BENJAMIN N. CARDOZO HS - QUEEN,ATHLETIC FIELDS/TCU REMOVAL & PLAYGROUND REDEVELOP,CIP,Q415,57-00 223 STREET,Queens,40.752333,-73.75599
P.S. 225 - BROOKLYN,FLOOD ELMNTN/ROOFS/EXTERIOR MASONRY/PARAPETS,CIP,K225,1075 OCEAN VIEW AVENUE,Brooklyn,40.579737,-73.956329
BROOKLYN GARDENS ELEMENTARY SC,ELECTRICAL WORK FOR A/C INITIATIVE/LL26 CODE COMPLIANCE/EXIT SIGN REPLACEMENT,CIP,K174,574 DUMONT AVENUE,Brooklyn,40.665798,-73.897723
M.S. 282 - QUEENS,ELECTRICAL WORK FOR A/C INITIATIVE,CIP,Q465,8-21 BAY 25 STREET,Queens,40.60201,-73.762795
NYC LAB MIDDLE SCHOOL - MANHAT,LOW VOLTAGE ELECTRICAL SYSTEM,CIP,M070,333 WEST 17 STREET,Manhattan,40.742129,-74.00219799999999
P.S. @ 4302 4TH AVENUE - BROOKLYN,New,CAP,K557,4302 4TH AVENUE,Brooklyn,40.650305,-74.008602
A. PHILIP RANDOLPH HS -MANHATT,EXT MASONRY/FLOOD ELMNTN/PARAPETS/ROOFS,CIP,M540,443 WEST 135 STREET,Manhattan,40.818188,-73.950356
P.S. 217 - BROOKLYN,EXT MASONRY/FLOOD/WINDOWS/PARAPETS,CIP,K217,1100 NEWKIRK AVENUE,Brooklyn,40.63398,-73.96655799999999
I.S./H.S. 336 - QUEENS,Lease,CAP,Q336,124-06 14TH AVENUE,Queens,40.785327,-73.843749
P.S. 196 - BROOKLYN,DEFECTIVE FOUNDATION WALLS- WATER INFILTRATION/DEFECTIVE FACADE/ROOFS,CIP,K196,207 BUSHWICK AVENUE,Brooklyn,40.708723,-73.940002
P.S. 88 - QUEENS,FIRE ALARM SYSTEM REPLACEMENT,CIP,Q088,60-85 CATALPA AVENUE,Queens,40.703779,-73.896374
EDWARD R. MURROW HS - K,IP DIGITAL VIDEO SURVEILLANCE SYSTEM,CIP,K525,1600 AVENUE L,Brooklyn,40.620525,-73.959285
3K CENTER @ 104-06 101 AVENUE - QUEENS,Lease,CAP,Q474,104-06 101 AVENUE,Queens,40.686281,-73.838882
I.S. 343 - BRONX,FY16 RESO A SUPPLEMENTAL COOLING,CIP,X139,345 BROOK AVENUE,Bronx,40.81004,-73.917792
P.S. 3 - BRONX,HVAC CONTROLS/VENTILATION,CIP,X003,2100 LAFONTAINE AVE,Bronx,40.849897,-73.892289
I.S. 821 - BROOKLYN,FY16 RESO A GYMNASIUM UPGRADE,CIP,K136,4004 4TH AVENUE,Brooklyn,40.651977,-74.006862
P.S. 35 - QUEENS,STORM WATER DRAINAGE,CIP,Q035,191-02 90TH AVENUE,Queens,40.713759,-73.769439
ABRAHAM LINCOLN HS - BROOKLYN,SANDY: INTERIOR/VENT/ELEC/FLOOD/ATHLETIC FIELD,CIP,K411,2800 OCEAN PARKWAY,Brooklyn,40.581681,-73.967308
JAMAICA GATEWAY TO THE SCIENCE,LSP GYMNASIUM BLEACHERS REPLACEMENT,CIP,Q470,167-01 GOTHIC DRIVE,Queens,40.713218,-73.797237
URBN ASSY SCHL CRIM JUSTICE -,SCIENCE LAB UPGRADE,CIP,K223,4200 16 AVENUE,Brooklyn,40.634875,-73.981528
P.S. @ 4513 8TH AVENUE - BROOKLYN,New,CAP,K730,4513 8TH AVENUE,Brooklyn,40.643781,-74.000926
P.S. 344 - BRONX,FY19 RESO A PLAYGROUND,CIP,X095,3961 HILLMAN AVENUE,Bronx,40.882898,-73.891256
J.H.S. 157 - QUEENS,FY16 RESO A ROOM CONVERSIONS / PART,CIP,Q157,63-55 102ND STREET,Queens,40.732289,-73.853825
P.S. 175 HENRY H GARNET - M,FY18 RESO A AUDITORIUM  UPGRADE,CIP,M175,175 WEST 134 STREET,Manhattan,40.814422,-73.943664
P.S. 161 - BRONX,FULL ACCESSIBILITY/LOW VOLTAGE ELECTRICAL SYSTEM,CIP,X161,628 TINTON AVENUE,Bronx,40.814916,-73.905518
P.S. 80 - STATEN ISLAND,FY17 RESO A GYMNASIUM UPGRADE,CIP,R880,715 OCEAN TERRACE,Staten Island,40.608517,-74.102078
P.S. 233 - BROOKLYN,MASONRY/CORRODED BEAMS/ROOFS/PARAPETS,CIP,K233,9301 AVENUE B,Brooklyn,40.651022,-73.91402
P.S. 11 - BRONX,DEFECTIVE RETAINING WALL & PAVEMENTS,CIP,X011,1257 OGDEN AVENUE,Bronx,40.839378,-73.925714
Q075 SPED - QUEENS,PLANYC BOILER CNVRSN/PLANYC CLIMATE CTRL,CIP,Q075,16-66 HANCOCK STREET,Queens,40.698476,-73.905556
P.S. 254 ADDITION,Addition,CAP,K254,1801 AVENUE Y,Brooklyn,40.590423,-73.951753
P.S. 33 - QUEENS,ROOF REPAIR/PARAPETS/EXTERIOR MASONRY,CIP,Q033,91-37 222 STREET,Queens,40.727134,-73.735077
P.S. 195 - BRONX,FY17 RESO A AUDITORIUM UPGRADE,CIP,X077,1250 WARD AVENUE,Bronx,40.830691,-73.87774300000001
P.S. 158 - MANHATTAN,PLAYGROUNDS,CIP,M158,1458 YORK AVENUE,Manhattan,40.770419,-73.951135
P.S. 245 - BROOKLYN,ELECTRICAL WORK FOR A/C INITIATIVE/LSP LL26 CODE COMPLIANCE/EXIT SIGN REPLACEMENT,CIP,K735,249 EAST 17 STREET,Brooklyn,40.645016,-73.963208
P.S. 233 - BROOKLYN,MASONRY/CORRODED BEAMS/ROOFS/PARAPETS,CIP,K233,9301 AVENUE B,Brooklyn,40.651022,-73.91402
P.S. 307 - BROOKLYN,RENOVATION OF CLASSROOM 332,CIP,K307,209 YORK STREET,Brooklyn,40.701343,-73.982314
P.S. 36 - BRONX,FULL PROGRAM ACCESSIBILITY,CIP,X036,1070 CASTLE HILL AVENUE,Bronx,40.829344,-73.85042800000001
EAST NY FAMILY ACADEMY - K,New,CAP,K599,2057 LINDEN BLVD,Brooklyn,40.661072,-73.886942
P.S. 36 - MANHATTAN,PLAYGROUND/WATER INFILTRATION/EXTERIOR MASONRY,CIP,M036,123 MORNINGSIDE DRIVE,Manhattan,40.81027,-73.957482
3K CENTER @ 2389 RICHMOND AVENUE - STATEN ISLAND,Lease,CAP,R100,2389 RICHMOND AVENUE,Staten Is,40.59031,-74.166186
P.S. 282 - BROOKLYN,LSP VACUUM PUMP,CIP,K282,180 6TH AVENUE,Brooklyn,40.67634,-73.977367
P.S. 9 - BRONX,PLANYC BOILER CNVSN/PLANYC CLIMATE CTRL,CIP,X009,230 EAST 183 STREET,Bronx,40.857067,-73.89893599999999
P.S. 375 - BROOKLYN,PLANYC BOILER CNVRSN/PLANYC CLIMATE CTRL,CIP,K320,46 MCKEEVER PLACE,Brooklyn,40.665035,-73.95903100000001
I.S. 68 - BROOKLYN,ELECTRICAL WORK FOR A/C INITIATIVE/LL26 CODE COMPLIANCE/EXIT SIGN REPLACEMENT,CIP,K068,956 EAST 82 STREET,Brooklyn,40.635553,-73.91079
P.S. 95 - BROOKLYN,FY17 RESO A SUPPLEMENTAL COOLING,CIP,K095,345 VAN SICKLEN STREET,Brooklyn,40.595698,-73.97518000000001
P.S. 303 - QUEENS,Addition,CAP,Q003,108-55 69TH AVENUE,Queens,40.725098,-73.845091
Q811 SPED - QUEENS,PLANYC BOILER CNVRSN/PLANYC CLIMATE CTRL,CIP,Q811,61-25 MARATHON PKWY,Queens,40.756778,-73.729487
P.S. 151 - QUEENS,WATER INFILTRATION/ROOFS/PARAPETS/EXT MASONRY,CIP,Q151,50-05 31 AVENUE,Queens,40.757499,-73.908898
P.S. 108 - MANHATTAN,PLANYC BOILER CONVERSION/PLANYC CLIMATE CONTROL/LOW VOLTAGE ELECTRICAL SYSTEMS/KITCHEN CONVERSION,CIP,M108,1615 MADISON AVENUE,Manhattan,40.795146,-73.948368
P.S. 119 - BROOKLYN,PLANYC BOILER CNVRSN/PLANYC CLIMATE CTRL,CIP,K119,3829 AVENUE K,Brooklyn,40.625662,-73.938265
P.S. @ 4302 4TH AVENUE - BROOKLYN,Demo,CAP,K557,4302 4TH AVENUE,Brooklyn,40.650305,-74.008602
THE URBAN ASSEMBLY SCHOOL FOR,HVAC (BMS) WORK/BACKFLOW PREVENTER & WATER METER,CIP,M470,145 WEST 84 STREET,Manhattan,40.785803,-73.974614
EAST BRONX ACADEMY FOR THE FUT,IPDVS CAMERA INSTALLATION,CIP,X973,1716 SOUTHERN BLVD,Bronx,40.836356,-73.888361
I.S. 529 - BRONX,ELECTRICAL WORK FOR A/C INITIATIVE/LSP LL26 CODE COMPLIANCE/EXIT SIGN REPLACEMENT,CIP,X142,3750 BAYCHESTER AVENUE,Bronx,40.884953,-73.840524
I.S. 24 - STATEN ISLAND,FY18 RESO A SCIENCE LAB UPGRADES,CIP,R024,225 CLEVELAND AVENUE,Staten Island,40.545281,-74.14631999999999
MOTT HAVEN COMMUNITY HIGH SCHO,FLOOD ELIMINATION/WINDOWS,CIP,X655,455 SOUTHERN BLVD,Bronx,40.810803,-73.907015
ABRAHAM LINCOLN HS - BROOKLYN,SANDY: INTERIOR/VENT/ELEC/FLOOD/ATHLETIC FIELD,CIP,K411,2800 OCEAN PARKWAY,Brooklyn,40.581681,-73.967308
P.S. 306 - BROOKLYN,ELECTRICAL WORK FOR A/C INITIATIVE/LL26 CODE COMPLIANCE/EXIT SIGN REPLACEMENT,CIP,K306,970 VERMONT STREET,Brooklyn,40.655997,-73.886547
A-TECH HIGH SCHOOL - K,ELECTRICAL WORK FOR A/C INITIATIVE,CIP,K610,50 BEDFORD AVENUE,Brooklyn,40.721981,-73.953281
P.S. 54 - STATEN ISLAND,STANDALONE GYM ANNEX,CIP,R702,1060 WILLOWBROOK ROAD,Staten Island,40.603232,-74.13798100000001
J.H.S. 292 - MANHATTAN,ROOFS,CIP,M056,220 HENRY STREET,Manhattan,40.713684,-73.986336
P.S. 333 - MANHATTAN,EXTERIOR MASONRY/ROOFS/PARAPETS,CIP,M118,154 WEST 93 STREET,Manhattan,40.791728000000006,-73.970845
P.S. 160 - QUEENS,FY17 RESO A AUDITORIUM UPGRADE,CIP,Q160,109-59 INWOOD STREET,Queens,40.688103000000005,-73.800415
FRANCIS LEWIS HS ANNEX - QUEENS,New,CAP,Q434,58-20 UTOPIA PARKWAY,Queens,40.740724,-73.79283000000001
NEW UTRECHT HS - BROOKLYN,WATER PENETRATION INTO BASEMENT/NATATORIUM RECONSTRUCTION,CIP,K445,1601 80 STREET,Brooklyn,40.613262,-74.003404
P.S. 212 - BRONX,RENEWAL SBHC,CIP,X198,1180 TINTON AVENUE,Bronx,40.828419,-73.90072099999999
P.S. 193 - BROOKLYN,FY18 RESO A AUDITORIUM  UPGRADE,CIP,K193,2515 AVENUE L,Brooklyn,40.621507,-73.950473
P.S. 104 - QUEENS,BOILER REPLACEMENT/CLIMATE CONTROL/HVAC,CIP,Q104,26-01 MOTT AVENUE,Queens,40.608467,-73.764548
BRONX MATH PREP - BRONX,PAVED AREAS-CONCRETE,CIP,X174,456 WHITE PLAINS ROAD,Bronx,40.814833,-73.85658000000001
WASHINGTON IRVING HS - MANHATT,EXTERIOR MASONRY/ROOFS/PARAPETS/FLOOD ELIMINATION/WINDOWS/GYM FLOOR,CIP,M460,40 IRVING PLACE,Manhattan,40.735494,-73.987659
LONG ISLAND CITY HS - Q,FIRE ALARM SYSTEM/BUILDING MGMT SYSTEM,CIP,Q452,14-30 BROADWAY,Queens,40.765826,-73.9328
FREDERICK DOUGLASS ACADEMY VI,MASONRY/ROOFS/WINDOWS/PARAPETS/NATATORIUM STRUCTURAL REPAIRS,CIP,Q465,8-21 BAY 25 STREET,Queens,40.60201,-73.762795
K811 SPED - BROOKLYN,FY18 RESO A IPDVS CAMERA INSTALLATION,CIP,K286,2525 HARING STREET,Brooklyn,40.591109,-73.9391
ALC - BROOKLYN CHOICES,EXT MASONRY/WINDOWS/PARAPETS/ROOFS,CIP,K799,271 MELROSE STREET,Brooklyn,40.702083,-73.929647
P.S. 124 - BROOKLYN,FLOOD/ROOFS/PARAPETS/EXT MASONRY,CIP,K124,515 4TH AVENUE,Brooklyn,40.667545,-73.991046
P.S. 216 - BROOKLYN,FY15 RESO A SUPPLEMENTAL COOLING,CIP,K216,350 AVENUE X,Brooklyn,40.590564,-73.969964
PERFORMING ARTS AND TECH. HS -,FY14 RESO A GYMNASIUM UPGRADE,CIP,K435,400 PENNSYLVANIA AVENUE,Brooklyn,40.667456,-73.894747
P.S. 21 - QUEENS,CEILING REPAIR,CIP,Q021,147-36 26TH AVENUE,Queens,40.774512,-73.819284
I.S. 340 - BROOKLYN,EXTERIOR MASONRY/FLOOD ELIMINATION,CIP,K874,227 STERLING PLACE,Brooklyn,40.676094,-73.97038
SHEEPSHEAD BAY HS - BROOKLYN,SCHOOL BASED HEALTH CENTER,CIP,K495,3000 AVENUE X,Brooklyn,40.594124,-73.937696
J.H.S. 194 - QUEENS,PLANYC BOILER CNVRSN/PLANYC CLIMATE CTRL,CIP,Q194,154-60 17 AVENUE,Queens,40.78365,-73.807838
P.S. 333 - MANHATTAN,FY18 RESO A AUDITORIUM UPGRADE,CIP,M118,154 WEST 93 STREET,Manhattan,40.791728000000006,-73.970845
NORTH BRONX SCHOOL OF EMPOWERM,IP DIGITAL VIDEO SURVEILLANCE SYSTEM,CIP,X113,3710 BARNES AVENUE,Bronx,40.880873,-73.860904
J.H.S. 216 - QUEENS,PLANYC BOILER CNVRSN/PLANYC CLIMATE CTRL,CIP,Q216,64-20 175 STREET,Queens,40.737517,-73.794031
P.P.A.S. - MANHATTAN,FY13 RESO A ROOM CONVERSIONS / PART,CIP,M017,328 WEST 48 STREET,Manhattan,40.761448,-73.988019
BROOKLYN ACADEMY HS - BROOKLYN,WORK REQUIRED TO OBTAIN A C OF O,CIP,K458,832 MARCY AVENUE,Brooklyn,40.685004,-73.947152
P.S. 114 - BROOKLYN,FY18 RESO A AUDITORIUM  UPGRADE,CIP,K114,1077 REMSEN AVENUE,Brooklyn,40.642792,-73.90880600000001
BUSHWICK HS OF SOCIAL JUSTICE,SCHOOL BASED HEALTH CENTER,CIP,K480,400 IRVING AVENUE,Brooklyn,40.69697,-73.910791
P.S. 30 - MANHATTAN,ROOFS/EXTERIOR MASONRY,CIP,M030,144-176 EAST 128 STREET,Manhattan,40.805953,-73.935179
AUGUST MARTIN HS - QUEENS,IPDVS CAMERA INSTALLATION,CIP,Q400,156-10 BAISLEY BLVD,Queens,40.675633000000005,-73.783342
P.S. 167 - BROOKLYN,EXT MASONRY - WATER PENETRATION/PARAPETS/ROOFS,CIP,K167,1025 EASTERN PARKWAY,Brooklyn,40.669001,-73.934635
DISTRICT 20 PRE-K CENTER,BACKFLOW PREVENTION DEVICES,CIP,K767,1668 46TH STREET,Brooklyn,40.631768,-73.98221
P.S. 198 - MANHATTAN,WINDOWS/ROOFS/PARAPETS,CIP,M198,1700 3RD AVENUE,Manhattan,40.784826,-73.949611
P.S. 92 - MANHATTAN,COLLASPED WALL,CIP,M092,222 WEST 134 STREET,Manhattan,40.815016,-73.945123
P.S. 136 - QUEENS,FY17 RESO A PLAYGROUND REDEVELOPMENT,CIP,Q136,201-15 115 AVENUE,Queens,40.698279,-73.752654
P.S. 189 - BROOKLYN,STANDALONE GYM ANNEX,CIP,K707,1100  EAST NEW YORK AVENUE,Brooklyn,40.665565,-73.92624599999999
P.S. 215 - BROOKLYN,EXTERIOR MASONRY/PARAPETS,CIP,K215,415 AVENUE S,Brooklyn,40.602084000000005,-73.970013
I.S. 125 - BRONX,FY17 RESO A SUPPLEMENTAL COOLING,CIP,X125,1111 PUGSLEY AVENUE,Bronx,40.829232,-73.856734
P.S. 212 - BROOKLYN,EXT MASONRY - WATER PENETRATION/PARAPETS/ROOFS/WIN,CIP,K212,87 BAY 49 STREET,Brooklyn,40.587616,-73.985948
P.S. 172 - BROOKLYN,STANDALONE GYM ANNEX,CIP,K477,825 4TH AVENUE,Brooklyn,40.657914,-74.000652
BAYSIDE HIGH SCHOOL - QUEENS,TCU REMOVAL / PLAYGROUND REDEVELOPMENT,CIP,Q405,32-24 CORPORAL KENNEDY STREET,Queens,40.771755,-73.78029599999999
P.S. 307 - BROOKLYN,RENOVATION OF CLASSROOM 332,CIP,K307,209 YORK STREET,Brooklyn,40.701343,-73.982314
MARTIN VAN BUREN HS - QUEENS,RNWL SBHC,CIP,Q435,230-17 HILLSIDE AVENUE,Queens,40.733066,-73.73875600000001
J.H.S. 172 - QUEENS,FY18 RESO A LOCKER ROOM UPGRADE,CIP,Q172,81-14 257 STREET,Queens,40.741944,-73.712965
P.S. 14 - BRONX,Addition,CAP,X014,3047 BRUCKNER BLVD,Bronx,40.83587,-73.825774
P.S. 181 - QUEENS,FLOORS & WALLS/ROOFS/PARAPETS/EXT MASONRY/FLOOD,CIP,Q181,148-15 230 STREET,Queens,40.656126,-73.75320699999999
THE URBAN ASSEMBLY BRONX ACADE,FLOOD ELIMINATION/PARAPETS/ROOFS/EXTERIOR MASONRY,CIP,X183,339 MORRIS AVENUE,Bronx,40.813641,-73.925313
I.S. 10 - QUEENS,ELECTRICAL WORK FOR A/C INITIATIVE,CIP,Q010,45-11 31 AVENUE,Queens,40.759363,-73.912902
STATEN ISLAND TECHNICAL HS - R,FLOOD ELIMINATION/EXTERIOR MASONRY/PARAPETS,CIP,R440,485 CLAWSON STREET,Staten Island,40.567873,-74.11537299999999
P.S. 25 - BRONX,EXTERIOR MASONRY/PARAPETS/ROOFS/WINDOWS,CIP,X025,811 EAST 149 STREET,Bronx,40.812619,-73.906063
BRONX CNTR FOR SCIENCE & MATH,FY17 RESO A AUDITORIUM UPGRADE,CIP,X002,1365 FULTON AVENUE,Bronx,40.833696,-73.902477
BROOKLYN SCHOOL FOR MATH AND R,LOW VOLTAGE ELECTRICAL SYSTEMS,CIP,K480,400 IRVING AVENUE,Brooklyn,40.69697,-73.910791
FOREST HILLS HS - QUEENS,IPDVS CAMERA INSTALLATION,CIP,Q440,67-01 110 STREET,Queens,40.729402,-73.845637
I.S. 14 - BROOKLYN,WATER PENETRATION INTO BOILER ROOM/PLANYC BOILER CONVERSION/PLANYC CLIMATE CONTROL,CIP,K014,2424 BATCHELDER STREET,Brooklyn,40.593521,-73.93767199999999
J.H.S. 237 - QUEENS,ELEVATOR MODERNIZATION,CIP,Q237,46-21 COLDEN STREET,Queens,40.749545,-73.822073
P.S. 198 - BROOKLYN,LSP REPLACE STEAM TRAPS,CIP,K198,4105 FARRAGUT ROAD,Brooklyn,40.63694,-73.937339
P.S. 175 - QUEENS,ELECTRICAL WORK FOR A/C INITIATIVE/LL26 CODE COMPLIANCE/EXIT SIGN REPLACEMENT,CIP,Q175,64-35 102 STREET,Queens,40.730941,-73.853164
I.S. 14 - BROOKLYN,WATER PENETRATION/PLANYC BOILER/PLANYC CLIMATE,CIP,K014,2424 BATCHELDER STREET,Brooklyn,40.593521,-73.93767199999999
I.S. 340 - BROOKLYN,UPE- PLAYGROUND,CIP,K874,227 STERLING PLACE,Brooklyn,40.676094,-73.97038
P.S. 50 - BRONX,SWITCH GEAR REPLACEMENT,CIP,X050,1550 VYSE AVENUE,Bronx,40.834157,-73.887512
MARTIN VAN BUREN HS - QUEENS,RNWL SBHC,CIP,Q435,230-17 HILLSIDE AVENUE,Queens,40.733066,-73.73875600000001
P.S. 56 - BROOKLYN,DEFECTIVE PLAYGROUND SURFACES/EXTERIOR MASONRY/PARAPETS/ROOFS,CIP,K056,170 GATES AVENUE,Brooklyn,40.68505,-73.96065899999999
P.S. 164 - BROOKLYN,EXT MASONRY/ROOFS/CLIMATE CTRL/PARAPETS,CIP,K164,4211 14TH AVENUE,Brooklyn,40.637486,-73.985955
P.S. 199 - BRONX,5TH SBHC,CIP,X104,1449 SHAKESPEARE AVENUE,Bronx,40.842943,-73.920563
P.S. 14 - BRONX,Addition,CAP,X014,3041 BRUCKNER BLVD,Bronx,40.835779,-73.825735
I.S. 34 - STATEN ISLAND,FY18 RESO A ROOM CONVERSIONS/PARTITIONING,CIP,R034,528 ACADEMY AVE,Staten Island,40.508284,-74.24342800000001
P.S. 212 - BROOKLYN,FY18 RESO A ACCESSIBILITY,CIP,K212,87 BAY 49 STREET,Brooklyn,40.587616,-73.985948
P.S. 52 - QUEENS,FY19 RESO A AUDITORIUM UPGRADE,CIP,Q052,178-37 146 TERRACE,Queens,40.661122,-73.766733
AUGUST MARTIN HS - QUEENS,PLANYC BOILER/PLANYC CLIMATE CONTROL,CIP,Q400,156-10 BAISLEY BLVD,Queens,40.675633000000005,-73.783342
I.S. 62 - BROOKLYN,ELECTRICAL WORK FOR A/C INITIATIVE,CIP,K062,700 CORTELYOU ROAD,Brooklyn,40.638686,-73.971651
P.S. 317 - BRONX,New,CAP,X317,1028 WHITE PLAINS ROAD,Bronx,40.827029,-73.860034
P.S. 165 - MANHATTAN,EXT MASONRY/ROOFS,CIP,M165,234 WEST 109 STREET,Manhattan,40.802917,-73.965613
P.S. 13 - BROOKLYN,FY19 RESO A CAFETERIA / MULTIPURPOSE ROOM UPGRADE,CIP,K013,557 PENNSYLVANIA AVENUE,Brooklyn,40.663673,-73.893754
P.S. 43 - QUEENS,SANDY- ELEVATOR REPAIR,CIP,Q043,160 BEACH 29TH STREET,Queens,40.593834,-73.76174
P.S. 88 - QUEENS,LSP DOMESTIC WATER PRESSURE PUMP REPLACEMENT,CIP,Q088,60-85 CATALPA AVENUE,Queens,40.703779,-73.896374
P.S. 290 - BROOKLYN,ROOFS/WINDOWS/PARAPETS,CIP,K290,135 SCHENCK AVENUE,Brooklyn,40.677890000000005,-73.889758
P.S. 297 - BROOKLYN,FY19 RESO A AUDITORIUM UPGRADE,CIP,K297,700 PARK AVENUE,Brooklyn,40.697781,-73.94780899999999
P.S. 7 - BROOKLYN,LSP- VACUUM CONDENSATE PUMPS,CIP,K007,858 JAMAICA AVENUE,Brooklyn,40.689697,-73.873109
P.S. 32 - BROOKLYN,Addition,CAP,K032,317 HOYT STREET,Brooklyn,40.680445,-73.991949
P.S. 132 - MANHATTAN,IRON FENCE/FY16 RESO PLAYGRD/WATER INFILTRA/BOILER,CIP,M132,185 WADSWORTH AVENUE,Manhattan,40.850626,-73.934377
JAMES MADISON HS - BROOKLYN,SWIMMING POOL,CIP,K425,3787 BEDFORD AVENUE,Brooklyn,40.609912,-73.948512
UNIVERSITY HEIGHTS HS - BRONX,IP DIGITAL VIDEO SURVEILLANCE SYSTEM,CIP,X470,701 ST ANNS AVENUE,Bronx,40.81825,-73.91103000000001
LIBERTY AVENUE MIDDLE SCHOOL,TCU REMOVAL/PLAYGROUND REDEVELOPMENT,CIP,K302,350 LINWOOD STREET,Brooklyn,40.677104,-73.883433
P.S. 67 - BRONX,FLOOD ELIMINATION/ROOFS/PARAPETS/WINDOWS/EXTERIOR MASONRY/TCU REMOVAL/PLAYGROUND REDEVELOPMENT/PAVED AREAS- CONCRETE/CAFETERIA FLOOR REPLACEMENT,CIP,X067,2024 MOHEGAN AVENUE,Bronx,40.843945,-73.884788
ACAD. FOR ENVIRON. LDRSHP - K,FY14 RESO A SCIENCE LAB,CIP,K480,400 IRVING AVENUE,Brooklyn,40.69697,-73.910791
P.S. 124 - QUEENS,PLANYC BOILER CONVERSION/CLIMATE CTRL,CIP,Q124,129-15 150 AVENUE,Queens,40.665058,-73.811701
I.S. 424 - BRONX,FY19 RESO A SCHOOL SAFETY,CIP,X074,730 BRYANT AVENUE,Bronx,40.815455,-73.88577
P.S. 198 - MANHATTAN,WINDOWS/ROOFS/PARAPETS,CIP,M198,1700 3RD AVENUE,Manhattan,40.784826,-73.949611
P.S. 41 - BRONX,PLANYC BOILER CONVERSION/CLIMATE CONTROL,CIP,X041,3352 OLINVILLE AVENUE,Bronx,40.874313,-73.868157
QUEENS COLLEGIATE SCHOOL - QUE,ELECTRICAL WORK FOR A/C INITIATIVE,CIP,Q470,167-01 GOTHIC DRIVE,Queens,40.713218,-73.797237
SUSAN E. WAGNER HS - STATEN IS,EXTERIOR DOORS/EXTERIOR MASONRY/WINDOWS/PARAPETS/ROOFS,CIP,R460,1200 MANOR ROAD,Staten Island,40.596803,-74.124227
P.S. 219 - QUEENS,ROOFS,CIP,Q219,144-39 GRAVETT ROAD,Queens,40.735275,-73.823778
BROOKLYN LANDMARK ELEMENTARY S,ENY DANCE STUDIO,CIP,K073,251 MACDOUGAL STREET,Brooklyn,40.680318,-73.91064399999999
UNIVERSITY HEIGHTS HS - BRONX,ATHLETIC FIELDS,CIP,X471,701 ST ANNS AVENUE,Bronx,40.81825,-73.91103000000001
P.S. 123 - QUEENS,TCU REMOVAL & PLAYGROUND REDEVELOPMENT,CIP,Q123,145-01 119 AVENUE,Queens,40.678296,-73.79562
NYC SCHOOL CONSTRUCTION AUTHOR,3RD FLOOR PANTRY AND OFFICE BUILD OUT,CIP,Q998,30-30 THOMSON AVENUE,Queens,40.745042,-73.93619100000001
P.S. 123 - QUEENS,TCU REMOVAL & PLAYGROUND REDEVELOPMENT,CIP,Q123,145-01 119 AVENUE,Queens,40.678296,-73.79562
CYPRESS HILLS COLLEGIATE - K,PARAPETS/ELECTRICAL WORK FOR A/C INITIATIVE/FLOOD ELIM/ROOFS/EXT MASONRY/LL26 CODE COMPLIANCE/EXIT SIGN REPLACEMENT,CIP,K420,999 JAMAICA AVENUE,Brooklyn,40.691146,-73.868328
P.S. 197 - QUEENS,EXTERIOR MASONRY/ROOFS,CIP,Q197,825 HICKSVILLE ROAD,Queens,40.600199,-73.74396800000001
JOHN BOWNE HS - QUEENS,IP DIGITAL VIDEO SURVEILLANCE SYSTEM,CIP,Q425,63-25 MAIN STREET,Queens,40.738139,-73.82494399999999
P.S. 129 - QUEENS,Addition,CAP,Q129,128-02 7TH AVENUE,Queens,40.790638,-73.839771
P.S. 66 - QUEENS,Addition,CAP,Q066,85-11 102 STREET,Queens,40.697836,-73.846558
JAMES MADISON HS - BROOKLYN,SWIMMING POOL,CIP,K425,3787 BEDFORD AVENUE,Brooklyn,40.609912,-73.948512
MIDDLE SCHOOL FOR ART & PHILOS,FY18 RESO A ROOM CONVERSIONS/PARTITIONING,CIP,K252,1084 LENOX ROAD,Brooklyn,40.658295,-73.920109
P.S. 97 ADDITION,Addition,CAP,X097,1375 MACE AVENUE,Bronx,40.862839,-73.84679100000001
P.S. 5 - BROOKLYN,FY19 RESO A AUDITORIUM UPGRADE,CIP,K005,820 HANCOCK STREET,Brooklyn,40.685695,-73.922463
FOREST HILLS HS - QUEENS,ELECTRICAL WORK FOR A/C INITIATIVE,CIP,Q440,67-01 110 STREET,Queens,40.729402,-73.845637
P.S. 63 - BRONX,FY18 RESO A AUDITORIUM  UPGRADE,CIP,X063,1260 FRANKLIN AVENUE,Bronx,40.830995,-73.90270500000001
P.S. 128 - MANHATTAN,PLANYC BOILER CNVSN/PLANYC CLIMATE CTRL,CIP,M128,560 WEST 169 STREET,Manhattan,40.841359,-73.93859300000001
"QNS HS OF TEACH., LIB. ARTS&SC",FY18 RESO A SECURITY CAMERAS,CIP,Q566,74-20 COMMONWEALTH BLVD,Queens,40.746088,-73.727535
P.S. @ 4302 4TH AVENUE - BROOKLYN,Demo,CAP,K557,4302 4TH AVENUE,Brooklyn,40.650305,-74.008602
P.S. 97 - BROOKLYN,Addition,CAP,K097,1855 STILLWELL AVENUE,Brooklyn,40.601433,-73.986139
I.S. 232 - BRONX,ROOFS/PARAPETS/EXTERIOR MASONRY,CIP,X082,1700 MACOMBS ROAD,Bronx,40.849532,-73.916077
P.S. 354 - QUEENS,WATER INFILTRATION,CIP,Q030,126-10 BEDELL STREET,Queens,40.68031,-73.77443199999999
P.S. 199 - QUEENS,EXTERIOR MASONRY/PARAPETS,CIP,Q199,39-20 48 AVENUE,Queens,40.740088,-73.926214
P.S. 3 - BRONX,HVAC CONTROLS/VENTILATION,CIP,X003,2100 LAFONTAINE AVE,Bronx,40.849897,-73.892289
P.S. 22 - STATEN ISLAND,ELECTRICAL WORK FOR A/C INITIATIVE,CIP,R022,1860 FOREST AVENUE,Staten Island,40.625369,-74.15097
LIBERTY AVENUE MIDDLE SCHOOL,TCU REMOVAL/PLAYGROUND REDEVELOPMENT,CIP,K302,350 LINWOOD STREET,Brooklyn,40.677104,-73.883433
P.S. 45 - QUEENS,FY15 RESO A AUDITORIUM UPGRADE,CIP,Q045,126-28 150 STREET,Queens,40.672727,-73.788164
CLARA BARTON HS - K,EXTERIOR MASONRY/ROOFS,CIP,K600,901 CLASSON AVENUE,Brooklyn,40.669567,-73.961962
P.S. 53 - STATEN ISLAND,FY18 RESO A AUDITORIUM UPGRADE,CIP,R053,330 DURANT AVENUE,Staten Island,40.55258,-74.13705999999999
P.S. 111 - QUEENS,FY18 RESO A AUDITORIUM  UPGRADE,CIP,Q111,37-15 13 STREET,Queens,40.758831,-73.93938
P.S. 36 - STATEN ISLAND,LSP STEAM AND CONDENSATE LINE,CIP,R036,255 IONIA AVENUE,Staten Island,40.543083,-74.182299
P.S. 34 - QUEENS,LOOSE MASONRY/ROOFS/WINDOWS,CIP,Q034,104-12 SPRINGFIELD BLVD,Queens,40.711753,-73.736624
P.S. /I.S 295 - QUEENS,IPDVS CAMERA INSTALLATION,CIP,Q263,222-14 JAMAICA AVENUE,Queens,40.720619,-73.73199699999999
P.S. 382 - BRONX,DAMAGE STONE/PARAPETS/ROOFS/WINDOWS,CIP,X079,125 EAST 181 STREET,Bronx,40.854872,-73.903458
P.S. 2 MINISCHOOL - QUEENS,Demo,CAP,Q002,75-10 21 AVENUE,Queens,40.770335,-73.894476
CAMBRIA HEIGHTS ACADEMY - QUEE,LSP DANFOSS RADIATOR STEAM VALVES,CIP,Q799,188-04 91ST AVENUE,Queens,40.711849,-73.77119499999999
MONROE ACAD FOR VISUAL ARTS -,BOILER/CLIMATE CONTROL/WATER INFILTRATION,CIP,X420,1300 BOYNTON AVENUE,Bronx,40.831601,-73.878912
EAST NY FAMILY ACADEMY - K,New,CAP,K599,2057 LINDEN BLVD,Brooklyn,40.661072,-73.886942
P.S. 109 - BROOKLYN,DEFECTIVE GYMNASIUM WALLS/ROOFS/PARAPETS,CIP,K395,1001 EAST 45 STREET,Brooklyn,40.636455,-73.933582
PRE-K CENTER AT BISHOP FORD SC,PLAYGROUND,CIP,K280,500 19TH STREET,Brooklyn,40.656944,-73.983115
BROOKLYN TECH HS - K,ELECTRICAL WORK FOR A/C INITIATIVE,CIP,K430,29 FT GREENE PLACE,Brooklyn,40.688834,-73.976905
P.S. 88 - QUEENS,LOW VOLTAGE ELECTRICAL SYSTEM,CIP,Q088,60-85 CATALPA AVENUE,Queens,40.703779,-73.896374
FORT HAMILTON HS - K,POOL BOILER,CIP,K490,8301 SHORE ROAD,Brooklyn,40.627835,-74.04004599999999
P.S. 184 - QUEENS,PLANYC BOILER CNVRSN/PLANYC CLIMATE CTRL,CIP,Q184,163-15 21 ROAD,Queens,40.778095,-73.800163
P.S. 131 - QUEENS,ROOFS/EXT MASONRY/PARAPETS,CIP,Q131,170-45 84TH AVENUE,Queens,40.716617,-73.794637
THE FAMILY SCHOOL - BRONX,EXTERIOR MASONRY/ROOFS,CIP,X090,1116 SHERIDAN AVENUE,Bronx,40.831992,-73.91796
P.S. 97 - BROOKLYN,Addition,CAP,K097,1855 STILLWELL AVENUE,Brooklyn,40.601433,-73.986139
EL PUENTE ACADEMY - BROOKLYN,MASONRY/WINDOWS/PARAPETS/ROOFS,CIP,K778,250 HOOPER STREET,Brooklyn,40.705898,-73.955611
P.S. 19 - MANHATTAN,ROOFS,CIP,M019,185 1ST AVENUE,Manhattan,40.729636,-73.983818
P.S. 280 - QUEENS,UPE- INTERIOR CONVERSION,CIP,Q280,34-20 94TH STREET,Queens,40.754241,-73.873769
P.S./I.S. 338 - BROOKLYN,New,CAP,K338,510 CONEY ISLAND AVE,Brooklyn,40.645199,-73.97052
P.S. 130 - BROOKLYN,WATER PENETRATION THROUGH EXTERIOR/PARAPETS/ROOFS,CIP,K130,70 OCEAN PARKWAY,Brooklyn,40.648884,-73.975607
M.S./H.S. 141 - BRONX,IPDVS CAMERA INSTALLATION,CIP,X141,660 WEST 237 STREET,Bronx,40.888338,-73.91348599999999
P.S. 193 - QUEENS,ELECTRICAL WORK FOR A/C INITIATIVE,CIP,Q193,152-20 11 AVENUE,Queens,40.792483,-73.809741
P.S. 298 - QUEENS,New,CAP,Q298,50-51 98TH STREET,Queens,40.742167,-73.864109
P.S. 97 - BRONX,Addition,CAP,X097,1375 MACE AVENUE,Bronx,40.862839,-73.84679100000001
K396 SPED - BROOKLYN,ELEVATOR,CIP,K396,110 CHESTER STREET,Brooklyn,40.668856,-73.91149899999999
PRE-K CENTER @ 1355 84TH STREET - BROOKLYN,Lease,CAP,K762,1355 84TH STREET,Brooklyn,40.614466,-74.011425
ESSEX STREET ACADEMY - MANHATT,FY17 RESO A BOYS LOCKER ROOM UPGRADE,CIP,M445,350 GRAND STREET,Manhattan,40.716778000000005,-73.989337
P.S. 115 - QUEENS,PARAPETS/EXT MASONRY,CIP,Q115,80-51 261 STREET,Queens,40.744099,-73.709845
J.H.S. 172 - QUEENS,FY18 RESO A LOCKER ROOM UPGRADE,CIP,Q172,81-14 257 STREET,Queens,40.741944,-73.712965
P.S. 72 - MANHATTAN,SCIENCE LAB UPGRADE,CIP,M072,131 EAST 104 STREET,Manhattan,40.791179,-73.947776
P.S. 215 - QUEENS,SOLAR PANEL,CIP,Q215,535 BRIAR PLACE,Queens,40.5993,-73.758206
I.S. 459 - BRONX,REPAIR STEPS & VPS/ROOFS/PARTIAL ACCESSIBILITY,CIP,X115,120 EAST 184 STREET,Bronx,40.859752,-73.900161
J.H.S. 216 - QUEENS,ELECTRICAL WORK FOR A/C INITIATIVE/LSP LL26 CODE COMPLIANCE/EXIT SIGN REPLACEMENT,CIP,Q216,64-20 175 STREET,Queens,40.737517,-73.794031
HS OF BUSINESS - BRONX,PARAPETS/WINDOWS/EXTERIOR MASONRY/ROOFS,CIP,X410,240 EAST 172 STREET,Bronx,40.840422,-73.91091
P.S. 31 - STATEN ISLAND,ELECTRICAL WORK FOR A/C INITIATIVE,CIP,R031,55 LAYTON AVENUE,Staten Island,40.641595,-74.085135
I.S. 210 - QUEENS,IPDVS CAMERA INSTALLATION,CIP,Q210,93-11 101 AVENUE,Queens,40.683858,-73.84747
P.S. 214 - QUEENS,RESO A SUPPLEMENTAL COOLING,CIP,Q214,31-15 140 STREET,Queens,40.770387,-73.82861700000001
P.S. 3 - STATEN ISLAND,FY16 RESO A SUPPLEMENTAL COOLING,CIP,R003,80 SOUTH GOFF AVENUE,Staten Island,40.520699,-74.211264
P.S. 5 - MANHATTAN,PARAPETS/ROOFS/WINDOWS,CIP,M005,3703 TENTH AVENUE,Manhattan,40.858990000000006,-73.922894
J.H.S. 157 - QUEENS,FY16 RESO A ROOM CONVERSIONS / DANCE STUDIO,CIP,Q157,63-55 102ND STREET,Queens,40.732289,-73.853825
P.S. 28 - BRONX,ELECTRICAL WORK FOR A/C INITIATIVE/LL26 CODE COMPLIANCE/EXIT SIGN REPLACEMENT,CIP,X028,1861 ANTHONY AVENUE,Bronx,40.848057,-73.903522
P.S. 29 - BRONX,ROOFS/FLOOD ELIMINATION/EXT MASONRY/PARAPETS,CIP,X029,758 COURTLANDT AVENUE,Bronx,40.821515000000005,-73.91727900000001
FORT HAMILTON HS - K,FY16 RESO A ATHLETIC FIELD UPGRADE,CIP,K490,8301 SHORE ROAD,Brooklyn,40.627835,-74.04004599999999
"QNS HS OF TEACH., LIB. ARTS&SC",FY18 RESO A SECURITY CAMERAS,CIP,Q566,74-20 COMMONWEALTH BLVD,Queens,40.746088,-73.727535
WEST END SECONDARY SCHOOL - MANHATTAN,Lease,CAP,M837,227-243 WEST 61 STREET,Manhattan,40.772007,-73.98747900000001
P.S. 128 - MANHATTAN,PLANYC BOILER CNVSN/PLANYC CLIMATE CTRL,CIP,M128,560 WEST 169 STREET,Manhattan,40.841321,-73.938506
P.S. 1 - STATEN ISLAND,ELECTRICAL WORK FOR A/C INITIATIVE,CIP,R001,58 SUMMIT STREET,Staten Island,40.509037,-74.244118
P.S. 130 - BROOKLYN,WATER PENETRATION THROUGH EXTERIOR/PARAPETS/ROOFS,CIP,K130,70 OCEAN PARKWAY,Brooklyn,40.648884,-73.975607
I.S. 73 - QUEENS,LOW VOLT ELECTRICCAL SYSTEMS,CIP,Q073,70-02 54 AVENUE,Queens,40.729215,-73.893624
P.S. 345 - BROOKLYN,PLANYC CLIMATE CTRL/PLANYC BOILER CONVERSION,CIP,K345,111 BERRIMAN STREET,Brooklyn,40.676129,-73.880337
GROVER CLEVELAND HS - QUEENS,FY18 RESO A AUDITORIUM UPGRADES,CIP,Q485,21-27 HIMROD STREET,Queens,40.711033,-73.908814
P.S. 105 - BROOKLYN,EXT MASONRY/FLOOD ELIMINATION/ROOFS,CIP,K105,1031 59 STREET,Brooklyn,40.632936,-74.00374000000001
MILLENIUM ART ACADEMY - BRONX,TCU REMOVAL/PLAYGROUND REDEVELOPMENT,CIP,X450,1980 LAFAYETTE AVENUE,Bronx,40.82229,-73.856167
P.S. 155 - BROOKLYN,LSP PUMP SYSTEM REPLACEMENT,CIP,K155,1355 HERKIMER STREET,Brooklyn,40.677415,-73.908734
P.S. 18 - BROOKLYN,STANDALONE GYM ANNEX,CIP,K673,101 MAUJER STREET,Brooklyn,40.710609000000005,-73.946977
P.S. 75 - MANHATTAN,TEMPORARY BOILER,CIP,M075,735 WEST END AVENUE,Manhattan,40.795157,-73.973292
P.S. 3 - STATEN ISLAND,LSP- REPLACE HOT WATER HEATER,CIP,R003,80 SOUTH GOFF AVENUE,Staten Island,40.520699,-74.211264
P.S. 131 - BROOKLYN,WATER PENETRATION/FLOOD/PARAPETS/ROOFS,CIP,K131,4305 FT HAMILTON PKWY,Brooklyn,40.641157,-73.993482
H.S. 745 - BROOKLYN,IP DIGITAL VIDEO SURVEILLANCE SYSTEM,CIP,K470,600 KINGSTON AVENUE,Brooklyn,40.658893,-73.942458
M811 SPED - MANHATTAN,EXTERIOR MASONRY/FLOOD ELIMINATION,CIP,M841,466 WEST END AVENUE,Manhattan,40.786611,-73.97951
P.S. 377 - BROOKLYN,LL 41-16 COMPLIANCE,CIP,K377,200 WOODBINE STREET,Brooklyn,40.694018,-73.915263
P.S. 26 - QUEENS,PLANYC BOILER CONVERSION/PLANYC CLIMATE CONTROL,CIP,Q026,195-02 69 AVENUE,Queens,40.736922,-73.77799
P.S. 345 - BROOKLYN,PLANYC PLAYGROUND,CIP,K345,111 BERRIMAN STREET,Brooklyn,40.676129,-73.880337
P.S. 235 - BROOKLYN,STRUCTURAL DEFECTS,CIP,K242,10001 FLATLANDS AVENUE,Brooklyn,40.645243,-73.898241
P.S. 48 - BROOKLYN,FLOOD ELIMINATION/EXTERIOR MASONRY/WINDOWS,CIP,K048,6015 18 AVENUE,Brooklyn,40.621871,-73.98739599999999
FRANCIS LEWIS HS ANNEX - QUEENS,New,CAP,Q434,58-20 UTOPIA PARKWAY,Queens,40.740724,-73.79283000000001
P.S. @ 4302 4TH AVENUE - BROOK,New,CAP,K557,4302 4TH AVENUE,Brooklyn,40.650305,-74.008602
P.S. 307 - BROOKLYN,RENOVATION OF CLASSROOM 332,CIP,K307,209 YORK STREET,Brooklyn,40.701343,-73.982314
I.S. 211 - BROOKLYN,INTERIOR SPACES/HEATING PLT/ELEC/CLIMATE/FLOOD EL,CIP,K211,1001 EAST 100 STREET,Brooklyn,40.643278,-73.896212
I.S. 109 - QUEENS,FY15RESO A SCIENCE LAB UPGRADES,CIP,Q109,213-10 92 AVENUE,Queens,40.720713,-73.747001
P.S. 229 - BROOKLYN,FLOOD ELIMINATION/ROOFS/PARAPETS/EXTERIOR MASONRY/PAVED AREA- BLACKTOP,CIP,K229,1400 BENSON AVENUE,Brooklyn,40.610963,-74.013376
P.S. 81 - BRONX,FY18 RESO A SUPPLEMENTAL COOLING,CIP,X081,5550 RIVERDALE AVENUE,Bronx,40.903553,-73.905229
BAYSIDE HIGH SCHOOL - QUEENS,FY16 RESO A ROOM CONVERSIONS / PART,CIP,Q405,32-24 CORPORAL KENNEDY STREET,Queens,40.771755,-73.78029599999999
I.S. 34 - STATEN ISLAND,FULL PROGRAM ACCESSIBILITY/FIRE ALARM SYSTEM,CIP,R034,528 ACADEMY AVE,Staten Island,40.508284,-74.24342800000001
PATHWAYS TO GRADUATION - CITYW,EXTERIOR MASONRY,CIP,Q595,162-02 HILLSIDE AVENUE,Queens,40.70848,-73.800065
I.S. 75 - STATEN ISLAND,FY17 RESO A LIBRARY UPGRADES,CIP,R075,455 HUGUENOT AVENUE,Staten Island,40.54438,-74.197897
DEWITT CLINTON HS - X,EXTERIOR MASONRY/FLOOD ELIMINATION/PARAPETS/ROOF,CIP,X440,100 W MOSHOLU PKWY S,Bronx,40.882178,-73.88691
THE BROOKLYN SCHOOL OF INQUIRY,RESO A ROOFTOP GREENHOUSE,CIP,K237,50 AVENUE P,Brooklyn,40.60731,-73.986595
P.S. 161 - BROOKLYN,FLOOD ELIMINATION,CIP,K161,330 CROWN STREET,Brooklyn,40.666181,-73.949013
P.S. 86 - QUEENS,ELECTRICAL WORK FOR A/C INITIATIVE/LL26 CODE COMPLIANCE/EXIT SIGN REPLACEMENT,CIP,Q086,87-41 PARSONS BOULEVARD,Queens,40.708898,-73.803938
BROOKLYN ACADEMY HS - BROOKLYN,WORK REQUIRED TO OBTAIN A C OF O,CIP,K458,832 MARCY AVENUE,Brooklyn,40.685004,-73.947152
FRANCIS LEWIS HS - QUEENS,FY15RESO A AUDITORIUM UPGRADE,CIP,Q430,58-20 UTOPIA PKWY,Queens,40.740724,-73.79283000000001
P.S. 335 - BROOKLYN,PARTIAL ACESSIBILITY,CIP,K335,130 ROCHESTER AVENUE,Brooklyn,40.674656,-73.92779399999999
I.S. 24 - STATEN ISLAND,FY15 RESO A AUDITORIUM UPGRADE/PARTIAL ACCESSIBILITY,CIP,R024,225 CLEVELAND AVENUE,Staten Island,40.545281,-74.14631999999999
P.S. 52 - QUEENS,FY19 RESO A AUDITORIUM UPGRADE,CIP,Q052,178-37 146 TERRACE,Queens,40.661122,-73.766733
FORDHAM HS FOR THE ARTS - BRON,FY16 RESO A LIBRARY UPGRADE,CIP,X435,500 EAST FORDHAM ROAD,Bronx,40.860043,-73.888267
HS OF GRAPHIC COMM. ARTS (VOC),EXT MASONRY/ROOFS/PARAPETS,CIP,M625,439 WEST 49 STREET,Manhattan,40.76337,-73.990593
BROOKLYN TECH HS - K,PA SYSTEM,CIP,K430,29 FT GREENE PLACE,Brooklyn,40.688834,-73.976905
BERGTRAUM HS - MANHATTAN,IPDVS CAMERA INSTALLATION,CIP,M520,411 PEARL STREET,Manhattan,40.711442,-74.000851
THE BROOKLYN SCHOOL FOR SOCIAL,FY18 RESO A SCIENCE LAB UPGRADES,CIP,K480,400 IRVING AVENUE,Brooklyn,40.697185,-73.91117
P.S. 184 - BROOKLYN,PLAYGROUND SURFACES/PARAPETS/EXTERIOR MASONRY/ROOFS,CIP,K184,273 NEWPORT STREET,Brooklyn,40.659966,-73.904901
K077 SPED - BROOKLYN,ROOFS/FLOOD/PARAPETS/EXT MASONRY/WINDOWS/LEAD SVC,CIP,K178,2163 DEAN STREET,Brooklyn,40.675024,-73.915778
P.S. 22 - QUEENS,FY18 RESO A PLAYGROUND UPGRADE,CIP,Q022,153-33 SANFORD AVENUE,Queens,40.761249,-73.811808
PRE-K CENTER @ 1355 84TH STREET - BROOKLYN,Lease,CAP,K762,1355 84TH STREET,Brooklyn,40.614466,-74.011425
EAST SIDE COMMUNITY SCHOOL,FIFTH FLOOR CEILING REPLACEMENT,CIP,M060,420 EAST 12 STREET,Manhattan,40.729589,-73.982555
AVIATION HS - QUEENS,FUEL FIRE/ROOFS/PARAPETS/MASONRY/FLOOD/GYM UPG/WIN,CIP,Q610,45-30 36 STREET,Queens,40.743509,-73.929076
MANHTN CT FOR MATH & SCI. HS -,ELECTRICAL WORK FOR A/C INITIATIVE,CIP,M435,260 PLEASANT AVENUE,Manhattan,40.793856,-73.934028
P.S. 176 - QUEENS,FY19 RESO A AUDITORIUM UPGRADE,CIP,Q176,120-45 235 STREET,Queens,40.685492,-73.72998199999999
P.S. 214 - QUEENS,PARAPETS/FLOOD/EXT MASONRY/ROOFS,CIP,Q214,31-15 140 STREET,Queens,40.770387,-73.82861700000001
P.S. 219 - BROOKLYN,WATER INFILTRATION/ROOFS/EXT MASONRY/PARAPETS,CIP,K219,1060 CLARKSON AVENUE,Brooklyn,40.659288,-73.922919
RICHMOND HILL HS - QUEENS,STEEL DETERIORATED COLUMS & COLUMN,CIP,Q475,89-30 114 STREET,Queens,40.695888,-73.833681
I.S. 72 - STATEN ISLAND,PLANYC BOILER CONVERSION/PLANYC CLIMATE CONTROL,CIP,R072,33 FERNDALE AVENUE,Staten Island,40.593005,-74.158988
EAST FLATBUSH COMMUNITY RESCH,PARAPETS/EXTERIOR MASONRY/ROOFS,CIP,K232,905 WINTHROP STREET,Brooklyn,40.65843,-73.929076
P.S. 226 - BRONX,FY08 RESO A GYM UPGRADE,CIP,X827,1910 SEDGWICK AVENUE,Bronx,40.855944,-73.916358
Q009 SPED - QUEENS,EXT MSNRY/PARAPET/FLOOD/ ACCESSIBILITY/FIRE ALARM,CIP,Q009,58-74 57 STREET,Queens,40.718935,-73.91220799999999
I.S. 35 - BROOKLYN,FULL PROGRAM ACCESSIBILITY,CIP,K035,272 MACDONOUGH STREET,Brooklyn,40.681896,-73.935963
WILLIAM E. GRADY VOC HS - K,IP DIGITAL VIDEO SURVEILLANCE SYSTEM,CIP,K620,25 BRIGHTON 4TH ROAD,Brooklyn,40.582585,-73.963477
I.S. 522 - BROOKLYN,PLANYC BOILER/PLANYC CLIMATE CONTROL,CIP,K271,1137 HERKIMER STREET,Brooklyn,40.677805,-73.91584300000001
P.S. 236 - BROOKLYN,EXT MASONRY/ROOFS/PARAPETS/FLOOD/TCU/IRON FENCE,CIP,K236,6302 AVENUE U,Brooklyn,40.615998,-73.912989
P.S. 92 - MANHATTAN,COLLASPED WALL,CIP,M092,222 WEST 134 STREET,Manhattan,40.815016,-73.945123
P.S. 192 - BROOKLYN,DETERIORATED WINDOW WELL WALLS/FLOOD/PARAPETS/ROOF,CIP,K192,4715 18 AVENUE,Brooklyn,40.629303,-73.979995
P.S. 28 - MANHATTAN,PLANYC BOILER CONVERSION/PLANYC CLIMATE CONTROL/WATER SERVICE UPGRADE,CIP,M028,475 WEST 155 STREET,Manhattan,40.831227,-73.942143
AVIATION HS - QUEENS,FUEL FIRE/ROOFS/PARAPETS/MSNRY/ FLOOD/GYM UPG/WIN,CIP,Q610,45-30 36 STREET,Queens,40.743509,-73.929076
P.S. 19 - BROOKLYN,FY16 RESO A PLAYGROUND REDVELOPMENT,CIP,K019,325 SOUTH 3RD STREET,Brooklyn,40.709647,-73.95465
P.S. 121 - BROOKLYN,FY15 RESO A AIR CONDITIONING SPLIT SYSTEM,CIP,K121,5301 20TH AVENUE,Brooklyn,40.623273,-73.978822
FRANCIS LEWIS HS - QUEENS,WATER PENETRATION,CIP,Q430,58-20 UTOPIA PKWY,Queens,40.740724,-73.79283000000001
P.S. 49 - QUEENS,Addition,CAP,Q049,63-60 80TH STREET,Queens,40.719867,-73.875093
P.S. 193 - QUEENS,TCU REMOVAL/PLAYGROUND REDEVELOPMENT/PLANYC CLIMATE CONTROL/PLANYC BOILER CONVERSION,CIP,Q193,152-20 11 AVENUE,Queens,40.792483,-73.809741
P.S./I.S. 217 - MANHATTAN,FY14 RESO A GREEN ROOF,CIP,M271,645 MAIN STREET,Manhattan,40.763894,-73.947916
TELECOM. ARTS & TECH. HS - K,LSP REPLACE BURNER CONTROLS,CIP,K485,350 67 STREET,Brooklyn,40.637282,-74.023849
P.S. 242 - MANHATTAN,PLANYC CLIMATE CONTROL/PLANYC BOILER CONVERSION,CIP,M144,134 WEST 122 STREET,Manhattan,40.8063,-73.948013
P.S. 315 - BROOKLYN,FY18 RESO A AUDITORIUM  UPGRADE,CIP,K152,725 EAST 23 STREET,Brooklyn,40.632562,-73.954724
P.S. 19 - BRONX,Addition,CAP,X019,4318 KATONAH AVENUE,Bronx,40.899295,-73.8675
P.S. 7 - BROOKLYN,LSP- VACUUM CONDENSATE PUMPS,CIP,K007,858 JAMAICA AVENUE,Brooklyn,40.689697,-73.873109
P.S. 219 - QUEENS,ROOFS,CIP,Q219,144-39 GRAVETT ROAD,Queens,40.735275,-73.823778
ACADEMY OF AMERICAN STUDIES - QUEENS,New,CAP,Q575,28-01 41ST AVENUE,Queens,40.751356,-73.937445
SHEEPSHEAD BAY HS - BROOKLYN,SCHOOL BASED HEALTH CENTER,CIP,K495,3000 AVENUE X,Brooklyn,40.594124,-73.937696
P.S. 50 - QUEENS,Addition,CAP,Q050,143-26 101 AVENUE,Queens,40.695238,-73.807364
MIDDLE SCHOOL FOR ART & PHILOS,FY18 RESO A ROOM CONVERSIONS/PARTITIONING,CIP,K252,1084 LENOX ROAD,Brooklyn,40.658295,-73.920109
I.S. 171 - BROOKLYN,WINDOWS/FLOOD ELMNTN/ROOFS/FIRE ALARM/HVAC VTLTN,CIP,K171,528 RIDGEWOOD AVENUE,Brooklyn,40.68618,-73.869625
P.S. 188 - BROOKLYN,LSP MASONRY,CIP,K188,3314 NEPTUNE AVENUE,Brooklyn,40.577217,-74.000194
P.S. 112 - BRONX,PLANYC BOILER CNVRSN/PLANYC CLIMATE CTRL,CIP,X112,1925 SCHIEFFELIN AVENUE,Bronx,40.885008,-73.843193
I.S. 98 - BRONX,STH SBHC,CIP,X098,1619 BOSTON RD,Bronx,40.8359,-73.890458
P.S. 212 - BROOKLYN,EXT MASONRY - WATER PENETRATION/PARAPETS/ROOFS/WIN,CIP,K212,87 BAY 49 STREET,Brooklyn,40.587616,-73.985948
PORT RICHMOND HS - R,TCU REMOVAL/MASONRY/ROOFS/PARAPETS/FLOOD ELIM,CIP,R445,85 ST JOSEPHS AVENUE,Staten Island,40.634573,-74.141818
I.S. 162 - BROOKLYN,LOW VOLTAGE ELECTRICAL SYSTEM,CIP,K162,1390 WILLOUGHBY AVENUE,Brooklyn,40.707229,-73.91980500000001
I.S. 104 - MANHATTAN,FY17 RESO A SUPPLEMENTAL COOLING,CIP,M104,330 EAST 21 STREET,Manhattan,40.736094,-73.980663
CURTIS HIGH SCHOOL ANNEX - STATEN ISLAND,Addition,CAP,R453,105B HAMILTON AVENUE,Staten Is,40.644735,-74.081222
P.S. 72 - MANHATTAN,LSP VACUUM CONDENSATE PUMPS,CIP,M072,131 EAST 104 STREET,Manhattan,40.791179,-73.947776
P.S. 41 - BRONX,FLOOD ELIMINATION/ROOFS/PARAPETS/EXTERIOR MASONRY/WINDOWS,CIP,X041,3352 OLINVILLE AVENUE,Bronx,40.874313,-73.868157
P.S. 68 - QUEENS,AUDITORIUM UPGRADE,CIP,Q068,59-09 ST FELIX AVENUE,Queens,40.696556,-73.897405
Q811 SPED - QUEENS,LL 41/16 COMPLIANCE,CIP,Q811,61-25 MARATHON PKWY,Queens,40.756778,-73.729487
BROOKLYN HS OF THE ARTS - BROO,ANSUL SYS/FIRE ALARM/MECHANICAL SYS - VENTILATION,CIP,K655,345 DEAN STREET,Brooklyn,40.683559,-73.98026999999999
P.S. 167 - BROOKLYN,EXT MASONRY - WATER PENETRATION/PARAPETS/ROOFS,CIP,K167,1025 EASTERN PARKWAY,Brooklyn,40.669001,-73.934635
PRE-K CENTER @ 98-22 55 AVENUE - QUEENS,Lease,CAP,Q437,98-22 55 AVENUE,Queens,40.739192,-73.862261
K053 SPED - BROOKLYN,IPDVS CAMERA INSTALLATION,CIP,K296,125 COVERT STREET,Brooklyn,40.688387,-73.910276
P.S. 31 - QUEENS,CHIMNEY LINER REPLACEMENT/PLANYC BOILER CONVERSION/PLANYC CLIMATE CONTROL/REINFORCING SUPPORT ELEMENTS/EXTERIOR MASONRY/ROOFS/PARAPETS,CIP,Q031,211-45 46 ROAD,Queens,40.757064,-73.770122
"QNS HS OF TEACH., LIB. ARTS&SC",LSP-GYMNASIUM BLEACHERS REPLACEMENT,CIP,Q566,74-20 COMMONWEALTH BLVD,Queens,40.746088,-73.727535
EDWARD A. REYNOLDS WEST SIDE H,ROOFS/PARAPETS/EXTERIOR MASONRY,CIP,M506,140 WEST 102 STREET,Manhattan,40.797559,-73.966837
ALFRED E. SMITH HS - X,ROOM CONVERSION/UPG PLUMBING SHOP-RM B-50,CIP,X600,333 EAST 151 STREET,Bronx,40.818232,-73.91986700000001
P.S. 333 - MANHATTAN,EXTERIOR MASONRY/ROOFS/PARAPETS,CIP,M118,154 WEST 93 STREET,Manhattan,40.791728000000006,-73.970845
P.S. 176 - QUEENS,Addition,CAP,Q176,120-45 235 STREET,Queens,40.685492,-73.72998199999999
P.S. 377 - BROOKLYN,FY17 RESO A LIBRARY UPGRADES,CIP,K377,200 WOODBINE STREET,Brooklyn,40.694018,-73.915263
P.S. 340 ANNEX - BRONX,New,CAP,X448,25 WEST 195TH STREET,Bronx,40.869007,-73.89749
AUGUST MARTIN HS - QUEENS,LIBRARY UPGRADE,CIP,Q400,156-10 BAISLEY BLVD,Queens,40.675633000000005,-73.783342
I.S. 296 - BRONX,FY15 RESO A LIBRARY UPGRADE,CIP,X184,778 FOREST AVENUE,Bronx,40.818874,-73.905927
I.S. 232 - BRONX,OIL VAULT & STAIRWAY/PIPING/TOILETS/FLOOD,CIP,X082,1700 MACOMBS ROAD,Bronx,40.849623,-73.91606999999999
Q721 SPED - QUEENS,FY16 RESO A AUDITORIUM UPGRADE,CIP,Q722,57-12 94TH STREET,Queens,40.736003,-73.867478
P.S. 333 - MANHATTAN,EXTERIOR MASONRY/ROOFS/PARAPETS,CIP,M118,154 WEST 93 STREET,Manhattan,40.791728000000006,-73.970845
P.S. 249 - BROOKLYN,LOW VOLT/PLANYC CLIMATE CTRL/PLANYC BOILER CONV,CIP,K249,18 MARLBOROUGH ROAD,Brooklyn,40.64971,-73.96604599999999
P.S. 165 - MANHATTAN,EXT MASONRY/ROOFS,CIP,M165,234 WEST 109 STREET,Manhattan,40.802917,-73.965613
P.S. 183 - QUEENS,ELECTRICAL WORK FOR A/C INITIATIVE,CIP,Q183,2-45 BEACH 79 STREET,Queens,40.589508,-73.805361
P.S. 375 - BROOKLYN,PLANYC BOILER CNVRSN/PLANYC CLIMATE CTRL,CIP,K320,46 MCKEEVER PLACE,Brooklyn,40.665035,-73.95903100000001
THE BROOKLYN SCHOOL FOR SOCIAL,RNWL SBHC,CIP,K480,400 IRVING AVENUE,Brooklyn,40.697185,-73.91117
P.S. 47 - QUEENS,ROOFS,CIP,Q047,9 POWER ROAD,Queens,40.606353000000006,-73.82044499999999
P.S. 146 - BROOKLYN,FALLING MASONRY,CIP,K142,610 HENRY STREET,Brooklyn,40.68007,-74.001377
P.S. 279 - BROOKLYN,FY19 RESO A PLAYGROUND,CIP,K279,1070 EAST 104 STREET,Brooklyn,40.644203000000005,-73.892264
P.S. 60 - STATEN ISLAND,FY17 RESO A AUDITORIUM UPGRADE,CIP,R060,55 MERRILL AVENUE,Staten Island,40.610087,-74.162216
P.S. 193 - QUEENS,FY17 RESO A AUDITORIUM UPGRADE,CIP,Q193,152-20 11 AVENUE,Queens,40.792483,-73.809741
P.S. 174 - QUEENS,FY16 RESO A ROOM CONV/FY16 RESO A SCIENCE LAB UPG,CIP,Q174,65-10 DIETERLE CRESCENT,Queens,40.720924,-73.86135
I.S. 217 - QUEENS,PLANYC BOILER CONVERSION/PLANYC CLIMATE CONTROL,CIP,Q217,85-05 144 STREET,Queens,40.710024,-73.812508
JULIA RICHMAN H.S.,LL 41-16 COMPLIANCE,CIP,M480,317 EAST 67 STREET,Manhattan,40.765359,-73.960059
P.S. 105 - BRONX,WATER INFILTRATION/PARAPETS,CIP,X105,725 BRADY AVENUE,Bronx,40.852398,-73.866617
NEWTOWN HS - QUEENS,IPDVS CAMERA INSTALLATION,CIP,Q455,48-01 90 STREET,Queens,40.741122,-73.874721
P.S. 315 - BROOKLYN,LOW VOLTAGE ELECTRICAL SYSTEM,CIP,K152,725 EAST 23 STREET,Brooklyn,40.632562,-73.954724
WEST END SECONDARY SCHOOL - MANHATTAN,Lease,CAP,M837,227-243 WEST 61 STREET,Manhattan,40.772007,-73.98747900000001
P.S. 151 - QUEENS,TCU REMOVAL/PLAYGROUND REDEVELOPMENT,CIP,Q151,50-05 31 AVENUE,Queens,40.757499,-73.908898
P.S. 37 - QUEENS,FLOOD/FA/EXT MASONRY/ELEVATOR/PARAPETS/FLOOD,CIP,Q037,179-37 137 AVENUE,Queens,40.67588,-73.758505
WHITELAW REID ACADEMY OF ARTS,BUILDING DRAIN BACKUP,CIP,K057,125 STUYVESANT AVENUE,Brooklyn,40.691274,-73.933697
P.S. 152 - MANHATTAN,M847 DEMOLITION/M152 PLAYGROUND REDEVELOPMENT,CIP,M847,93 NAGLE AVENUE,Manhattan,40.860412,-73.927936
PRE-K CENTER @ 355 EAST 76 STREET - MANHATTAN,Lease,CAP,M471,355 EAST 76 STREET,Manhattan,40.77086,-73.95520400000001
I.S. 126 - QUEENS,IP DIGITAL VIDEO SURVEILLANCE SYSTEM,CIP,Q126,31-51 21 STREET,Queens,40.766264,-73.930709
P.S. 97 - BROOKLYN,Addition,CAP,K097,1855 STILLWELL AVENUE,Brooklyn,40.601433,-73.986139
ARCHER ELEMENTARY SCHOOL - BRO,FLOOD ELIMINATION/ROOFS,CIP,X102,1827 ARCHER STREET,Bronx,40.837631,-73.866036
P.S. 158 - BROOKLYN,LSP DETERIORATED GYM FLOOR,CIP,K158,400 ASHFORD STREET,Brooklyn,40.672579,-73.884803
I.S. 339 - BRONX,FY14 RESO A SUPPLEMENTAL COOLING,CIP,X147,1600 WEBSTER AVENUE,Bronx,40.840878,-73.904754
P.S. 80 - QUEENS,FY18 RESO A ROOM CONVERSIONS/PARTITIONING,CIP,Q080,171-05 137 AVENUE,Queens,40.67282,-73.76925200000001
P.S. 98 - QUEENS,WATER PENETRATION,CIP,Q098,40-20 235 STREET,Queens,40.769271,-73.749369
P.S. 418 - BROOKLYN,PUBLIC ADDRESS SYS REPLACEMENT/FA SYS REPLACEMENT,CIP,K834,512 CARROLL STREET,Brooklyn,40.676668,-73.985258
GEORGE WESTINGHOUSE VOC. HS,PARAPETS/EXTERIOR MASONRY/ROOFS/FLOOD ELIMINATION,CIP,K580,105 JOHNSON STREET,Brooklyn,40.694926,-73.98601500000001
H.S. 745 - BROOKLYN,IPDVS CAMERA INSTALLATION,CIP,K470,600 KINGSTON AVENUE,Brooklyn,40.658893,-73.942458
Q177 SPED - QUEENS,PARTIAL ACCESSIBILITY/FLOOD ELIMINATION/ROOFS/PARAPETS/EXTERIOR MASONRY/WINDOWS,CIP,Q177,56-37 188 STREET,Queens,40.74391,-73.788133
P.S. 138 - BRONX,AUDITORIUM UPGRADE,CIP,X138,2060 LAFAYETTE AVENUE,Bronx,40.822665,-73.85336600000001
P.S. 176 - QUEENS,Addition,CAP,Q176,120-45 235 STREET,Queens,40.685492,-73.72998199999999
J.H.S. 860 - MANHATTAN,SCIENCE LAB UPGRADE,CIP,M088,215 WEST 114 STREET,Manhattan,40.802207,-73.954142
HS FOR ARTS & TECHNOLOGY - M,FY16 RESO A TERRACE SURFACING AND PAVEMENTS/ROOFS/WINDOWS,CIP,M490,122 AMSTERDAM AVENUE,Manhattan,40.774351,-73.984753
FORT HAMILTON HS - K,FY14 RESO A AUDITORIUM UPGRADE,CIP,K490,8301 SHORE ROAD,Brooklyn,40.627835,-74.04004599999999
GREGORIO LUPERON PREP. SCHOOL,FY19 RESO A SCIENCE LAB UPGRADE,CIP,M876,501 WEST 165 STREET,Manhattan,40.838167,-73.938642
P.S. 312 - BROOKLYN,WATER PENETRATION,CIP,K312,7103 AVENUE T,Brooklyn,40.621413,-73.908987
P.S. 201 - QUEENS,ELECTRICAL WORK FOR A/C INITIATIVE/LL26 CODE COMPLIANCE/EXIT SIGN REPLACEMENT,CIP,Q201,65-11 155 STREET,Queens,40.736653,-73.813346
P.S. 54 - BRONX,FYRESO A PLAYGROUNDS,CIP,X054,2703 WEBSTER AVENUE,Bronx,40.864527,-73.88782900000001
I.S. 75 - STATEN ISLAND,CHILLER REPLACEMENT,CIP,R075,455 HUGUENOT AVENUE,Staten Island,40.54438,-74.197897
P.S. 105 - BRONX,WATER INFILTRATION/PARAPETS,CIP,X105,725 BRADY AVENUE,Bronx,40.852398,-73.866617
I.S. 394 - BROOKLYN,WATER PENETRATION,CIP,K210,188 ROCHESTER AVENUE,Brooklyn,40.672762,-73.927973
SUSAN E. WAGNER HS ANNEX - STA,Addition,CAP,R462,1220 MANOR ROAD,Staten Island,40.596624,-74.12433399999999
ALFRED E. SMITH HS - X,ROOM CONVERSION/UPGRADE PLUMBING SHOP-RM B-50 & ELE,CIP,X600,333 EAST 151 STREET,Bronx,40.818232,-73.91986700000001
P.S. 399 - BROOKLYN,BOILER REPLACEMENT,CIP,K399,2707 ALBEMARLE ROAD,Brooklyn,40.648044,-73.951891
CLARA BARTON HS - K,FY18 RESO A GYMNASIUM UPGRADE,CIP,K600,901 CLASSON AVENUE,Brooklyn,40.669567,-73.961962
RIVERDALE AVENUE MIDDLE SCHOOL,FY18 RESO A LIBRARY UPGRADES,CIP,K183,76 RIVERDALE AVENUE,Brooklyn,40.660204,-73.913933
P.S. 40 - BROOKLYN,FY16 RESO A ROOFS,CIP,K040,265 RALPH AVENUE,Brooklyn,40.680463,-73.922264
MID-MAN ADULT LEARNING CENTER,STRUCTURAL/EXTERIOR MASONRY,CIP,M081,212 W 120TH ST,Manhattan,40.806063,-73.95134
I.S. 5 - QUEENS,HVAC/PUBLIC ADDRESS SYSTEM,CIP,Q005,50-40 JACOBUS STREET,Queens,40.737718,-73.887429
P.S. 219 - QUEENS,ROOFS,CIP,Q219,144-39 GRAVETT ROAD,Queens,40.735275,-73.823778
NEW DORP HS - STATEN ISLAND,ATHLETIC FIELDS,CIP,R436,465 NEW DORP LANE,Staten Island,40.569393,-74.107737
P.S. 191 - BROOKLYN,FY18 RESO A SCIENCE LAB UPGRADES,CIP,K191,1600 PARK PLACE,Brooklyn,40.672005,-73.924329
I.S. 484 - BROOKLYN,FY18 RESO A SCIENCE LAB UPGRADES,CIP,K012,430 HOWARD AVE,Brooklyn,40.673073,-73.91959399999999
P.S. 254 - QUEENS,ROOF/PARAPETS/EXT MASONRY/PAVED AREA CONCRETE,CIP,Q254,84-40 101ST STREET,Queens,40.697961,-73.84796
P.S. 44 - STATEN ISLAND,EXTERIOR MASONRY/PARAPETS/ROOFS/WINDOWS,CIP,R044,80 MAPLE PARKWAY,Staten Island,40.63179,-74.156439
STATEN ISLAND TECHNICAL HS - R,FLOOD ELIMINATION/EXTERIOR MASONRY/PARAPETS,CIP,R440,485 CLAWSON STREET,Staten Island,40.567873,-74.11537299999999
P.S. 92 - QUEENS,Addition,CAP,Q292,99-01 34TH AVENUE,Queens,40.755418,-73.869017
P.S. 41 - QUEENS,FY17 RESO A ELECTRICAL WORK FOR A/C INITIATIVE,CIP,Q041,214-43 35 AVENUE,Queens,40.769601,-73.770863
P.S. 193 - QUEENS,ELECTRICAL WORK FOR A/C INITIATIVE,CIP,Q193,152-20 11 AVENUE,Queens,40.792483,-73.809741
SUCCESS ACADEMY CHARTER SCHOOL,PLANYC BOILER CONVERSION/PLANYC CLIMATE CONTROL,CIP,K033,70 TOMPKINS AVENUE,Brooklyn,40.697152,-73.946641
P.S. 165 - MANHATTAN,EXT MASONRY/ROOFS,CIP,M165,234 WEST 109 STREET,Manhattan,40.802917,-73.965613
WASHINGTON IRVING H.S.,WATER STORAGE TANK,CIP,M460,40 IRVING PLACE,Manhattan,40.735494,-73.987659
P.S. 33 - QUEENS,ROOF REPAIR/PARAPETS/EXTERIOR MASONRY,CIP,Q033,91-37 222 STREET,Queens,40.727134,-73.735077
P.S. 251 - BROOKLYN,FY16 RESO A AUDITORIUM UPGRAD,CIP,K251,1037 EAST 54 STREET,Brooklyn,40.632524,-73.924417
P.S. 158 - BROOKLYN,ELECTRICAL WORK FOR A/C INITIATIVE,CIP,K158,400 ASHFORD STREET,Brooklyn,40.672579,-73.884803
H.S. 745 - BROOKLYN,IPDVS CAMERA INSTALLATION,CIP,K470,600 KINGSTON AVENUE,Brooklyn,40.658893,-73.942458
P.S. 90 - BROOKLYN,FY18 RESO A LIBRARY UPGRADES,CIP,K090,2840 WEST 12 STREET,Brooklyn,40.578255,-73.979628
P.S. 55 - QUEENS,PLANYC CLIMATE CONTROL/PLANYC BOILER CONVERSION,CIP,Q055,131-10 97 AVENUE,Queens,40.694004,-73.81661700000001
P.S. 346 - BROOKLYN,PARTIAL ACCESSIBILITY RAMPS,CIP,K346,1400 PENNSYLVANIA AVENUE,Brooklyn,40.64726,-73.881114
I.S. 259 - BROOKLYN,PLANYC BOILER CONVERSION/CLIMATE CTRL,CIP,K259,7305 FT HAMILTON PKWY,Brooklyn,40.62668,-74.01512
THE URBAN ASSEMBLY BRONX ACADE,FLOOD ELIMINATION/PARAPETS/ROOFS/EXTERIOR MASONRY,CIP,X183,339 MORRIS AVENUE,Bronx,40.813641,-73.925313
THE BROOKLYN SCHOOL FOR SOCIAL,IP DIGITAL VIDEO SURVEILLANCE SYSTEM,CIP,K480,400 IRVING AVENUE,Brooklyn,40.697185,-73.91117
FOREST HILLS HS - QUEENS,IPDVS CAMERA INSTALLATION,CIP,Q440,67-01 110 STREET,Queens,40.729402,-73.845637
J.H.S. 190 - QUEENS,IP DIGITAL VIDEO SURVEILLANCE SYSTEM,CIP,Q190,68-17 AUSTIN STREET,Queens,40.722707,-73.851699
RICHMOND HILL HS - QUEENS,STEEL DETERIORATED COLUMS & COLUMN,CIP,Q475,89-30 114 STREET,Queens,40.695888,-73.833681
P.S. 244 - QUEENS,FY16 RESO A PLAYGROUND REDEVELOPMEN,CIP,Q244,137-20 FRANKLIN AVENUE,Queens,40.754654,-73.826759
P.S. 114 - QUEENS,SANDY:INT/HEATING/ELEC/FLOOD/CLIM/PLAYGRND/PIPING,CIP,Q114,134-01 CRONSTON AVE,Queens,40.578261,-73.854403
P.S. 236 - BROOKLYN,EXT MASONRY/ROOFS/PARAPETS/FLOOD/TCU/IRON FENCE,CIP,K236,6302 AVENUE U,Brooklyn,40.615998,-73.912989
P.S. 151 - QUEENS,IPDVS CAMERA INSTALLATION,CIP,Q151,50-05 31 AVENUE,Queens,40.757499,-73.908898
P.S. 3 - STATEN ISLAND,FY17 RESO A ELECTRICAL SYSTEMS,CIP,R003,80 SOUTH GOFF AVENUE,Staten Island,40.520699,-74.211264
Q177 SPED - QUEENS,PLANYC BOILER CONVERSION/PLANYC CLIMATE CONTROL,CIP,Q177,56-37 188 STREET,Queens,40.74391,-73.788133
P.S. 128 - QUEENS,Addition,CAP,Q247,69-10 65TH DRIVE,Queens,40.715344,-73.886215
FRANCIS LEWIS HS - QUEENS,WATER PENETRATION,CIP,Q430,58-20 UTOPIA PKWY,Queens,40.740724,-73.79283000000001
P.S.15 - BRONX,WATER PENETRATION,CIP,X015,2195 ANDREWS AVENUE,Bronx,40.85881,-73.909746
P.S. 19 - QUEENS,Addition,CAP,Q019,98-02 ROOSEVELT AVENUE,Queens,40.749381,-73.867354
UNIVERSITY NEIGHBORHOOD HS - M,FY18 RESO A SAFETY SYSTEMS,CIP,M446,200 MONROE STREET,Manhattan,40.712399,-73.98449699999999
EDUCATIONAL CAMPUS @ 500 19TH STREET - BROOKLYN,Lease,CAP,K280,500 19TH STREET,Brooklyn,40.656944,-73.983115
CURTIS HS - STATEN ISLAND,BRIDGE & REPAIR WK/PARAPETS/WASTE SYS/WINDOWS/ROOF,CIP,R450,105 HAMILTON AVENUE,Staten Island,40.644735,-74.081222
P.S. 45 - STATEN ISLAND,ROOFS/PARAPETS /EXTERIOR MASONRY/FLOOD ELIMINATION,CIP,R045,58 LAWRENCE AVENUE,Staten Island,40.628558,-74.107148
P.S. 207 - BRONX,ELECTRICAL WORK FOR A/C INITIATIVE,CIP,X819,3030 GODWIN TERRACE,Bronx,40.878322,-73.90655600000001
BROOKLYN TECH HS - K,ELECTRICAL WORK FOR A/C INITIATIVE,CIP,K430,29 FT GREENE PLACE,Brooklyn,40.688834,-73.976905
P.S. 69 - BROOKLYN,ROOFS/EXTERIOR MASONRY,CIP,K069,6302 9TH AVENUE,Brooklyn,40.632379,-74.00922299999999
P.S. 244 - BROOKLYN,FY18 RESO A AUDITORIUM  UPGRADE,CIP,K244,5404 TILDEN AVENUE,Brooklyn,40.648423,-73.92594799999999
P.S. 121 - QUEENS,FY17 RESO A AUDITORIUM  UPGRADE,CIP,Q121,126-10 109 AVENUE,Queens,40.68405,-73.815834
Q721 SPED - QUEENS,EXTERIOR MASONRY/ROOFS,CIP,Q722,57-12 94TH STREET,Queens,40.736003,-73.867478
ALFRED E. SMITH HS - X,FY18 RESO A GYMNASIUM UPGRADE,CIP,X600,333 EAST 151 STREET,Bronx,40.818232,-73.91986700000001
P.S. 307 - BROOKLYN,FY17 RESO A LIBRARY UPGRADES,CIP,K307,209 YORK STREET,Brooklyn,40.701343,-73.982314
P.S. 295 - BROOKLYN,FY13 RESO A GYM UPG/GYM FLOOR/CAFE/GYM FLOOR SUBSTRATE/FLOOD ELIM/FLOORS/PARAPETS/EXT MASONRY/ROOFS,CIP,K845,330 18 STREET,Brooklyn,40.660976,-73.988297
P.S. 57 - STATEN ISLAND,C OF O,CIP,R057,140 PALMA DRIVE,Staten Island,40.611508,-74.083177
MIDDLE SCHOOL FOR ART & PHILOS,EXTERIOR MASONRY/PARAPETS/ROOFS,CIP,K252,1084 LENOX ROAD,Brooklyn,40.658295,-73.920109
P.S. 55 - BRONX,MASONRY/WINDOWS/ROOFS/PARAPETS,CIP,X055,450 ST PAULS PLACE,Bronx,40.836404,-73.90501400000001
I.S. 265 - BROOKLYN,PLANYC BOILER CNVRSN/PLANYC CLIMATE CTRL,CIP,K265,101 PARK AVENUE,Brooklyn,40.696324,-73.97578
P.S. 205 - BROOKLYN,FY19 RESO A AUDITORIUM UPGRADE,CIP,K205,6701 20 AVENUE,Brooklyn,40.61527,-73.987149
P.S. 230 - BROOKLYN,ELECTRICAL WORK FOR A/C INITIATIVE,CIP,K230,1 ALBEMARLE ROAD,Brooklyn,40.645017,-73.980761
I.S. 35 - BROOKLYN,FULL PROGRAM ACCESSIBILITY,CIP,K035,272 MACDONOUGH STREET,Brooklyn,40.681896,-73.935963
I.S. 394 - BROOKLYN,WATER PENETRATION,CIP,K210,188 ROCHESTER AVENUE,Brooklyn,40.672762,-73.927973
P.S. 53 - STATEN ISLAND,FY18 RESO A AUDITORIUM UPGRADE,CIP,R053,330 DURANT AVENUE,Staten Island,40.55258,-74.13705999999999
MIDWOOD HS - BROOKLYN,IPDVS CAMERA INSTALLATION,CIP,K405,2839 BEDFORD AVENUE,Brooklyn,40.633237,-73.952929
BROOKLYN ACADEMY HS - BROOKLYN,WORK REQUIRED TO OBTAIN A C OF O,CIP,K458,832 MARCY AVENUE,Brooklyn,40.685004,-73.947152
PROGRESS HS - K,ROOFS/WINDOWS/EXTERIOR MASONRY/PARAPETS,CIP,K450,850 GRAND STREET,Brooklyn,40.712184,-73.939722
THE URBAN ASSEMBLY SCHOOL FOR,HVAC (BMS) WORK/BACKFLOW PREVENTER & WATER METER,CIP,M470,145 WEST 84 STREET,Manhattan,40.785803,-73.974614
I.S. 123 - BRONX,RENEWAL SCHOOL BASED HEALTH CENTER,CIP,X123,1025 MORRISON AVENUE,Bronx,40.825403,-73.873666
J.H.S. 194 - QUEENS,FY16 RESO A LIBRARY UPGRADE,CIP,Q194,154-60 17 AVENUE,Queens,40.78365,-73.807838
P.S. 119 - BRONX,PLANYC CLIMATE CONTROL/PLANYC BOILER CONVERSION,CIP,X119,1075 PUGSLEY AVENUE,Bronx,40.828518,-73.856569
THE MAURICE SENDAK COMMUNITY S,FY19 RESO A ACCESSIBILITY,CIP,K763,211 8TH STREET,Brooklyn,40.670764,-73.987787
P.S. 119 - BRONX,ELECTRICAL WORK FOR A/C INITIATIVE,CIP,X119,1075 PUGSLEY AVENUE,Bronx,40.828518,-73.856569
I.S./H.S. @ 715 OCEAN TERRACE - STATEN ISLAND,New,CAP,R086,715 OCEAN TERRACE,Staten Is,40.608512,-74.102067
P.S. 50 - BRONX,SWITCH GEAR REPLACEMENT,CIP,X050,1550 VYSE AVENUE,Bronx,40.834157,-73.887512
I.S. 167 - MANHATTAN,FACADE DAMAGE/SITE WORK/FLOOD/PARAPETS/WINDOWS,CIP,M167,220 EAST 76 STREET,Manhattan,40.77205,-73.958066
M.S./H.S. 368 - BRONX,PAVED AREAS CONCRETE,CIP,X368,2975 TIBBETT AVENUE,Bronx,40.879368,-73.909896
I.S. 459 - BRONX,REPAIR STEPS & VPS/ROOFS/PARTIAL ACCESSIBILITY,CIP,X115,120 EAST 184 STREET,Bronx,40.859752,-73.900161
P.S. 144 - QUEENS,Addition,CAP,Q144,93-02 69 AVENUE,Queens,40.714978,-73.853372
P.S. 164 - QUEENS,FY19 RESO A LIBRARY UPGRADE,CIP,Q164,138-01 77 AVENUE,Queens,40.720924,-73.823362
P.S. 207 - BRONX,ELECTRICAL WORK FOR A/C INITIATIVE,CIP,X819,3030 GODWIN TERRACE,Bronx,40.878322,-73.90655600000001
CASCADES CTR FOR TCHING & LNG,ENY AUDITIORIUM UPGRADE,CIP,M510,198 FORSYTH STREET,Manhattan,40.72252,-73.990728
I.S. 72 - STATEN ISLAND,ELECTRICAL WORK FOR A/C INITIATIVE/LL26 CODE COMPLIANCE/EXIT SIGN REPLACEMENT,CIP,R072,33 FERNDALE AVENUE,Staten Island,40.593005,-74.158988
M000 - MANHATTAN,FY17 RESO A GREEN ROOF,CIP,M323,75 MORTON STREET,Manhattan,40.730999,-74.007191
NORTH BRONX SCHOOL OF EMPOWERM,LOW VOLTAGE ELECTRICAL SYSTEM,CIP,X113,3710 BARNES AVENUE,Bronx,40.880873,-73.860904
CSI HS FOR INTERNATIONAL STUDI,PLAYGROUND REDEVELOPMENT,CIP,R043,100 ESSEX DRIVE,Staten Island,40.581315,-74.158589
P.S. 288 - BROOKLYN,ROOF,CIP,K288,2950 WEST 25 STREET,Brooklyn,40.574411,-73.99194
P.S. 47 - QUEENS,FIRE ALARM REPLACEMENT,CIP,Q047,9 POWER ROAD,Queens,40.606353000000006,-73.82044499999999
P.S. 184 - MANHATTAN,PLAYGROUNDS,CIP,M137,327 CHERRY STREET,Manhattan,40.711549,-73.986542
P.S. 67 - BRONX,STH SBHC,CIP,X067,2024 MOHEGAN AVENUE,Bronx,40.843945,-73.884788
MARTIN VAN BUREN HS - QUEENS,RNWL SBHC,CIP,Q435,230-17 HILLSIDE AVENUE,Queens,40.733066,-73.73875600000001
J.H.S. 190 - QUEENS,ROOFS,CIP,Q190,68-17 AUSTIN STREET,Queens,40.722707,-73.851699
EAST SIDE COMMUNITY SCHOOL,FIFTH FLOOR CEILING REPLACEMENT,CIP,M060,420 EAST 12 STREET,Manhattan,40.729589,-73.982555
P.S. 90 - QUEENS,AUDITORIUM UPGRADE,CIP,Q090,86-50 109 STREET,Queens,40.697033000000005,-73.839213
P.S. 128 ADDITION - QUEENS,Addition,CAP,Q247,69-10 65TH DRIVE,Queens,40.715344,-73.886215
YOUNG LEADERS ELEM - BRONX,FY18 RESO A PLAYGROUNDS,CIP,X040,468 EAST 140 STREET,Bronx,40.809534,-73.919903
P.S. 115 - QUEENS,PARAPETS/EXT MASONRY,CIP,Q115,80-51 261 STREET,Queens,40.744099,-73.709845
LONG ISLAND CITY HS - Q,FIRE ALARM SYSTEM/BUILDING MGMT SYSTEM,CIP,Q452,14-30 BROADWAY,Queens,40.765826,-73.9328
I.S. 220 - BROOKLYN,FY18 RESO A AUDITORIUM  UPGRADE,CIP,K220,4812 9TH AVENUE,Brooklyn,40.640545,-74.000731
P.S. 124 - BROOKLYN,FLOOD/ROOFS/PARAPETS/EXT MASONRY,CIP,K124,515 4TH AVENUE,Brooklyn,40.667545,-73.991046
P.S. 6 - BRONX,STANDALONE GYM ANNEX,CIP,X449,1000 EAST TREMONT AVENUE,Bronx,40.840755,-73.88170699999999
P.S. 219 - BROOKLYN,WATER INFILTRATION/ROOFS/EXT MASONRY/PARAPETS,CIP,K219,1060 CLARKSON AVENUE,Brooklyn,40.659288,-73.922919
P.S. 232 - QUEENS,ELECTRICAL WORK FOR A/C INITIATIVE,CIP,Q232,153-23 83 STREET,Queens,40.665909,-73.85121600000001
P.S. 295 - BROOKLYN,FY13 RESO GYM UPG/GYM & CAFE FLOOR/FLOOD/PARAPETS,CIP,K845,330 18 STREET,Brooklyn,40.660976,-73.988297
JAMES MADISON HS - BROOKLYN,FY16 RESO A AUDITORIUM UPGRADE,CIP,K425,3787 BEDFORD AVENUE,Brooklyn,40.609912,-73.948512
P.S. 199 - BRONX,FLOOD ELIMINATION,CIP,X104,1449 SHAKESPEARE AVENUE,Bronx,40.842943,-73.920563
PORT RICHMOND HS - R,ATHLETIC FIELD,CIP,R446,39 INNIS STREET,Staten Island,40.633704,-74.142364
P.S. 158 - BROOKLYN,STRUCTURAL DEFECTS,CIP,K158,400 ASHFORD STREET,Brooklyn,40.672579,-73.884803
MONROE ACAD FOR VISUAL ARTS -,BOILER/CLIMATE CONTROL/WATER INFILTRATION,CIP,X420,1300 BOYNTON AVENUE,Bronx,40.831601,-73.878912
I.S. 34 - STATEN ISLAND,LSP REPLACE VACUUM CONDENSATE UNIT,CIP,R034,528 ACADEMY AVE,Staten Island,40.508284,-74.24342800000001
P.S. 42 - QUEENS,FY19 RESO A AUDITORIUM UPGRADE,CIP,Q042,488 BEACH 66 STREET,Queens,40.594538,-73.795304
WILLIAM MAXWELL VOC HS - K,IP DIGITAL VIDEO SURVEILLANCE SYSTEM,CIP,K660,145 PENNSYLVANIA AVENUE,Brooklyn,40.674135,-73.89643000000001
P.S. 119 - BROOKLYN,PLANYC BOILER CNVRSN/PLANYC CLIMATE CTRL,CIP,K119,3829 AVENUE K,Brooklyn,40.625662,-73.938265
H.S. 745 - BROOKLYN,IP DIGITAL VIDEO SURVEILLANCE SYSTEM,CIP,K470,600 KINGSTON AVENUE,Brooklyn,40.658893,-73.942458
P.S. 746 - BROOKLYN,New,CAP,K746,256 59TH STREET,Brooklyn,40.643337,-74.021011
P.S. 115 - QUEENS,PLANYC BOILER CNVRSN/PLANYC CLIMATE CTRL,CIP,Q115,80-51 261 STREET,Queens,40.744099,-73.709845
P.S. 158 - BROOKLYN,ENY AUDITORIUM UPGRADE,CIP,K158,400 ASHFORD STREET,Brooklyn,40.672579,-73.884803
K053 SPED - BROOKLYN,IP DIGITAL VIDEO SURVEILLANCE SYSTEM,CIP,K296,125 COVERT STREET,Brooklyn,40.688387,-73.910276
P.S. 354 - QUEENS,WATER INFILTRATION,CIP,Q030,126-10 BEDELL STREET,Queens,40.68031,-73.77443199999999
I.S. 73 - QUEENS,LOW VOLT ELECTRICAL SYSTEMS,CIP,Q073,70-02 54 AVENUE,Queens,40.729215,-73.893624
I.S. 340 - BROOKLYN,ELECTRICAL LIGHTING FIXTURES,CIP,K874,227 STERLING PLACE,Brooklyn,40.676094,-73.97038
P.S. 40 - MANHATTAN,FY16 RESO A ROOFTOP PLAYGROUND,CIP,M040,319 EAST 19 STREET,Manhattan,40.735161,-73.982027
P.S. 104 - BROOKLYN,WATER INFILTRATION/FLOOD/PARAPETS/ROOFS,CIP,K104,9115 5TH AVENUE,Brooklyn,40.618415,-74.028842
I.S. 24 - STATEN ISLAND,FY15 RESO A AUDITORIUM UPGRADE/PARTIAL ACCESSIBILITY,CIP,R024,225 CLEVELAND AVENUE,Staten Island,40.545281,-74.14631999999999
PREPARATORY ACADEMY FOR WRITER,REPAVING PARKING LOT,CIP,Q421,143-10 SPRINGFIELD BLVD,Queens,40.668235,-73.756839
P.S. 82 - STATEN ISLAND,Lease,CAP,R082,104 GORDON STREET,Staten Is,40.624263,-74.082667
I.S. 162 - BROOKLYN,STAIRS/EXT MASONRY/PARAPETS/ROOF/FLOOD/WATER PNTRN,CIP,K162,1390 WILLOUGHBY AVENUE,Brooklyn,40.707229,-73.91980500000001
P.S. 170 - BROOKLYN,CRACKED EXTERIOR MASONRY,CIP,K170,619 72ND STREET,Brooklyn,40.630031,-74.018878
GRAMERCY ARTS HS - MANHATTAN,ELECTRICAL SYSTEMS/PA SYSTEM,CIP,M460,40 IRVING PLACE,Manhattan,40.735494,-73.987659
WILLIAM E. GRADY VOC HS - K,ELECTRICAL WORK FOR A/C INITIATIVE,CIP,K620,25 BRIGHTON 4TH ROAD,Brooklyn,40.582585,-73.963477
Q811 SPED - QUEENS,LL 41/16 COMPLIANCE,CIP,Q811,61-25 MARATHON PKWY,Queens,40.756778,-73.729487
I.S. 447 - BRONX,FY16 RESO A IP SURVEILLANCE CAMERA INSTALLATION,CIP,X115,120 EAST 184 STREET,Bronx,40.859752,-73.900161
P.S. 127 - BROOKLYN,Addition,CAP,K127,7805 7 AVENUE,Brooklyn,40.624132,-74.018826
P.S. 102 - BROOKLYN,WATER INFILTRATION/ROOFS/EXT MASONRY,CIP,K102,211 72 STREET,Brooklyn,40.63402,-74.029036
P.S. 33 - BRONX,PLANYC BOILER CNVSN/PLANYC CLIMATE CTRL,CIP,X033,2424 JEROME AVENUE,Bronx,40.86185,-73.90176
I.S. 5 - QUEENS,PUBLIC ADDRESS SYSTEM/HVAC,CIP,Q005,50-40 JACOBUS STREET,Queens,40.737718,-73.887429
P.S. 160 - BRONX,FY17 RESO A PLAYGROUND REDEVELOPMENT,CIP,X160,4140 HUTCHINSON RIVER PARKWAY EAST,Bronx,40.864676,-73.824303
HS FOR MEDIA & COMM - MANHATTA,FY17 RESO A ROOM CONVERSIONS/PARTITIONING,CIP,M465,549 AUDUBON AVENUE,Manhattan,40.855855,-73.92712
P.S. 3 - BRONX,HVAC CONTROLS/VENTILATION,CIP,X003,2100 LAFONTAINE AVE,Bronx,40.849897,-73.892289
P.S. 145 - MANHATTAN,FY16 RESO A IP SURVEILLANCE CAMERA INSTALLATION,CIP,M145,150 WEST 105 STREET,Manhattan,40.799178000000005,-73.964842
HUNTER SCIENCE HS - MANHATTAN,FY17 RESO A SCIENCE LAB UPGRADES,CIP,M490,122 AMSTERDAM AVENUE,Manhattan,40.774351,-73.984753
M721 SPED - MANHATTAN,REINFORCE CINDER/FLOORS/ACCESSIBLITY/ELEC UPG/FA,CIP,M641,16 CLARKSON STREET,Manhattan,40.729412,-74.006148
P.S. 36 - QUEENS,PLANYC CLIMATE CONTROL/PLANYC BOILER CONVERSION,CIP,Q036,187-01 FOCH BLVD,Queens,40.690828,-73.76390699999999
P.S. 119 - BRONX,PLANYC CLIMATE CTRL/PLANYC BOILER CONVERSION,CIP,X119,1075 PUGSLEY AVENUE,Bronx,40.828518,-73.856569
P.S. 53 - STATEN ISLAND,FY18 RESO A GYMNASIUM UPGRADE,CIP,R053,330 DURANT AVENUE,Staten Island,40.55258,-74.13705999999999
I.S. 125 - BRONX,LIGHTING REPLACEMENT (DCAS),CIP,X125,1111 PUGSLEY AVENUE,Bronx,40.829232,-73.856734
P.S. 166 - QUEENS,FY18 RESO A AUDITORIUM  UPGRADE,CIP,Q166,33-09 35 AVENUE,Queens,40.757309,-73.926733
P.S. 124 - QUEENS,PLANYC BOILER CONVERSION/PLANYC CLIMATE CONTROL,CIP,Q124,129-15 150 AVENUE,Queens,40.665058,-73.811701
P.S. 191 - QUEENS,LIGHTING REPLACEMENT,CIP,Q191,85-15 258 STREET,Queens,40.734318,-73.709137
P.S. 078 - STATEN ISLAND,IP DIGITAL VIDEO SURVEILLANCE SYSTEM,CIP,R014,100 TOMPKINS AVENUE,Staten Island,40.622455,-74.078508
IT TAKES A VILLAGE ACADEMY - K,ELECTRICAL WORK FOR A/C INITIATIVE/LL26 CODE COMPLIANCE/EXIT SIGN REPLACEMENT,CIP,K415,5800 TILDEN AVENUE,Brooklyn,40.648657,-73.92217099999999
LIFE SCIENCE SECONDARY SCHOOL,HAZARDOUS-FACADE REPAIR,CIP,M645,320 EAST 96 STREET,Manhattan,40.783625,-73.945637
EDUCATIONAL CAMPUS @ 500 19TH STREET - BROOKLYN,Lease,CAP,K280,500 19TH STREET,Brooklyn,40.656944,-73.983115
P.S. 19 - MANHATTAN,ROOFS,CIP,M019,185 1ST AVENUE,Manhattan,40.729636,-73.983818
P.S. 153 - QUEENS,CRACKED LOOSE WINDOW SILLS/ROOFS/PARAPETS/MASONRY,CIP,Q153,60-02 60 LANE,Queens,40.716609000000005,-73.903669
P.S. 97 - BRONX,Addition,CAP,X097,1375 MACE AVENUE,Bronx,40.862839,-73.84679100000001
SECONDARY SCHOOL FOR LAW - K,DETERIORATED LEADER AND DRAIN LINES,CIP,K460,237 7TH AVENUE,Brooklyn,40.669629,-73.979287
P.S. 46 ADDITION,Addition,CAP,X046,2760 BRIGGS AVENUE,Bronx,40.867623,-73.890518
SUSAN E. WAGNER HS - STATEN IS,IPDVS CAMERA INSTALLATION,CIP,R460,1200 MANOR ROAD,Staten Island,40.596803,-74.124227
P.S. 246 - BRONX,ELEVATOR/EXT MSNRY/FLOOD/ PARAPETS/ROOFS/WALL,CIP,X843,2641 GRAND CONCOURSE,Bronx,40.865593,-73.894758
BROOKLYN TECH HS - K,PLANYC BOILER CONVERSION/PLANYC CLIMATE CONTROL,CIP,K430,29 FT GREENE PLACE,Brooklyn,40.688834,-73.976905
P.S. 46 - BROOKLYN,"LSP- VACUUM/PUMP CONDENSATE PUMPS, THERMOSTAT, CHEMICAL FEED SYSTEM",CIP,K046,100 CLERMONT AVENUE,Brooklyn,40.694633,-73.971165
P.S. 116 - MANHATTAN,BULGING WALLS AND RUSTED GRATING SUPPORTS,CIP,M116,210 EAST 33 STREET,Manhattan,40.744838,-73.978116
P.S. 32 ADDITION - BROOKLYN,Addition,CAP,K032,317 HOYT STREET,Brooklyn,40.680445,-73.991949
P.S. 205 - BROOKLYN,FLOOD ELIMINATION/PARAPETS/EXTERIOR MASONRY/ROOFS,CIP,K205,6701 20 AVENUE,Brooklyn,40.61527,-73.987149
P.S. 65 - BRONX,FY16 RESO A AUDITORIUM UPGRADE/EXTERIOR MASONRY/PARAPETS/ROOFING,CIP,X065,677 EAST 141 STREET,Bronx,40.807335,-73.91273100000001
P.S. 44 - BRONX,EXTERIOR MASONRY/PARAPETS/ROOFS,CIP,X044,1825 PROSPECT AVENUE,Bronx,40.842084,-73.891116
P.S. 14 - QUEENS,FY19 RESO A AUDITORIUM UPGRADE,CIP,Q014,107-01 OTIS AVENUE,Queens,40.74056,-73.85413100000001
TOTTENVILLE HS - STATEN ISLAND,FY 16 RESO A WIRING UPGRADE,CIP,R455,100 LUTEN AVENUE,Staten Island,40.528092,-74.192032
P.S. 219 - BROOKLYN,BOILER REPLACEMENT,CIP,K860,9517 KINGS HIGHWAY,Brooklyn,40.65911,-73.92036800000001
P.S. 176 - QUEENS,Addition,CAP,Q176,120-45 235 STREET,Queens,40.685492,-73.72998199999999
P.S. 62 - BRONX,EXT MASONRY/PARAPETS,CIP,X062,660 FOX STREET,Bronx,40.814031,-73.900609
P.S. 163 - MANHATTAN,TCU REMOVAL & PLAYGROUND REDEVELOPMENT,CIP,M163,163 WEST 97 STREET,Manhattan,40.794264,-73.96870600000001
BRONX CNTR FOR SCIENCE & MATH,PLANYC BOILER CONVERSION/PLANYC CLIMATE CTRL,CIP,X002,1365 FULTON AVENUE,Bronx,40.833696,-73.902477
BENJAMIN N. CARDOZO HS - QUEEN,IP DIGITAL VIDEO SURVEILLANCE SYSTEM,CIP,Q415,57-00 223 STREET,Queens,40.752333,-73.75599
P.S. 119 - BRONX,TCU REMOVAL/PLAYGROUND REDEVELOPMENT,CIP,X119,1075 PUGSLEY AVENUE,Bronx,40.828518,-73.856569
I.S. 187 - BROOKLYN,FY17 RESO A ROOM CONVERSIONS/PARTITIONING,CIP,K486,1171 65 STREET,Brooklyn,40.627784000000005,-74.004485
I.S. 322 - BRONX,PERMANENT REPAIRS (CEILING TILES),CIP,X135,2441 WALLACE AVENUE,Bronx,40.862109,-73.864577
P.S. 50 - QUEENS,Addition,CAP,Q050,143-26 101 AVENUE,Queens,40.695238,-73.807364
BRONX INTERNATIONAL - BRONX,TERRA COTTA REPL/FLOOD/ROOFS/WINDOW/INTERIOR SPACE,CIP,X400,1110 BOSTON RD,Bronx,40.827642,-73.904473
P.S. 13 - QUEENS,ELECTRICAL WORK FOR A/C INITIATIVE,CIP,Q013,55-01 94TH STREET,Queens,40.737613,-73.86851
P.S. 104 - BROOKLYN,WATER INFILTRATION/FLOOD/PARAPETS/ROOFS,CIP,K104,9115 5TH AVENUE,Brooklyn,40.618415,-74.028842
SECONDARY SCHOOL FOR LAW - K,DETERIORATED LEADER AND DRAIN LINES,CIP,K460,237 7TH AVENUE,Brooklyn,40.669629,-73.979287
P.S. 16 - STATEN ISLAND,FY18 RESO A GYMNASIUM UPGRADE,CIP,R016,80 MONROE AVENUE,Staten Island,40.6397,-74.079141
P.S. 14 - BRONX,PARAPETS/WINDOWS/EXTERIOR MASONRY/ROOFS,CIP,X014,3047 BRUCKNER BLVD,Bronx,40.83587,-73.825774
P.S. 111 - QUEENS,FY19 RESO A GYMNASIUM UPGRADE,CIP,Q111,37-15 13 STREET,Queens,40.758831,-73.93938
PRE-K CENTER @ 1223 CONEY ISLAND AVENUE - BROOKLYN,Lease,CAP,K672,1223 CONEY ISLAND AVENUE,Brooklyn,40.62782,-73.96574
THE INTERNATIONAL HS - BROOKLY,MASONRY/WINDOWS/PARAPETS/ROOFS/FLOOD ELIMINAITON,CIP,K440,883 CLASSON AVENUE,Brooklyn,40.670349,-73.96169499999999
P.S. 333 - MANHATTAN,FY18 RESO A AUDITORIUM UPGRADE,CIP,M118,154 WEST 93 STREET,Manhattan,40.791709,-73.970802
NEW DORP HS - STATEN ISLAND,FY16 RESO A CAFETERIA/MULTIPURPOSE,CIP,R435,465 NEW DORP LANE,Staten Island,40.569393,-74.107737
P.S. 121 - QUEENS,FY17 RESO A AUDITORIUM  UPGRADE,CIP,Q121,126-10 109 AVENUE,Queens,40.68405,-73.815834
P.S. 32 - BRONX,EXTERIOR MASONRY/WINDOWS/PARAPETS,CIP,X032,690 EAST 183 STREET,Bronx,40.852103,-73.885935
HS FOR ARTS & TECHNOLOGY - M,FY16 RESO A TERRACE SURFACING/ROOFS/WINDOWS,CIP,M490,122 AMSTERDAM AVENUE,Manhattan,40.774351,-73.984753
P.S. 333 - MANHATTAN,EXTERIOR MASONRY/ROOFS/PARAPETS,CIP,M118,154 WEST 93 STREET,Manhattan,40.791709,-73.970802
P.S. 18 - BRONX,ELECTRICAL WORK FOR A/C INITIATIVE/LL26 CODE COMPLIANCE/EXIT SIGN REPLACEMENT,CIP,X018,502 MORRIS AVENUE,Bronx,40.816406,-73.92329000000001
P.S. 115 - MANHATTAN,DEFECTIVE STRUCTURE,CIP,M115,586 WEST 177 STREET,Manhattan,40.846542,-73.93520500000001
MOTT HAVEN COMMUNITY HIGH SCHO,FLOOD ELIMINATION/WINDOWS,CIP,X655,455 SOUTHERN BLVD,Bronx,40.810803,-73.907015
P.S. 99 - QUEENS,WATER PENETRATION/PARAPETS,CIP,Q099,82-37 KEW GARDENS ROAD,Queens,40.711419,-73.82862800000001
P.S. 217 - BROOKLYN,EXT MASONRY/FLOOD/WINDOWS/PARAPETS,CIP,K217,1100 NEWKIRK AVENUE,Brooklyn,40.63398,-73.96655799999999
P.S. 333 - QUEENS,NEW A/C CHILLERS,CIP,Q198,3-65 BEACH 56 STREET,Queens,40.593967,-73.786182
MARTIN VAN BUREN HS - QUEENS,IPDVS CAMERA INSTALLATION,CIP,Q435,230-17 HILLSIDE AVENUE,Queens,40.733066,-73.73875600000001
P.S. 1 - MANHATTAN,RPZ VALVES/LOW VOLTAGE ELECTRICAL/ANSUL SYSTEM,CIP,M001,8 HENRY STREET,Manhattan,40.71276,-73.997489
P.S. 205 - QUEENS,BOILER/CLIMATE CTRL/FLOOD/MASONRY/ ROOFS/PARAPETS,CIP,Q205,75-25 BELL BLVD,Queens,40.737678,-73.756791
FASHION INDUSTRIES VOC HS - M,ELECTRICAL WORK FOR A/C INITIATIVE,CIP,M600,225 WEST 24 STREET,Manhattan,40.745156,-73.996074
HS FOR HEALTH CAREER & SCIENCE,IPDVS CAMERA INSTALLATION,CIP,M465,549 AUDUBON AVENUE,Manhattan,40.855855,-73.92712
P.S. 279 - BROOKLYN,FY19 RESO A PLAYGROUND,CIP,K279,1070 EAST 104 STREET,Brooklyn,40.644203000000005,-73.892264
I.S. 51 - BROOKLYN,PARAPET/EXTERIOR MASONRY/ROOFS,CIP,K051,350 5TH AVENUE,Brooklyn,40.672015,-73.983947
PRE-K CENTER @ 2 LAFAYETTE STREET - MANHATTAN,Interior,CAP,M453,2 LAFAYETTE STREET,Manhattan,40.713723,-74.003586
P.S. 333 - QUEENS,SANDY NEW A/C CHILLERS,CIP,Q198,3-65 BEACH 56 STREET,Queens,40.593967,-73.786182
P.S. 223 - QUEENS,WINDOWS/EXT MASONRY/PARAPETS,CIP,Q223,125-20 SUTPHIN BLVD,Queens,40.674519,-73.789399
P.S. 108 - MANHATTAN,PLANYC BOILER/PLANC CLIMATE CTRL/LOW VOLT/KITCHEN,CIP,M108,1615 MADISON AVENUE,Manhattan,40.795146,-73.948368
LIBERTY AVENUE MIDDLE SCHOOL,ENY AUDITORIUM UPGRADE,CIP,K302,350 LINWOOD STREET,Brooklyn,40.677104,-73.883433
P.S. 297 - BROOKLYN,FY19 RESO A AUDITORIUM UPGRADE,CIP,K297,700 PARK AVENUE,Brooklyn,40.697781,-73.94780899999999
3K CENTER @ 375 TOMPKINS AVENUE - STATEN ISLAND,Lease,CAP,R112,375 TOMPKINS AVENUE,Staten Is,40.616391,-74.074167
P.S. 109 - BRONX,WATER PENETRATION/ROOF/ PARAPET/MASONRY,CIP,X109,1771 POPHAM AVENUE,Bronx,40.851414,-73.918533
COLLEGIATE INST FOR MATH & SCI,FY19 RESO A AUDITORIUM UPGRADE,CIP,X415,925 ASTOR AVENUE,Bronx,40.859665,-73.861006
Q811 SPED - QUEENS,LL 41/16 COMPLIANCE,CIP,Q811,61-25 MARATHON PKWY,Queens,40.756778,-73.729487
I.S. 104 - MANHATTAN,FY17 RESO A SUPPLEMENTAL COOLING,CIP,M104,330 EAST 21 STREET,Manhattan,40.736094,-73.980663
P.S. 205 - QUEENS,BOILER/CLIMATE CTRL/FLOOD/MASONRY/ ROOFS/PARAPETS,CIP,Q205,75-25 BELL BLVD,Queens,40.737678,-73.756791
CYPRESS HILLS COLLEGIATE - K,PARAPETS/ELECTRICAL WORK FOR A/C INITIATIVE/FLOOD ELIM/ROOFS/EXT MASONRY/LL26 CODE COMPLIANCE/EXIT SIGN REPLACEMENT,CIP,K420,999 JAMAICA AVENUE,Brooklyn,40.691146,-73.868328
AVIATION HS - QUEENS,FUEL FIRE SUPRESSION SYSTEM/ROOFS/PARAPETS/EXTERIOR MASONRY/FLOOD ELIMINATION/GYMNASIUM UPGRADE/WINDOWS/PARTIAL ACCESSIBILITY,CIP,Q610,45-30 36 STREET,Queens,40.743509,-73.929076
P.S. 183 - MANHATTAN,PLANYC BOILER CONVERSION/PLANYC CLIMATE CONTROL/VENTILATION,CIP,M183,419 EAST 66 STREET,Manhattan,40.763736,-73.95815
P.S. 174 - QUEENS,FY17 RESO A AUDITORIUM UPGRADE,CIP,Q174,65-10 DIETERLE CRESCENT,Queens,40.720924,-73.86135
THE BROOKLYN SCHOOL FOR SOCIAL,RNWL SBHC,CIP,K480,400 IRVING AVENUE,Brooklyn,40.697185,-73.91117
P.S. 134 - MANHATTAN,ROOFS/PARAPETS/WINDOWS/EXTERIOR MASONRY,CIP,M134,293 EAST BROADWAY,Manhattan,40.71457,-73.983724
P.S. 69 - QUEENS,COOLING TOWER REPLACEMENT,CIP,Q069,77-02 37 AVENUE,Queens,40.749266,-73.888817
Q811 SPED - QUEENS,LL 41/16 COMPLIANCE,CIP,Q811,61-25 MARATHON PKWY,Queens,40.756778,-73.729487
P.S. 5 - STATEN ISLAND,FLOOD ELIMINATION,CIP,R005,348 DEISIUS STREET,Staten Island,40.530169,-74.187635
P.S. 1 - STATEN ISLAND,STANDALONE GYM ANNEX,CIP,R701,58 SUMMIT STREET,Staten Island,40.509037,-74.244118
P.S. 92 - QUEENS,Addition,CAP,Q292,99-01 34TH AVENUE,Queens,40.755418,-73.869017
P.S. 41 - BROOKLYN,PLANYC BOILER CONVERSION/PLANYC CLIMATE CONTROL,CIP,K041,411 THATFORD AVENUE,Brooklyn,40.660306,-73.90735500000001
I.S. 14 - BROOKLYN,WATER PENETRATION/PLANYC BOILER/PLANYC CLIMATE,CIP,K014,2424 BATCHELDER STREET,Brooklyn,40.593521,-73.93767199999999
LONG ISLAND CITY HS - Q,CULINARY ARTS ROOM,CIP,Q452,14-30 BROADWAY,Queens,40.765826,-73.9328
P.S. 162 - QUEENS,ELECTRICAL WORK FOR A/C INITIATIVE,CIP,Q162,201-02 53 AVENUE,Queens,40.749036,-73.777213
P.S. 32 - STATEN ISLAND,WATER INFILTRATION/EXT MASONRY/GYM ROOF,CIP,R032,232 BARLOW AVENUE,Staten Island,40.558966,-74.155517
P.S. 163 - BROOKLYN,LSP- REPLACE DUPLEX SEWAGE EJECTOR PUMPS,CIP,K807,109 BAY 14TH STREET,Brooklyn,40.606792,-74.00806
P.S. 199 - BRONX,5TH SBHC,CIP,X104,1449 SHAKESPEARE AVENUE,Bronx,40.842943,-73.920563
I.S. 265 - BROOKLYN,PLANYC BOILER CNVRSN/PLANYC CLIMATE CTRL,CIP,K265,101 PARK AVENUE,Brooklyn,40.696324,-73.97578
I.S. 5 - QUEENS,PUBLIC ADDRESS SYSTEM/HVAC,CIP,Q005,50-40 JACOBUS STREET,Queens,40.737718,-73.887429
TELECOM. ARTS & TECH. HS - K,CERTIFICATE OF OCCUPANCY/ELECTRICAL WORK FOR A/C INITIATIVE,CIP,K485,350 67 STREET,Brooklyn,40.637282,-74.023849
P.S. 16 - BRONX,LSP FIRE ALARM PULL BOX,CIP,X016,4550 CARPENTER AVENUE,Bronx,40.902205,-73.85482900000001
P.S. 282 - BROOKLYN,ELECTRICAL WORK FOR A/C INITIATIVE/LSP LL26 CODE COMPLIANCE/EXIT SIGN REPLACEMENT,CIP,K282,180 6TH AVENUE,Brooklyn,40.67634,-73.977367
P.S. 34 - BROOKLYN,PLANYC BOILER CNVRSN/PLANYC CLIMATE CTRL,CIP,K034,131 NORMAN AVENUE,Brooklyn,40.726135,-73.949649
3K CENTER @ 92-80 220TH STREET - QUEENS,Lease,CAP,Q442,92-80 220 STREET,Queens,40.723336,-73.736561
H.S. 745 - BROOKLYN,ELECTRICAL WORK FOR A/C INITIATIVE,CIP,K470,600 KINGSTON AVENUE,Brooklyn,40.658893,-73.942458
AUGUST MARTIN HS - QUEENS,PLANYC BOILER CONVERSION/PLANYC CLIMATE CONTROL,CIP,Q400,156-10 BAISLEY BLVD,Queens,40.675633000000005,-73.783342
P.S. 71 - QUEENS,PARAPETS/EXTERIOR MASONRY/ROOFS,CIP,Q071,62-85 FOREST AVENUE,Queens,40.711203000000005,-73.905286
P.S. 198 - MANHATTAN,FY17 RESO A SUPPLEMENTAL COOLING,CIP,M198,1700 3RD AVENUE,Manhattan,40.784826,-73.949611
P.S. 39 - STATEN ISLAND,STANDALONE GYM ANNEX,CIP,R099,71  SAND LANE,Staten Island,40.597679,-74.071529
WILLIAM C. BRYANT HS - QUEENS,ELECTRICAL WORK FOR A/C INITIATIVE/LL26 CODE COMPLIANCE/EXIT SIGN REPLACEMENT,CIP,Q445,48-10 31 AVENUE,Queens,40.75823,-73.910514
I.S. 419 - QUEENS,Demo,CAP,Q419,111-10 ASTORIA BOULEVARD,Queens,40.7599,-73.859218
JOHN ADAMS HS - QUEENS,TCU REMOVAL/PLAYGROUND REDEVELOPMENT,CIP,Q480,102-10 ROCKAWAY BOULEVARD,Queens,40.679487,-73.836476
P.S. @ 357 TARGEE STREET - STATEN ISLAND,New,CAP,R070,357 TARGEE STREET,Staten Is,40.618679,-74.084846
BEACH CHANNEL HS - QUEENS,SANDY FIRE ALARM/NON SANDY PA SYSTEM,CIP,Q410,100-00 BEACH CHANNEL DRIVE,Queens,40.586066,-73.822624
P.S. 230 - BRONX,SEWAGE LEAK/FIRE SYS SPRINKLER/CRACKED CONCRETE/FA,CIP,X229,275 HARLEM RIVER PARK BRIDGE,Bronx,40.852536,-73.921467
P.S. 33 - QUEENS,TCU REMOVAL/PLAYGROUND REDEVELOPMENT,CIP,Q033,91-37 222 STREET,Queens,40.727134,-73.735077
Q811 SPED - QUEENS,LL 41/16 COMPLIANCE,CIP,Q811,61-25 MARATHON PKWY,Queens,40.756778,-73.729487
P.S. 50 - QUEENS,Addition,CAP,Q050,143-26 101 AVENUE,Queens,40.695238,-73.807364
PK/3K CENTER @ 21 BAY 11TH STREET - BROOKLYN,Lease,CAP,K747,21 BAY 11TH STREET,Brooklyn,40.609976,-74.008608
P.S. 197 - QUEENS,EXTERIOR MASONRY/ROOFS,CIP,Q197,825 HICKSVILLE ROAD,Queens,40.600199,-73.74396800000001
MONROE ACAD FOR VISUAL ARTS -,IP DIGITAL VIDEO SURVEILLANCE SYSTEM,CIP,X420,1300 BOYNTON AVENUE,Bronx,40.831601,-73.878912
P.S. 41 - STATEN ISLAND,MAIN ELECTRICAL SERVICE/LOW VOLTAGE ELEC SYSTEM,CIP,R041,216 CLAWSON STREET,Staten Island,40.574044,-74.109282
JOHN ADAMS HS - QUEENS,ELECTRICAL WORK FOR A/C INITIATIVE,CIP,Q480,102-10 ROCKAWAY BOULEVARD,Queens,40.679487,-73.836476
K140 SPED - BROOKLYN,PUBLIC ADDRESS SYSTEM,CIP,K258,141 MACON STREET,Brooklyn,40.681572,-73.94544599999999
FREDERICK DOUGLASS ACADEMY VI,MSNRY/ROOFS/WINDOWS/PARAPETS/NATATORIUM STRUC REPR,CIP,Q465,8-21 BAY 25 STREET,Queens,40.60201,-73.762795
P.S. 134 - BRONX,MINI BUILDING CONDITIONS/PLAYGROUND REDEVELOPMENT,CIP,X134,1330 BRISTOW STREET,Bronx,40.831194,-73.894773
ARCHER ELEMENTARY SCHOOL - BRO,FLOOD ELIMINATION/ROOFS,CIP,X102,1827 ARCHER STREET,Bronx,40.837631,-73.866036
P.S. 109 - BRONX,WATER PENETRATION/ROOF/ PARAPET/MASONRY,CIP,X109,1771 POPHAM AVENUE,Bronx,40.851414,-73.918533
P.S. 246 - BRONX,FY18 RESO A SCIENCE LAB UPGRADES,CIP,X843,2641 GRAND CONCOURSE,Bronx,40.865593,-73.894758
P.S. 452 - MANHATTAN,FY18 RESO A CAFETERIA / MULTIPURPOSE ROOM UPGRADE,CIP,M191,210 WEST 61 STREET,Manhattan,40.771925,-73.987328
P.S. 257 - BROOKLYN,FY18 RESO A AUDITORIUM UPGRADE,CIP,K257,60 COOK STREET,Brooklyn,40.702392,-73.941801
FREDERICK DOUGLASS ACADEMY VI,MSNRY/ROOFS/WINDOWS/PARAPETS/NATATORIUM STRUC REPR,CIP,Q465,8-21 BAY 25 STREET,Queens,40.60201,-73.762795
PERFORMING ARTS AND TECH. HS -,FY14 RESO A GYMNASIUM UPGRADE,CIP,K435,400 PENNSYLVANIA AVENUE,Brooklyn,40.667456,-73.894747
3K CENTER @ 1 TELEPORT DRIVE - STATEN ISLAND,Lease,CAP,R095,1 TELEPORT DRIVE,Staten Is,40.604274,-74.17846899999999
P.S./I.S. @ 3269 ATLANTIC AVENUE - BROOKLYN,New,CAP,K667,3269 ATLANTIC AVENUE,Brooklyn,40.680655,-73.875152
THE URBAN ASSEMBLY SCHOOL FOR,FACADE/PAVED AREAS CONCRETE,CIP,M501,2005 MADISON AVENUE,Manhattan,40.807383,-73.939433
P.S. 45 - BROOKLYN,LSP VACUUM PUMPS,CIP,K045,84 SCHAEFER STREET,Brooklyn,40.686746,-73.91069300000001
K396 SPED - BROOKLYN,ELEVATOR,CIP,K396,110 CHESTER STREET,Brooklyn,40.668856,-73.91149899999999
I.S. 266 - BROOKLYN,FY19 RESO A ROOM CONVERSIONS/PARTITIONING,CIP,K902,62 PARK PLACE,Brooklyn,40.678983,-73.976497
G MCCOWN EXPEDITIONARY LRNG SC,FY18 RESO A GYMNASIUM UPGRADE,CIP,R043,100 ESSEX DRIVE,Staten Island,40.581315,-74.158589
P.S. 236 - BRONX,FALLING COPING STONES/EXT MASONRY,CIP,X173,1871 WALTON AVENUE,Bronx,40.848899,-73.90952800000001
P.S. 9 - BRONX,PLANYC BOILER CNVSN/PLANYC CLIMATE CTRL,CIP,X009,230 EAST 183 STREET,Bronx,40.857067,-73.89893599999999
I.S. 73 - QUEENS,LOW VOLT ELECTRICAL SYSTEMS,CIP,Q073,70-02 54 AVENUE,Queens,40.729215,-73.893624
P.S. 9 - BRONX,CRACKED MASONRY/PARAPETS/ROOFS,CIP,X009,230 EAST 183 STREET,Bronx,40.857067,-73.89893599999999
P.S. 219 - QUEENS,FY11 RESO A SUPPLEMENTAL COOLING,CIP,Q219,144-39 GRAVETT ROAD,Queens,40.735275,-73.823778
P.S. 163 - BROOKLYN,LSP REPLACEMENT OF GYM FLOOR,CIP,K807,109 BAY 14TH STREET,Brooklyn,40.606792,-74.00806
SUSAN E. WAGNER HS - STATEN IS,ELECTRICAL WORK FOR A/C INITIATIVE,CIP,R460,1200 MANOR ROAD,Staten Island,40.596803,-74.124227
FREDERICK DOUGLASS ACADEMY VI,MSNRY/ROOFS/WINDOWS/PARAPETS/NATATORIUM STRUC REPR,CIP,Q465,8-21 BAY 25 STREET,Queens,40.60201,-73.762795
JAMES MADISON HS - BROOKLYN,FY16 RESO A AUDITORIUM UPGRADE,CIP,K425,3787 BEDFORD AVENUE,Brooklyn,40.609912,-73.948512
PRE-K CENTER @ 1423 62ND STREET - BROOKLYN,Lease,CAP,K678,1423 62ND STREET,Brooklyn,40.625899,-73.996729
NYC SCHOOL CONSTRUCTION AUTHOR,VP ADMN RELOCATION AND 1ST FLOOR HR/IT BUILDOUT,CIP,Q998,30-30 THOMSON AVENUE,Queens,40.745042,-73.93619100000001
P.S. 287 - BROOKLYN,ROOFS/PARAPETS/EXTERIOR MASONRY,CIP,K287,50 NAVY STREET,Brooklyn,40.697901,-73.98054
P.S. 503 - BROOKLYN,EXTERIOR MASONRY/PARAPETS/ROOFS,CIP,K314,330 59 STREET,Brooklyn,40.642121,-74.018997
WEST END SECONDARY SCHOOL - MA,Lease,CAP,M837,227-243 WEST 61 STREET,Manhattan,40.772007,-73.98747900000001
TELECOM. ARTS & TECH. HS - K,LSP REPLACE BURNER CONTROLS,CIP,K485,350 67 STREET,Brooklyn,40.637282,-74.023849
P.S. 111 - QUEENS,KITCHEN UPGRADE,CIP,Q111,37-15 13 STREET,Queens,40.758831,-73.93938
P.S. 25 - BROOKLYN,ROOFS/PARAPETS/EXT MASONRY/EXT DOORS,CIP,K025,787 LAFAYETTE AVENUE,Brooklyn,40.691037,-73.941342
P.S. 164 - QUEENS,FY19 RESO A LIBRARY UPGRADE,CIP,Q164,138-01 77 AVENUE,Queens,40.720924,-73.823362
FRANCIS LEWIS HS ANNEX - QUEENS,New,CAP,Q434,58-20 UTOPIA PARKWAY,Queens,40.740724,-73.79283000000001
P.S. 22 - STATEN ISLAND,FY18 RESO A AUDITORIUM UPGRADE,CIP,R022,1860 FOREST AVENUE,Staten Island,40.625369,-74.15097
P.S. 14 ADDITION,Addition,CAP,X014,3047 BRUCKNER BLVD,Bronx,40.83587,-73.825774
P.S. 279 - BROOKLYN,SANDY:INTERIOR/HEAT/ELEC/FLOOD/ELEVATOR/HVAC/FA,CIP,K279,1070 EAST 104 STREET,Brooklyn,40.644203000000005,-73.892264
P.S. 153 - MANHATTAN,FY17 RESO A PLAYGROUND REDEVELPOMENT,CIP,M153,1750 AMSTERDAM AVENUE,Manhattan,40.826295,-73.946845
HS OF GRAPHIC COMM. ARTS (VOC),PLANYC BOILERS CONVERSION/CLIMATE CONTROL,CIP,M625,439 WEST 49 STREET,Manhattan,40.76337,-73.990593
X811 SPED - BRONX,PROBES-REPAIRS/PARAPETS/ ROOFS/WINDOWS,CIP,X084,1434 LONGFELLOW AVENUE,Bronx,40.830589,-73.887587
P.S. 4 - MANHATTAN,GYMNASIUM FLOOR,CIP,M004,500 WEST 160 STREET,Manhattan,40.834899,-73.941085
I.S. 322 - BRONX,CEILING TILE REPLACEMENT,CIP,X135,2441 WALLACE AVENUE,Bronx,40.862109,-73.864577
NEWCOMERS HIGH SCHOOL - Q,RPZ VALVES,CIP,Q450,28-01 41ST AVENUE,Queens,40.751356,-73.937445
P.S. 111 - QUEENS,FY18 RESO A AUDITORIUM  UPGRADE,CIP,Q111,37-15 13 STREET,Queens,40.758831,-73.93938
P.S. 37 - BRONX,FLOOD ELIMINATION,CIP,X037,360 W 230TH STREET,Bronx,40.880263,-73.910466
PORT RICHMOND HS - R,LSP REPLACE BOILER,CIP,R446,39 INNIS STREET,Staten Island,40.633704,-74.142364
P.S. 29 - STATEN ISLAND,EXTERIOR MASONRY/ROOFS/PARAPETS,CIP,R029,1581 VICTORY BLVD,Staten Island,40.613604,-74.115988
P.S. @ PARCEL F - QUEENS,New,CAP,Q375,2ND STREET BETWEEN 56TH AND 57TH AVENUE,Queens,,
P.S. 6 - BRONX,STANDALONE GYM ANNEX,CIP,X449,1000 EAST TREMONT AVENUE,Bronx,40.840755,-73.88170699999999
I.S. 339 - BRONX,RENEWAL SCHOOL BASED HEALTH CENTER,CIP,X147,1600 WEBSTER AVENUE,Bronx,40.840878,-73.904754
P.S. 884 - BROOKLYN,Lease,CAP,K884,15 SNYDER AVENUE,Brooklyn,40.648568,-73.957639
EXCELSIOR PREP HIGH SCHOOL - Q,EXT MASONRY/ROOFS/PAVED AREA-CONCRETE,CIP,Q420,143-10 SPRINGFIELD BLVD,Queens,40.668235,-73.756839
I.S. 73 - QUEENS,LOW VOLT ELECTRICAL SYSTEMS,CIP,Q073,70-02 54 AVENUE,Queens,40.729215,-73.893624
P.S. 99 - QUEENS,WATER PENETRATION/PARAPETS,CIP,Q099,82-37 KEW GARDENS ROAD,Queens,40.711419,-73.82862800000001
NORMAN THOMAS HS - MANHATTAN,SCIENCE LAB,CIP,M620,111 EAST 33 STREET,Manhattan,40.746176,-73.981241
BERGTRAUM HS - MANHATTAN,SCIENCE LAB UPGRADE/FIRE ALARM SYSTEMS,CIP,M520,411 PEARL STREET,Manhattan,40.711442,-74.000851
P.S. 169 - QUEENS,FY16 RESO A AUDITORIUM UPGRADE,CIP,Q169,18-25 212 STREET,Queens,40.782298,-73.779099
TEACHER'S COLLEGE COMMUNITY SCHOOL ANNEX - MANHATTAN,Lease,CAP,M484,223-233 WEST 132 STREET,Manhattan,40.813781,-73.946024
X186 SPED - BRONX,PLANYC BOILER CONVERSION/PLANYC CLIMATE CONTROL/FLOOD ELIMINATION,CIP,X136,750 JENNINGS STREET,Bronx,40.83182,-73.898075
D75 REPLACEMENT @ 15 FAIRFIELD STREET - STATEN ISLAND,New,CAP,R089,15 FAIRFIELD STREET,Staten Is,40.56397,-74.150885
P.S. 246 - BRONX,GYM STANDALONE GYM ANNEX,CIP,X472,2641 GRAND CONCOURSE,Bronx,40.865593,-73.894758
P.S. 105 - BRONX,ELECTRICAL WORK FOR A/C INITIATIVE,CIP,X105,725 BRADY AVENUE,Bronx,40.852398,-73.866617
I.S. 118 - BRONX,CAST PANELS/FLOOD ELIMINATION/PARAPETS/ROOFS,CIP,X118,577 EAST 179 STREET,Bronx,40.848339,-73.89308
I.S. 54 - MANHATTAN,MASONRY & GRANITE STEP DEFECTS,CIP,M054,103 WEST 107 STREET,Manhattan,40.800119,-73.962837
I.S. 136 - BROOKLYN,ROOFS/FLOOD ELIMINATION/PARAPETS/EXTERIOR MASONRY,CIP,K136,4004 4TH AVENUE,Brooklyn,40.651977,-74.006862
P.S. 11 - BRONX,DEFECTIVE RETAINING WALL & PAVEMENTS,CIP,X011,1257 OGDEN AVENUE,Bronx,40.839378,-73.925714
P.S. 677 - BROOKLYN,Lease,CAP,K677,139 MENAHAN STREET,Brooklyn,40.695717,-73.919473
P.S. 23 - BROOKLYN,ELECTRICAL WORK FOR A/C INITIATIVE/LL26 CODE COMPLIANCE/EXIT SIGN REPLACEMENT,CIP,K023,545 WILLOUGHBY AVENUE,Brooklyn,40.69407,-73.94756
"QNS HS OF TEACH., LIB. ARTS&SC",LSP-GYMNASIUM BLEACHERS REPLACEMENT,CIP,Q566,74-20 COMMONWEALTH BLVD,Queens,40.746088,-73.727535
P.S. 95 - BRONX,ELECTRICAL WORK FOR A/C INITIATIVE/LSP LL26 CODE COMPLIANCE/EXIT SIGN REPLACEMENT,CIP,X095,3961 HILLMAN AVENUE,Bronx,40.882898,-73.891256
P.S. 74 - STATEN ISLAND,STANDALONE GYM ANNEX,CIP,R700,211 DANIEL LOW TERRACE,Staten Island,40.639087,-74.079922
A. PHILIP RANDOLPH HS -MANHATT,ELECTRICAL WORK FOR A/C INITIATIVE,CIP,M540,443 WEST 135 STREET,Manhattan,40.818188,-73.950356
P.S. 56 - BRONX,Addition,CAP,X056,341 EAST 207 STREET,Bronx,40.875156,-73.875217
