School Name,Project Description,Project type,Building ID,Building Address,City,Latitude,Longitude
P.S. 169 - QUEENS,FY16 RESO A AUDITORIUM UPGRADE,CIP,Q169,18-25 212 STREET,Queens,40.782298,-73.779099
KINGSBOROUGH EARLY COLLEGE SCH,ELECTRICAL WORK FOR A/C INITIATIVE,CIP,K400,2630 BENSON AVENUE,Brooklyn,40.594291,-73.98577
Q721 SPED - QUEENS,EXTERIOR MASONRY/ROOFS,CIP,Q722,57-12 94TH STREET,Queens,40.736003,-73.867478
P.S. 47 - BRONX,ROOFS/PARAPETS/MASONRY/FLOOD,CIP,X047,1794 EAST 172 STREET,Bronx,40.832902,-73.866848
P.S. 176 - QUEENS,Addition,CAP,Q176,120-45 235 STREET,Queens,40.685492,-73.72998199999999
P.S. 46 - BROOKLYN,"LSP- VACUUM/PUMP CONDENSATE PUMPS, THERMOSTAT, CHEMICAL FEED SYSTEM",CIP,K046,100 CLERMONT AVENUE,Brooklyn,40.694633,-73.971165
TEACHER'S COLLEGE COMMUNITY SCHOOL ANNEX - MANHATTAN,Lease,CAP,M484,223-233 WEST 132 STREET,Manhattan,40.813781,-73.946024
P.S. 52 - QUEENS,WATER PENETRATION/PARAPETS,CIP,Q052,178-37 146 TERRACE,Queens,40.661122,-73.766733
BRONX INTERNATIONAL - BRONX,TERRA COTTA REPL/FLOOD/ROOFS/WINDOW/INTERIOR SPACE,CIP,X400,1110 BOSTON RD,Bronx,40.827642,-73.904473
P.S. 503 - BROOKLYN,EXTERIOR MASONRY/PARAPETS/ROOFS,CIP,K314,330 59 STREET,Brooklyn,40.642121,-74.018997
P.S. 101 - QUEENS,FY19 RESO A AUDITORIUM UPGRADE,CIP,Q101,2 RUSSELL PLACE,Queens,40.715462,-73.843974
P.S. 75 - MANHATTAN,TEMPORARY BOILER,CIP,M075,735 WEST END AVENUE,Manhattan,40.795157,-73.973292
BROOKLYN TECH HS - K,EXTERIOR MASONRY/ROOFS/PARAPETS/WINDOWS/PAVED AREAS CONCRETE,CIP,K430,29 FT GREENE PLACE,Brooklyn,40.688834,-73.976905
P.S. 214 - BROOKLYN,TCU REMOVAL AND PLAYGROUND REDEVELOPMENT,CIP,K214,2944 PITKIN AVENUE,Brooklyn,40.676513,-73.863151
P.S. 4 - STATEN ISLAND,FIRE ALARM SYSTEM REPLACEMENT,CIP,R004,200 NEDRA LANE,Staten Island,40.552975,-74.194597
P.S. 1 - STATEN ISLAND,ELECTRICAL WORK FOR A/C INITIATIVE,CIP,R001,58 SUMMIT STREET,Staten Island,40.509037,-74.244118
I.S. 522 - BROOKLYN,PLANYC BOILER CONVERSION/PLANYC CLIMATE CONTROL,CIP,K271,1137 HERKIMER STREET,Brooklyn,40.677805,-73.91584300000001
J.H.S. 185 - QUEENS,IP DIGITAL VIDEO SURVEILLANCE SYSTEMS,CIP,Q185,147-26 25 DRIVE,Queens,40.775253,-73.819347
I.S. 285 - BROOKLYN,ELECTRICAL WORK FOR A/C INITIATIVE/LL26 CODE COMPLIANCE/EXIT SIGN REPLACEMENT,CIP,K285,5905 BEVERLY ROAD,Brooklyn,40.646877,-73.921006
HS FOR MEDIA & COMM - MANHATTA,FY17 RESO A ROOM CONVERSIONS/PARTITIONING,CIP,M465,549 AUDUBON AVENUE,Manhattan,40.855855,-73.92712
P.S. 28 - BRONX,ELECTRICAL WORK FOR A/C INITIATIVE/LL26 CODE COMPLIANCE/EXIT SIGN REPLACEMENT,CIP,X028,1861 ANTHONY AVENUE,Bronx,40.848057,-73.903522
P.S. 162 - QUEENS,PLANYC BOILER CONVERSION/CLIMATE CTRL,CIP,Q162,201-02 53 AVENUE,Queens,40.749036,-73.777213
P.S. 18 - BROOKLYN,STANDALONE GYM ANNEX,CIP,K673,101 MAUJER STREET,Brooklyn,40.710609000000005,-73.946977
RALPH MCKEE VOC HS - S. I.,FY16 RESO A ROOM CONVERSIONS,CIP,R600,290 ST MARKS PLACE,Staten Island,40.642793,-74.07873000000001
MIDDLE SCHOOL FOR ART & PHILOS,EXTERIOR MASONRY/PARAPETS/ROOFS,CIP,K252,1084 LENOX ROAD,Brooklyn,40.658295,-73.920109
I.S. 221 - BRONX,LSP LL26 CODE COMPLIANCE/EXIT SIGN REPLACEMENT,CIP,X149,360 EAST 145 STREET,Bronx,40.813983,-73.92078199999999
P.S. 307 - BROOKLYN,RENOVATION OF CLASSROOM 332,CIP,K307,209 YORK STREET,Brooklyn,40.701343,-73.982314
I.S. 227 - BROOKLYN,WATER PENETRATION/ROOFS/EXT MASONRY/PARAPETS,CIP,K227,6500 16 AVENUE,Brooklyn,40.62191,-73.99502199999999
P.S. 19 - BROOKLYN,FY16 RESO A PLAYGROUND REDVELOPMENT,CIP,K019,325 SOUTH 3RD STREET,Brooklyn,40.709647,-73.95465
P.S. 80 - QUEENS,FY18 RESO A ROOM CONVERSIONS/PARTITIONING,CIP,Q080,171-05 137 AVENUE,Queens,40.67282,-73.76925200000001
P.S. 130 - BROOKLYN,WATER PENETRATION THROUGH EXTERIOR/PARAPETS/ROOFS,CIP,K130,70 OCEAN PARKWAY,Brooklyn,40.648884,-73.975607
QUEENS COLLEGIATE SCHOOL - QUE,TENNIS COURT SURFACE,CIP,Q470,167-01 GOTHIC DRIVE,Queens,40.713218,-73.797237
UNIVERSITY HEIGHTS HS - BRONX,ATHLETIC FIELDS,CIP,X471,701 ST ANNS AVENUE,Bronx,40.81825,-73.91103000000001
P.S. 130 - BROOKLYN,WATER PENETRATION THROUGH EXTERIOR/PARAPETS/ROOFS,CIP,K130,70 OCEAN PARKWAY,Brooklyn,40.648884,-73.975607
I.S. 136 - BROOKLYN,ELECTRICAL SYSTEMS UPGRADE/LL26 CODE COMPLIANCE/EXIT SIGN REPLACEMENT,CIP,K136,4004 4TH AVENUE,Brooklyn,40.651977,-74.006862
P.S. 36 - QUEENS,ELECTRICAL WORK FOR A/C INITIATIVE,CIP,Q036,187-01 FOCH BLVD,Queens,40.690828,-73.76390699999999
I.S. 125 - BRONX,FY17 RESO A SUPPLEMENTAL COOLING,CIP,X125,1111 PUGSLEY AVENUE,Bronx,40.829232,-73.856734
P.S. 134 - BRONX,MINI BUILDING CONDITIONS/PLAYGROUND REDEVELOPMENT,CIP,X134,1330 BRISTOW STREET,Bronx,40.831194,-73.894773
H.S. 745 - BROOKLYN,IP DIGITAL VIDEO SURVEILLANCE SYSTEM,CIP,K470,600 KINGSTON AVENUE,Brooklyn,40.658893,-73.942458
SUCCESS ACADEMY CHARTER SCHOOL,PLANYC BOILER CONVERSION/PLANYC CLIMATE CONTROL,CIP,K033,70 TOMPKINS AVENUE,Brooklyn,40.697152,-73.946641
P.S. 46 ADDITION,Addition,CAP,X046,2760 BRIGGS AVENUE,Bronx,40.867623,-73.890518
BROOKLYN ACADEMY HS - BROOKLYN,WORK REQUIRED TO OBTAIN A C OF O,CIP,K458,832 MARCY AVENUE,Brooklyn,40.685004,-73.947152
THE INTERNATIONAL HS - BROOKLY,ELECTRICAL WORK FOR A/C INITIATIVE,CIP,K440,883 CLASSON AVENUE,Brooklyn,40.670349,-73.96169499999999
P.S. 37 - QUEENS,PLANYC BOILER/PLANYC CLIMATE CONTROL,CIP,Q037,179-37 137 AVENUE,Queens,40.67588,-73.758505
P.S. 12 - QUEENS,BOILER REPLACE/ELEC SWITCH UPG/PLANYC CLIMATE CTRL,CIP,Q012,42-00 72 STREET,Queens,40.742633000000005,-73.89280500000001
MORRIS COLLAB HS TECH & HUMAN,FY16 RESO A LIBRARY UPGRADE,CIP,X400,1110 BOSTON RD,Bronx,40.827642,-73.904473
P.S. 306 - BROOKLYN,ELECTRICAL WORK FOR A/C INITIATIVE/LL26 CODE COMPLIANCE/EXIT SIGN REPLACEMENT,CIP,K306,970 VERMONT STREET,Brooklyn,40.655997,-73.886547
X811 SPED - BRONX,PARTIAL ACCESSIBILITY,CIP,X084,1434 LONGFELLOW AVENUE,Bronx,40.830589,-73.887587
RALPH R. MCKEE CAREER AND TECH,LSP VENTILATION/DUST COLLECTION SYSTEM,CIP,R600,290 ST MARKS PLACE,Staten Island,40.642793,-74.07873000000001
P.S. 26 - BROOKLYN,FY13 RESO A PLAYGROUND REDEVELOPMENT,CIP,K026,1014 LAFAYETTE AVENUE,Brooklyn,40.692126,-73.931731
P.S./I.S. 189 (@STEENWICK AVE),IPDVS CAMERA INSTALLATION,CIP,X189,3441 STEENWICK AVENUE,Bronx,40.883025,-73.830366
I.S. 34 - STATEN ISLAND,SCIENCE LAB UPGRADE,CIP,R034,528 ACADEMY AVE,Staten Island,40.508284,-74.24342800000001
BRONX INTERNATIONAL - BRONX,TERRA COTTA REPL/FLOOD/ROOFS/WINDOW/INTERIOR SPACE,CIP,X400,1110 BOSTON RD,Bronx,40.827642,-73.904473
P.S. 107 - BROOKLYN,EXTERIOR MASONRY/ROOFS/PARAPETS,CIP,K107,1301 8TH AVENUE,Brooklyn,40.663251,-73.981289
P.S. @ 4302 4TH AVENUE - BROOKLYN,Demo,CAP,K557,4302 4TH AVENUE,Brooklyn,40.650305,-74.008602
"MATH, SCI., RESEARCH & TECH. H",ELECTRICAL WORK FOR A/C INITIATIVE,CIP,Q490,207-01 116 AVENUE,Queens,40.697819,-73.745728
P.S. 151 - BROOKLYN,LSP PLAYGROUND,CIP,K151,763 KNICKERBOCKER AVENUE,Brooklyn,40.693293,-73.90864
P.S. 68 - QUEENS,ELECTRICAL WORK FOR A/C INITIATIVE/LL26 CODE COMPLIANCE/EXIT SIGN REPLACEMENT,CIP,Q068,59-09 ST FELIX AVENUE,Queens,40.696556,-73.897405
P.S. 67 - BRONX,STH SBHC,CIP,X067,2024 MOHEGAN AVENUE,Bronx,40.843945,-73.884788
THE URBAN ASSEMBLY SCHOOL FOR,FY17 RESO A ROOM CONVERSIONS/PARTITIONING,CIP,M470,145 WEST 84 STREET,Manhattan,40.785803,-73.974614
P.S. 20 - BRONX,LSP DOMESTIC WATER HEATER REPLACEMENT,CIP,X020,3050 WEBSTER AVENUE,Bronx,40.870002,-73.878875
P.S. 189 - MANHATTAN,FLOOD ELIMINATION/ROOFS/PARAPETS/EXTERIOR MASONRY/PLAYGROUND,CIP,M189,2580 AMSTERDAM AVENUE,Manhattan,40.852631,-73.927604
P.S. 112 - QUEENS,FY17 RESO A PLAYGROUND REDEVELOPMENT,CIP,Q112,25-05 37 AVENUE,Queens,40.756891,-73.934523
I.S. 62 - BROOKLYN,PLANYC CLIMATE CTRL/PLANYC BOILER CONVERSION,CIP,K062,700 CORTELYOU ROAD,Brooklyn,40.638686,-73.971651
P.S. 176 - BROOKLYN,FY18 RESO A MAKERSPACE,CIP,K176,1225 69 STREET,Brooklyn,40.624611,-74.00537800000001
WASHINGTON IRVING H.S.,WATER STORAGE TANK,CIP,M460,40 IRVING PLACE,Manhattan,40.735494,-73.987659
P.S. 9 - BRONX,PLANYC BOILER CONVERSION/PLANYC CLIMATE CONTROL,CIP,X009,230 EAST 183 STREET,Bronx,40.857067,-73.89893599999999
PRE-K CENTER @ 32-52 37TH STREET - QUEENS,Lease,CAP,Q397,32-52 37TH STREET,Queens,40.759308,-73.920948
J.H.S. 237 - QUEENS,FY16 RESO A AIR CONDITIONING SPLIT SYSTEM,CIP,Q237,46-21 COLDEN STREET,Queens,40.749545,-73.822073
P.S. 133 - QUEENS,FY15 RESO A PLAYGROUND REDEVELOPMENT,CIP,Q133,248-05 86 AVENUE,Queens,40.731729,-73.71785899999999
P.S. 82 - QUEENS,WATER PENETRATION/ROOFS/PARAPETS,CIP,Q082,88-02 144 STREET,Queens,40.704072,-73.811771
G. WASHINGTON CARVER HS FOR SC,IPDVS CAMERA INSTALLATION,CIP,Q420,143-10 SPRINGFIELD BLVD,Queens,40.668235,-73.756839
P.S. 64 - QUEENS,PLANYC BOILER CONVERSION/PLANYC CLIMATE CTRL/FA,CIP,Q064,82-01 101 AVENUE,Queens,40.681172,-73.85691800000001
P.S. 32 - STATEN ISLAND,WATER INFILTRATION/EXT MASONRY/GYM ROOF,CIP,R032,232 BARLOW AVENUE,Staten Island,40.558966,-74.155517
I.S. 73 - QUEENS,LOW VOLT ELECTRICAL SYSTEMS,CIP,Q073,70-02 54 AVENUE,Queens,40.729215,-73.893624
P.S. 63 - QUEENS,FY15 RESO A AUDITORIUM UPGRADE,CIP,Q063,90-15 SUTTER AVENUE,Queens,40.67641,-73.846773
WILLIAM E. GRADY VOC HS - K,FY16 RESO A CULINARY ARTS ROOM,CIP,K620,25 BRIGHTON 4TH ROAD,Brooklyn,40.582585,-73.963477
P.S. 9 - BRONX,CRACKED MASONRY/PARAPETS/ROOFS,CIP,X009,230 EAST 183 STREET,Bronx,40.857067,-73.89893599999999
FASHION INDUSTRIES VOC HS - M,ELECTRICAL WORK FOR A/C INITIATIVE,CIP,M600,225 WEST 24 STREET,Manhattan,40.745156,-73.996074
P.S. 146 - BROOKLYN,FALLING MASONRY,CIP,K142,610 HENRY STREET,Brooklyn,40.68007,-74.001377
P.S. 112 - QUEENS,ROOFS/PARAPETS/EXTERIOR MASONRY,CIP,Q112,25-05 37 AVENUE,Queens,40.756891,-73.934523
P.S. 45 - BROOKLYN,LSP VACUUM PUMPS,CIP,K045,84 SCHAEFER STREET,Brooklyn,40.686746,-73.91069300000001
P.S. 223 - QUEENS,WINDOWS/EXT MASONRY/PARAPETS,CIP,Q223,125-20 SUTPHIN BLVD,Queens,40.674519,-73.789399
P.S. 176 - QUEENS,ELECTRICAL WORK FOR A/C INITIATIVE/LSP LL26 CODE COMPLIANCE/EXIT SIGN REPLACEMENT,CIP,Q176,120-45 235 STREET,Queens,40.685492,-73.72998199999999
I.S. 259 - BROOKLYN,PLANYC BOILER CONVERSION/PLANYC CLIMATE CONTROL,CIP,K259,7305 FT HAMILTON PKWY,Brooklyn,40.62668,-74.01512
I.S. 117 - BRONX,FY18 RESO A GYMNASIUM UPGRADE,CIP,X117,1865 MORRIS AVENUE,Bronx,40.848547,-73.908416
J.H.S. 50 - BROOKLYN,FY17 RESO A ROOM CONVERSIONS/PARTITIONING,CIP,K050,183 SOUTH 3RD STREET,Brooklyn,40.711704,-73.960275
P.S. 116 - MANHATTAN,BULGING WALLS AND RUSTED GRATING SUPPORTS,CIP,M116,210 EAST 33 STREET,Manhattan,40.744838,-73.978116
P.S. 193 - BROOKLYN,FY19 RESO A LIBRARY UPGRADE,CIP,K193,2515 AVENUE L,Brooklyn,40.621507,-73.950473
P.S. 57 - BRONX,FY18 RESO A GYMNASIUM UPGRADE,CIP,X057,2111 CROTONA AVENUE,Bronx,40.848472,-73.888561
I.S. 259 - BROOKLYN,CRACKED EXTERIOR MASONRY/ROOFS/PARAPETS,CIP,K259,7305 FT HAMILTON PKWY,Brooklyn,40.62668,-74.01512
P.S. 11 - STATEN ISLAND,TOILETS - STUDENTS,CIP,R011,50 JEFFERSON STREET,Staten Island,40.59057,-74.09772199999999
PERFORMING ARTS AND TECH. HS -,FY14 RESO A GYMNASIUM UPGRADE,CIP,K435,400 PENNSYLVANIA AVENUE,Brooklyn,40.667456,-73.894747
P.S. 217 - BROOKLYN,EXT MASONRY/FLOOD/WINDOWS/PARAPETS,CIP,K217,1100 NEWKIRK AVENUE,Brooklyn,40.63398,-73.96655799999999
P.S. 288 - BROOKLYN,ROOF,CIP,K288,2950 WEST 25 STREET,Brooklyn,40.574411,-73.99194
P.S. 31 - STATEN ISLAND,ELECTRICAL WORK FOR A/C INITIATIVE,CIP,R031,55 LAYTON AVENUE,Staten Island,40.641595,-74.085135
P.S. 119 - BRONX,PLANYC CLIMATE CONTROL/PLANYC BOILER CONVERSION,CIP,X119,1075 PUGSLEY AVENUE,Bronx,40.828518,-73.856569
P.S. 131 - QUEENS,ROOFS/EXT MASONRY/PARAPETS/TCU REMOVAL,CIP,Q131,170-45 84TH AVENUE,Queens,40.716617,-73.794637
M.S./H.S. 225 - BRONX,FY15 RESO A GREEN ROOF,CIP,X137,2225 WEBSTER AVENUE,Bronx,40.854493,-73.89671700000001
P.S. 24 - BRONX,C OF O/FIRE ALARM/PLANYC BOILER/PLANYC CLIMATE CTR,CIP,X024,660 WEST 236 STREET,Bronx,40.887111,-73.913697
P.S. 104 - QUEENS,BOILER REPLACEMENT/CLIMATE CONTROL/HVAC,CIP,Q104,26-01 MOTT AVENUE,Queens,40.608467,-73.764548
P.S. 175 HENRY H GARNET - M,FY17 RESO A GYMNASIUM UPGRADE,CIP,M175,175 WEST 134 STREET,Manhattan,40.814422,-73.943664
P.S. 193 - QUEENS,TCU REMOVAL/PLAYGROUND REDEVELOPMENT/PLANYC CLIMATE CONTROL/PLANYC BOILER CONVERSION,CIP,Q193,152-20 11 AVENUE,Queens,40.792483,-73.809741
P.S. 254 - BROOKLYN,Addition,CAP,K254,1801 AVENUE Y,Brooklyn,40.590423,-73.951753
NEWCOMERS HIGH SCHOOL - Q,RPZ VALVES,CIP,Q450,28-01 41ST AVENUE,Queens,40.751356,-73.937445
P.S. 14 - BRONX,Addition,CAP,X014,3041 BRUCKNER BLVD,Bronx,40.835779,-73.825735
FORDHAM HS FOR THE ARTS - BRON,FY16 RESO A LIBRARY UPGRADE,CIP,X435,500 EAST FORDHAM ROAD,Bronx,40.860043,-73.888267
P.S. 74 - STATEN ISLAND,LSP STEAM LINE REPLACEMENT,CIP,R831,211 DANIEL LOW TERRACE,Staten Island,40.639087,-74.079922
ISHS @ M837,Lease,CAP,M837,227-243 WEST 61 STREET,Manhattan,40.772007,-73.98747900000001
P.S. 153 - QUEENS,CRACKED LOOSE WINDOW SILLS/ROOFS/PARAPETS/MASONRY,CIP,Q153,60-02 60 LANE,Queens,40.716609000000005,-73.903669
P.S. 69 - BROOKLYN,ROOFS/EXTERIOR MASONRY,CIP,K069,6302 9TH AVENUE,Brooklyn,40.632379,-74.00922299999999
P.S. 85 - BRONX,EXTERIOR MASONRY/PARAPETS/ROOFS/SECURITY LIGHTING/FLOOD ELIMINATION/CAFETERIA CEILING REPLACEMENT,CIP,X085,2400 MARION AVENUE,Bronx,40.858831,-73.895167
I.S. 447 - BRONX,FY16 RESO A IP SURVEILLANCE CAMERA INSTALLATION,CIP,X115,120 EAST 184 STREET,Bronx,40.859752,-73.900161
I.S. 217 - QUEENS,FY15 RESO A SCIENCE LAB UPGRADE,CIP,Q217,85-05 144 STREET,Queens,40.710024,-73.812508
TEACHER'S COLLEGE COMMUNITY SCHOOL ANNEX - MANHATTAN,Lease,CAP,M484,223-233 WEST 132 STREET,Manhattan,40.813781,-73.946024
P.S. 91 - BRONX,FY18 RESO A GYMNASIUM UPGRADE,CIP,X091,2170 AQUEDUCT AVENUE,Bronx,40.857689,-73.908349
P.S. 58 - BROOKLYN,PLANYC BOILER/PLANYC CLIMATE CONTROL,CIP,K058,330 SMITH STREET,Brooklyn,40.680149,-73.994938
P.S. 44 - BRONX,EXTERIOR MASONRY/PARAPETS/ROOFS,CIP,X044,1825 PROSPECT AVENUE,Bronx,40.842084,-73.891116
P.S. 75 - MANHATTAN,TEMPORARY BOILER,CIP,M075,735 WEST END AVENUE,Manhattan,40.795157,-73.973292
P.S. 290 - BROOKLYN,TCU REMOVAL & PLAYGROUND REDEVELOPMENT,CIP,K290,135 SCHENCK AVENUE,Brooklyn,40.677890000000005,-73.889758
I.S. 217 - QUEENS,PLANYC BOILER CONVERSION/PLANYC CLIMATE CONTROL,CIP,Q217,85-05 144 STREET,Queens,40.710024,-73.812508
AUGUST MARTIN HS - QUEENS,PLANYC BOILER/PLANYC CLIMATE CONTROL,CIP,Q400,156-10 BAISLEY BLVD,Queens,40.675633000000005,-73.783342
P.S. 102 - BROOKLYN,WATER INFILTRATION/ROOFS/EXT MASONRY,CIP,K102,211 72 STREET,Brooklyn,40.63402,-74.029036
THE RIVERSIDE SCHOOL - MANHATT,New,CAP,M342,300 WEST 61ST STREET,Manhattan,40.772883,-73.989609
G. WASHINGTON CARVER HS FOR SC,FY17 RESO A PLAYGROUND REDEVELOPMENT,CIP,Q420,143-10 SPRINGFIELD BLVD,Queens,40.668235,-73.756839
K053 SPED - BROOKLYN,IPDVS CAMERA INSTALLATION,CIP,K296,125 COVERT STREET,Brooklyn,40.688387,-73.910276
I.S. 362 - MANHATTAN,KITCHEN AREAS/ROOM CONVERSION,CIP,M125,425 WEST 123 STREET,Manhattan,40.810431,-73.955809
I.S. 217 - QUEENS,PLANYC BOILER/PLANYC CLIMATE CONTROL,CIP,Q217,85-05 144 STREET,Queens,40.710024,-73.812508
I.S. 117 - BRONX,SCIENCE LAB UPGRADES/SCIENCE LAB UPGRADES,CIP,X117,1865 MORRIS AVENUE,Bronx,40.848516,-73.908427
P.S. 46 - STATEN ISLAND,FY19 RESO A FENCING,CIP,R046,41 REID AVENUE,Staten Island,40.59377,-74.08058
P.S. 41 - BROOKLYN,PLANYC BOILER CONVERSION/PLANYC CLIMATE CONTROL,CIP,K041,411 THATFORD AVENUE,Brooklyn,40.660306,-73.90735500000001
P.S. 121 - BROOKLYN,EXTERIOR MASONRY/PARAPETS/ROOFS,CIP,K121,5301 20TH AVENUE,Brooklyn,40.623273,-73.978822
GREGORIO LUPERON PREP. SCHOOL,FY19 RESO A SCIENCE LAB UPGRADE,CIP,M876,501 WEST 165 STREET,Manhattan,40.838167,-73.938642
I.S. 73 - QUEENS,LOW VOLT ELECTRICAL SYSTEMS,CIP,Q073,70-02 54 AVENUE,Queens,40.729215,-73.893624
P.S. 81 - BRONX,FY18 RESO A SUPPLEMENTAL COOLING,CIP,X081,5550 RIVERDALE AVENUE,Bronx,40.903553,-73.905229
P.S. 1 - BROOKLYN,FY19 RESO A AUDITORIUM UPGRADE,CIP,K001,309 47 STREET,Brooklyn,40.649042,-74.012289
P.S. 20 - BRONX,LSP DOMESTIC WATER HEATER REPLACEMENT,CIP,X020,3050 WEBSTER AVENUE,Bronx,40.870002,-73.878875
CYPRESS HILLS COLLEGIATE - K,PARAPETS/ELECTRICAL WORK FOR A/C INITIATIVE/FLOOD ELIM/ROOFS/EXT MASONRY/LL26 CODE COMPLIANCE/EXIT SIGN REPLACEMENT,CIP,K420,999 JAMAICA AVENUE,Brooklyn,40.691146,-73.868328
P.S. 82 - STATEN ISLAND,Lease,CAP,R082,104 GORDON STREET,Staten Is,40.624263,-74.082667
I.S. 104 - MANHATTAN,FY17 RESO A SUPPLEMENTAL COOLING,CIP,M104,330 EAST 21 STREET,Manhattan,40.736094,-73.980663
NEWTOWN HS - QUEENS,IPDVS CAMERA INSTALLATION,CIP,Q455,48-01 90 STREET,Queens,40.741122,-73.874721
P.S. 47 - QUEENS,ROOFS,CIP,Q047,9 POWER ROAD,Queens,40.606353000000006,-73.82044499999999
P.S./I.S. @ 3269 ATLANTIC AVENUE - BROOKLYN,New,CAP,K667,3269 ATLANTIC AVENUE,Brooklyn,40.680655,-73.875152
P.S. 315 - BRONX,Lease,CAP,X779,2865 CLAFLIN AVENUE,Bronx,40.873239,-73.899722
P.S. 166 - MANHATTAN,FY18 RESO A LIBRARY UPGRADES,CIP,M166,132 WEST 89 STREET,Manhattan,40.788865,-73.971847
P.S. 140 - QUEENS,FY19 RESO A AUDITORIUM UPGRADE,CIP,Q140,166-01 116 AVENUE,Queens,40.686798,-73.781247
BAYSIDE HIGH SCHOOL - QUEENS,TCU REMOVAL / PLAYGROUND REDEVELOPMENT,CIP,Q405,32-24 CORPORAL KENNEDY STREET,Queens,40.771755,-73.78029599999999
P.S. 57 - BRONX,EXTERIOR MASONRY/FLOOD ELIMINATION/ROOFS/PARAPETS,CIP,X057,2111 CROTONA AVENUE,Bronx,40.848472,-73.888561
P.S. 111 - QUEENS,FY18 RESO A AUDITORIUM  UPGRADE,CIP,Q111,37-15 13 STREET,Queens,40.758831,-73.93938
P.S. 175 HENRY H GARNET - M,FY17 RESO A GYMNASIUM UPGRADE,CIP,M175,175 WEST 134 STREET,Manhattan,40.814422,-73.943664
HS FOR HEALTH CAREER & SCIENCE,WATER MAIN- BACKFLOW ISSUE,CIP,M465,549 AUDUBON AVENUE,Manhattan,40.855855,-73.92712
P.S. 17 - BROOKLYN,BUILDING FAN REPLACEMENT/ELECTRICAL UPGRADE,CIP,K017,208 NORTH 5 STREET,Brooklyn,40.715351,-73.956716
P.S. 9 - BRONX,PLANYC BOILER CNVSN/PLANYC CLIMATE CTRL,CIP,X009,230 EAST 183 STREET,Bronx,40.857067,-73.89893599999999
ABRAHAM LINCOLN HS - BROOKLYN,SANDY: INTERIOR/VENT/ELEC/FLOOD/ATHLETIC FIELD,CIP,K411,2800 OCEAN PARKWAY,Brooklyn,40.581681,-73.967308
M811 SPED - MANHATTAN,EXTERIOR MASONRY/FLOOD ELIMINATION,CIP,M841,466 WEST END AVENUE,Manhattan,40.786611,-73.97951
EDWARD R. MURROW HS - K,IPDVS CAMERA INSTALLATION,CIP,K525,1600 AVENUE L,Brooklyn,40.620525,-73.959285
P.S. 6 - BRONX,STANDALONE GYM ANNEX,CIP,X449,1000 EAST TREMONT AVENUE,Bronx,40.840755,-73.88170699999999
P.S. 176 - QUEENS,FY19 RESO A AUDITORIUM UPGRADE,CIP,Q176,120-45 235 STREET,Queens,40.685492,-73.72998199999999
P.S. 143 ADDITION - QUEENS,Addition,CAP,Q143,34-74 113 STREET,Queens,40.755451,-73.855192
I.S. 34 - STATEN ISLAND,SCIENCE LAB UPGRADE,CIP,R034,528 ACADEMY AVE,Staten Island,40.508284,-74.24342800000001
FORT HAMILTON HS - K,IPDVS CAMERA INSTALLATION,CIP,K490,8301 SHORE ROAD,Brooklyn,40.627898,-74.039985
P.S. 272 - BROOKLYN,PLAYGROUND REDEVELOPMENT AND TCU REMOVAL,CIP,K272,101-24 SEAVIEW AVENUE,Brooklyn,40.635916,-73.88641199999999
PARK WEST H. S. (ECF),C OF O/C OF O VENT/WATER PLANT/BOILER/ENERGY MGMT,CIP,M535,525 WEST 50 STREET,Manhattan,40.765184000000005,-73.992953
MULTICULTURAL HS - BROOKLYN,PARAPETS/FLOOD ELIMINATION/ROOFS/EXTERIOR MASONRY,CIP,K420,999 JAMAICA AVENUE,Brooklyn,40.691146,-73.868328
CYPRESS HILLS COLLEGIATE - K,PARAPETS/ELECTRICAL WORK FOR A/C INITIATIVE/FLOOD ELIM/ROOFS/EXT MASONRY/LL26 CODE COMPLIANCE/EXIT SIGN REPLACEMENT,CIP,K420,999 JAMAICA AVENUE,Brooklyn,40.691146,-73.868328
P.S. 143 - QUEENS,Demo,CAP,Q143,34-74 113 STREET,Queens,40.755451,-73.855192
NEW DORP HS - STATEN ISLAND,PARTIAL ACCESSIBILITY,CIP,R435,465 NEW DORP LANE,Staten Island,40.569393,-74.107737
I.S. 151 - BRONX,STH SBHC,CIP,X151,250 EAST 156 STREET,Bronx,40.82316,-73.921631
H.S. 745 - BROOKLYN,IP DIGITAL VIDEO SURVEILLANCE SYSTEM,CIP,K470,600 KINGSTON AVENUE,Brooklyn,40.658893,-73.942458
I.S. 162 - BROOKLYN,STAIRS/EXT MASONRY/PARAPETS/ROOF/FLOOD/WATER PNTRN,CIP,K162,1390 WILLOUGHBY AVENUE,Brooklyn,40.707229,-73.91980500000001
P.S. 279 - BROOKLYN,FY19 RESO A PLAYGROUND,CIP,K279,1070 EAST 104 STREET,Brooklyn,40.644203000000005,-73.892264
J.H.S. 216 - QUEENS,PLANYC BOILER CNVRSN/PLANYC CLIMATE CTRL,CIP,Q216,64-20 175 STREET,Queens,40.737517,-73.794031
P.S. 107 - BROOKLYN,EXTERIOR MASONRY/ROOFS/PARAPETS,CIP,K107,1301 8TH AVENUE,Brooklyn,40.663251,-73.981289
RALPH R. MCKEE CAREER AND TECH,EXTERIOR MASONRY/PARAPETS/ROOFS/FLOOD ELIMINATION,CIP,R600,290 ST MARKS PLACE,Staten Island,40.642793,-74.07873000000001
P.S. 52 - QUEENS,TCU REMOVAL & PLAYGROUND REDEVELOPMENT,CIP,Q052,178-37 146 TERRACE,Queens,40.661122,-73.766733
J.H.S. 292 - MANHATTAN,ROOFS,CIP,M056,220 HENRY STREET,Manhattan,40.713684,-73.986336
ISHS @ M837,Lease,CAP,M837,227-243 WEST 61 STREET,Manhattan,40.772007,-73.98747900000001
P.S. 123 - BROOKLYN,LSP DOMESTIC WATER BOOSTER PUMP REPLACEMENT,CIP,K123,100 IRVING AVENUE,Brooklyn,40.703767,-73.922702
K753 SPED - BROOKLYN,LOW VOLTAGE ELEC SYSTEM/ANSUL SYSTEM,CIP,K085,510 CLERMONT AVENUE,Brooklyn,40.682533,-73.968769
P.S. 290 - BROOKLYN,ROOFS/WINDOWS/PARAPETS,CIP,K290,135 SCHENCK AVENUE,Brooklyn,40.677890000000005,-73.889758
P.S. 256 ANNEX - QUEENS,New,CAP,Q816,445 BEACH 135 STREET,Queens,40.577026,-73.854539
BROOKLYN TECH HS - K,LOW VOLT ELEC SYS/KITCHEN FIRE SUPRESSION SYS,CIP,K430,29 FT GREENE PLACE,Brooklyn,40.688834,-73.976905
P.S. 69 - BROOKLYN,LSP- MULTIPLE GREASE TRAP REPLACEMENTS,CIP,K069,6302 9TH AVENUE,Brooklyn,40.632379,-74.00922299999999
EDUCATIONAL CAMPUS @ 500 19TH STREET - BROOKLYN,Lease,CAP,K280,500 19TH STREET,Brooklyn,40.656944,-73.983115
P.S. 162 - QUEENS,ELECTRICAL WORK FOR A/C INITIATIVE,CIP,Q162,201-02 53 AVENUE,Queens,40.749036,-73.777213
P.S. 58 - STATEN ISLAND,METAL ROOFING,CIP,R058,77 MARSH AVENUE,Staten Island,40.583139,-74.161862
P.S. 303 - QUEENS,Addition,CAP,Q003,108-55 69TH AVENUE,Queens,40.725098,-73.845091
Q004 SPED - QUEENS,FY17 RESO A SUPPLEMENTAL COOLING,CIP,Q179,196-25 PECK AVENUE,Queens,40.741852,-73.77979599999999
P.S. 35 - QUEENS,STORM WATER DRAINAGE,CIP,Q035,191-02 90TH AVENUE,Queens,40.713759,-73.769439
P.S. 108 - BROOKLYN,ENYPLAGROUND UPGRADE,CIP,K108,200 LINWOOD STREET,Brooklyn,40.681268,-73.884063
P.S. 375 - BROOKLYN,PLANYC BOILER CNVRSN/PLANYC CLIMATE CTRL,CIP,K320,46 MCKEEVER PLACE,Brooklyn,40.665035,-73.95903100000001
BAYSIDE HIGH SCHOOL - QUEENS,ELECTRICAL WORK FOR A/C INITIATIVE/LL26 CODE COMPLIANCE/EXIT SIGN REPLACEMENT,CIP,Q405,32-24 CORPORAL KENNEDY STREET,Queens,40.771755,-73.78029599999999
P.S. 178 - BRONX,WINDOWS,CIP,X178,850 BAYCHESTER AVENUE,Bronx,40.875894,-73.833863
P.S. 235 - BROOKLYN,TCU REMOVAL AND PLAYGROUND,CIP,K235,525 LENOX ROAD,Brooklyn,40.654704,-73.941089
P.S. 37 - QUEENS,PLANYC BOILER/PLANYC CLIMATE CONTROL,CIP,Q037,179-37 137 AVENUE,Queens,40.67588,-73.758505
P.S. 214 - BRONX,EXTERIOR MASONRY/ROOFS,CIP,X167,1970 WEST FARMS ROAD,Bronx,40.839565,-73.880358
GEORGE WESTINGHOUSE VOC. HS,PARAPETS/EXTERIOR MASONRY/ROOFS/FLOOD ELIMINATION,CIP,K580,105 JOHNSON STREET,Brooklyn,40.694926,-73.98601500000001
P.S. 32 - STATEN ISLAND,WATER INFILTRATION/EXT MASONRY/GYM ROOF,CIP,R032,232 BARLOW AVENUE,Staten Island,40.558966,-74.155517
P.S. 277 - BRONX,FLOOD ELIMINATION/ROOFS/EXTERIOR MASONRY,CIP,X027,519 ST ANNS AVENUE,Bronx,40.813517,-73.913402
P.S. 34 - BROOKLYN,PLANYC BOILER CNVRSN/PLANYC CLIMATE CTRL,CIP,K034,131 NORMAN AVENUE,Brooklyn,40.726135,-73.949649
I.S. 93 - QUEENS,ACCESSIBILITY/WINDOWS/ROOFS/EXTERIOR MASONRY/PARAPETS,CIP,Q093,66-56 FOREST AVENUE,Queens,40.706041,-73.90258399999999
P.S. 205 - BROOKLYN,FY19 RESO A AUDITORIUM UPGRADE,CIP,K205,6701 20 AVENUE,Brooklyn,40.61527,-73.987149
BERGTRAUM HS - MANHATTAN,SCIENCE LAB UPGRADE/FIRE ALARM SYSTEMS,CIP,M520,411 PEARL STREET,Manhattan,40.711442,-74.000851
EXCELSIOR PREP HIGH SCHOOL - Q,EXT MASONRY/ROOFS/PAVED AREA-CONCRETE,CIP,Q420,143-10 SPRINGFIELD BLVD,Queens,40.668235,-73.756839
P.S. 42 - STATEN ISLAND,ELECTRICAL WORK FOR A/C INITIATIVE/LL26 CODE COMPLIANCE/EXIT SIGN REPLACEMENT,CIP,R848,25 AUGUSTA AVENUE,Staten Island,40.551882,-74.168869
I.S. 322 - MANHATTAN,FY19 RESO A MULTIMEDIA CENTER UPGRADES,CIP,M218,4600 BROADWAY,Manhattan,40.86079,-73.930672
A-TECH HIGH SCHOOL - K,FLOOD ELIMINATION/ROOFS/PARAPETS/WINDOWS/EXTERIOR MASONRY,CIP,K610,50 BEDFORD AVENUE,Brooklyn,40.721981,-73.953281
P.S. 7 - BROOKLYN,LSP- VACUUM CONDENSATE PUMPS,CIP,K007,858 JAMAICA AVENUE,Brooklyn,40.689697,-73.873109
P.S. 078 - STATEN ISLAND,FY18 RESO A AUDITORIUM  UPGRADE,CIP,R014,100 TOMPKINS AVENUE,Staten Island,40.622455,-74.078508
P.S. 70 - BRONX,FY14 RESO A LIBRARY UPGRADE,CIP,X070,1691 WEEKS AVENUE,Bronx,40.844253,-73.907616
P.S. 3 - BRONX,HVAC CONTROLS/VENTILATION,CIP,X003,2100 LAFONTAINE AVE,Bronx,40.849897,-73.892289
P.S. @ 736 48TH STREET - BROOKLYN,Lease,CAP,K682,736 48TH STREET,Brooklyn,40.643018,-74.003856
P.S. 158 - BROOKLYN,ENY AUDITORIUM UPGRADE,CIP,K158,400 ASHFORD STREET,Brooklyn,40.672579,-73.884803
P.S. 18 - BROOKLYN,STANDALONE GYM ANNEX,CIP,K673,101 MAUJER STREET,Brooklyn,40.710609000000005,-73.946977
P.S. 298 - BROOKLYN,ELECTRICAL WORK FOR A/C INITIATIVE/LL26 CODE COMPLIANCE/EXIT SIGN REPLACEMENT,CIP,K298,85 WATKINS STREET,Brooklyn,40.670986,-73.908194
P.S. 317 - QUEENS,SANDY: HEAT/FLOOD/ELEC/ INTERIOR/NON-SANDY:CLIMATE,CIP,Q225,1-90 BEACH 110 STREET,Queens,40.580928,-73.831836
HS FOR HEALTH CAREER & SCIENCE,IP DIGITAL VIDEO SURVEILLANCE SYSTEM,CIP,M465,549 AUDUBON AVENUE,Manhattan,40.855855,-73.92712
P.S. @ 836-841 5TH AVENUE - BROOKLYN,Demo,CAP,K671,836-841 5TH AVENUE,Brooklyn,40.653319,-74.001791
HS OF GRAPHIC COMM. ARTS (VOC),PLANYC BOILERS CONVERSION/CLIMATE CONTROL,CIP,M625,439 WEST 49 STREET,Manhattan,40.76337,-73.990593
E NY VOC HS OF TRANSIT TECH.-K,ENY LIBRARY UPGRADE,CIP,K615,1 WELLS STREET,Brooklyn,40.678276,-73.87595999999999
M.S./H.S. 368 - BRONX,PAVED AREAS CONCRETE,CIP,X368,2975 TIBBETT AVENUE,Bronx,40.879368,-73.909896
P.S. 5 - MANHATTAN,PARAPETS/ROOFS/WINDOWS/PLAYGROUND REDEVELOPMENT,CIP,M005,3703 TENTH AVENUE,Manhattan,40.858990000000006,-73.922894
BERGTRAUM HS - MANHATTAN,SCIENCE LAB UPGRADE/FIRE ALARM SYSTEMS,CIP,M520,411 PEARL STREET,Manhattan,40.711442,-74.000851
P.S. 64 - MANHATTAN,FY18 RESO A GYMNASIUM UPGRADE,CIP,M064,600 EAST 6 STREET,Manhattan,40.724435,-73.981521
I.S. 127 - BRONX,FULL PROGRAM ACCESSIBILITY/WINDOWS/PARAPETS/EXTERIOR MASONRY/ROOFS,CIP,X127,1560 PURDY STREET,Bronx,40.837931,-73.853524
AUGUST MARTIN HS - QUEENS,RENEWAL SCHOOL BASED HEALTH CENTER,CIP,Q400,156-10 BAISLEY BLVD,Queens,40.675633000000005,-73.783342
P.S. 191 - BROOKLYN,EXTERIOR MASONRY/PARAPETS/ROOFS,CIP,K191,1600 PARK PLACE,Brooklyn,40.672005,-73.924329
MONROE ACAD FOR VISUAL ARTS -,BOILER/CLIMATE CONTROL/WATER INFILTRATION,CIP,X420,1300 BOYNTON AVENUE,Bronx,40.831601,-73.878912
P.S. 150 - BROOKLYN,EXTERIOR MASONRY DEFECTS/FLOOD ELIMINATION/PARAPET,CIP,K150,364 SACKMAN STREET,Brooklyn,40.66896,-73.904726
P.S. 183 - MANHATTAN,FY18 RESO A SCIENCE LAB UPGRADES,CIP,M183,419 EAST 66 STREET,Manhattan,40.763736,-73.95815
P.S. 92 - QUEENS,Addition,CAP,Q292,99-01 34TH AVENUE,Queens,40.755418,-73.869017
P.S. 244 - BROOKLYN,ELECTRICAL WORK FOR A/C INITIATIVE,CIP,K244,5404 TILDEN AVENUE,Brooklyn,40.648423,-73.92594799999999
P.S. 14 - QUEENS,ELECTRICAL WORK FOR A/C INITIATIVE,CIP,Q014,107-01 OTIS AVENUE,Queens,40.74056,-73.85413100000001
X186 SPED - BRONX,PLANYC BOILER CONVERSION/PLANYC CLIMATE CONTROL/FLOOD ELIMINATION,CIP,X136,750 JENNINGS STREET,Bronx,40.83182,-73.898075
P.S. 298 - BROOKLYN,ENY PLAYGROUND UPGRADE,CIP,K298,85 WATKINS STREET,Brooklyn,40.670986,-73.908194
P.S. 150 - QUEENS,ELECTRICAL WORK FOR A/C INITIATIVE,CIP,Q150,40-01 43 AVENUE,Queens,40.745537,-73.923776
P.S. @ 4302 4TH AVENUE - BROOKLYN,Demo,CAP,K557,4302 4TH AVENUE,Brooklyn,40.650305,-74.008602
NEWCOMERS HIGH SCHOOL - Q,RPZ VALVES,CIP,Q450,28-01 41ST AVENUE,Queens,40.751356,-73.937445
P.S. 108 - MANHATTAN,PLANYC BOILER CONVERSION/PLANYC CLIMATE CONTROL/LOW VOLTAGE ELECTRICAL SYSTEMS/KITCHEN CONVERSION,CIP,M108,1615 MADISON AVENUE,Manhattan,40.795146,-73.948368
P.S. 62 - BRONX,EXT MASONRY/PARAPETS,CIP,X062,660 FOX STREET,Bronx,40.814031,-73.900609
P.S. 184 - MANHATTAN,FY19 RESO A AUDITORIUM UPGRADE,CIP,M137,327 CHERRY STREET,Manhattan,40.711549,-73.986542
I.S. 22 - BRONX,FY18 RESO A PLAYGROUNDS,CIP,X022,270 EAST 167 STREET,Bronx,40.833131,-73.914027
P.S.15 - BRONX,WATER PENETRATION,CIP,X015,2195 ANDREWS AVENUE,Bronx,40.85881,-73.909746
P.S. 384 - BROOKLYN,ELECTRICAL WORK FOR A/C INITIATIVE/LSP LL26 CODE COMPLIANCE/EXIT SIGN REPLACEMENT,CIP,K384,242 COOPER STREET,Brooklyn,40.690353,-73.904803
P.S. 32 ADDITION - BROOKLYN,Addition,CAP,K032,317 HOYT STREET,Brooklyn,40.680445,-73.991949
P.S. 169 - QUEENS,WATER PENETRATION,CIP,Q169,18-25 212 STREET,Queens,40.782298,-73.779099
THE URBAN ASSEMBLY SCHOOL FOR,FACADE/PAVED AREAS CONCRETE,CIP,M501,2005 MADISON AVENUE,Manhattan,40.807383,-73.939433
Q177 SPED - QUEENS,PLANYC BOILER CONVERSION/PLANYC CLIMATE CONTROL,CIP,Q177,56-37 188 STREET,Queens,40.74391,-73.788133
I.S. 88 - BROOKLYN,FY18 RESO A GYMNASIUM UPGRADE,CIP,K088,544 7TH AVENUE,Brooklyn,40.660024,-73.987637
P.S. 43 - QUEENS,SANDY INTERIOR SPACES/SANDY FLOOD ELIMINATION,CIP,Q907,12 MARVIN STREET,Queens,40.59359,-73.760448
FREDERICK DOUGLASS ACADEMY VI,MASONRY/ROOFS/WINDOWS/PARAPETS/NATATORIUM STRUCTURAL REPAIRS,CIP,Q465,8-21 BAY 25 STREET,Queens,40.60201,-73.762795
P.S. 41 - BRONX,PLANYC BOILER CONVERSION/CLIMATE CONTROL,CIP,X041,3352 OLINVILLE AVENUE,Bronx,40.874313,-73.868157
P.S. 9 - BRONX,PLANYC BOILER CNVSN/PLANYC CLIMATE CTRL,CIP,X009,230 EAST 183 STREET,Bronx,40.857067,-73.89893599999999
P.S. 230 - BROOKLYN,ELECTRICAL WORK FOR A/C INITIATIVE,CIP,K230,1 ALBEMARLE ROAD,Brooklyn,40.645017,-73.980761
P.S. 183 - MANHATTAN,EXTERIOR MASONRY/FLOOD ELIMINATION/ PARAPETS/ROOFS,CIP,M183,419 EAST 66 STREET,Manhattan,40.763736,-73.95815
THE INTERNATIONAL HS - BROOKLY,LSP- REPLACE BOILER FEED WATER TANK,CIP,K440,883 CLASSON AVENUE,Brooklyn,40.670349,-73.96169499999999
EAST NY FAMILY ACADEMY - K,New,CAP,K599,2057 LINDEN BLVD,Brooklyn,40.661072,-73.886942
MILLENIUM ART ACADEMY - BRONX,ELECTRICAL WORK FOR A/C INITIATIVE,CIP,X450,1980 LAFAYETTE AVENUE,Bronx,40.82229,-73.856167
DISTRICT 2 PRE-K CENTER @ 606 WEST 57TH STREET - MANHATTAN,Lease,CAP,M444,606 WEST 57TH STREET,Manhattan,40.770531,-73.991945
P.S. 37 - QUEENS,PLANYC BOILER CONVERSION/PLANYC CLIMATE CONTROL,CIP,Q037,179-37 137 AVENUE,Queens,40.67588,-73.758505
P.S. 81 - BRONX,FY18 RESO A SUPPLEMENTAL COOLING,CIP,X081,5550 RIVERDALE AVENUE,Bronx,40.903553,-73.905229
P.S. 55 - QUEENS,PLANYC CLIMATE CONTROL/PLANYC BOILER CONVERSION,CIP,Q055,131-10 97 AVENUE,Queens,40.694004,-73.81661700000001
P.S. 198 - MANHATTAN,WINDOWS/ROOFS/PARAPETS,CIP,M198,1700 3RD AVENUE,Manhattan,40.784826,-73.949611
I.S. 217 - QUEENS,PLANYC BOILER CONVERSION/PLANYC CLIMATE CONTROL,CIP,Q217,85-05 144 STREET,Queens,40.710024,-73.812508
P.S. 26 - STATEN ISLAND,FY18 RESO A LIBRARY UPGRADE,CIP,R026,4108 VICTORY BLVD,Staten Island,40.591702000000005,-74.190648
J.H.S. 67 - QUEENS,FLOOD ELIMINATION,CIP,Q067,51-60 MARATHON PKWY,Queens,40.762708,-73.733694
P.S. 183 - MANHATTAN,PLANYC BOILER/PLANYC CLIMATE CONTROL/VENTILATION,CIP,M183,419 EAST 66 STREET,Manhattan,40.763736,-73.95815
FRANCIS LEWIS HS - QUEENS,FY15RESO A AUDITORIUM UPGRADE,CIP,Q430,58-20 UTOPIA PKWY,Queens,40.740724,-73.79283000000001
P.S. 7 - BRONX,FY16 RESO A AIR CONDITIONING SPLIT SYSTEM,CIP,X007,3201 KINGSBRIDGE AVENUE,Bronx,40.881066,-73.905366
P.S. 197 - QUEENS,EXTERIOR MASONRY/ROOFS,CIP,Q197,825 HICKSVILLE ROAD,Queens,40.600199,-73.74396800000001
K811 SPED - BROOKLYN,FY18 RESO A IPDVS CAMERA INSTALLATION,CIP,K286,2525 HARING STREET,Brooklyn,40.591109,-73.9391
P.S. 340 ANNEX - BRONX,New,CAP,X448,25 WEST 195TH STREET,Bronx,40.869007,-73.89749
P.S. 112 - QUEENS,ROOFS/PARAPETS/EXTERIOR MASONRY,CIP,Q112,25-05 37 AVENUE,Queens,40.756891,-73.934523
FREDERICK DOUGLASS ACADEMY VI,MSNRY/ROOFS/WINDOWS/PARAPETS/NATATORIUM STRUC REPR,CIP,Q465,8-21 BAY 25 STREET,Queens,40.60201,-73.762795
M.S./H.S. 368 - BRONX,PAVED AREAS CONCRETE,CIP,X368,2975 TIBBETT AVENUE,Bronx,40.879368,-73.909896
P.S. 20 - QUEENS,FLOOD ELIMINATION/EXTERIOR MASONRY/ROOFS/PARAPETS,CIP,Q020,142-30 BARCLAY AVENUE,Queens,40.758689,-73.824832
P.S. 298 - BROOKLYN,ENY PLAYGROUND UPGRADE,CIP,K298,85 WATKINS STREET,Brooklyn,40.670986,-73.908194
I.S. 238 - QUEENS,ELECTRICAL WORK FOR A/C INITIATIVE,CIP,Q238,88-15 182 STREET,Queens,40.713094,-73.780468
P.S. 26 - QUEENS,FY18 RESO A PLAYGROUNDS,CIP,Q026,195-02 69 AVENUE,Queens,40.736922,-73.77799
Q811 SPED - QUEENS,LL 41/16 COMPLIANCE,CIP,Q811,61-25 MARATHON PKWY,Queens,40.756778,-73.729487
I.S. 7 - STATEN ISLAND,FY16 RESO A ROOM CONVERSIONS / PART,CIP,R007,1270 HUGUENOT AVENUE,Staten Island,40.523757,-74.185941
I.S. 125 - BRONX,FY17 RESO A SUPPLEMENTAL COOLING,CIP,X125,1111 PUGSLEY AVENUE,Bronx,40.829232,-73.856734
WILLIAM MAXWELL VOC HS - K,IPDVS CAMERA INSTALLATION,CIP,K660,145 PENNSYLVANIA AVENUE,Brooklyn,40.674135,-73.89643000000001
I.S. 221 - BRONX,GYMNASIUM UPGRADE/ROOFS,CIP,X149,360 EAST 145 STREET,Bronx,40.813983,-73.92078199999999
I.S. 223 - BROOKLYN,FLOOD ELIMINATION/ROOFS/PARAPETS/EXTERIOR MASONRY,CIP,K223,4200 16 AVENUE,Brooklyn,40.634875,-73.981528
P.S. 90 - QUEENS,AUDITORIUM UPGRADE,CIP,Q090,86-50 109 STREET,Queens,40.697033000000005,-73.839213
P.S. 217 - BROOKLYN,EXT MASONRY/FLOOD/WINDOWS/PARAPETS,CIP,K217,1100 NEWKIRK AVENUE,Brooklyn,40.63398,-73.96655799999999
P.S. 219 - QUEENS,ROOFS,CIP,Q219,144-39 GRAVETT ROAD,Queens,40.735275,-73.823778
BOYS & GIRLS HS - BROOKLYN,LSP REPLACE DAMAGED SECTION OF 2000 AMP SWITCHGEAR,CIP,K455,1700 FULTON STREET,Brooklyn,40.67944,-73.932407
THE BROOKLYN SCHOOL FOR SOCIAL,SCHOOL BASED HEALTH CENTER,CIP,K480,400 IRVING AVENUE,Brooklyn,40.69697,-73.910791
I.S. 88 - BROOKLYN,ELECTRICAL WORK FOR A/C INITIATIVE,CIP,K088,544 7TH AVENUE,Brooklyn,40.660024,-73.987637
I.S. 372 - MANHATTAN,SCIENCE LAB UPGRADE,CIP,M117,240 EAST 109 STREET,Manhattan,40.79307,-73.94230300000001
P.S. 132 - MANHATTAN,REMOVE OIL TANK - FUEL CONVERSION,CIP,M233,601 WEST 183 STREET,Manhattan,40.850592,-73.93304300000001
P.S. 133 - QUEENS,FY15 RESO A PLAYGROUND REDEVELOPMENT,CIP,Q133,248-05 86 AVENUE,Queens,40.731729,-73.71785899999999
P.S. 230 - BRONX,SEWAGE LEAK/FIRE SYS SPRINKLER/CRACKED CONCRETE/FA,CIP,X229,275 HARLEM RIVER PARK BRIDGE,Bronx,40.852536,-73.921467
P.S. 122 - QUEENS,FY16 RESO A SOLAR PANELS,CIP,Q122,21-21 DITMARS BLVD,Queens,40.780347,-73.916655
Q075 SPED - QUEENS,EXTERIOR MASONRY/ROOFS,CIP,Q048,155-02 108 AVENUE,Queens,40.694119,-73.797003
P.S. 124 - BROOKLYN,FLOOD/ROOFS/PARAPETS/EXT MASONRY,CIP,K124,515 4TH AVENUE,Brooklyn,40.667545,-73.991046
P.S. 6 - MANHATTAN,FY14 RESO A PLAYGROUND REDEVELOPMENT,CIP,M006,45 EAST 81 STREET,Manhattan,40.777455,-73.960713
P.S. 84 - MANHATTAN,FY18 RESO A PLAYGROUND UPGRADE,CIP,M084,32 WEST 92 STREET,Manhattan,40.789526,-73.967574
P.S. 238 - BROOKLYN,EXTERIOR MASONRY/PARAPETS,CIP,K238,1633 EAST 8 STREET,Brooklyn,40.608862,-73.965058
I.S. 5 - QUEENS,PUBLIC ADDRESS SYSTEM/HVAC,CIP,Q005,50-40 JACOBUS STREET,Queens,40.737718,-73.887429
P.S. 399 - BROOKLYN,BOILER REPLACEMENT,CIP,K399,2707 ALBEMARLE ROAD,Brooklyn,40.648044,-73.951891
I.S. 371 - BRONX,ELECTRICAL WORK FOR A/C INITIATIVE,CIP,X192,650 HOLLYWOOD AVENUE,Bronx,40.826526,-73.81841700000001
P.S. 91 - BRONX,FY18 RESO A GYMNASIUM UPGRADE,CIP,X091,2170 AQUEDUCT AVENUE,Bronx,40.857689,-73.908349
P.S. 307 - BROOKLYN,CRACKED EXT MASONRY/ROOFS/PARAPETS,CIP,K307,209 YORK STREET,Brooklyn,40.701343,-73.982314
P.S. 164 - QUEENS,FY19 RESO A LIBRARY UPGRADE,CIP,Q164,138-01 77 AVENUE,Queens,40.720924,-73.823362
P.S. 162 - QUEENS,PARAPET/FLOOD ELIMINATION/EXT MASONRY/ROOFING,CIP,Q162,201-02 53 AVENUE,Queens,40.749036,-73.777213
P.S. 54 - STATEN ISLAND,ELECTRICAL WORK FOR A/C INITIATIVE/LL26 CODE COMPLIANCE/EXIT SIGN REPLACEMENT,CIP,R054,1060 WILLOWBROOK RD,Staten Island,40.603232,-74.13798100000001
P.S. 205 - BRONX,STANDALONE GYM ANNEX,CIP,X481,2475 SOUTHERN BLVD,Bronx,40.855263,-73.881139
FASHION INDUSTRIES VOC HS - M,EXTERIOR MASONRY/PARAPETS/FLOOD ELIMINATION,CIP,M600,225 WEST 24 STREET,Manhattan,40.745156,-73.996074
P.S. 125 - MANHATTAN,ROOFS/FLOOD ELIMINATION/EXTERIOR MASONRY/PARAPETS,CIP,M125,425 WEST 123 STREET,Manhattan,40.810431,-73.955809
P.S. 104 - BROOKLYN,WATER INFILTRATION/FLOOD/PARAPETS/ROOFS,CIP,K104,9115 5TH AVENUE,Brooklyn,40.618415,-74.028842
A. PHILIP RANDOLPH HS -MANHATT,ELECTRICAL WORK FOR A/C INITIATIVE,CIP,M540,443 WEST 135 STREET,Manhattan,40.818188,-73.950356
P.S. 90 - BROOKLYN,FY18 RESO A LIBRARY UPGRADES,CIP,K090,2840 WEST 12 STREET,Brooklyn,40.578255,-73.979628
THE SCIENCE AND MEDICINE MIDDL,FY18 RESO A ROOM CONVERSIONS/PARTITIONING,CIP,K366,965 EAST 107 STREET,Brooklyn,40.647323,-73.892022
BRONX MATH PREP - BRONX,FLOOD ELIMINATION/ROOFS/PARAPETS/EXT MASONRY,CIP,X174,456 WHITE PLAINS ROAD,Bronx,40.814833,-73.85658000000001
P.S. 317 - QUEENS,ELECTRICAL WORK FOR A/C INITIATIVE,CIP,Q225,1-90 BEACH 110 STREET,Queens,40.580928,-73.831836
P.S. 290 - BROOKLYN,ROOFS/WINDOWS/PARAPETS,CIP,K290,135 SCHENCK AVENUE,Brooklyn,40.677890000000005,-73.889758
P.S. 28 - MANHATTAN,PLANYC BOILER CONVERSION/PLANYC CLIMATE CONTROL/WATER SERVICE UPGRADE,CIP,M028,475 WEST 155 STREET,Manhattan,40.831227,-73.942143
P.S. 239 - QUEENS,IP DIGITAL VIDEO SURVEILLANCE SYSTEM,CIP,Q239,17-15 WEIRFIELD STREET,Queens,40.699149,-73.90379899999999
BENJAMIN N. CARDOZO HS - QUEEN,IP DIGITAL VIDEO SURVEILLANCE SYSTEM,CIP,Q415,57-00 223 STREET,Queens,40.752333,-73.75599
P.S. 50 - QUEENS,Addition,CAP,Q050,143-26 101 AVENUE,Queens,40.695238,-73.807364
I.S. 54 - MANHATTAN,PLANYC CLIMATE CONTROL/PLANYC BOILER CONVERSION,CIP,M054,103 WEST 107 STREET,Manhattan,40.800119,-73.962837
P.S. 80 - STATEN ISLAND,GAS SERVICE,CIP,R880,715 OCEAN TERRACE,Staten Island,40.608512,-74.102067
P.S. 131 - QUEENS,Addition,CAP,Q131,170-45 84TH AVENUE,Queens,40.716617,-73.794637
I.S. 144 - BRONX,PLANYC BOILER CONVERSION/CLIMATE CONTROL,CIP,X144,2545 GUNTHER AVENUE,Bronx,40.863735,-73.83606999999999
P.S. 47 - BRONX,FY17 RESO A AUDITORIUM UPGRADE,CIP,X047,1794 EAST 172 STREET,Bronx,40.832902,-73.866848
P.S. 123 - QUEENS,TCU REMOVAL & PLAYGROUND REDEVELOPMENT,CIP,Q123,145-01 119 AVENUE,Queens,40.678296,-73.79562
HILLSIDE ACADEMY FOR ARTS AND,FY18 RESO A SCIENCE LAB UPGRADE,CIP,Q470,167-01 GOTHIC DRIVE,Queens,40.713218,-73.797237
P.S. 290 - BROOKLYN,ROOFS/WINDOWS/PARAPETS,CIP,K290,135 SCHENCK AVENUE,Brooklyn,40.677890000000005,-73.889758
P.S. 317 - QUEENS,SANDY: HEAT/FLOOD/ELEC/ INTERIOR/NON-SANDY:CLIMATE,CIP,Q225,1-90 BEACH 110 STREET,Queens,40.580928,-73.831836
P.S. 174 - QUEENS,FY17 RESO A AUDITORIUMÃ¯Â¿Â½ UPGRADE,CIP,Q174,65-10 DIETERLE CRESCENT,Queens,40.720924,-73.86135
P.S. 108 - MANHATTAN,PLANYC BOILER/PLANC CLIMATE CTRL/LOW VOLT/KITCHEN,CIP,M108,1615 MADISON AVENUE,Manhattan,40.795146,-73.948368
HILLCREST HS - QUEENS,ELECTRICAL WORK FOR A/C INITIATIVE,CIP,Q505,160-05 HIGHLAND AVENUE,Queens,40.709446,-73.80166
I.S. 98 - BRONX,STH SBHC,CIP,X098,1619 BOSTON RD,Bronx,40.8359,-73.890458
NEW DORP HS - STATEN ISLAND,FY16 RESO A CAFETERIA/MULTIPURPOSE,CIP,R435,465 NEW DORP LANE,Staten Island,40.569393,-74.107737
I.S. 53 - QUEENS,COURTYARD CONCRETE SPALLING/FLOOD ELIMINATION/PARAPETS/ROOFS/WINDOWS/C OF O,CIP,Q053,10-45 NAMEOKE STREET,Queens,40.603622,-73.74909699999999
MARBLE HILL INTERNATIONAL HS -,EXT MASONRY/FLOOD/PARAPETS/ROOFS,CIP,X475,99 TERRACE VIEW AVENUE,Bronx,40.877105,-73.912256
P.S. 63 - QUEENS,WATER PENETRATION/EXT MASONRY/PARAPETS/ROOFS,CIP,Q063,90-15 SUTTER AVENUE,Queens,40.67641,-73.846773
I.S. 459 - BRONX,REPAIR STEPS & VPS/ROOFS/PARTIAL ACCESSIBILITY,CIP,X115,120 EAST 184 STREET,Bronx,40.859752,-73.900161
WILLIAM C. BRYANT HS - QUEENS,TCU REMOVAL & PLAYGROUND REDEVELOPMENT,CIP,Q445,48-10 31 AVENUE,Queens,40.75823,-73.910514
I.S. 259 - BROOKLYN,PLANYC BOILER CONVERSION/CLIMATE CTRL,CIP,K259,7305 FT HAMILTON PKWY,Brooklyn,40.62668,-74.01512
MONROE ACAD FOR VISUAL ARTS -,IP DIGITAL VIDEO SURVEILLANCE SYSTEM,CIP,X420,1300 BOYNTON AVENUE,Bronx,40.831601,-73.878912
Q811 SPED - QUEENS,LL 41/16 COMPLIANCE,CIP,Q811,61-25 MARATHON PKWY,Queens,40.756778,-73.729487
P.S. 199 - QUEENS,PLANYC CLIMATE CONTROL/PLANYC BOILER CONVERSION,CIP,Q199,39-20 48 AVENUE,Queens,40.740088,-73.926214
LONGWOOD PREPARATORY ACADEMY,IP DIGITAL VIDEO SURVEILLANCE SYSTEM,CIP,X039,965 LONGWOOD AVENUE,Bronx,40.817512,-73.898212
J.H.S. 72 - QUEENS,SCIENCE LAB UPGRADES,CIP,Q072,133-25 GUY R BREWER BOULEVARD,Queens,40.673769,-73.775951
I.S. 5 - QUEENS,HVAC/PUBLIC ADDRESS SYSTEM,CIP,Q005,50-40 JACOBUS STREET,Queens,40.737718,-73.887429
WILLIAM MAXWELL VOC HS - K,PARAPETS/WINDOWS/EXTERIOR MASONRY/ROOFS,CIP,K660,145 PENNSYLVANIA AVENUE,Brooklyn,40.674135,-73.89643000000001
MIDDLE SCHOOL FOR ART & PHILOS,PLANYC BOILER CONVERSION/CLIMATE CONTROL,CIP,K252,1084 LENOX ROAD,Brooklyn,40.658295,-73.920109
BEACH CHANNEL HS - QUEENS,SANDY REPAIRS-ATHLETIC FIELD,CIP,Q411,100-00 BEACH CHANNEL DRIVE,Queens,40.586066,-73.822624
AVIATION HS - QUEENS,FUEL FIRE/ROOFS/PARAPETS/MASONRY/FLOOD/GYM UPG/WIN,CIP,Q610,45-30 36 STREET,Queens,40.743509,-73.929076
P.S. 104 - BROOKLYN,WATER INFILTRATION/FLOOD/PARAPETS/ROOFS,CIP,K104,9115 5TH AVENUE,Brooklyn,40.618415,-74.028842
NEW DORP HS - STATEN ISLAND,ATHLETIC FIELDS,CIP,R436,465 NEW DORP LANE,Staten Island,40.569393,-74.107737
P.S. 151 - QUEENS,WATER INFILTRATION/ROOFS/PARAPETS/EXT MASONRY,CIP,Q151,50-05 31 AVENUE,Queens,40.757499,-73.908898
P.S. 25 - BROOKLYN,ROOFS/PARAPETS/EXT MASONRY/EXT DOORS,CIP,K025,787 LAFAYETTE AVENUE,Brooklyn,40.691037,-73.941342
I.S. 244 - BRONX,PLANYC BOILER CONVERSION/PLANYC CLIMATE CONTROL,CIP,X143,120 WEST 231 STREET,Bronx,40.875916,-73.90111
P.S. 155 - QUEENS,TCU REMOVAL - PLAYGROUND REDEVELOPMENT,CIP,Q155,130-02 115 AVENUE,Queens,40.67956,-73.8106
P.S. 69 - BROOKLYN,LSP- MULTIPLE GREASE TRAP REPLACEMENTS,CIP,K069,6302 9TH AVENUE,Brooklyn,40.632379,-74.00922299999999
P.S. 335 - QUEENS,New,CAP,Q335,150-15 RALEIGH STREET,Queens,40.668127,-73.837189
P.S. 95 - BROOKLYN,PARAPET/ROOFS/EXT MASONRY,CIP,K095,345 VAN SICKLEN STREET,Brooklyn,40.595698,-73.97518000000001
P.S. 206 - MANHATTAN,FY17 RESO A AUDITORIUM UPGRADE,CIP,M206,508 EAST 120 STREET,Manhattan,40.797467,-73.930868
P.S. 230 - BRONX,SEWAGE LEAK/FIRE SYS SPRINKLER/CRACKED CONCRETE/FA,CIP,X229,275 HARLEM RIVER PARK BRIDGE,Bronx,40.852536,-73.921467
P.S. 205 - QUEENS,BOILER/CLIMATE CTRL/FLOOD/MASONRY/ ROOFS/PARAPETS,CIP,Q205,75-25 BELL BLVD,Queens,40.737678,-73.756791
P.S. 102 - QUEENS,FLOOD ELIMINATION/PARAPETS/EXTERIOR MASONRY/ROOFS/WINDOWS,CIP,Q102,55-24 VAN HORN STREET,Queens,40.733514,-73.87785699999999
P.S. 116 - QUEENS,LSP REPLACE WATER HEATER,CIP,Q116,107-25 WREN PLACE,Queens,40.700606,-73.782302
P.S. 104 - QUEENS,BOILER REPLACEMENT/CLIMATE CONTROL/HVAC,CIP,Q104,26-01 MOTT AVENUE,Queens,40.608467,-73.764548
P.S. 131 - QUEENS,Addition,CAP,Q131,170-45 84TH AVENUE,Queens,40.716617,-73.794637
P.S. 8 - BRONX,FY16 RESO A AUDITORIUM UPGRADE,CIP,X008,3010 BRIGGS AVENUE,Bronx,40.872612,-73.883574
P.S. 44 - BROOKLYN,FY13 RESO A SCIENCE LAB UPGRADES,CIP,K044,432 MONROE STREET,Brooklyn,40.686592,-73.940747
HERBERT H. LEHMAN HS - X,GAS METER ROOM COMPLIANCE PROJECT,CIP,X405,3000 EAST TREMONT AVENUE,Bronx,40.840702,-73.838545
I.S. 88 - BROOKLYN,PLANYC BOILER REPLACEMENT/PLANYC CLIMATE CONTROL,CIP,K088,544 7TH AVENUE,Brooklyn,40.660024,-73.987637
PROGRESS HS - K,ROOFS/WINDOWS/EXTERIOR MASONRY/PARAPETS,CIP,K450,850 GRAND STREET,Brooklyn,40.712184,-73.939722
I.S. @ 47-10 BARNETT AVENUE - QUEENS,Demo,CAP,Q429,47-10 BARNETT AVENUE,Queens,40.750017,-73.915867
P.S. 183 - MANHATTAN,FY19 RESO A SUPPLEMENTAL COOLING,CIP,M183,419 EAST 66 STREET,Manhattan,40.763736,-73.95815
P.S. 80 - STATEN ISLAND,GAS SERVICE,CIP,R880,715 OCEAN TERRACE,Staten Island,40.608512,-74.102067
JAMES MADISON HS - BROOKLYN,SWIMMING POOL,CIP,K425,3787 BEDFORD AVENUE,Brooklyn,40.609912,-73.948512
COY L. COX SCHOOL,DEFECTIVE EXTERIOR WALL/FLOOD ELIMINATION/PARAPETS/ROOFS,CIP,K369,383 STATE STREET,Brooklyn,40.687257,-73.983579
P.S. 145 - MANHATTAN,PLANYC BOILER CNVSN/PLANYC CLIMATE CTRL,CIP,M145,150 WEST 105 STREET,Manhattan,40.799178000000005,-73.964842
I.S. 98 - BRONX,STH SBHC,CIP,X098,1619 BOSTON RD,Bronx,40.8359,-73.890458
HUNTER SCIENCE HS - MANHATTAN,FY17 RESO A SCIENCE LAB UPGRADES,CIP,M490,122 AMSTERDAM AVENUE,Manhattan,40.774351,-73.984753
P.S. 32 - BRONX,EXTERIOR MASONRY/WINDOWS/PARAPETS,CIP,X032,690 EAST 183 STREET,Bronx,40.852103,-73.885935
P.S. 110 - BROOKLYN,FY18 RESO A ELECTRICAL SYSTEMS,CIP,K110,124 MONITOR STREET,Brooklyn,40.723897,-73.942312
P.S. 19 - BRONX,Addition,CAP,X019,4318 KATONAH AVENUE,Bronx,40.899295,-73.8675
I.S. 187 - BROOKLYN,LSP REPLACE VACUUM CONDENSATE PUMP AND STEAM TRAPS,CIP,K486,1171 65 STREET,Brooklyn,40.627784000000005,-74.004485
P.S. 13 - QUEENS,ELECTRICAL WORK FOR A/C INITIATIVE,CIP,Q013,55-01 94TH STREET,Queens,40.737613,-73.86851
I.S. 78 - BROOKLYN,LSP VACUUM PUMPS,CIP,K078,1420 EAST 68 STREET,Brooklyn,40.621224,-73.91287
P.S. 119 - BRONX,TCU REMOVAL/PLAYGROUND REDEVELOPMENT,CIP,X119,1075 PUGSLEY AVENUE,Bronx,40.828518,-73.856569
P.S. 234 - QUEENS,IP DIGITAL VIDEO SURVEILLANCE SYSTEM,CIP,Q234,30-15 29TH STREET,Queens,40.767305,-73.92324599999999
P.S. 303 - QUEENS,Addition,CAP,Q003,108-55 69TH AVENUE,Queens,40.725098,-73.845091
YOUNG W. LEADERSHIP SCL ASTORI,CHAPEL ROOM CONVERSION,CIP,Q739,23-15 NEWTOWN AVENUE,Queens,40.771215000000005,-73.924591
Q811 SPED - QUEENS,PLANYC BOILER CNVRSN/PLANYC CLIMATE CTRL,CIP,Q811,61-25 MARATHON PKWY,Queens,40.756778,-73.729487
P.S. 244 - BROOKLYN,MORTAR JOINTS DETERIOR /FLOOD/PARAPETS/ROOF/WINDOW,CIP,K244,5404 TILDEN AVENUE,Brooklyn,40.648423,-73.92594799999999
WASHINGTON IRVING HS - MANHATT,EXT. MASONRY/ROOF/PARAPET/ FLOOD ELIM./WINDOWS/GYM,CIP,M460,40 IRVING PLACE,Manhattan,40.735494,-73.987659
I.S. 75 - STATEN ISLAND,FY17 RESO A LIBRARY UPGRADES,CIP,R075,455 HUGUENOT AVENUE,Staten Island,40.54438,-74.197897
AUGUST MARTIN HS - QUEENS,IP DIGITAL VIDEO SURVEILLANCE SYSTEM,CIP,Q400,156-10 BAISLEY BLVD,Queens,40.675633000000005,-73.783342
P.S. 147 - BROOKLYN,WATER INFILTRATION/ROOFS,CIP,K147,325 BUSHWICK AVENUE,Brooklyn,40.705204,-73.93940699999999
P.S. 36 - QUEENS,PLANYC CLIMATE CTRL/PLANYC BOILER CONVERSION,CIP,Q036,187-01 FOCH BLVD,Queens,40.690828,-73.76390699999999
P.S. 193 - BROOKLYN,FY19 RESO A LIBRARY UPGRADE,CIP,K193,2515 AVENUE L,Brooklyn,40.621507,-73.950473
P.S. 44 - BROOKLYN,PLANYC BOILER/PLANYC CLIMATE CTRL/FIRE ALARM,CIP,K044,432 MONROE STREET,Brooklyn,40.686592,-73.940747
NORTH BRONX SCHOOL OF EMPOWERM,FY16 RESO A MUSIC ROOM UPGRADE,CIP,X113,3710 BARNES AVENUE,Bronx,40.880873,-73.860904
P.S. 29 - BRONX,ROOFS/FLOOD ELIMINATION/EXTERIOR MASONRY/PARAPETS,CIP,X029,758 COURTLANDT AVENUE,Bronx,40.821515000000005,-73.91727900000001
P.S. @ PARCEL F - QUEENS,New,CAP,Q375,2ND STREET BETWEEN 56TH AND 57TH AVENUE,Queens,,
FASHION INDUSTRIES VOC HS - M,EXTERIOR MASONRY/PARAPETS/FLOOD ELIMINATION,CIP,M600,225 WEST 24 STREET,Manhattan,40.745156,-73.996074
P.S. 414 - BROOKLYN,STRUCTURAL STABILIZATION,CIP,K019,325 SOUTH 3RD STREET,Brooklyn,40.709647,-73.95465
P.S. 173 - MANHATTAN,FLOOD ELIMINATION/PARAPETS/EXTERIOR MASONRY/PAVED AREAS- CONCRETE/ROOFS,CIP,M173,306 FORT WASHINGTON AVE,Manhattan,40.845469,-73.94046800000001
P.S. 14 - BRONX,Addition,CAP,X014,3047 BRUCKNER BLVD,Bronx,40.83587,-73.825774
P.S. 66 - BRONX,RENEWAL SCHOOL BASED HEALTH CENTER,CIP,X066,1001 JENNINGS STREET,Bronx,40.831165000000006,-73.88709399999999
P.S. /I.S 295 - QUEENS,FY19 RESO A AUDITORIUM UPGRADE,CIP,Q263,222-14 JAMAICA AVENUE,Queens,40.720619,-73.73199699999999
P.S. 190 - BROOKLYN,STANDALONE GYM ANNEX,CIP,K478,590 SHEFIELD AVENUE,Brooklyn,,
P.S. 503 - BROOKLYN,EXTERIOR MASONRY/PARAPETS/ROOFS,CIP,K314,330 59 STREET,Brooklyn,40.642121,-74.018997
CLARA BARTON HS - K,FY18 RESO A GYMNASIUM UPGRADE,CIP,K600,901 CLASSON AVENUE,Brooklyn,40.669567,-73.961962
PROGRESS HS - K,ROOFS/WINDOWS/EXTERIOR MASONRY/PARAPETS,CIP,K450,850 GRAND STREET,Brooklyn,40.712184,-73.939722
PRE-K CENTER @ 108-18 ROOSEVELT AVENUE - QUEENS,Lease,CAP,Q422,108-18 ROOSEVELT AVENUE,Queens,40.750844,-73.858303
"MIDDLE SCHL MEDIA, LAW AND FIN",PARAPETS/EXTERIOR MASONRY/ROOFS,CIP,K232,905 WINTHROP STREET,Brooklyn,40.65843,-73.929076
P.S. 1 - STATEN ISLAND,EXTERIOR MASONRY/PARAPETS/ROOFS/WINDOWS,CIP,R001,58 SUMMIT STREET,Staten Island,40.509037,-74.244118
M.S. 354 - BROOKLYN,PLANYC BOILER CONVERSION/PLANYC CLIMATE CONTROL,CIP,K390,1224 PARK PLACE,Brooklyn,40.672713,-73.936924
I.S. 296 - BRONX,FY15 RESO A LIBRARY UPGRADE,CIP,X184,778 FOREST AVENUE,Bronx,40.818874,-73.905927
P.S. 52 - STATEN ISLAND,REPAIR-C OF O/SANDY-FLOOD/SAFETY/HEAT/VENT/INT/ELE,CIP,R052,450 BUEL AVENUE,Staten Island,40.582744,-74.088509
P.S. 47 - QUEENS,ROOFS,CIP,Q047,9 POWER ROAD,Queens,40.606353000000006,-73.82044499999999
P.S. 333 - QUEENS,NEW A/C CHILLERS,CIP,Q198,3-65 BEACH 56 STREET,Queens,40.593967,-73.786182
P.S. 254 - QUEENS,ROOF/PARAPETS/EXT MASONRY/PAVED AREA CONCRETE,CIP,Q254,84-40 101ST STREET,Queens,40.697961,-73.84796
P.S. 121 - BROOKLYN,FY15 RESO A AIR CONDITIONING SPLIT SYSTEM,CIP,K121,5301 20TH AVENUE,Brooklyn,40.623273,-73.978822
THE BROOKLYN SCHOOL OF INQUIRY,RESO A ROOFTOP GREENHOUSE,CIP,K237,50 AVENUE P,Brooklyn,40.60731,-73.986595
J.H.S. 194 - QUEENS,PLANYC BOILER CNVRSN/PLANYC CLIMATE CTRL,CIP,Q194,154-60 17 AVENUE,Queens,40.78365,-73.807838
I.S. 343 - BRONX,FY16 RESO A SUPPLEMENTAL COOLING,CIP,X139,345 BROOK AVENUE,Bronx,40.81004,-73.917792
Q009 SPED - QUEENS,EXT MSNRY/PARAPET/FLOOD/ ACCESSIBILITY/FIRE ALARM,CIP,Q009,58-74 57 STREET,Queens,40.718935,-73.91220799999999
I.S. 104 - MANHATTAN,FY17 RESO A SUPPLEMENTAL COOLING,CIP,M104,330 EAST 21 STREET,Manhattan,40.736094,-73.980663
P.S. 236 - BROOKLYN,FY18 RESO A ELECTRICAL SYSTEMS,CIP,K236,6302 AVENUE U,Brooklyn,40.615998,-73.912989
I.S. 117 - BRONX,SCIENCE LAB UPGRADES/SCIENCE LAB UPGRADES,CIP,X117,1865 MORRIS AVENUE,Bronx,40.848516,-73.908427
THE URBAN ASSEMBLY SCHOOL FOR,FACADE/PAVED AREAS CONCRETE,CIP,M501,2005 MADISON AVENUE,Manhattan,40.807383,-73.939433
P.S. 176 - BROOKLYN,FY18 RESO A MAKERSPACE,CIP,K176,1225 69 STREET,Brooklyn,40.624611,-74.00537800000001
P.S. 884 - BROOKLYN,Lease,CAP,K884,15 SNYDER AVENUE,Brooklyn,40.648568,-73.957639
P.S. 7 - QUEENS,CLIMATE CONTROL/LOW VOLTAGE ELECTRICAL SYSTEM,CIP,Q007,80-55 CORNISH AVENUE,Queens,40.739115000000005,-73.882487
G. WASHINGTON CARVER HS FOR SC,IP DIGITAL VIDEO SURVEILLANCE SYSTEM,CIP,Q420,143-10 SPRINGFIELD BLVD,Queens,40.668235,-73.756839
I.S. 232 - BRONX,LSP ELECTRICAL PANEL REPLACEMENT,CIP,X082,1700 MACOMBS ROAD,Bronx,40.849532,-73.916077
P.S. 1 - STATEN ISLAND,EXT MASONRY/PARAPETS/ROOFS/WINDOWS/WATER HEATER,CIP,R001,58 SUMMIT STREET,Staten Island,40.509037,-74.244118
P.S. 80 - STATEN ISLAND,FY17 RESO A GYMNASIUM UPGRADE,CIP,R880,715 OCEAN TERRACE,Staten Island,40.608517,-74.102078
SUSAN E. WAGNER HS - STATEN IS,EXT DOORS/EXT MASONRY/WINDOWS/PARAPETS/ROOFS,CIP,R460,1200 MANOR ROAD,Staten Island,40.596803,-74.124227
I.S. 447 - BRONX,FY16 RESO A IPDVS CAMERA INSTALLATION,CIP,X115,120 EAST 184 STREET,Bronx,40.859752,-73.900161
P.S. 108 - MANHATTAN,ELECTRICAL WORK FOR A/C INITIATIVE,CIP,M108,1615 MADISON AVENUE,Manhattan,40.795146,-73.948368
I.S. 49 - STATEN ISLAND,IP DIGITAL VIDEO SURVEILLANCE SYSTEM,CIP,R049,101 WARREN STREET,Staten Island,40.620347,-74.081643
P.S. @ 836-841 5TH AVENUE - BROOKLYN,New,CAP,K671,836-841 5TH AVENUE,Brooklyn,40.653319,-74.001791
Q009 SPED - QUEENS,EXT MSNRY/PARAPET/FLOOD/ ACCESSIBILITY/FIRE ALARM,CIP,Q009,58-74 57 STREET,Queens,40.718935,-73.91220799999999
P.S. 219 - BROOKLYN,WATER INFILTRATION/ROOFS/EXT MASONRY/PARAPETS,CIP,K219,1060 CLARKSON AVENUE,Brooklyn,40.659288,-73.922919
P.S. 52 - QUEENS,FY19 RESO A AUDITORIUM UPGRADE,CIP,Q052,178-37 146 TERRACE,Queens,40.661122,-73.766733
P.S. 54 - QUEENS,FY15 RESO A PLAYGROUND REDEVELOPMENT,CIP,Q054,86-02 127 STREET,Queens,40.70292,-73.824221
Q075 SPED - QUEENS,FLOOD ELIMINATION/REINFORCING SUPPORT ELEMENTS,CIP,Q048,155-02 108 AVENUE,Queens,40.694119,-73.797003
P.S. 144 - QUEENS,Addition,CAP,Q144,93-02 69 AVENUE,Queens,40.714978,-73.853372
I.S. 34 - STATEN ISLAND,FULL PROGRAM ACCESSIBILITY/FIRE ALARM SYSTEM,CIP,R034,528 ACADEMY AVE,Staten Island,40.508284,-74.24342800000001
P.S. 41 - QUEENS,FY17 RESO A ELECTRICAL SYSTEMS,CIP,Q041,214-43 35 AVENUE,Queens,40.769601,-73.770863
SHEEPSHEAD BAY HS - BROOKLYN,SCHOOL BASED HEALTH CENTER,CIP,K495,3000 AVENUE X,Brooklyn,40.594124,-73.937696
P.S. 21 - BRONX,ELECTRICAL WORK FOR A/C INITIATIVE,CIP,X021,715 EAST 225 STREET,Bronx,40.887582,-73.85973299999999
P.S. 282 - BROOKLYN,LSP VACUUM PUMP,CIP,K282,180 6TH AVENUE,Brooklyn,40.67634,-73.977367
ALC - BROOKLYN CHOICES,EXT MASONRY/WINDOWS/PARAPETS/ROOFS,CIP,K799,271 MELROSE STREET,Brooklyn,40.702083,-73.929647
P.S. 1 - BROOKLYN,PUBLIC ADDRESS/CLOCK SYSTEM,CIP,K001,309 47 STREET,Brooklyn,40.649042,-74.012289
I.S. 123 - BRONX,RENEWAL SCHOOL BASED HEALTH CENTER,CIP,X123,1025 MORRISON AVENUE,Bronx,40.825403,-73.873666
P.S. 44 - STATEN ISLAND,PLAY YARD PAVEMENT/CERTIFICATE OF OCCUPANCY/FLOOD ELIMINATION,CIP,R044,80 MAPLE PARKWAY,Staten Island,40.63179,-74.156439
P.S. 19 - BRONX,Addition,CAP,X019,4318 KATONAH AVENUE,Bronx,40.899295,-73.8675
P.S. 1 - BROOKLYN,FY18 RESO A IP SURVEILLANCE CAMERA INSTALLATION,CIP,K001,309 47 STREET,Brooklyn,40.649042,-74.012289
I.S. 221 - BRONX,GYMNASIUM UPGRADE/ROOFS,CIP,X149,360 EAST 145 STREET,Bronx,40.813983,-73.92078199999999
WILLIAM MAXWELL VOC HS - K,IP DIGITAL VIDEO SURVEILLANCE SYSTEM,CIP,K660,145 PENNSYLVANIA AVENUE,Brooklyn,40.674135,-73.89643000000001
RICHMOND HILL HS - QUEENS,LSP GYMNASIUM  BLEACHERS REPLACEMENT,CIP,Q475,89-30 114 STREET,Queens,40.695888,-73.833681
P.S. 284 - BROOKLYN,FY18 RESO A SCIENCE LAB UPGRADES,CIP,K284,213 OSBORN STREET,Brooklyn,40.667377,-73.908214
P.S. 46 - BROOKLYN,"LSP- VACUUM/PUMP CONDENSATE PUMPS, THERMOSTAT, CHEMICAL FEED SYSTEM",CIP,K046,100 CLERMONT AVENUE,Brooklyn,40.694633,-73.971165
P.S. 89 - BRONX,FLOOD ELIMINATION,CIP,X089,980 MACE AVENUE,Bronx,40.863055,-73.859387
MARTIN VAN BUREN HS - QUEENS,RENEWAL SCHOOL BASED HEALTH CENTER,CIP,Q435,230-17 HILLSIDE AVENUE,Queens,40.733066,-73.73875600000001
BROOKLYN ACADEMY HS - BROOKLYN,WORK REQUIRED TO OBTAIN A C OF O,CIP,K458,832 MARCY AVENUE,Brooklyn,40.685004,-73.947152
P.S. 19 - STATEN ISLAND,PARAPETS/FLOOD/AREAWAY WINDOWS/EXT MASONRY/ROOFS,CIP,R019,780 POST AVENUE,Staten Island,40.631214,-74.127101
P.S. 197 - QUEENS,EXTERIOR MASONRY/ROOFS,CIP,Q197,825 HICKSVILLE ROAD,Queens,40.600199,-73.74396800000001
BENJAMIN N. CARDOZO HS - QUEEN,ATHLETIC FIELDS/TCU REMOVAL & PLAYGROUND REDEVELOP,CIP,Q415,57-00 223 STREET,Queens,40.752333,-73.75599
BROOKLYN LANDMARK ELEMENTARY S,ENY DANCE STUDIO,CIP,K073,251 MACDOUGAL STREET,Brooklyn,40.680318,-73.91064399999999
P.S. 418 - BROOKLYN,PUBLIC ADDRESS SYS REPLACEMENT/FA SYS REPLACEMENT,CIP,K834,512 CARROLL STREET,Brooklyn,40.676668,-73.985258
JULIA RICHMAN H.S.,LL 41-16 COMPLIANCE,CIP,M480,317 EAST 67 STREET,Manhattan,40.765359,-73.960059
FORT HAMILTON HS - K,MASONRY DEFECTS/ROOFS/FLOOD ELIMINATION/PARAPETS,CIP,K490,8301 SHORE ROAD,Brooklyn,40.627898,-74.039985
I.S. 201 - BROOKLYN,PARAPETS/EXT MASONRY/CONCRETE/FLOOD/ROOF,CIP,K201,8010 12 AVENUE,Brooklyn,40.618676,-74.012722
P.S. 41 - STATEN ISLAND,FY15 RESO A SECURITY CAMERAS,CIP,R041,216 CLAWSON STREET,Staten Island,40.574044,-74.109282
J.H.S. 50 - BROOKLYN,FY17 RESO A ROOM CONVERSIONS/PARTITIONING,CIP,K050,183 SOUTH 3RD STREET,Brooklyn,40.711704,-73.960275
P.S. 50 - QUEENS,Addition,CAP,Q050,143-26 101 AVENUE,Queens,40.695238,-73.807364
P.S. 112 - QUEENS,FY17 RESO A PLAYGROUND REDEVELOPMENT,CIP,Q112,25-05 37 AVENUE,Queens,40.756891,-73.934523
P.S. 29 - BRONX,FY18 RESO A AUDITORIUMÃ¯Â¿Â½ UPGRADE,CIP,X029,758 COURTLANDT AVENUE,Bronx,40.821515000000005,-73.91727900000001
P.S. 183 - MANHATTAN,PLANYC BOILER/PLANYC CLIMATE CONTROL/VENTILATION,CIP,M183,419 EAST 66 STREET,Manhattan,40.763736,-73.95815
P.S. 134 - BRONX,PLAYGROUND REDEVELOPMENT,CIP,X134,1330 BRISTOW STREET,Bronx,40.831194,-73.894773
I.S. 78 - BROOKLYN,LSP REPLACE VERTICAL DUPLEX SEWAGE EJECTOR PUMPS,CIP,K078,1420 EAST 68 STREET,Brooklyn,40.621224,-73.91287
I.S. 78 - BROOKLYN,LSP VACUUM PUMPS,CIP,K078,1420 EAST 68 STREET,Brooklyn,40.621224,-73.91287
I.S. 227 - QUEENS,FY17 RESO A ELECTRICAL SYSTEMS,CIP,Q227,32-02 JUNCTION BLVD,Queens,40.758408,-73.874472
PATHWAYS IN TECHNOLOGY EARLY C,EXT MASONRY/ROOFS/PARAPETS/WINDOWS/FLOOD,CIP,K625,150 ALBANY AVENUE,Brooklyn,40.675612,-73.938843
BRONX INTERNATIONAL - BRONX,TERRA COTTA REPL/FLOOD/ROOFS/WINDOW/INTERIOR SPACE,CIP,X400,1110 BOSTON RD,Bronx,40.827642,-73.904473
BRONX CNTR FOR SCIENCE & MATH,FY17 RESO A AUDITORIUM UPGRADE,CIP,X002,1365 FULTON AVENUE,Bronx,40.833696,-73.902477
YOUNG LEADERS ELEM - BRONX,FY18 RESO A PLAYGROUNDS,CIP,X040,468 EAST 140 STREET,Bronx,40.809534,-73.919903
P.S. 101 - BROOKLYN,Addition,CAP,K101,2360 BENSON AVENUE,Brooklyn,40.597863,-73.99169300000001
UNIVERSITY NEIGHBORHOOD HS - M,FY18 RESO A SAFETY SYSTEMS,CIP,M446,200 MONROE STREET,Manhattan,40.712399,-73.98449699999999
P.P.A.S. - MANHATTAN,MASONRY/AUD UPG/WIN/FLOOD/PARAPETS/ROOFS/FA,CIP,M017,328 WEST 48 STREET,Manhattan,40.761448,-73.988019
FORT HAMILTON HS - K,IP DIGITAL VIDEO SURVEILLANCE SYSTEM,CIP,K490,8301 SHORE ROAD,Brooklyn,40.627898,-74.039985
P.S. 99 - QUEENS,WATER PENETRATION/PARAPETS,CIP,Q099,82-37 KEW GARDENS ROAD,Queens,40.711419,-73.82862800000001
X811 SPED - BRONX,PARTIAL ACCESSIBILITY,CIP,X084,1434 LONGFELLOW AVENUE,Bronx,40.830589,-73.887587
P.S. 18 - BRONX,ELECTRICAL WORK FOR A/C INITIATIVE/LL26 CODE COMPLIANCE/EXIT SIGN REPLACEMENT,CIP,X018,502 MORRIS AVENUE,Bronx,40.816406,-73.92329000000001
STATEN ISLAND TECHNICAL HS - R,FLOOD ELIMINATION/EXTERIOR MASONRY/PARAPETS,CIP,R440,485 CLAWSON STREET,Staten Island,40.567873,-74.11537299999999
P.S. 333 - MANHATTAN,EXTERIOR MASONRY/ROOFS/PARAPETS,CIP,M118,154 WEST 93 STREET,Manhattan,40.791709,-73.970802
P.S. 1 - STATEN ISLAND,ELECTRICAL WORK FOR A/C INITIATIVE,CIP,R001,58 SUMMIT STREET,Staten Island,40.509037,-74.244118
P.S. 219 - BROOKLYN,WATER INFILTRATION/ROOFS/EXT MASONRY/PARAPETS,CIP,K219,1060 CLARKSON AVENUE,Brooklyn,40.659288,-73.922919
P.S. 36 - QUEENS,ELECTRICAL WORK FOR A/C INITIATIVE,CIP,Q036,187-01 FOCH BLVD,Queens,40.690828,-73.76390699999999
M721 SPED - MANHATTAN,REINFORCE CINDER/FLOORS/ACCESSIBLITY/ELEC UPG/FA,CIP,M641,16 CLARKSON STREET,Manhattan,40.729412,-74.006148
P.S. 161 - QUEENS,FY19 RESO A LIBRARY UPGRADE,CIP,Q161,101-33 124TH STREET,Queens,40.690798,-73.821657
HS FOR ARTS & TECHNOLOGY - M,ROOFS/WINDOWS,CIP,M490,122 AMSTERDAM AVENUE,Manhattan,40.774351,-73.984753
P.S. 41 - BRONX,FLOOD ELIMINATION/ROOFS/PARAPETS/EXTERIOR MASONRY/WINDOWS,CIP,X041,3352 OLINVILLE AVENUE,Bronx,40.874313,-73.868157
MIDWOOD HS - BROOKLYN,CRACKED CONCRETE STRUCTURE/FIELD HOUSE,CIP,K406,1124 EAST 17 STREET,Brooklyn,40.622641,-73.958988
P.S. 158 - BROOKLYN,FLOOD ELIMINATION/PARAPETS/WINDOWS/PAVED AREAS-CONCRETE/EXTERIOR MASONRY/ROOFS,CIP,K158,400 ASHFORD STREET,Brooklyn,40.672579,-73.884803
PATHWAYS TO GRADUATION - CITYW,EXTERIOR MASONRY,CIP,Q595,162-02 HILLSIDE AVENUE,Queens,40.70848,-73.800065
P.S. 279 - BROOKLYN,FY19 RESO A PLAYGROUND,CIP,K279,1070 EAST 104 STREET,Brooklyn,40.644203000000005,-73.892264
P.S. 128 - QUEENS,Addition,CAP,Q247,69-10 65TH DRIVE,Queens,40.715344,-73.886215
BROOKLYN COMMUNITY HIGH SCHOOL,INSTALL BACKFLOW PREVENTION DEVICES,CIP,K515,6565 FLATLANDS AVENUE,Brooklyn,40.633285,-73.916735
NEW UTRECHT HS - BROOKLYN,WATER PENETRATION INTO BASEMENT/NATATORIUM RECONST,CIP,K445,1601 80 STREET,Brooklyn,40.613262,-74.003404
FRANCIS LEWIS HS - QUEENS,WATER PENETRATION,CIP,Q430,58-20 UTOPIA PKWY,Queens,40.740724,-73.79283000000001
MIDDLE SCHOOL FOR ART & PHILOS,FY16 RESO A ROOM CONVERSIONS/PARTITIONING,CIP,K252,1084 LENOX ROAD,Brooklyn,40.658295,-73.920109
THE BROOKLYN SCHOOL FOR SOCIAL,FY17 RESO A GYMNASIUM UPGRADE,CIP,K480,400 IRVING AVENUE,Brooklyn,40.69697,-73.910791
P.S. 13 - BROOKLYN,PUBLIC ADDRESS SYSTEM/PROGRAM CLOCK SYSTEM REPLACE,CIP,K013,557 PENNSYLVANIA AVENUE,Brooklyn,40.663673,-73.893754
CURTIS HIGH SCHOOL ANNEX - STATEN ISLAND,Addition,CAP,R453,105B HAMILTON AVENUE,Staten Is,40.644735,-74.081222
P.S. 56 - BRONX,Addition,CAP,X056,341 EAST 207 STREET,Bronx,40.875156,-73.875217
P.S. 42 - QUEENS,ELECTRICAL WORK FOR A/C INITIATIVE,CIP,Q042,488 BEACH 66 STREET,Queens,40.594538,-73.795304
P.S. 111 - BRONX,FY17 RESO A CAFEERIA/MULTIPURPOSE ROOM UPGRADE,CIP,X111,3740 BAYCHESTER AVENUE,Bronx,40.884343,-73.840254
I.S. 187 - BROOKLYN,LSP REPLACE VACUUM CONDENSATE PUMP AND STEAM TRAPS,CIP,K486,1171 65 STREET,Brooklyn,40.627784000000005,-74.004485
P.S. 46 - BRONX,Addition,CAP,X046,279 EAST 196 STREET,Bronx,40.866827,-73.890725
P.S. 176 - QUEENS,Addition,CAP,Q176,120-45 235 STREET,Queens,40.685492,-73.72998199999999
P.S. 50 - MANHATTAN,EXTERIOR MASONRY/ROOFS/PARAPETS/SITE WALLS,CIP,M050,433 EAST 100 STREET,Manhattan,40.785258,-73.941526
FRANCIS LEWIS HS - QUEENS,FY15RESO A AUDITORIUM UPGRADE,CIP,Q430,58-20 UTOPIA PKWY,Queens,40.740724,-73.79283000000001
PERFORMING ARTS AND TECH. HS -,WATER INFILTRATION/ELEC WORK FOR A/C INITIATIVE,CIP,K435,400 PENNSYLVANIA AVENUE,Brooklyn,40.667456,-73.894747
P.S. 158 - MANHATTAN,PLAYGROUNDS,CIP,M158,1458 YORK AVENUE,Manhattan,40.770419,-73.951135
AUGUST MARTIN HS - QUEENS,PLANYC BOILER CONVERSION/PLANYC CLIMATE CONTROL,CIP,Q400,156-10 BAISLEY BLVD,Queens,40.675633000000005,-73.783342
P.S. 139 - QUEENS,WATER PENETRATION/ROOFS,CIP,Q139,93-06 63 DRIVE,Queens,40.72814,-73.863582
P.S. 1 - STATEN ISLAND,EXTERIOR MASONRY,CIP,R802,58 SUMMIT STREET,Staten Island,40.509037,-74.244118
P.S. 40 - QUEENS,ELECTRICAL WORK FOR A/C INITIATIVE/LSP LL26 CODE COMPLIANCE/EXIT SIGN REPLACEMENT,CIP,Q040,109-20 UNION HALL STREET,Queens,40.694125,-73.790675
P.S. 95 - BRONX,DEFECTIVE MASONRY/PARAPETS,CIP,X095,3961 HILLMAN AVENUE,Bronx,40.882898,-73.891256
P.S. 267 - MANHATTAN,EXTERIOR MASONRY/ROOFS,CIP,M267,213 EAST 63 STREET,Manhattan,40.763842,-73.96422199999999
I.S. 77 - QUEENS,ELECTRICAL WORK FOR A/C INITIATIVE,CIP,Q849,976 SENECA AVENUE,Queens,40.699516,-73.90214
PRE-K CENTER @ 104-04 CORONA AVENUE - QUEENS,New,CAP,Q373,104-04 CORONA AVENUE,Queens,40.744001,-73.85840400000001
J.H.S. 194 - QUEENS,FY16 RESO A LIBRARY UPGRADE,CIP,Q194,154-60 17 AVENUE,Queens,40.78365,-73.807838
P.S. @ 736 48TH STREET - BROOKLYN,Lease,CAP,K682,736 48TH STREET,Brooklyn,40.643018,-74.003856
P.S. 152 - BROOKLYN,TCU REMOVAL & PLAYGROUND REDEVELOPMENT,CIP,K152,725 EAST 23 STREET,Brooklyn,40.632562,-73.954724
P.S. 257 - BROOKLYN,FY18 RESO A AUDITORIUM UPGRADE,CIP,K257,60 COOK STREET,Brooklyn,40.702392,-73.941801
P.S. 40 - BROOKLYN,FY16 RESO A ROOFS,CIP,K040,265 RALPH AVENUE,Brooklyn,40.680463,-73.922264
P.S. 201 - QUEENS,PLANYC CLIMATE CONTROL/PLANYC BOILER CONVERSION,CIP,Q201,65-11 155 STREET,Queens,40.736653,-73.813346
BROOKLYN BRIDGE ACADEMY - K,WINDOWS,CIP,K515,6565 FLATLANDS AVENUE,Brooklyn,40.633285,-73.916735
K753 SPED - BROOKLYN,PLANYC BOILER CNVRSN/PLANYC CLIMATE CTRL,CIP,K085,510 CLERMONT AVENUE,Brooklyn,40.682533,-73.968769
P.S. @ PARCEL F - QUEENS,New,CAP,Q375,1-35 57TH AVENUE,Queens,40.738836,-73.96060899999999
P.S. 159 - BROOKLYN,STANDALONE GYM ANNEX,CIP,K368,2781  PITKIN AVENUE,Brooklyn,40.675766,-73.869469
P.S. 384 - BROOKLYN,LSP DOMESTIC WATER BOOSTER PUMP REPLACEMENT,CIP,K384,242 COOPER STREET,Brooklyn,40.690353,-73.904803
WILLIAM E. GRADY VOC HS - K,ELECTRICAL WORK FOR A/C INITIATIVE,CIP,K620,25 BRIGHTON 4TH ROAD,Brooklyn,40.582585,-73.963477
Q177 SPED - QUEENS,PLANYC BOILER CONVERSION/PLANYC CLIMATE CONTROL,CIP,Q177,56-37 188 STREET,Queens,40.74391,-73.788133
P.S. 3 - BRONX,DTERIORATED COPING STONES/PAVED AREA CONCRETE/ROOF,CIP,X003,2100 LAFONTAINE AVE,Bronx,40.849897,-73.892289
HS FOR ENVIRONMENTAL STUDIES -,6TH FLOOR EGRESS/FIRE ALARM,CIP,M834,444 WEST 56 STREET,Manhattan,40.767791,-73.987531
P.S. 50 - MANHATTAN,EXTERIOR MASONRY/ROOFS/PARAPETS/SITE WALLS,CIP,M050,433 EAST 100 STREET,Manhattan,40.785258,-73.941526
P.S. 22 - STATEN ISLAND,FY18 RESO A AUDITORIUM UPGRADE,CIP,R022,1860 FOREST AVENUE,Staten Island,40.625369,-74.15097
P.S. 234 - MANHATTAN,FY16 RESO A AUDITORIUM UPGRADE,CIP,M234,292 GREENWICH STREET,Manhattan,40.71602,-74.01103499999999
I.S. 127 - BRONX,ACCESSIBILITY/WINDOWS/PARAPETS/EXT MASONRY/ROOFS,CIP,X127,1560 PURDY STREET,Bronx,40.837931,-73.853524
I.S. 34 - STATEN ISLAND,FULL PROGRAM ACCESSIBILITY/FIRE ALARM SYSTEM,CIP,R034,528 ACADEMY AVE,Staten Island,40.508284,-74.24342800000001
I.S. 34 - STATEN ISLAND,FULL PROGRAM ACCESSIBILITY/FIRE ALARM SYSTEM,CIP,R034,528 ACADEMY AVE,Staten Island,40.508284,-74.24342800000001
I.S. 2 - STATEN ISLAND,FY17 RESO A ROOM CONVERSIONS,CIP,R002,333 MIDLAND AVENUE,Staten Island,40.576725,-74.100726
MONROE ACAD FOR VISUAL ARTS -,EXT MASONRY/FLOOD ELMNTN/PARAPETS/ROOFS/WINDOWS,CIP,X420,1300 BOYNTON AVENUE,Bronx,40.831601,-73.878912
AVIATION HS - QUEENS,FUEL FIRE/ROOFS/PARAPETS/MSNRY/ FLOOD/GYM UPG/WIN,CIP,Q610,45-30 36 STREET,Queens,40.743509,-73.929076
P.S. 131 - QUEENS,ROOFS/EXT MASONRY/PARAPETS,CIP,Q131,170-45 84TH AVENUE,Queens,40.716617,-73.794637
RICHMOND HILL HS - QUEENS,FY18 RESO A AUDITORIUM  UPGRADE,CIP,Q475,89-30 114 STREET,Queens,40.695888,-73.833681
I.S. 73 - QUEENS,PLANYC CLIMATE CONTROL/PLANYC BOILER CONVERSION,CIP,Q073,70-02 54 AVENUE,Queens,40.729215,-73.893624
Q009 SPED - QUEENS,EXT MASONRY/PARAPETS/FLOOD/ACCESSIBILITY/FA/ROOFS,CIP,Q009,58-74 57 STREET,Queens,40.718935,-73.91220799999999
FREDERICK DOUGLASS ACADEMY VI,MSNRY/ROOFS/WINDOWS/PARAPETS/NATATORIUM STRUC REPR,CIP,Q465,8-21 BAY 25 STREET,Queens,40.60201,-73.762795
LONGWOOD PREPARATORY ACADEMY,IPDVS CAMERA INSTALLATION,CIP,X039,965 LONGWOOD AVENUE,Bronx,40.817512,-73.898212
HS FOR MEDICAL PROFESSIONS - K,PLANYC BOILER CONVERSION/PLANYC CLIMATE CONTROL/FLOOD ELIMINATION,CIP,K500,1600 ROCKAWAY PKWY,Brooklyn,40.641474,-73.89825400000001
PARK WEST H. S. (ECF),C OF O/C OF O VENT/WATER PLANT/BOILER/ENERGY MGMT,CIP,M535,525 WEST 50 STREET,Manhattan,40.765184000000005,-73.992953
I.S. 331 - BRONX,FY19 RESO A GYMNASIUM UPGRADE,CIP,X306,40 WEST TREMONT AVENUE,Bronx,40.851823,-73.91118
Q721 SPED - QUEENS,EXTERIOR MASONRY/ROOFS,CIP,Q722,57-12 94TH STREET,Queens,40.736003,-73.867478
I.S. 240 - BROOKLYN,FLOOD ELIMINATION/ROOFS/WINDOWS/EXTERIOR MASONRY,CIP,K240,2500 NOSTRAND AVENUE,Brooklyn,40.623561,-73.946279
MARBLE HILL INTERNATIONAL HS -,EXT MASONRY/FLOOD/PARAPETS/ROOFS,CIP,X475,99 TERRACE VIEW AVENUE,Bronx,40.877105,-73.912256
P.S. @ 736 48TH STREET - BROOKLYN,Lease,CAP,K682,736 48TH STREET,Brooklyn,40.643018,-74.003856
P.S. 119 - BRONX,PLANYC CLIMATE CONTROL/PLANYC BOILER CONVERSION,CIP,X119,1075 PUGSLEY AVENUE,Bronx,40.828518,-73.856569
I.S. 349 - BROOKLYN,SCIENCE LAB UPGRADES,CIP,K111,35 STARR STREET,Brooklyn,40.70069,-73.927481
P.S. 50 - MANHATTAN,EXTERIOR MASONRY/ROOFS/PARAPETS/SITE WALLS,CIP,M050,433 EAST 100 STREET,Manhattan,40.785258,-73.941526
Q721 SPED - QUEENS,EXTERIOR MASONRY/ROOFS,CIP,Q722,57-12 94TH STREET,Queens,40.736003,-73.867478
BROOKLYN ACADEMY HS - BROOKLYN,WORK REQUIRED TO OBTAIN A C OF O,CIP,K458,832 MARCY AVENUE,Brooklyn,40.685004,-73.947152
I.S. 227 - BROOKLYN,WATER PENETRATION/ROOFS/EXT MASONRY/PARAPETS,CIP,K227,6500 16 AVENUE,Brooklyn,40.62191,-73.99502199999999
I.S. 218 - BROOKLYN,WATER PENETRATION/EXT MASONRY,CIP,K218,370 FOUNTAIN AVENUE,Brooklyn,40.670724,-73.874208
I.S. 145 - QUEENS,PLANYC BOILER CNVRSN/PLANYC CLIMATE CTRL,CIP,Q145,33-34 80 STREET,Queens,40.754661,-73.887112
P.S. 31 - QUEENS,CHIMNEY LINER REPLAC/PLANYC BOILER/CLIMATE/MASONRY,CIP,Q031,211-45 46 ROAD,Queens,40.757064,-73.770122
P.S. 2 - QUEENS,FY15 RESO A ACCESSIBILITY,CIP,Q002,75-10 21 AVENUE,Queens,40.770335,-73.894476
J.H.S. 237 - QUEENS,FY19 RESO A DOOR REPLACEMENT,CIP,Q237,46-21 COLDEN STREET,Queens,40.749545,-73.822073
P.S. 34 - QUEENS,LOOSE MASONRY/ROOFS/WINDOWS,CIP,Q034,104-12 SPRINGFIELD BLVD,Queens,40.711753,-73.736624
P.S. 47 - QUEENS,ROOFS,CIP,Q047,9 POWER ROAD,Queens,40.606353000000006,-73.82044499999999
JAMAICA GATEWAY TO THE SCIENCE,LSP GYMNASIUM BLEACHERS REPLACEMENT,CIP,Q470,167-01 GOTHIC DRIVE,Queens,40.713218,-73.797237
YOUNG SCHOLAR'S ACADEMY - BROO,STRUCTURAL DEFECTS/EXT MASONRY,CIP,K304,280 HART STREET,Brooklyn,40.694086,-73.940744
FORDHAM HS FOR THE ARTS - BRON,FY16 RESO A LIBRARY UPGRADE,CIP,X435,500 EAST FORDHAM ROAD,Bronx,40.860043,-73.888267
FLUSHING HS - QUEENS,FY15 RESO A AUDITORIUM UPGRADE,CIP,Q460,35-01 UNION STREET,Queens,40.765166,-73.82789
P.S. 215 - BROOKLYN,LSP REPLACE PVI DOMESTIC WATER HEATER,CIP,K215,415 AVENUE S,Brooklyn,40.602084000000005,-73.970013
PATHWAYS IN TECHNOLOGY EARLY C,EXTERIOR MASONRY/ROOFS/PARAPETS/WINDOWS/FLOOD ELIMINATION,CIP,K625,150 ALBANY AVENUE,Brooklyn,40.675612,-73.938843
D75 REPLACEMENT @ 15A FAIRFIELD STREET - STATEN ISLAND,New,CAP,R089,15A FAIRFIELD STREET,Staten Is,40.56397,-74.150885
P.S. 151 - QUEENS,WATER INFILTRATION/ROOFS/PARAPETS/EXT MASONRY,CIP,Q151,50-05 31 AVENUE,Queens,40.757499,-73.908898
P.S. 188 - MANHATTAN,LSP LL26 CODE COMPLIANCE/EXIT SIGN REPLACEMENT,CIP,M188,442 EAST HOUSTON STREET,Manhattan,40.719598,-73.97790400000001
P.S. 214 - QUEENS,RESO A SUPPLEMENTAL COOLING,CIP,Q214,31-15 140 STREET,Queens,40.770387,-73.82861700000001
FOREST HILLS HS - QUEENS,IPDVS CAMERA INSTALLATION,CIP,Q440,67-01 110 STREET,Queens,40.729402,-73.845637
P.S. 7 - BRONX,FY16 RESO A AIR CONDITIONING SPLIT SYSTEM,CIP,X007,3201 KINGSBRIDGE AVENUE,Bronx,40.881066,-73.905366
P.S. 123 - QUEENS,TCU REMOVAL & PLAYGROUND REDEVELOPMENT,CIP,Q123,145-01 119 AVENUE,Queens,40.678296,-73.79562
I.S. 187 - BROOKLYN,LSP REPLACE VACUUM CONDENSATE PUMP AND STEAM TRAPS,CIP,K486,1171 65 STREET,Brooklyn,40.627784000000005,-74.004485
BROOKLYN HS OF THE ARTS - BROO,DAMAGED EXTERIOR WALLS/ROOFS,CIP,K655,345 DEAN STREET,Brooklyn,40.683559,-73.98026999999999
P.S. 50 - MANHATTAN,EXTERIOR MASONRY/ROOFS/PARAPETS/SITE WALLS,CIP,M050,433 EAST 100 STREET,Manhattan,40.785258,-73.941526
P.S. 13 - BROOKLYN,FY19 RESO A CAFETERIA / MULTIPURPOSE ROOM UPGRADE,CIP,K013,557 PENNSYLVANIA AVENUE,Brooklyn,40.663673,-73.893754
FORT HAMILTON HS - K,POOL BOILER,CIP,K490,8301 SHORE ROAD,Brooklyn,40.627835,-74.04004599999999
P.S. 76 - BRONX,ROOFS/FLOOD ELIMINATION/PARAPETS/EXTERIOR MASONRY,CIP,X076,900 ADEE AVENUE,Bronx,40.869593,-73.86128199999999
H.S. 745 - BROOKLYN,IPDVS CAMERA INSTALLATION,CIP,K470,600 KINGSTON AVENUE,Brooklyn,40.658893,-73.942458
I.S. 68 - BROOKLYN,LSP CHARTER MATCH LOCKER REPLACEMENT,CIP,K068,956 EAST 82 STREET,Brooklyn,40.635553,-73.91079
P.S. 90 - QUEENS,AUDITORIUM UPGRADE,CIP,Q090,86-50 109 STREET,Queens,40.697033000000005,-73.839213
WILLIAM E. GRADY VOC HS - K,ELECTRICAL WORK FOR A/C INITIATIVE,CIP,K620,25 BRIGHTON 4TH ROAD,Brooklyn,40.582585,-73.963477
FREDERICK DOUGLAS ACADEMY - M,ELECTRICAL WORK FOR A/C INITIATIVE,CIP,M010,2581 7TH AVENUE,Manhattan,40.824319,-73.93712
BENJAMIN N. CARDOZO HS - QUEEN,ATHLETIC FIELDS/TCU REMOVAL & PLAYGROUND REDEVELOP,CIP,Q415,57-00 223 STREET,Queens,40.752333,-73.75599
P.S. 169 - QUEENS,FY16 RESO A AUDITORIUM UPGRADE,CIP,Q169,18-25 212 STREET,Queens,40.782298,-73.779099
I.S. 75 - STATEN ISLAND,CHILLER REPLACEMENT,CIP,R075,455 HUGUENOT AVENUE,Staten Island,40.54438,-74.197897
CURTIS HIGH SCHOOL ANNEX - STATEN ISLAND,Addition,CAP,R453,105B HAMILTON AVENUE,Staten Is,40.644735,-74.081222
THE BROOKLYN SCHOOL FOR SOCIAL,EXTERIOR MASONRY/PARAPETS/ROOFS,CIP,K480,400 IRVING AVENUE,Brooklyn,40.69697,-73.910791
P.S. 184 - BROOKLYN,PLAYGROUND SURFACES/PARAPETS/EXTERIOR MASONRY/ROOFS,CIP,K184,273 NEWPORT STREET,Brooklyn,40.659966,-73.904901
P.S. 163 - MANHATTAN,TCU REMOVAL & PLAYGROUND REDEVELOPMENT,CIP,M163,163 WEST 97 STREET,Manhattan,40.794264,-73.96870600000001
P.S. 95 - BRONX,DEFECTIVE MASONRY/PARAPETS,CIP,X095,3961 HILLMAN AVENUE,Bronx,40.882898,-73.891256
P.S. 36 - MANHATTAN,PLAYGROUND/WATER INFILTRATION/EXTERIOR MASONRY,CIP,M036,123 MORNINGSIDE DRIVE,Manhattan,40.81027,-73.957482
D75 REPLACEMENT @ 15 FAIRFIELD,Demo,CAP,R089,15 FAIRFIELD STREET,Staten Island,40.56397,-74.150885
P.S. 3 - BRONX,HVAC CONTROLS/VENTILATION,CIP,X003,2100 LAFONTAINE AVE,Bronx,40.849897,-73.892289
MARTIN VAN BUREN HS - QUEENS,LSP- GYM WATER PENETRATION,CIP,Q435,230-17 HILLSIDE AVENUE,Queens,40.733066,-73.73875600000001
P.S. 19 - MANHATTAN,ROOFS,CIP,M019,185 1ST AVENUE,Manhattan,40.729636,-73.983818
I.S. 221 - BRONX,GYMNASIUM UPGRADE/ROOFS,CIP,X149,360 EAST 145 STREET,Bronx,40.813983,-73.92078199999999
NYC SCHOOL CONSTRUCTION AUTHOR,VP ADMN RELOCATION AND 1ST FLOOR HR/IT BUILDOUT,CIP,Q998,30-30 THOMSON AVENUE,Queens,40.745042,-73.93619100000001
P.S. 21 - QUEENS,CEILING REPAIR,CIP,Q021,147-36 26TH AVENUE,Queens,40.774512,-73.819284
WORLD JOURNALISM PREPARATORY-Q,FY19 RESO A IPDVS CAMERA INSTALLATION,CIP,Q025,34-65 192 STREET,Queens,40.765133,-73.790083
P.S. 288 - BROOKLYN,ROOF,CIP,K288,2950 WEST 25 STREET,Brooklyn,40.574411,-73.99194
TOWNSEND HARRIS HS - Q,FY16 RESO A IP SURVEILLANCE CAMERA INSTALLATION,CIP,Q515,149-11 MELBOURNE AVENUE,Queens,40.734390000000005,-73.821392
P.S. 209 - BROOKLYN,LSP VACUUM CONDENSATE PUMP AND STEAM TRAPS,CIP,K209,2609 EAST 7TH ST,Brooklyn,40.586845,-73.96198000000001
BROOKLYN COLLEGIATE: A COLLEGE,LOW VOLTAGE ELECTRICAL SYSTEM,CIP,K055,2021 BERGEN STREET,Brooklyn,40.674103,-73.913273
EDWARD A. REYNOLDS WEST SIDE H,ROOFS/PARAPETS/EXTERIOR MASONRY,CIP,M506,140 WEST 102 STREET,Manhattan,40.797559,-73.966837
MID-MAN ADULT LEARNING CENTER,STRUCTURAL/EXTERIOR MASONRY,CIP,M081,212 W 120TH ST,Manhattan,40.806063,-73.95134
P.S. 108 - MANHATTAN,PLANYC BOILER/PLANC CLIMATE CTRL/LOW VOLT/KITCHEN,CIP,M108,1615 MADISON AVENUE,Manhattan,40.795146,-73.948368
P.S. 223 - QUEENS,WINDOWS/EXT MASONRY/PARAPETS,CIP,Q223,125-20 SUTPHIN BLVD,Queens,40.674519,-73.789399
FIORELLO LAGUARDIA HS - MANHAT,IPDVS CAMERA INSTALLATION,CIP,M485,100 AMSTERDAM AVENUE,Manhattan,40.773629,-73.98527299999999
I.S. 522 - BROOKLYN,PLANYC BOILER/PLANYC CLIMATE CONTROL,CIP,K271,1137 HERKIMER STREET,Brooklyn,40.677805,-73.91584300000001
P.S. 44 - BRONX,EXTERIOR MASONRY/PARAPETS/ROOFS,CIP,X044,1825 PROSPECT AVENUE,Bronx,40.842084,-73.891116
P.S. 128 ADDITION - QUEENS,Addition,CAP,Q247,69-10 65TH DRIVE,Queens,40.715344,-73.886215
P.S. 109 - BRONX,WATER PENETRATION/ROOF/ PARAPET/MASONRY,CIP,X109,1771 POPHAM AVENUE,Bronx,40.851414,-73.918533
P.S. 121 - BRONX,FLOOD ELIMINATION/PARAPETS/EXTERIOR MASONRY/ROOFS,CIP,X121,2750 THROOP AVENUE,Bronx,40.86608,-73.850982
P.S. 161 - BROOKLYN,FLOOD ELIMINATION,CIP,K161,330 CROWN STREET,Brooklyn,40.666181,-73.949013
BEACH CHANNEL HS - QUEENS,SANDY:HEATING/ELEC/FLOOD/CLIMATE/PIPING/INT/GENERA,CIP,Q410,100-00 BEACH CHANNEL DRIVE,Queens,40.586066,-73.822624
P.S. 35 - QUEENS,STORM WATER DRAINAGE,CIP,Q035,191-02 90TH AVENUE,Queens,40.713759,-73.769439
P.S. @ 4513 8TH AVENUE - BROOKLYN,New,CAP,K730,4513 8TH AVENUE,Brooklyn,40.643781,-74.000926
P.S. 297 - BROOKLYN,FY16 RESO A LIBRARY UPGRADE,CIP,K297,700 PARK AVENUE,Brooklyn,40.697781,-73.94780899999999
P.S. 102 - BROOKLYN,WATER INFILTRATION/ROOFS/EXT MASONRY,CIP,K102,211 72 STREET,Brooklyn,40.63402,-74.029036
SUSAN E. WAGNER HS - STATEN IS,EXTERIOR DOORS/EXTERIOR MASONRY/WINDOWS/PARAPETS/ROOFS,CIP,R460,1200 MANOR ROAD,Staten Island,40.596803,-74.124227
P.S. 112 - QUEENS,FY19 RESO A GYMNASIUM UPGRADE,CIP,Q112,25-05 37 AVENUE,Queens,40.756891,-73.934523
HOLCOMBE L. RUCKER SCHOOLOF CO,FY16 RESO A AUDITORIUM UPGRADE,CIP,X039,965 LONGWOOD AVENUE,Bronx,40.817512,-73.898212
I.S. 5 - QUEENS,LSP VACUUM/CONDENSATE PUMP SYSTEM REPLACEMENT,CIP,Q005,50-40 JACOBUS STREET,Queens,40.737718,-73.887429
J.H.S. 67 - QUEENS,FLOOD ELIMINATION,CIP,Q067,51-60 MARATHON PKWY,Queens,40.762708,-73.733694
I.S. 394 - BROOKLYN,WATER PENETRATION,CIP,K210,188 ROCHESTER AVENUE,Brooklyn,40.672762,-73.927973
P.S. 241 - MANHATTAN,PLANYC BOILER CONVERSION/CIMATE CONTROL,CIP,M113,240 WEST 113 STREET,Manhattan,40.801689,-73.95490799999999
I.S. 24 - STATEN ISLAND,FY17 RESO A SCIENCE LAB UPGRADES,CIP,R024,225 CLEVELAND AVENUE,Staten Island,40.545281,-74.14631999999999
P.S. 48 - BRONX,FULL PROGRAM ACCESSIBILITY,CIP,X048,1290 SPOFFORD AVENUE,Bronx,40.814425,-73.886953
PORT RICHMOND HS - R,TCU REMOVAL/MASONRY/ROOFS/PARAPETS/FLOOD ELIM,CIP,R445,85 ST JOSEPHS AVENUE,Staten Island,40.634573,-74.141818
A-TECH HIGH SCHOOL - K,ELECTRICAL WORK FOR A/C INITIATIVE,CIP,K610,50 BEDFORD AVENUE,Brooklyn,40.721981,-73.953281
BROOKLYN TECH HS - K,PA SYSTEM,CIP,K430,29 FT GREENE PLACE,Brooklyn,40.688834,-73.976905
LYFE PROGRAM,LYFE CENTER,CIP,M081,212 W 120TH ST,Manhattan,40.806063,-73.95134
JOHN ADAMS HS - QUEENS,EXTERIOR MASONRY/ROOFS/PARAPETS/WINDOWS/FLOOD ELIMINATION,CIP,Q480,102-10 ROCKAWAY BOULEVARD,Queens,40.679487,-73.836476
THE BROOKLYN SCHOOL FOR SOCIAL,IP DIGITAL VIDEO SURVEILLANCE SYSTEM,CIP,K480,400 IRVING AVENUE,Brooklyn,40.69697,-73.910791
J.H.S. 237 - QUEENS,FY19 RESO A DOOR REPLACEMENT,CIP,Q237,46-21 COLDEN STREET,Queens,40.749545,-73.822073
K753 SPED - BROOKLYN,IPDVS CAMERA INSTALLATION,CIP,K085,510 CLERMONT AVENUE,Brooklyn,40.682533,-73.968769
ESSEX STREET ACADEMY - MANHATT,FY17 RESO A BOYS LOCKER ROOM UPGRADE,CIP,M445,350 GRAND STREET,Manhattan,40.716778000000005,-73.989337
P.S. 64 - QUEENS,FY16 RESO A AUDITORIUM,CIP,Q064,82-01 101 AVENUE,Queens,40.681172,-73.85691800000001
P.S. 32 - BRONX,EXTERIOR MASONRY/WINDOWS/PARAPETS,CIP,X032,690 EAST 183 STREET,Bronx,40.852103,-73.885935
P.S. 123 - MANHATTAN,CO DETECTORS,CIP,M123,301 WEST 140 STREET,Manhattan,40.819767,-73.94443299999999
Q075 SPED - QUEENS,EXTERIOR MASONRY/ROOFS,CIP,Q048,155-02 108 AVENUE,Queens,40.694119,-73.797003
P.S. 200 - BROOKLYN,PARAPETS/ROOFS/EXTERIOR MASONRY,CIP,K200,1940 BENSON AVENUE,Brooklyn,40.603188,-74.001408
HERBERT H. LEHMAN HS - X,STRUCTURAL DEFECTS,CIP,X405,3000 EAST TREMONT AVENUE,Bronx,40.840702,-73.838545
P.S. 242 - QUEENS,IP DIGITAL VIDEO SURVEILLANCE SYSTEM,CIP,Q242,29-66 137TH STREET,Queens,40.771265,-73.831525
P.S. 13 - QUEENS,ELECTRICAL WORK FOR A/C INITIATIVE,CIP,Q013,55-01 94TH STREET,Queens,40.737613,-73.86851
E NY VOC HS OF TRANSIT TECH.-K,ENY AUDITORIUM UPGRADE,CIP,K615,1 WELLS STREET,Brooklyn,40.678276,-73.87595999999999
FORDHAM HS FOR THE ARTS - BRON,FY16 RESO A LIBRARY UPGRADE,CIP,X435,500 EAST FORDHAM ROAD,Bronx,40.860043,-73.888267
P.S. 68 - BRONX,WATER INFILTRATION/EXT MASONRY/PAVED AREA-BLACKTOP,CIP,X068,4011 MONTICELLO AVENUE,Bronx,40.891732,-73.838471
P.S. 213 - BROOKLYN,"LSP VACUUM PUMP SETS, CHEMICAL FEEDER",CIP,K213,580 HEGEMAN AVENUE,Brooklyn,40.66051,-73.890288
P.S. 242 - QUEENS,FLOOD ELIMINATION/ROOFING,CIP,Q242,29-66 137TH STREET,Queens,40.771265,-73.831525
BEACH CHANNEL HS - QUEENS,SANDY REPAIRS-ATHLETIC FIELD,CIP,Q411,100-00 BEACH CHANNEL DRIVE,Queens,40.586066,-73.822624
P.S. 68 - QUEENS,AUDITORIUM UPGRADE,CIP,Q068,59-09 ST FELIX AVENUE,Queens,40.696556,-73.897405
P.S. 137 - BROOKLYN,LSP- HOT WATER HEATER,CIP,K137,121 SARATOGA AVENUE,Brooklyn,40.682458,-73.917088
P.S. 163 - QUEENS,ELECTRICAL WORK FOR A/C INITIATIVE/LL26 CODE COMPLIANCE/EXIT SIGN REPLACEMENT,CIP,Q163,159-01 59 AVENUE,Queens,40.740565,-73.80913100000001
NYC SCHOOL CONSTRUCTION AUTHOR,3RD FLOOR PANTRY AND OFFICE BUILD OUT,CIP,Q998,30-30 THOMSON AVENUE,Queens,40.745042,-73.93619100000001
MANHTN CT FOR MATH & SCI. HS -,ELECTRICAL WORK FOR A/C INITIATIVE,CIP,M435,260 PLEASANT AVENUE,Manhattan,40.793856,-73.934028
P.S. 139 - BROOKLYN,ELECTRICAL WORK FOR A/C INITIATIVE,CIP,K139,330 RUGBY ROAD,Brooklyn,40.641937,-73.965523
CURTIS HIGH SCHOOL ANNEX - STATEN ISLAND,Addition,CAP,R453,105B HAMILTON AVENUE,Staten Is,40.644735,-74.081222
P.S. 304 - BRONX,PLANYC BOILER/PLANYC CLIMATE CONTROL,CIP,X101,2750 LAFAYETTE AVENUE,Bronx,40.827471,-73.829753
BRONX INTERNATIONAL - BRONX,ELECTRICAL WORK FOR A/C INITIATIVE,CIP,X400,1110 BOSTON RD,Bronx,40.827642,-73.904473
P.S. 253 - BROOKLYN,EXTERIOR MASONRY/FLOOD ELIMINATION/PARAPETS/ROOFS,CIP,K253,601 OCEANVIEW AVENUE,Brooklyn,40.579607,-73.962071
FASHION INDUSTRIES VOC HS - M,ACCESSIBILITY,CIP,M600,225 WEST 24 STREET,Manhattan,40.745156,-73.996074
P.S. 161 - BRONX,FY16 RESO A SUPPLEMENTAL COOLING,CIP,X161,628 TINTON AVENUE,Bronx,40.814916,-73.905518
P.S. 295 - BROOKLYN,GYM & CAFE FLOOR/FLOOD/FLOOR/PARAPETS/MASONRY/ROOF,CIP,K845,330 18 STREET,Brooklyn,40.660976,-73.988297
BRONX CNTR FOR SCIENCE & MATH,FY17 RESO A AUDITORIUM  UPGRADE,CIP,X002,1365 FULTON AVENUE,Bronx,40.833696,-73.902477
BEACH CHANNEL HS - QUEENS,SANDY FIRE ALARM/NON SANDY PA SYSTEM,CIP,Q410,100-00 BEACH CHANNEL DRIVE,Queens,40.586066,-73.822624
P.S. 382 - BRONX,DAMAGE STONE/PARAPETS/ROOFS/WINDOWS,CIP,X079,125 EAST 181 STREET,Bronx,40.854872,-73.903458
TOWNSEND HARRIS HS - Q,FY18 RESO A IPDVS CAMERA INSTALLATION,CIP,Q515,149-11 MELBOURNE AVENUE,Queens,40.734390000000005,-73.821392
BROOKLYN BRIDGE ACADEMY - K,WINDOWS,CIP,K515,6565 FLATLANDS AVENUE,Brooklyn,40.633285,-73.916735
FORT HAMILTON HS - K,FY16 RESO A ATHLETIC FIELD UPGRADE,CIP,K490,8301 SHORE ROAD,Brooklyn,40.627898,-74.039985
ALFRED E. SMITH HS - X,FY16 RESO A AUDITORIUM UPGRADE,CIP,X600,333 EAST 151 STREET,Bronx,40.818232,-73.91986700000001
BOYS & GIRLS HS - BROOKLYN,LSP REPLACE DAMAGED SECTION OF 2000 AMP SWITCHGEAR,CIP,K455,1700 FULTON STREET,Brooklyn,40.67944,-73.932407
I.S. 73 - QUEENS,LOW VOLT ELECTRICAL SYSTEMS,CIP,Q073,70-02 54 AVENUE,Queens,40.729215,-73.893624
P.S. 92 - BROOKLYN,NYS IPDVS CAMERAS,CIP,K092,601 PARKSIDE AVENUE,Brooklyn,40.656046,-73.953742
M.S. 282 - QUEENS,FY17 RESO A LIBRARY UPGRADES,CIP,Q465,8-21 BAY 25 STREET,Queens,40.60201,-73.762795
P.S. 37 - BRONX,FLOOD ELIMINATION,CIP,X037,360 W 230TH STREET,Bronx,40.880263,-73.910466
P.S. 64 - MANHATTAN,FY18 RESO A GYMNASIUM UPGRADE,CIP,M064,600 EAST 6 STREET,Manhattan,40.724435,-73.981521
P.S. 114 - BRONX,PLANYC BOILER CONVERSION/PLANYC CLIMATE CONTROL,CIP,X114,1155 CROMWELL AVENUE,Bronx,40.834776,-73.923067
P.S. 110 - BROOKLYN,FY18 RESO A ELECTRICAL SYSTEMS,CIP,K110,124 MONITOR STREET,Brooklyn,40.723897,-73.942312
P.S. 345 - BROOKLYN,PLANYC CLIMATE CTRL/PLANYC BOILER CONVERSION,CIP,K345,111 BERRIMAN STREET,Brooklyn,40.676129,-73.880337
HS FOR MEDICAL PROFESSIONS - K,PLANYC BOILER CONVERSION/PLANYC CLIMATE CTRL/FLOOD,CIP,K500,1600 ROCKAWAY PKWY,Brooklyn,40.641474,-73.89825400000001
P.S. 158 - BROOKLYN,STRUCTURAL DEFECTS,CIP,K158,400 ASHFORD STREET,Brooklyn,40.672579,-73.884803
BROOKLYN FRONTIERS HIGH SCHOOL,PUBLIC ADDRESS SYSTEM,CIP,K520,112 SCHERMERHORN STREET,Brooklyn,40.690145,-73.989132
P.S. 85 - BRONX,EXT MASONRY/PARAPETS/ROOFS/SECURITY LIGHTING/FLOOD,CIP,X085,2400 MARION AVENUE,Bronx,40.8591,-73.89494599999999
MARTIN VAN BUREN HS - QUEENS,RENEWAL SCHOOL BASED HEALTH CENTER,CIP,Q435,230-17 HILLSIDE AVENUE,Queens,40.733066,-73.73875600000001
P.S. 303 - QUEENS,Addition,CAP,Q003,68-60 110TH STREET,Queens,40.7261,-73.843502
P.S. 104 - BROOKLYN,WATER INFILTRATION/FLOOD/PARAPETS/ROOFS,CIP,K104,9115 5TH AVENUE,Brooklyn,40.618415,-74.028842
P.S. 103 - BRONX,PARAPET/EXTERIOR MASONRY/FLOOD ELIMINATION,CIP,X103,4125 CARPENTER AVENUE,Bronx,40.892151,-73.86146600000001
TOTTENVILLE HS - STATEN ISLAND,FY 16 RESO A WIRING UPGRADE,CIP,R455,100 LUTEN AVENUE,Staten Island,40.528092,-74.192032
THE URBAN ASSEMBLY SCHOOL FOR,HVAC (BMS) WORK/BACKFLOW PREVENTER & WATER METER,CIP,M470,145 WEST 84 STREET,Manhattan,40.785803,-73.974614
I.S. 265 -BROOKLYN,PLANYC BOILER CNVRSN/PLANYC CLIMATE CTRL,CIP,K265,101 PARK AVENUE,Brooklyn,40.696324,-73.97578
P.S. 116 - QUEENS,EXT MASONRY/ROOFS/CONCRETE ROOF DECK/PARAPETS,CIP,Q116,107-25 WREN PLACE,Queens,40.700606,-73.782302
P.S. 45 - QUEENS,FLOOD ELIMINATION/ROOFS/PARAPETS/EXTERIOR MASONRY,CIP,Q045,126-28 150 STREET,Queens,40.672727,-73.788164
P.S. 163 - BROOKLYN,LSP REPLACEMENT OF GYM FLOOR,CIP,K807,109 BAY 14TH STREET,Brooklyn,40.606792,-74.00806
P.S. 45 - STATEN ISLAND,ROOFS/PARAPETS /EXTERIOR MASONRY/FLOOD ELIMINATION,CIP,R045,58 LAWRENCE AVENUE,Staten Island,40.628558,-74.107148
P.S. 131 - QUEENS,Addition,CAP,Q131,170-45 84TH AVENUE,Queens,40.716617,-73.794637
P.S. 354 - QUEENS,WATER INFILTRATION,CIP,Q030,126-10 BEDELL STREET,Queens,40.68031,-73.77443199999999
P.S. 109 - BROOKLYN,LSP REPLACE LEAKING PVI DOMESTIC WATER HEATER,CIP,K395,1001 EAST 45 STREET,Brooklyn,40.636455,-73.933582
I.S. 259 - BROOKLYN,CRACKED EXTERIOR MASONRY/ROOFS/PARAPETS,CIP,K259,7305 FT HAMILTON PKWY,Brooklyn,40.62668,-74.01512
Q075 SPED - QUEENS,FLOOD ELIMINATION/REINFORCING SUPPORT ELEMENTS,CIP,Q048,155-02 108 AVENUE,Queens,40.694119,-73.797003
I.S. 125 - BRONX,LIGHTING REPLACEMENT (DCAS),CIP,X125,1111 PUGSLEY AVENUE,Bronx,40.829232,-73.856734
HERBERT H. LEHMAN HS - X,IP DIGITAL VIDEO SURVEILLANCE SYSTEM,CIP,X405,3000 EAST TREMONT AVENUE,Bronx,40.840702,-73.838545
BROOKLYN TECH HS - K,SCIENCE LAB UPGRADE,CIP,K430,29 FT GREENE PLACE,Brooklyn,40.688834,-73.976905
WASHINGTON IRVING HS - MANHATT,EXT. MASONRY/ROOF/PARAPET/ FLOOD ELIM./WINDOWS/GYM,CIP,M460,40 IRVING PLACE,Manhattan,40.735494,-73.987659
P.S. 41 - STATEN ISLAND,MAIN ELECTRICAL SERVICE/LOW VOLTAGE ELEC SYSTEM,CIP,R041,216 CLAWSON STREET,Staten Island,40.574044,-74.109282
Q811 SPED - QUEENS,PLANYC BOILER CONVERSION/PLANYC CLIMATE CONTROL,CIP,Q811,61-25 MARATHON PKWY,Queens,40.756778,-73.729487
I.S. 243 - BRONX,ROOFS/PARAPETS/EXT MASONRY/WINDOWS,CIP,X435,500 EAST FORDHAM ROAD,Bronx,40.860043,-73.888267
P.S. 191 - QUEENS,FLOOD ELIMINATION/ROOFS/PARAPETS/EXTERIOR MASONRY,CIP,Q191,85-15 258 STREET,Queens,40.734318,-73.709137
P.S. 199 - BRONX,FLOOD ELIMINATION,CIP,X104,1449 SHAKESPEARE AVENUE,Bronx,40.842943,-73.920563
P.S. 55 - BRONX,MASONRY/WINDOWS/ROOFS/PARAPETS,CIP,X055,450 ST PAULS PLACE,Bronx,40.836404,-73.90501400000001
J.H.S. 72 - QUEENS,ELECTRICAL WORK FOR A/C INITIATIVE,CIP,Q072,133-25 GUY R BREWER BOULEVARD,Queens,40.673769,-73.775951
P.S. 109 - BROOKLYN,DEFECTIVE GYMNASIUM WALLS/ROOFS/PARAPETS,CIP,K395,1001 EAST 45 STREET,Brooklyn,40.636455,-73.933582
P.S. 33 - QUEENS,ROOF REPAIR/PARAPETS/EXTERIOR MASONRY,CIP,Q033,91-37 222 STREET,Queens,40.727134,-73.735077
M.S./H.S. 141 - BRONX,ROOFS/PARAPETS/EXTERIOR MASONRY,CIP,X141,660 WEST 237 STREET,Bronx,40.888338,-73.91348599999999
SUSAN E. WAGNER HS - STATEN IS,IPDVS CAMERA INSTALLATION,CIP,R460,1200 MANOR ROAD,Staten Island,40.596803,-74.124227
P.S. 132 - MANHATTAN,REMOVE OIL TANK - FUEL CONVERSION,CIP,M233,601 WEST 183 STREET,Manhattan,40.850592,-73.93304300000001
P.S. 71 - QUEENS,PARAPETS/EXTERIOR MASONRY/ROOFS,CIP,Q071,62-85 FOREST AVENUE,Queens,40.711203000000005,-73.905286
P.S. 47 - BRONX,FY17 RESO A AUDITORIUM UPGRADE,CIP,X047,1794 EAST 172 STREET,Bronx,40.832902,-73.866848
J.H.S. 172 - QUEENS,FY18 RESO A LOCKER ROOM UPGRADE,CIP,Q172,81-14 257 STREET,Queens,40.741944,-73.712965
I.S. 340 - BROOKLYN,UPE- PLAYGROUND,CIP,K874,227 STERLING PLACE,Brooklyn,40.676094,-73.97038
PROGRESS HS - K,ROOFS/WINDOWS/EXTERIOR MASONRY/PARAPETS,CIP,K450,850 GRAND STREET,Brooklyn,40.712184,-73.939722
P.S. 241 - MANHATTAN,PLANYC BOILER CONVERSION/CIMATE CONTROL,CIP,M113,240 WEST 113 STREET,Manhattan,40.801689,-73.95490799999999
P.S. 37 - QUEENS,FLOOD/FA/EXT MASONRY/ELEVATOR/PARAPETS/FLOOD,CIP,Q037,179-37 137 AVENUE,Queens,40.67588,-73.758505
ACAD. FOR ENVIRON. LDRSHP - K,FY 14 RESO A SCIENCE LAB,CIP,K480,400 IRVING AVENUE,Brooklyn,40.697185,-73.91117
P.S. 42 - QUEENS,ELECTRICAL WORK FOR A/C INITIATIVE,CIP,Q042,488 BEACH 66 STREET,Queens,40.594538,-73.795304
P.S. /I.S 295 - QUEENS,FY19 RESO A AUDITORIUM UPGRADE,CIP,Q263,222-14 JAMAICA AVENUE,Queens,40.720619,-73.73199699999999
I.S. 136 - BROOKLYN,FY17 RESO A AUDITORIUM UPGRADE,CIP,K136,4004 4TH AVENUE,Brooklyn,40.651977,-74.006862
P.S./I.S. 217 - MANHATTAN,FY14 RESO A GREEN ROOF,CIP,M271,645 MAIN STREET,Manhattan,40.763894,-73.947916
I.S. 22 - BRONX,FY18 RESO A PLAYGROUNDS,CIP,X022,270 EAST 167 STREET,Bronx,40.833131,-73.914027
P.S. 199 - QUEENS,EXTERIOR MASONRY/PARAPETS,CIP,Q199,39-20 48 AVENUE,Queens,40.740088,-73.926214
NYC SCHOOL CONSTRUCTION AUTHOR,CAPITAL PLANNING NEW OFFICE BUILDOUT,CIP,Q998,30-30 THOMSON AVENUE,Queens,40.745042,-73.93619100000001
J.H.S. 52 - MANHATTAN,FLOOD ELIMINATION/EXTERIOR MASONRY,CIP,M052,650 ACADEMY STREET,Manhattan,40.866053,-73.924835
P.S. 188 - BROOKLYN,SANDY:INT/HEATING/ELEC/FLOOD/CLIMATE/VENT/FA,CIP,K188,3314 NEPTUNE AVENUE,Brooklyn,40.577217,-74.000194
P.S. 253 - BROOKLYN,EXTERIOR MASONRY/FLOOD ELIMINATION/PARAPETS/ROOFS,CIP,K253,601 OCEANVIEW AVENUE,Brooklyn,40.579607,-73.962071
I.S. 35 - BROOKLYN,FULL PROGRAM ACCESSIBILITY,CIP,K035,272 MACDONOUGH STREET,Brooklyn,40.681896,-73.935963
A-TECH HIGH SCHOOL - K,FLOOD ELIMINATION/ROOFS/PARAPETS/ WINDOWS/EXTERIOR MASONRY,CIP,K610,50 BEDFORD AVENUE,Brooklyn,40.721981,-73.953281
PATHWAYS IN TECHNOLOGY EARLY C,EXTERIOR MASONRY/ROOFS/PARAPETS/WINDOWS/FLOOD ELIMINATION,CIP,K625,150 ALBANY AVENUE,Brooklyn,40.675612,-73.938843
P.S. 35 - STATEN ISLAND,FY14 RESO A ATHLETIC FIELDS,CIP,R035,60 FOOTE AVENUE,Staten Island,40.613721000000005,-74.099626
WILLIAM MAXWELL VOC HS - K,PARAPETS/WINDOWS/EXTERIOR MASONRY/ROOFS,CIP,K660,145 PENNSYLVANIA AVENUE,Brooklyn,40.674135,-73.89643000000001
P.S. 5 - STATEN ISLAND,FLOOD ELIMINATION,CIP,R005,348 DEISIUS STREET,Staten Island,40.530169,-74.187635
P.S. 229 - BROOKLYN,FLOOD ELIMINATION/ROOFS/PARAPETS/EXTERIOR MASONRY/PAVED AREA- BLACKTOP,CIP,K229,1400 BENSON AVENUE,Brooklyn,40.610963,-74.013376
THE RIVERSIDE SCHOOL - MANHATTAN,New,CAP,M342,300 WEST 61ST STREET,Manhattan,40.772883,-73.989609
WASHINGTON IRVING HS - MANHATT,EXT. MASONRY/ROOF/PARAPET/ FLOOD ELIM./WINDOWS/GYM,CIP,M460,40 IRVING PLACE,Manhattan,40.735494,-73.987659
K396 SPED - BROOKLYN,FY15 RESO A IPDVS CAMERA INSTALLATION,CIP,K396,110 CHESTER STREET,Brooklyn,40.668856,-73.91149899999999
J.H.S. 72 - QUEENS,FY13 RESO A PLAYGROUND REDEVELOPMENT,CIP,Q072,133-25 GUY R BREWER BOULEVARD,Queens,40.673769,-73.775951
I.S. 34 - STATEN ISLAND,FULL PROGRAM ACCESSIBILITY/FIRE ALARM SYSTEM,CIP,R034,528 ACADEMY AVE,Staten Island,40.508284,-74.24342800000001
P.S. 284 - BROOKLYN,LOW VOLTAGE ELECTRICAL SYSTEM/WATER PENETRATION,CIP,K284,213 OSBORN STREET,Brooklyn,40.667377,-73.908214
P.S. 97 - BRONX,Addition,CAP,X097,1375 MACE AVENUE,Bronx,40.862839,-73.84679100000001
PARK WEST H. S. (ECF),C OF O/C OF O VENT/WATER PLANT/BOILER/ENERGY MGMT,CIP,M535,525 WEST 50 STREET,Manhattan,40.765184000000005,-73.992953
WASHINGTON IRVING HS - MANHATT,EXTERIOR MASONRY/ROOFS/PARAPETS/FLOOD ELIMINATION/WINDOWS/GYM FLOOR,CIP,M460,40 IRVING PLACE,Manhattan,40.735494,-73.987659
I.S. 45 - BRONX,ELECTRICAL WORK FOR A/C INITIATIVE,CIP,X045,2502 LORILLARD PLACE,Bronx,40.858692,-73.887214
P.S. 215 - QUEENS,SOLAR PANEL,CIP,Q215,535 BRIAR PLACE,Queens,40.5993,-73.758206
P.S. 16 - STATEN ISLAND,FY18 RESO A GYMNASIUM UPGRADE,CIP,R016,80 MONROE AVENUE,Staten Island,40.6397,-74.079141
UNIVERSITY HEIGHTS HS - BRONX,ATHLETIC FIELDS,CIP,X471,701 ST ANNS AVENUE,Bronx,40.81825,-73.91103000000001
K753 SPED - BROOKLYN,LOW VOLTAGE ELECTRICAL SYSTEM/ANSUL SYSTEM,CIP,K085,510 CLERMONT AVENUE,Brooklyn,40.682533,-73.968769
X186 SPED - BRONX,PLANYC BOILER CONVERSION/PLANYC CLIMATE CONTROL/FLOOD ELIMINATION,CIP,X136,750 JENNINGS STREET,Bronx,40.83182,-73.898075
J.H.S. 157 - QUEENS,FY16 RESO A ROOM CONVERSIONS / PART,CIP,Q157,63-55 102ND STREET,Queens,40.732289,-73.853825
P.S. 193 - BROOKLYN,LSP PVI DOMESTIC WATER HEATER,CIP,K193,2515 AVENUE L,Brooklyn,40.621507,-73.950473
P.S. 17 - BROOKLYN,BUILDING FAN REPLACEMENT/ELECTRICAL UPGRADE,CIP,K017,208 NORTH 5 STREET,Brooklyn,40.715351,-73.956716
P.S. 21 - BRONX,DETERIORATED RETAINING WALLS,CIP,X021,715 EAST 225 STREET,Bronx,40.887582,-73.85973299999999
P.S. 44 - BRONX,EXTERIOR MASONRY/PARAPETS/ROOFS,CIP,X044,1825 PROSPECT AVENUE,Bronx,40.842084,-73.891116
P.S. 106 - QUEENS,DEMOLITION & PAVED AREA/TCU REMOVAL PLAYGROUND RED,CIP,Q806,180 BEACH 35 STREET,Queens,40.593779,-73.767199
PROGRESS HS - K,ROOFS/WINDOWS/EXTERIOR MASONRY/PARAPETS,CIP,K450,850 GRAND STREET,Brooklyn,40.712184,-73.939722
P.S. 155 - QUEENS,TCU REMOVAL - PLAYGROUND REDEVELOPMENT,CIP,Q155,130-02 115 AVENUE,Queens,40.67956,-73.8106
FLUSHING HS - QUEENS,ELECTRICAL WORK FOR A/C INITIATIVE,CIP,Q460,35-01 UNION STREET,Queens,40.765166,-73.82789
P.S. 11 - MANHATTAN,EXTERIOR MASONRY/PARAPETS,CIP,M011,320 WEST 21 STREET,Manhattan,40.744349,-74.000253
I.S. 232 - BRONX,LSP ELECTRICAL PANEL REPLACEMENT,CIP,X082,1700 MACOMBS ROAD,Bronx,40.849532,-73.916077
P.S. 33 - BRONX,PLANYC BOILER CNVSN/PLANYC CLIMATE CTRL,CIP,X033,2424 JEROME AVENUE,Bronx,40.86185,-73.90176
HERBERT H. LEHMAN HS - X,SANDY ELEC/HEAT/FLOOD/CLIM/SINK HOLES/PLUMBING,CIP,X405,3000 EAST TREMONT AVENUE,Bronx,40.840702,-73.838545
I.S./J.H.S. 63 - STATEN ISLAND,FY17 RESO A AUDITORIUM UPGRADE,CIP,R043,100 ESSEX DRIVE,Staten Island,40.581315,-74.158589
P.S. 235 - BROOKLYN,STRUCTURAL DEFECTS,CIP,K242,10001 FLATLANDS AVENUE,Brooklyn,40.645243,-73.898241
J.H.S. 67 - QUEENS,FLOOD ELIMINATION,CIP,Q067,51-60 MARATHON PKWY,Queens,40.762708,-73.733694
P.S. 53 - STATEN ISLAND,FY18 RESO A GYMNASIUM UPGRADE,CIP,R053,330 DURANT AVENUE,Staten Island,40.55258,-74.13705999999999
I.S. 424 - BRONX,DEFECTIVE RETAINING WALL,CIP,X074,730 BRYANT AVENUE,Bronx,40.815477,-73.88577
P.S. 55 - BRONX,MASONRY/WINDOWS/ROOFS/PARAPETS,CIP,X055,450 ST PAULS PLACE,Bronx,40.836404,-73.90501400000001
BRONX CNTR FOR SCIENCE & MATH,PLANYC BOILER CONVERSION/PLANYC CLIMATE CONTROL,CIP,X002,1365 FULTON AVENUE,Bronx,40.833696,-73.902477
NEW MILLENNIUM BRONX ACADEMY O,ELECTRICAL WORK FOR A/C INITIATIVE/LSP LL26 CODE COMPLIANCE/EXIT SIGN REPLACEMENT,CIP,X145,1000 TELLER AVENUE,Bronx,40.827941,-73.914374
FIORELLO LAGUARDIA HS - MANHAT,PARTIAL ACCESSIBILITY,CIP,M485,100 AMSTERDAM AVENUE,Manhattan,40.773629,-73.98527299999999
P.S. 3 - STATEN ISLAND,LSP-REPLACE HOT WATER HEATER,CIP,R003,80 SOUTH GOFF AVENUE,Staten Island,40.520699,-74.211264
BKLYN STUDIO SEC. SCL - BROOKL,EXT MASONRY/ROOFS/WINDOWS,CIP,K721,8310 21ST AVE,Brooklyn,40.604879,-73.994404
P.S. 321 - BROOKLYN,FULL PROGRAM ACCESSIBILITY/FIRE ALARM,CIP,K321,180 7TH AVENUE,Brooklyn,40.67146,-73.977783
WEST END SECONDARY SCHOOL - MA,Lease,CAP,M837,227-243 WEST 61 STREET,Manhattan,40.772007,-73.98747900000001
GROVER CLEVELAND HS - QUEENS,FY18 RESO A ELECTRICAL SYSTEM,CIP,Q485,21-27 HIMROD STREET,Queens,40.711033,-73.908814
THE QUEENS SCHOOL OF INQUIRY-Q,ROOFS/EXTERIOR MASONRY/PARAPETS,CIP,Q168,158-40 76 ROAD,Queens,40.724458,-73.810216
P.S. 298 - BROOKLYN,ELECTRICAL WORK FOR A/C INITIATIVE/LL26 CODE COMPLIANCE/EXIT SIGN REPLACEMENT,CIP,K298,85 WATKINS STREET,Brooklyn,40.670986,-73.908194
BROOKLYN GARDENS ELEMENTARY SC,ELECTRICAL WORK FOR A/C INITIATIVE/LL26 CODE COMPLIANCE/EXIT SIGN REPLACEMENT,CIP,K174,574 DUMONT AVENUE,Brooklyn,40.665798,-73.897723
UNIVERSITY HEIGHTS HS - BRONX,ATHLETIC FIELDS,CIP,X471,701 ST ANNS AVENUE,Bronx,40.81825,-73.91103000000001
P.S. 182 - BRONX,PLUMBING/REINFORCING SUPPORT ELEMENTS/PAVED AREAS- CONCRETE,CIP,X182,601 STICKBALL BLVD,Bronx,40.818228000000005,-73.856302
P.S. 182 - BRONX,ROOFS/EXTERIOR MASONRY,CIP,X182,601 STICKBALL BLVD,Bronx,40.818228000000005,-73.856302
P.S. 171 - MANHATTAN,FLOOD ELIMINATION/WINDOWS/EXTERIOR MASONRY/HEATING PLANT UPGRADE,CIP,M171,19 EAST 103 STREET,Manhattan,40.792122,-73.951961
P.S. 143 - QUEENS,Addition,CAP,Q143,34-74 113 STREET,Queens,40.755451,-73.855192
I.S. 72 - STATEN ISLAND,PLANYC BOILER CONVERSION/PLANYC CLIMATE CONTROL,CIP,R072,33 FERNDALE AVENUE,Staten Island,40.593005,-74.158988
P.S. 123 - QUEENS,TCU REMOVAL & PLAYGROUND REDEVELOPMENT,CIP,Q123,145-01 119 AVENUE,Queens,40.678296,-73.79562
COAL. SCHOOL FOR SOCIAL CHANGE,FLOOD ELIMINATION/EXTERIOR MASONRY,CIP,M045,2351 1ST AVENUE,Manhattan,40.798884,-73.933319
PRE-K CENTER @ 2 LAFAYETTE STREET - MANHATTAN,Interior,CAP,M453,2 LAFAYETTE STREET,Manhattan,40.713723,-74.003586
TOWNSEND HARRIS HS - Q,FY18 RESO A IPDVS CAMERA INSTALLATION,CIP,Q515,149-11 MELBOURNE AVENUE,Queens,40.734390000000005,-73.821392
PRE-K CENTER @ JACKSON AVENUE - QUEENS,Lease,CAP,Q972,27-35 JACKSON AVENUE,Queens,40.747962,-73.940046
ALFRED E. SMITH HS - X,FY16 RESO A AUDITORIUM UPGRADE,CIP,X600,333 EAST 151 STREET,Bronx,40.818232,-73.91986700000001
P.S. 26 - BROOKLYN,ELECTRICAL WORK FOR A/C INITIATIVE,CIP,K026,1014 LAFAYETTE AVENUE,Brooklyn,40.692126,-73.931731
P.S. 307 - BROOKLYN,RENOVATION OF CLASSROOM 332,CIP,K307,209 YORK STREET,Brooklyn,40.701343,-73.982314
I.S. 266 - BROOKLYN,MASONRY/PIPING/DOOR/FLOOD/WIN/PARAPETS/ROOF/HVAC,CIP,K902,62 PARK PLACE,Brooklyn,40.678983,-73.976497
ARCHER ELEMENTARY SCHOOL - BRO,FLOOD ELIMINATION/ROOFS,CIP,X102,1827 ARCHER STREET,Bronx,40.837631,-73.866036
I.S. 228 - BROOKLYN,FY18 RESO A GYMNASIUM UPGRADE,CIP,K228,228 AVENUE S,Brooklyn,40.6013,-73.97695300000001
P.S. 50 - MANHATTAN,EXTERIOR MASONRY/ROOFS/PARAPETS/SITE WALLS,CIP,M050,433 EAST 100 STREET,Manhattan,40.785258,-73.941526
SUCCESS ACADEMY CHARTER SCHOOL,PLANYC BOILER CONVERSION/PLANYC CLIMATE CONTROL,CIP,K033,70 TOMPKINS AVENUE,Brooklyn,40.697152,-73.946641
NEW DESIGN HS - MANHATTAN,IPDVS CAMERA INSTALLATION,CIP,M445,350 GRAND STREET,Manhattan,40.717349,-73.98959599999999
X012 SPED - BRONX,STRUCTURAL CRACKS/WINDOWS/PARAPETS,CIP,X012,2555 TRATMAN AVENUE,Bronx,40.840145,-73.84441899999999
P.S. 80 - STATEN ISLAND,GAS SERVICE,CIP,R880,715 OCEAN TERRACE,Staten Island,40.608517,-74.102078
P.S. 342 (RIVERSIDE CENTER) - MANHATTAN,New,CAP,M342,21 WEST END AVENUE,Manhattan,40.772463,-73.98984399999999
THE FORWARD SCHOOL - BRONX,LOW VOLTAGE ELECTRICAL SYSTEM,CIP,X113,3710 BARNES AVENUE,Bronx,40.880873,-73.860904
I.S. 259 - BROOKLYN,CRACKED EXTERIOR MASONRY/ROOFS/PARAPETS,CIP,K259,7305 FT HAMILTON PKWY,Brooklyn,40.62668,-74.01512
I.S. 319 - QUEENS,SCIENCE LAB UPGRADE,CIP,Q053,10-45 NAMEOKE STREET,Queens,40.603622,-73.74909699999999
P.S. 199 - QUEENS,PLAYGROUND REDEVELOPMENT,CIP,Q199,39-20 48 AVENUE,Queens,40.740088,-73.926214
NYC SCHOOL CONSTRUCTION AUTHOR,3RD FLOOR PANTRY AND OFFICE BUILD OUT,CIP,Q998,30-30 THOMSON AVENUE,Queens,40.745042,-73.93619100000001
HS FOR ARTS & TECHNOLOGY - M,IP DIGITAL VIDEO SURVEILLANCE SYSTEM,CIP,M490,122 AMSTERDAM AVENUE,Manhattan,40.774351,-73.984753
P.S. 196 - QUEENS,Demo,CAP,Q196,71-25 113 STREET,Queens,40.722782,-73.837946
P.S. 175 HENRY H GARNET - M,FY18 RESO A AUDITORIUM  UPGRADE,CIP,M175,175 WEST 134 STREET,Manhattan,40.814422,-73.943664
P.S. 32 - BROOKLYN,Addition,CAP,K032,317 HOYT STREET,Brooklyn,40.680445,-73.991949
RALPH R. MCKEE CAREER AND TECH,LSP VENTILATION/DUST COLLECTION SYSTEM,CIP,R600,290 ST MARKS PLACE,Staten Island,40.642793,-74.07873000000001
THE URBAN ASSEMBLY SCHOOL FOR,HVAC (BMS) WORK/BACKFLOW PREVENTER & WATER METER,CIP,M470,145 WEST 84 STREET,Manhattan,40.785803,-73.974614
P.S. 53 - BRONX,EXTERIOR MASONRY/PARAPETS,CIP,X053,360 EAST 168 STREET,Bronx,40.832866,-73.91141800000001
P.S. 43 - BRONX,WATER PENE/BOILER/SUPPORT/MASONRY/CLIM CTRL/PIPING,CIP,X043,165 BROWN PLACE,Bronx,40.806351,-73.921196
FORDHAM HS FOR THE ARTS - BRON,FY16 RESO A LIBRARY UPGRADE,CIP,X435,500 EAST FORDHAM ROAD,Bronx,40.860043,-73.888267
P.S. 108 - QUEENS,FLOOD ELIMINATION/ROOFS/EXTERIOR MASONRY/WINDOWS/PARAPETS,CIP,Q108,108-10 109 AVENUE,Queens,40.679584000000006,-73.831547
P.S. 75 - MANHATTAN,PLAYNYC BOILER CONVERSION/CLIMATE CONTROL,CIP,M075,735 WEST END AVENUE,Manhattan,40.795157,-73.973292
P.S. 217 - BROOKLYN,EXTERIOR MASONRY/FLOOD ELIMINATION/WINDOWS/PARAPETS,CIP,K217,1100 NEWKIRK AVENUE,Brooklyn,40.63398,-73.96655799999999
P.S. 181 - QUEENS,FLOORS & WALLS/ROOFS/PARAPETS/EXT MASONRY/FLOOD,CIP,Q181,148-15 230 STREET,Queens,40.656126,-73.75320699999999
P.S. 242 - QUEENS,IP DIGITAL VIDEO SURVEILLANCE SYSTEM,CIP,Q242,29-66 137TH STREET,Queens,40.771265,-73.831525
JOHN BOWNE HS - QUEENS,IP DIGITAL VIDEO SURVEILLANCE SYSTEM,CIP,Q425,63-25 MAIN STREET,Queens,40.738139,-73.82494399999999
P.S. 257 - BROOKLYN,FY18 RESO A AUDITORIUM UPGRADE,CIP,K257,60 COOK STREET,Brooklyn,40.702392,-73.941801
P.S. / I.S. 498 - BRONX,FY18 RESO A AUDITORIUM UPGRADE,CIP,X498,1640 BRONXDALE AVE,Bronx,40.84473,-73.858207
P.S. 219 - BROOKLYN,BOILER REPLACEMENT,CIP,K860,9517 KINGS HIGHWAY,Brooklyn,40.65911,-73.92036800000001
P.S. 165 - MANHATTAN,EXT MASONRY/ROOFS,CIP,M165,234 WEST 109 STREET,Manhattan,40.802917,-73.965613
HEADQTRS 65 CNTRL ADMIN. - K,FACADE/WINDOWS,CIP,K801,65 COURT STREET,Brooklyn,40.692012,-73.991227
P.S. 75 - MANHATTAN,TEMPORARY BOILER,CIP,M075,735 WEST END AVENUE,Manhattan,40.795157,-73.973292
P.S. 193 - QUEENS,FY17 RESO A AUDITORIUM UPGRADE,CIP,Q193,152-20 11 AVENUE,Queens,40.792483,-73.809741
COLLEGIATE INST FOR MATH & SCI,FY19 RESO A AUDITORIUM UPGRADE,CIP,X415,925 ASTOR AVENUE,Bronx,40.859665,-73.861006
P.S. 328 - BROOKLYN,ROOFS/PARAPETS/EXTERIOR MASONRY,CIP,K328,330 ALABAMA AVENUE,Brooklyn,40.668167,-73.897835
I.S. 109 - QUEENS,FY19 RESO A ELECTRICAL SYSTEMS,CIP,Q109,213-10 92 AVENUE,Queens,40.720713,-73.747001
P.S. 121 - QUEENS,FY17 RESO A AUDITORIUM  UPGRADE,CIP,Q121,126-10 109 AVENUE,Queens,40.68405,-73.815834
JOHN DEWEY HS - BROOKLYN,FY17 RESO A CULINARY ARTS KITCHEN UPGRADES,CIP,K540,50 AVENUE X,Brooklyn,40.589268,-73.981738
LIBERTY AVENUE MIDDLE SCHOOL,TCU REMOVAL/PLAYGROUND REDEVELOPMENT,CIP,K302,350 LINWOOD STREET,Brooklyn,40.677104,-73.883433
BRONX INTERNATIONAL - BRONX,TOWER TERRA COTTA REPLACEMENT/FLOOD ELIMINATION/ROOFS/WINDOWS/INTERIOR SPACES,CIP,X400,1110 BOSTON RD,Bronx,40.827642,-73.904473
P.S. 15 - BROOKLYN,SANDY - INSTALL TEMPORARY BOILERS,CIP,K015,71 SULLIVAN STREET,Brooklyn,40.677343,-74.011558
P.S. 45 - BROOKLYN,LSP VACUUM PUMPS,CIP,K045,84 SCHAEFER STREET,Brooklyn,40.686746,-73.91069300000001
BARD COLLEGE HS - MANHATTAN,NON-SANDY:MASONRY/ROOF/PARAPET/SANDY FLOOD/MSNRY,CIP,M097,525 EAST HOUSTON STREET,Manhattan,40.719029,-73.975891
I.S. 35 - BROOKLYN,FULL PROGRAM ACCESSIBILITY,CIP,K035,272 MACDONOUGH STREET,Brooklyn,40.681896,-73.935963
P.S. 277 - BROOKLYN,FY18 RESO A SCIENCE LAB UPGRADES,CIP,K277,2529 GERRITSEN AVENUE,Brooklyn,40.596145,-73.928793
P.S. 111 - QUEENS,KITCHEN UPGRADE,CIP,Q111,37-15 13 STREET,Queens,40.758831,-73.93938
I.S. 240 - BROOKLYN,FLOOD ELIMINATION/ROOFS/WINDOWS/EXTERIOR MASONRY,CIP,K240,2500 NOSTRAND AVENUE,Brooklyn,40.623561,-73.946279
P.S. 95 - BROOKLYN,FY17 RESO A SUPPLEMENTAL COOLING,CIP,K095,345 VAN SICKLEN STREET,Brooklyn,40.595698,-73.97518000000001
P.S. 182 - BRONX,ROOFS/EXTERIOR MASONRY,CIP,X182,601 STICKBALL BLVD,Bronx,40.818228000000005,-73.856302
P.S. 213 - BROOKLYN,PLANYC CLIMATE CONTROL/PLANYC BOILER CONVERSION,CIP,K213,580 HEGEMAN AVENUE,Brooklyn,40.66051,-73.890288
I.S. 151 - BRONX,STH SBHC,CIP,X151,250 EAST 156 STREET,Bronx,40.82316,-73.921631
MIDWOOD HS - BROOKLYN,IPDVS CAMERA INSTALLATION,CIP,K405,2839 BEDFORD AVENUE,Brooklyn,40.633237,-73.952929
I.S. 227 - BROOKLYN,WATER PENETRATION/EXTERIOR MASONRY/PARAPETS/ROOFS,CIP,K227,6500 16 AVENUE,Brooklyn,40.62191,-73.99502199999999
P.S. 21 - QUEENS,CEILING REPAIR,CIP,Q021,147-36 26TH AVENUE,Queens,40.774512,-73.819284
P.S. 169 - QUEENS,Demo,CAP,Q169,18-25 212 STREET,Queens,40.782298,-73.779099
NEWTOWN HS - QUEENS,FY18 RESO A LOW-VOLTAGE ELECTRICAL SYSTEMS,CIP,Q455,48-01 90 STREET,Queens,40.741122,-73.874721
M.S./H.S. 342 - BRONX,BOILER FOR SWIMMING,CIP,X430,2780 RESERVOIR AVENUE,Bronx,40.870293,-73.898309
WILLIAM C. BRYANT HS - QUEENS,ELECTRICAL WORK FOR A/C INITIATIVE/LL26 CODE COMPLIANCE/EXIT SIGN REPLACEMENT,CIP,Q445,48-10 31 AVENUE,Queens,40.75823,-73.910514
P.S. 188 - BROOKLYN,SANDY:INT/HEATING/ELEC/FLOOD/CLIMATE/VENT/FA,CIP,K188,3314 NEPTUNE AVENUE,Brooklyn,40.577217,-74.000194
FRANCIS LEWIS HS - QUEENS,WATER PENETRATION,CIP,Q430,58-20 UTOPIA PKWY,Queens,40.740724,-73.79283000000001
P.S. 45 - BROOKLYN,LSP VACUUM PUMPS,CIP,K045,84 SCHAEFER STREET,Brooklyn,40.686746,-73.91069300000001
P.S. 14 - BRONX,Addition,CAP,X014,3047 BRUCKNER BLVD,Bronx,40.83587,-73.825774
BERGTRAUM HS - MANHATTAN,IPDVS CAMERA INSTALLATION,CIP,M520,411 PEARL STREET,Manhattan,40.711442,-74.000851
P.S. 249 - BROOKLYN,LOW VOLT/PLANYC CLIMATE CTRL/PLANYC BOILER CONV,CIP,K249,18 MARLBOROUGH ROAD,Brooklyn,40.64971,-73.96604599999999
URBN ASSY SCHL CRIM JUSTICE -,SCIENCE LAB UPGRADE,CIP,K223,4200 16 AVENUE,Brooklyn,40.634875,-73.981528
CURTIS HS - STATEN ISLAND,BRIDGE & REPAIR WK/PARAPETS/WASTE SYS/WINDOWS/ROOF,CIP,R450,105 HAMILTON AVENUE,Staten Island,40.644735,-74.081222
I.S. 126 - QUEENS,IPDVS CAMERA INSTALLATION,CIP,Q126,31-51 21 STREET,Queens,40.766264,-73.930709
P.S. 206 - QUEENS,EARLY PACKAGE TO RENOVATE ECC PLAYGROUND,CIP,Q206,61-21 97TH PLACE,Queens,40.73425,-73.86154599999999
P.S. 128 - MANHATTAN,PLANYC BOILER CNVSN/PLANYC CLIMATE CTRL,CIP,M128,560 WEST 169 STREET,Manhattan,40.841359,-73.93859300000001
P.S. 232 - QUEENS,WATER INFILTRATION/PLANYC BOILER/PLANYC CLIMATE CONTROL/LOW-VOLTAGE ELECTRICAL SYSTEM/EXTERIOR MASONRY,CIP,Q232,153-23 83 STREET,Queens,40.665909,-73.85121600000001
P.S. 143 ANNEX - QUEENS,Lease,CAP,Q908,98-07 38TH AVENUE,Queens,40.750246,-73.867825
PRE-K CENTER @ 70-24 47TH AVENUE - QUEENS,Lease,CAP,Q321,70-24 47TH AVENUE,Queens,40.739014000000005,-73.893771
P.S. 125 - MANHATTAN,ROOFS/FLOOD ELIMINATION/EXTERIOR MASONRY/PARAPETS,CIP,M125,425 WEST 123 STREET,Manhattan,40.810431,-73.955809
I.S. 291 - BROOKLYN,RENEWAL SBHC,CIP,K291,231 PALMETTO STREET,Brooklyn,40.695362,-73.915142
I.S. 145 - QUEENS,PLANYC BOILER CNVRSN/PLANYC CLIMATE CTRL,CIP,Q145,33-34 80 STREET,Queens,40.754661,-73.887112
I.S. 339 - BRONX,FY14 RESO A SUPPLEMENTAL COOLING,CIP,X147,1600 WEBSTER AVENUE,Bronx,40.840878,-73.904754
P.S. 41 - QUEENS,FY17 RESO A ELECTRICAL WORK FOR A/C INITIATIVE/FIRE ALARM,CIP,Q041,214-43 35 AVENUE,Queens,40.769601,-73.770863
LIBERTY HS ACADEMY FOR NEWCOME,FY18 RESO A LIBRARY UPGRADES,CIP,M451,250 WEST 18 STREET,Manhattan,40.741657,-73.999307
P.S. 78 - BRONX,FLOOD ELIMINATION/EXTERIOR MASONRY/PARAPETS,CIP,X078,1400 NEEDHAM AVENUE,Bronx,40.878577,-73.851163
P.S. 307 - BROOKLYN,RENOVATION OF CLASSROOM 332,CIP,K307,209 YORK STREET,Brooklyn,40.701343,-73.982314
P.S. 1 - BROOKLYN,PUBLIC ADDRESS/CLOCK SYSTEM,CIP,K001,309 47 STREET,Brooklyn,40.649042,-74.012289
P.S. 3 - STATEN ISLAND,ELECTRICAL SERVICE UPGRADE,CIP,R826,6581 HYLAN BLVD,Staten Island,40.508809,-74.222403
P.S. 236 - BROOKLYN,FY17 RESO A AUDITORIUM UPGRADE,CIP,K236,6302 AVENUE U,Brooklyn,40.615998,-73.912989
