School Name,Project Description,Project type,Building ID,Building Address,City,Latitude,Longitude
P.S. 233 - BROOKLYN,MASONRY/CORRODED BEAMS/ROOFS/PARAPETS,CIP,K233,9301 AVENUE B,Brooklyn,40.651022,-73.91402
P.S. 236 - BROOKLYN,EXT MASONRY/ROOFS/PARAPETS/FLOOD/TCU/IRON FENCE,CIP,K236,6302 AVENUE U,Brooklyn,40.615998,-73.912989
P.S. 45 - QUEENS,FY15 RESO A AUDITORIUM UPGRADE,CIP,Q045,126-28 150 STREET,Queens,40.672727,-73.788164
P.S. 11 - MANHATTAN,EXTERIOR MASONRY/PARAPETS,CIP,M011,320 WEST 21 STREET,Manhattan,40.744349,-74.000253
P.S. 6 - BRONX,ELECTRICAL WORK FOR A/C INITIATIVE,CIP,X006,1000 EAST TREMONT AVENUE,Bronx,40.840755,-73.88170699999999
P.S. 45 - QUEENS,FY15 RESO A AUDITORIUM UPGRADE,CIP,Q045,126-28 150 STREET,Queens,40.672727,-73.788164
I.S. 394 - BROOKLYN,WATER PENETRATION,CIP,K210,188 ROCHESTER AVENUE,Brooklyn,40.672762,-73.927973
P.S. 173 - QUEENS,FY15 RESO A AUDITORIUM UPGRADE,CIP,Q173,174-10 67TH AVENUE,Queens,40.734572,-73.795484
P.S. 11 - STATEN ISLAND,TOILETS - STUDENTS,CIP,R011,50 JEFFERSON STREET,Staten Island,40.59057,-74.09772199999999
P.S. 121 - BROOKLYN,EXTERIOR MASONRY/PARAPETS/ROOFS,CIP,K121,5301 20TH AVENUE,Brooklyn,40.623273,-73.978822
P.S. @ 4302 4TH AVENUE - BROOKLYN,New,CAP,K557,4302 4TH AVENUE,Brooklyn,40.650305,-74.008602
I.S. 254 - BRONX,FACADE/ROOFS,CIP,X254,2452 WASHINGTON AVENUE,Bronx,40.858815,-73.890232
EAST ELMHURST COMMUNITY SCHOOL,FY19 RESO A ROOM CONVERSIONS/PARTITIONING,CIP,Q329,26-25 97TH STREET,Queens,40.761557,-73.87223900000001
P.S. 139 - QUEENS,LSP PLAYGROUND SAFETY SURFACING,CIP,Q139,93-06 63 DRIVE,Queens,40.72814,-73.863582
THE BROOKLYN SCHOOL FOR SOCIAL,IP DIGITAL VIDEO SURVEILLANCE SYSTEM,CIP,K480,400 IRVING AVENUE,Brooklyn,40.69697,-73.910791
K753 SPED - BROOKLYN,PLANYC BOILER CNVRSN/PLANYC CLIMATE CTRL,CIP,K085,510 CLERMONT AVENUE,Brooklyn,40.682533,-73.968769
P.S. 315 - BROOKLYN,FY18 RESO A AUDITORIUM  UPGRADE,CIP,K152,725 EAST 23 STREET,Brooklyn,40.632562,-73.954724
P.S. 145 - MANHATTAN,FY16 RESO A IP SURVEILLANCE CAMERA INSTALLATION,CIP,M145,150 WEST 105 STREET,Manhattan,40.799178000000005,-73.964842
UNIVERSITY HEIGHTS HS - BRONX,IP DIGITAL VIDEO SURVEILLANCE SYSTEM,CIP,X470,701 ST ANNS AVENUE,Bronx,40.81825,-73.91103000000001
P.S. 65 - QUEENS,FY16RESO A LIBRARY UPGRADE,CIP,Q884,103-22 99TH STREET,Queens,40.682590000000005,-73.841202
P.S. 279 - BROOKLYN,FY19 RESO A PLAYGROUND,CIP,K279,1070 EAST 104 STREET,Brooklyn,40.644203000000005,-73.892264
P.S. 255 - BROOKLYN,FY15 RESO A PLAYGROUND REDEVELOPMENT,CIP,K255,1866 EAST 17 STREET,Brooklyn,40.604349,-73.955528
P.S. 104 - QUEENS,FY18 RESO A PLAYGROUNDS,CIP,Q104,26-01 MOTT AVENUE,Queens,40.608467,-73.764548
P.S. 6 - BRONX,STANDALONE GYM ANNEX,CIP,X449,1000 EAST TREMONT AVENUE,Bronx,40.840755,-73.88170699999999
P.S. 223 - QUEENS,WINDOWS/EXT MASONRY/PARAPETS,CIP,Q223,125-20 SUTPHIN BLVD,Queens,40.674519,-73.789399
P.S. 139 - QUEENS,WATER PENETRATION/ROOFS,CIP,Q139,93-06 63 DRIVE,Queens,40.72814,-73.863582
P.S. 193 - BROOKLYN,LSP PVI DOMESTIC WATER HEATER,CIP,K193,2515 AVENUE L,Brooklyn,40.621507,-73.950473
LIFE SCIENCE SECONDARY SCHOOL,HAZARDOUS-FACADE REPAIR,CIP,M645,320 EAST 96 STREET,Manhattan,40.783625,-73.945637
P.S. 219 - QUEENS,ROOFS,CIP,Q219,144-39 GRAVETT ROAD,Queens,40.735275,-73.823778
P.S. 124 - QUEENS,PLANYC BOILER CONVERSION/CLIMATE CTRL,CIP,Q124,129-15 150 AVENUE,Queens,40.665058,-73.811701
I.S. 49 - STATEN ISLAND,IP DIGITAL VIDEO SURVEILLANCE SYSTEM,CIP,R049,101 WARREN STREET,Staten Island,40.620347,-74.081643
I.S. 61 - QUEENS,MASONRY/ROOFS/PARAPETS,CIP,Q061,98-50 50 AVENUE,Queens,40.742668,-73.86330699999999
P.S./I.S. @ 3269 ATLANTIC AVENUE - BROOKLYN,New,CAP,K667,3269 ATLANTIC AVENUE,Brooklyn,40.680655,-73.875152
P.S. 280 - BRONX,FY 17 RESO A AUDITORIUM UPGRADE,CIP,X080,149 EAST MOSHOLU PKWY N,Bronx,40.876299,-73.88153199999999
ALC - BROOKLYN CHOICES,EXT MASONRY/WINDOWS/PARAPETS/ROOFS,CIP,K799,271 MELROSE STREET,Brooklyn,40.702083,-73.929647
J.H.S. 190 - QUEENS,IP DIGITAL VIDEO SURVEILLANCE SYSTEM,CIP,Q190,68-17 AUSTIN STREET,Queens,40.722707,-73.851699
P.S. 14 - QUEENS,ELECTRICAL WORK FOR A/C INITIATIVE/LSP LL26 CODE COMPLIANCE/EXIT SIGN REPLACEMENT,CIP,Q322,89-11 43RD AVENUE,Queens,40.742724,-73.876522
P.S. 197 - BROOKLYN,EXT MASONRY/PARAPETS/ROOFS/WINDOWS/FLOOD/PIPING,CIP,K197,1599 EAST 22 STREET,Brooklyn,40.612623,-73.95190600000001
P.S. 153 - QUEENS,CRACKED LOOSE WINDOW SILLS/ROOFS/PARAPETS/MASONRY,CIP,Q153,60-02 60 LANE,Queens,40.716609000000005,-73.903669
I.S. 118 - BRONX,FY19 RESO A AUDITORIUM UPGRADE,CIP,X118,577 EAST 179 STREET,Bronx,40.848339,-73.89308
P.S. 46 - BROOKLYN,"LSP- VACUUM/PUMP CONDENSATE PUMPS, THERMOSTAT, CHEMICAL FEED SYSTEM",CIP,K046,100 CLERMONT AVENUE,Brooklyn,40.694633,-73.971165
I.S. 5 - QUEENS,PUBLIC ADDRESS SYSTEM/HVAC,CIP,Q005,50-40 JACOBUS STREET,Queens,40.737718,-73.887429
I.S. 5 - QUEENS,HVAC/PUBLIC ADDRESS SYSTEM,CIP,Q005,50-40 JACOBUS STREET,Queens,40.737718,-73.887429
P.S. 95 - BRONX,DEFECTIVE MASONRY/PARAPETS,CIP,X095,3961 HILLMAN AVENUE,Bronx,40.882898,-73.891256
EDWARD A. REYNOLDS WEST SIDE H,ROOFS/PARAPETS/EXTERIOR MASONRY,CIP,M506,140 WEST 102 STREET,Manhattan,40.797559,-73.966837
HERBERT H. LEHMAN HS - X,IP DIGITAL VIDEO SURVEILLANCE SYSTEM,CIP,X405,3000 EAST TREMONT AVENUE,Bronx,40.840702,-73.838545
P.S. 7 - BRONX,FY16 RESO A AIR CONDITIONING SPLIT SYSTEM,CIP,X007,3201 KINGSBRIDGE AVENUE,Bronx,40.881066,-73.905366
HARRY S. TRUMAN HS - X,EXT MASONRY/PARAPETS,CIP,X455,750 BAYCHESTER AVENUE,Bronx,40.874091,-73.833904
P.S. 15 - MANHATTAN,FY17 RESO A IPDVS CAMERA INSTALLATION,CIP,M015,333 EAST 4 STREET,Manhattan,40.721807,-73.979022
P.S. 21 - QUEENS,CEILING REPAIR,CIP,Q021,147-36 26TH AVENUE,Queens,40.774512,-73.819284
P.S. 111 - MANHATTAN,FACADE PANELS/ROOFS/PARAPETS,CIP,M111,440 WEST 53 STREET,Manhattan,40.765878,-73.988823
P.S. 2 - QUEENS,FY15 RESO A ACCESSIBILITY,CIP,Q002,75-10 21 AVENUE,Queens,40.770335,-73.894476
P.S. 199 - BRONX,5TH SBHC,CIP,X104,1449 SHAKESPEARE AVENUE,Bronx,40.842943,-73.920563
THE BROOKLYN SCHOOL FOR SOCIAL,SCHOOL BASED HEALTH CENTER,CIP,K480,400 IRVING AVENUE,Brooklyn,40.69697,-73.910791
P.S. 9 - BRONX,PLANYC BOILER CNVSN/PLANYC CLIMATE CTRL,CIP,X009,230 EAST 183 STREET,Bronx,40.857067,-73.89893599999999
P.S. 112 - QUEENS,ROOFS/PARAPETS/EXTERIOR MASONRY,CIP,Q112,25-05 37 AVENUE,Queens,40.756891,-73.934523
P.S. 303 - QUEENS,Addition,CAP,Q003,108-55 69TH AVENUE,Queens,40.725098,-73.845091
P.S. 80 - QUEENS,FY18 RESO A ROOM CONVERSIONS/PARTITIONING,CIP,Q080,171-05 137 AVENUE,Queens,40.67282,-73.76925200000001
P.S. 151 - BROOKLYN,LSP PLAYGROUND,CIP,K151,763 KNICKERBOCKER AVENUE,Brooklyn,40.693293,-73.90864
EAST BRONX ACADEMY FOR THE FUT,IPDVS CAMERA INSTALLATION,CIP,X973,1716 SOUTHERN BLVD,Bronx,40.836356,-73.888361
P.S. 172 - BROOKLYN,STANDALONE GYM ANNEX,CIP,K477,825 4TH AVENUE,Brooklyn,40.657914,-74.000652
WILLIAM E. GRADY VOC HS - K,FY16 RESO A CULINARY ARTS ROOM,CIP,K620,25 BRIGHTON 4TH ROAD,Brooklyn,40.582585,-73.963477
MIDWOOD HS - BROOKLYN,CRACKED CONCRETE STRUCTURE/FIELD HOUSE,CIP,K406,1124 EAST 17 STREET,Brooklyn,40.622641,-73.958988
J.H.S. 237 - QUEENS,FY16 RESO A SUPPLEMENTAL COOLING,CIP,Q237,46-21 COLDEN STREET,Queens,40.749545,-73.822073
H.S. 745 - BROOKLYN,IPDVS CAMERA INSTALLATION,CIP,K470,600 KINGSTON AVENUE,Brooklyn,40.658893,-73.942458
P.S. 71 - QUEENS,PARAPETS/EXTERIOR MASONRY/ROOFS,CIP,Q071,62-85 FOREST AVENUE,Queens,40.711203000000005,-73.905286
P.S. 122 - QUEENS,FY16 RESO A SOLAR PANELS,CIP,Q122,21-21 DITMARS BLVD,Queens,40.780347,-73.916655
P.S. 205 - QUEENS,PLANYC BOILER CONVERSION/PLANYC CLIMATE CONTROL/FLOOD ELIMINATION/EXTERIOR MASONRY/ROOFS/PARAPETS,CIP,Q205,75-25 BELL BLVD,Queens,40.737678,-73.756791
P.S. 32 - BRONX,FY17 RESO A IP SURVEILLANCE CAMERA,CIP,X032,690 EAST 183 STREET,Bronx,40.852103,-73.885935
P.S. 1 - STATEN ISLAND,EXTERIOR MASONRY/PARAPETS/ROOFS/WINDOWS,CIP,R001,58 SUMMIT STREET,Staten Island,40.509037,-74.244118
QUEENS ACADEMY HIGH SCHOOL - Q,TOILETS-STUDENT,CIP,Q023,138-11 35 AVENUE,Queens,40.765162,-73.8288
P.S. 32 - BRONX,EXTERIOR MASONRY/WINDOWS/PARAPETS,CIP,X032,690 EAST 183 STREET,Bronx,40.852103,-73.885935
P.S. 128 - QUEENS,Addition,CAP,Q247,69-10 65TH DRIVE,Queens,40.715344,-73.886215
Q177 SPED - QUEENS,PARTIAL ACCESSIBILITY/FLOOD ELIMINATION/ROOFS/PARAPETS/EXTERIOR MASONRY/WINDOWS,CIP,Q177,56-37 188 STREET,Queens,40.74391,-73.788133
I.S. 104 - MANHATTAN,FY17 RESO A SUPPLEMENTAL COOLING,CIP,M104,330 EAST 21 STREET,Manhattan,40.736094,-73.980663
P.S. 148 - QUEENS,ROOFS/EXTERIOR MASONRY,CIP,Q148,89-02 32 AVENUE,Queens,40.758377,-73.87908900000001
I.S. 243 - BRONX,ROOFS/PARAPETS/EXT MASONRY/WINDOWS,CIP,X435,500 EAST FORDHAM ROAD,Bronx,40.860043,-73.888267
I.S. 529 - BRONX,ELECTRICAL WORK FOR A/C INITIATIVE/LSP LL26 CODE COMPLIANCE/EXIT SIGN REPLACEMENT,CIP,X142,3750 BAYCHESTER AVENUE,Bronx,40.884953,-73.840524
P.S. 201 - QUEENS,ELECTRICAL WORK FOR A/C INITIATIVE/LL26 CODE COMPLIANCE/EXIT SIGN REPLACEMENT,CIP,Q201,65-11 155 STREET,Queens,40.736653,-73.813346
I.S. 125 - QUEENS,Addition,CAP,Q125,46-02 47 AVENUE,Queens,40.741131,-73.918945
I.S. 419 - QUEENS,New,CAP,Q419,111-10 ASTORIA BOULEVARD,Queens,40.7599,-73.859218
I.S. 73 - QUEENS,LOW VOLT ELECTRICCAL SYSTEMS,CIP,Q073,70-02 54 AVENUE,Queens,40.729215,-73.893624
WILLIAM E. GRADY VOC HS - K,IP DIGITAL VIDEO SURVEILLANCE SYSTEM,CIP,K620,25 BRIGHTON 4TH ROAD,Brooklyn,40.582585,-73.963477
P.S. 158 - MANHATTAN,PLAYGROUNDS,CIP,M158,1458 YORK AVENUE,Manhattan,40.770419,-73.951135
I.S. 125 - BRONX,LIGHTING REPLACEMENT (DCAS),CIP,X125,1111 PUGSLEY AVENUE,Bronx,40.829232,-73.856734
P.S. 183 - MANHATTAN,FY18 RESO A SCIENCE LAB UPGRADES,CIP,M183,419 EAST 66 STREET,Manhattan,40.763736,-73.95815
P.S. 101 - QUEENS,FY19 RESO A AUDITORIUM UPGRADE,CIP,Q101,2 RUSSELL PLACE,Queens,40.715462,-73.843974
FRANCIS LEWIS HS - QUEENS,WATER PENETRATION,CIP,Q430,58-20 UTOPIA PKWY,Queens,40.740724,-73.79283000000001
NEW DORP HS - STATEN ISLAND,ATHLETIC FIELDS,CIP,R436,465 NEW DORP LANE,Staten Island,40.569393,-74.107737
BRONX CNTR FOR SCIENCE & MATH,PLANYC BOILER CONVERSION/PLANYC CLIMATE CTRL,CIP,X002,1365 FULTON AVENUE,Bronx,40.833696,-73.902477
MIDWOOD HS - BROOKLYN,CRACKED CONCRETE STRUCTURE/FIELD HOUSE,CIP,K406,1124 EAST 17 STREET,Brooklyn,40.622641,-73.958988
YOUNG W. LEADERSHIP SCL ASTORI,CHAPEL ROOM CONVERSION,CIP,Q739,23-15 NEWTOWN AVENUE,Queens,40.771215000000005,-73.924591
P.S. 36 - QUEENS,PLANYC CLIMATE CTRL/PLANYC BOILER CONVERSION,CIP,Q036,187-01 FOCH BLVD,Queens,40.690828,-73.76390699999999
BAYSIDE HIGH SCHOOL - QUEENS,FY16 RESO A ROOM CONVERSIONS / PART,CIP,Q405,32-24 CORPORAL KENNEDY STREET,Queens,40.771755,-73.78029599999999
I.S. 123 - BRONX,RENEWAL SCHOOL BASED HEALTH CENTER,CIP,X123,1025 MORRISON AVENUE,Bronx,40.825403,-73.873666
LIFE SCIENCE SECONDARY SCHOOL,HAZARDOUS - FACADE REPAIR,CIP,M645,320 EAST 96 STREET,Manhattan,40.783625,-73.945637
P.S. 75 - MANHATTAN,TEMPORARY BOILER,CIP,M075,735 WEST END AVENUE,Manhattan,40.795157,-73.973292
P.S. 198 - MANHATTAN,WINDOWS/ROOFS/PARAPETS,CIP,M198,1700 3RD AVENUE,Manhattan,40.784826,-73.949611
P.S. 295 - BROOKLYN,FY13 RESO GYM UPG/GYM & CAFE FLOOR/FLOOD/PARAPETS,CIP,K845,330 18 STREET,Brooklyn,40.660976,-73.988297
GROVER CLEVELAND HS - QUEENS,ELECTRICAL WORK FOR A/C INITIATIVE,CIP,Q485,21-27 HIMROD STREET,Queens,40.711033,-73.908814
BROOKLYN TECH HS - K,FY14 RESO A ATHLETIC FIELDS,CIP,K431,490 CLERMONT AVENUE,Brooklyn,40.682986,-73.968852
P.S. 192 - BROOKLYN,DETERIORATED WINDOW WELL WALLS/FLOOD/PARAPETS/ROOF,CIP,K192,4715 18 AVENUE,Brooklyn,40.629303,-73.979995
P.S. 11 - QUEENS,Addition,CAP,Q011,54-25 SKILLMAN AVENUE,Queens,40.745244,-73.90872
P.S. 219 - QUEENS,ROOFS,CIP,Q219,144-39 GRAVETT ROAD,Queens,40.735275,-73.823778
MARBLE HILL INTERNATIONAL HS -,EXT MASONRY/FLOOD/PARAPETS/ROOFS,CIP,X475,99 TERRACE VIEW AVENUE,Bronx,40.877105,-73.912256
AVIATION HS - QUEENS,FUEL FIRE SUPRESSION SYSTEM/ROOFS/PARAPETS/EXTERIOR MASONRY/FLOOD ELIMINATION/GYMNASIUM UPGRADE/WINDOWS/PARTIAL ACCESSIBILITY,CIP,Q610,45-30 36 STREET,Queens,40.743509,-73.929076
JOHN BOWNE HS - QUEENS,FY18 RESO A ROOM CONVERSIONS/PARTITIONING,CIP,Q425,63-25 MAIN STREET,Queens,40.738139,-73.82494399999999
P.S. 68 - BRONX,WATER INFILTRATION/EXT MASONRY/PAVED AREA-BLACKTOP,CIP,X068,4011 MONTICELLO AVENUE,Bronx,40.891732,-73.838471
P.S. 219 - BROOKLYN,WATER INFILTRATION/ROOFS/EXT MASONRY/PARAPETS,CIP,K219,1060 CLARKSON AVENUE,Brooklyn,40.659288,-73.922919
P.S./I.S. 323 - BROOKLYN,ELECTRICAL WORK FOR A/C INITIATIVE,CIP,K263,210 CHESTER STREET,Brooklyn,40.666545,-73.910904
P.S. 30 - STATEN ISLAND,FY16 RESO A LOW-VOLTAGE ELECTRICAL SYSTEM,CIP,R030,200 WARDWELL AVE,Staten Island,40.618439,-74.132645
P.S. 160 - QUEENS,CHIMNEY/ROOFS/PARAPETS/FLOOD,CIP,Q160,109-59 INWOOD STREET,Queens,40.688103000000005,-73.800415
P.S. 139 - QUEENS,WATER PENETRATION/ROOFS,CIP,Q139,93-06 63 DRIVE,Queens,40.72814,-73.863582
HILLSIDE ACADEMY FOR ARTS AND,FY18 RESO A SCIENCE LAB UPGRADE,CIP,Q470,167-01 GOTHIC DRIVE,Queens,40.713218,-73.797237
I.S. 278 - BROOKLYN,FY19 RESO A FLOORING,CIP,K278,1925 STUART STREET,Brooklyn,40.60665,-73.939176
I.S. 244 - BRONX,PLANYC BOILER CONVERSION/PLANYC CLIMATE CONTROL,CIP,X143,120 WEST 231 STREET,Bronx,40.875916,-73.90111
P.S. 38 - MANHATTAN,PARAPETS,CIP,M121,232 EAST 103 STREET,Manhattan,40.788952,-73.944538
P.S. 57 - BRONX,EXTERIOR MASONRY/FLOOD ELIMINATION/ROOFS/PARAPETS,CIP,X057,2111 CROTONA AVENUE,Bronx,40.848472,-73.888561
P.S. 36 - MANHATTAN,PLAYGROUND/WATER INFILTRATION/EXTERIOR MASONRY,CIP,M036,123 MORNINGSIDE DRIVE,Manhattan,40.81027,-73.957482
EDWARD R. MURROW HS - K,IP DIGITAL VIDEO SURVEILLANCE SYSTEM,CIP,K525,1600 AVENUE L,Brooklyn,40.620525,-73.959285
P.S. 108 - MANHATTAN,PLANYC BOILER/PLANC CLIMATE CTRL/LOW VOLT/KITCHEN,CIP,M108,1615 MADISON AVENUE,Manhattan,40.795146,-73.948368
P.S. 9 - BRONX,PLANYC BOILER CNVSN/PLANYC CLIMATE CTRL,CIP,X009,230 EAST 183 STREET,Bronx,40.857067,-73.89893599999999
CURTIS HIGH SCHOOL ANNEX - STATEN ISLAND,Addition,CAP,R453,105B HAMILTON AVENUE,Staten Is,40.644735,-74.081222
AVIATION HS - QUEENS,FUEL FIRE/ROOFS/PARAPETS/MSNRY/ FLOOD/GYM UPG/WIN,CIP,Q610,45-30 36 STREET,Queens,40.743509,-73.929076
P.S. 197 - QUEENS,EXTERIOR MASONRY/ROOFS,CIP,Q197,825 HICKSVILLE ROAD,Queens,40.600199,-73.74396800000001
WORLD JOURNALISM PREPARATORY-Q,FY19 RESO A IPDVS CAMERA INSTALLATION,CIP,Q025,34-65 192 STREET,Queens,40.765133,-73.790083
P.S. 84 - MANHATTAN,FY18 RESO A PLAYGROUND UPGRADE,CIP,M084,32 WEST 92 STREET,Manhattan,40.789526,-73.967574
P.S. 279 - BROOKLYN,BACKFLOW PREVENTION DEVICES,CIP,K279,1070 EAST 104 STREET,Brooklyn,40.644203000000005,-73.892264
P.S. 80 - STATEN ISLAND,GAS SERVICE,CIP,R880,715 OCEAN TERRACE,Staten Island,40.608517,-74.102078
I.S. 259 - BROOKLYN,PLANYC BOILER CONVERSION/PLANYC CLIMATE CONTROL,CIP,K259,7305 FT HAMILTON PKWY,Brooklyn,40.62668,-74.01512
P.S. 3 - STATEN ISLAND,LSP- REPLACE HOT WATER HEATER,CIP,R003,80 SOUTH GOFF AVENUE,Staten Island,40.520699,-74.211264
P.S. 121 - BRONX,FLOOD ELIMINATION/PARAPETS/EXTERIOR MASONRY/ROOFS,CIP,X121,2750 THROOP AVENUE,Bronx,40.86608,-73.850982
NORTH BRONX SCHOOL OF EMPOWERM,FY16 RESO A MUSIC ROOM UPGRADE,CIP,X113,3710 BARNES AVENUE,Bronx,40.880873,-73.860904
I.S. 151 - BRONX,STH SBHC,CIP,X151,250 EAST 156 STREET,Bronx,40.82316,-73.921631
P.S. 129 - MANHATTAN,SCIENCE LAB UPGRADES,CIP,M129,425 WEST 130 STREET,Manhattan,40.814637,-73.951912
P.S. 287 - BROOKLYN,ROOFS/PARAPETS/EXTERIOR MASONRY,CIP,K287,50 NAVY STREET,Brooklyn,40.697901,-73.98054
I.S. 204 - QUEENS,LSP GYM ACOUSTICAL CEILING TILE REPLACEMENT,CIP,Q204,36-41 28 STREET,Queens,40.757065,-73.932664
J.H.S. 216 - QUEENS,PLANYC BOILER CNVRSN/PLANYC CLIMATE CTRL,CIP,Q216,64-20 175 STREET,Queens,40.737517,-73.794031
P.S. 50 - MANHATTAN,EXTERIOR MASONRY/ROOFS/PARAPETS/SITE WALLS,CIP,M050,433 EAST 100 STREET,Manhattan,40.785258,-73.941526
J.H.S. 67 - QUEENS,FLOOD ELIMINATION,CIP,Q067,51-60 MARATHON PKWY,Queens,40.762708,-73.733694
I.S. 319 - QUEENS,SCIENCE LAB UPGRADE,CIP,Q053,10-45 NAMEOKE STREET,Queens,40.603622,-73.74909699999999
Q009 SPED - QUEENS,EXT MSNRY/PARAPET/FLOOD/ ACCESSIBILITY/FIRE ALARM,CIP,Q009,58-74 57 STREET,Queens,40.718935,-73.91220799999999
P.S. 245 - BROOKLYN,ELECTRICAL WORK FOR A/C INITIATIVE/LSP LL26 CODE COMPLIANCE/EXIT SIGN REPLACEMENT,CIP,K735,249 EAST 17 STREET,Brooklyn,40.645016,-73.963208
P.S. 1 - MANHATTAN,FLOOD ELIMINATION/WINDOWS/EXTERIOR MASONRY/ROOF,CIP,M001,8 HENRY STREET,Manhattan,40.71276,-73.997489
K077 SPED - BROOKLYN,ROOFS/FLOOD/PARAPETS/EXT MASONRY/WINDOWS/LEAD SVC,CIP,K178,2163 DEAN STREET,Brooklyn,40.675024,-73.915778
P.S. 61 - BRONX,FLOOD ELIMINATION/ROOFS/PARAPETS/EXTERIOR MASONRY,CIP,X061,1550 CROTONA PARK EAST,Bronx,40.836575,-73.89281700000001
P.S. 241 - MANHATTAN,PLANYC BOILER CONVERSION/CIMATE CONTROL,CIP,M113,240 WEST 113 STREET,Manhattan,40.801689,-73.95490799999999
P.S. 129 - QUEENS,Addition,CAP,Q129,128-02 7TH AVENUE,Queens,40.790638,-73.839771
I.S. 424 - BRONX,DEFECTIVE RETAINING WALL,CIP,X074,730 BRYANT AVENUE,Bronx,40.815477,-73.88577
I.S. 234 - BROOKLYN,ELECTRICAL WORK FOR A/C INITIATIVE/LL26 CODE COMPLIANCE/EXIT SIGN REPLACEMENT,CIP,K234,1875 EAST 17 STREET,Brooklyn,40.60422,-73.955485
P.S. 161 - MANHATTAN,FY19 RESO A AUDITORIUM UPGRADE,CIP,M161,499 WEST 133 STREET,Manhattan,40.81755,-73.953041
P.S. 58 - BROOKLYN,PLANYC BOILER CONVERSION/PLANYC CLIMATE CONTROL,CIP,K058,330 SMITH STREET,Brooklyn,40.680415,-73.994754
P.S. 48 - BROOKLYN,FLOOD ELIMINATION/EXTERIOR MASONRY/WINDOWS,CIP,K048,6015 18 AVENUE,Brooklyn,40.621871,-73.98739599999999
P.S. 188 - MANHATTAN,LSP LL26 CODE COMPLIANCE/EXIT SIGN REPLACEMENT,CIP,M188,442 EAST HOUSTON STREET,Manhattan,40.719598,-73.97790400000001
ARCHER ELEMENTARY SCHOOL - BRO,FLOOD ELIMINATION/ROOFS,CIP,X102,1827 ARCHER STREET,Bronx,40.837631,-73.866036
I.S. 125 - BRONX,FY17 RESO A SUPPLEMENTAL COOLING,CIP,X125,1111 PUGSLEY AVENUE,Bronx,40.829232,-73.856734
P.S. 128 ADDITION - QUEENS,Addition,CAP,Q247,69-10 65TH DRIVE,Queens,40.715344,-73.886215
I.S. 227 - BROOKLYN,WATER PENETRATION/EXTERIOR MASONRY/PARAPETS/ROOFS,CIP,K227,6500 16 AVENUE,Brooklyn,40.62191,-73.99502199999999
P.S. 127 - BROOKLYN,Addition,CAP,K127,7805 7 AVENUE,Brooklyn,40.624132,-74.018826
Q177 SPED - QUEENS,PLANYC BOILER CONVERSION/PLANYC CLIMATE CONTROL,CIP,Q177,56-37 188 STREET,Queens,40.74391,-73.788133
P.S. 254 - QUEENS,ROOF/PARAPETS/EXT MASONRY/PAVED AREA CONCRETE,CIP,Q254,84-40 101ST STREET,Queens,40.697961,-73.84796
I.S. 232 - BRONX,OIL VAULT & STAIRWAY/PIPING/TOILETS/FLOOD,CIP,X082,1700 MACOMBS ROAD,Bronx,40.849623,-73.91606999999999
P.S. 203 - QUEENS,WINDOWS,CIP,Q203,53-11 SPRINGFIELD BLVD,Queens,40.754201,-73.760636
P.S. 257 - BROOKLYN,FY18 RESO A AUDITORIUM UPGRADE,CIP,K257,60 COOK STREET,Brooklyn,40.702392,-73.941801
LYFE PROGRAM,LYFE CENTER,CIP,M081,212 W 120TH ST,Manhattan,40.806063,-73.95134
P.S. 65 - BRONX,FY16 RESO A AUDITORIUM UPGRADE/EXTERIOR MASONRY/PARAPETS/ROOFING,CIP,X065,677 EAST 141 STREET,Bronx,40.807335,-73.91273100000001
CHELSEA VOC HS - MANHATTAN,LOW VOLTAGE ELECTRICAL SYSTEM/ANSUL SYSTEM,CIP,M615,131 AVE OF THE AMERICAS,Manhattan,40.7244,-74.004625
A. PHILIP RANDOLPH HS -MANHATT,ELECTRICAL WORK FOR A/C INITIATIVE,CIP,M540,443 WEST 135 STREET,Manhattan,40.818188,-73.950356
P.S. 45 - QUEENS,FLOOD ELIMINATION/ROOFS/PARAPETS/EXTERIOR MASONRY,CIP,Q045,126-28 150 STREET,Queens,40.672727,-73.788164
P.S. 151 - QUEENS,TCU REMOVAL/PLAYGROUND REDEVELOPMENT,CIP,Q151,50-05 31 AVENUE,Queens,40.757499,-73.908898
LIFE SCIENCE SECONDARY SCHOOL,HAZARDOUS-FACADE REPAIR,CIP,M645,320 EAST 96 STREET,Manhattan,40.783625,-73.945637
PRE-K CENTER @ 2510 MARION AVENUE - BRONX,Lease,CAP,X444,2510 MARION AVENUE,Bronx,40.861286,-73.89325799999999
I.S. 217 - QUEENS,PLANYC BOILER CONVERSION/PLANYC CLIMATE CONTROL,CIP,Q217,85-05 144 STREET,Queens,40.710024,-73.812508
P.S. 151 - BROOKLYN,LSP PLAYGROUND,CIP,K151,763 KNICKERBOCKER AVENUE,Brooklyn,40.693293,-73.90864
MARTIN VAN BUREN HS - QUEENS,LSP- GYM WATER PENETRATION,CIP,Q435,230-17 HILLSIDE AVENUE,Queens,40.733066,-73.73875600000001
I.S. 35 - BROOKLYN,FY18 RESO A GYMNASIUM UPGRADE,CIP,K035,272 MACDONOUGH STREET,Brooklyn,40.681896,-73.935963
I.S. 14 - BROOKLYN,WATER PENETRATION/PLANYC BOILER/PLANYC CLIMATE,CIP,K014,2424 BATCHELDER STREET,Brooklyn,40.593521,-73.93767199999999
P.S. 163 - MANHATTAN,TCU REMOVAL & PLAYGROUND REDEVELOPMENT,CIP,M163,163 WEST 97 STREET,Manhattan,40.794264,-73.96870600000001
P.S. 33 - QUEENS,ROOF REPAIR/PARAPETS/EXTERIOR MASONRY,CIP,Q033,91-37 222 STREET,Queens,40.727134,-73.735077
WASHINGTON IRVING H.S.,WATER STORAGE TANK,CIP,M460,40 IRVING PLACE,Manhattan,40.735494,-73.987659
P.S. 5 - STATEN ISLAND,FLOOD ELIMINATION,CIP,R005,348 DEISIUS STREET,Staten Island,40.530169,-74.187635
P.S. 97 - BRONX,Addition,CAP,X097,1375 MACE AVENUE,Bronx,40.862839,-73.84679100000001
P.S. 14 - QUEENS,ROOFS/PARAPETS/EXT MASONRY,CIP,Q014,107-01 OTIS AVENUE,Queens,40.74056,-73.85413100000001
AVIATION HS - QUEENS,FUEL FIRE/ROOFS/PARAPETS/MASONRY/FLOOD/GYM UPG/WIN,CIP,Q610,45-30 36 STREET,Queens,40.743509,-73.929076
I.S. 144 - BRONX,PLANYC BOILER CONVERSION/CLIMATE CONTROL,CIP,X144,2545 GUNTHER AVENUE,Bronx,40.863735,-73.83606999999999
MARTIN VAN BUREN HS - QUEENS,IP DIGITAL VIDEO SURVEILLANCE SYSTEM,CIP,Q435,230-17 HILLSIDE AVENUE,Queens,40.733066,-73.73875600000001
P.S. 95 - BROOKLYN,FY17 RESO A SUPPLEMENTAL COOLING,CIP,K095,345 VAN SICKLEN STREET,Brooklyn,40.595698,-73.97518000000001
P.S. 35 - STATEN ISLAND,HEATING PLANT/CLIMATE CONTROL,CIP,R035,60 FOOTE AVENUE,Staten Island,40.613721000000005,-74.099626
ACADEMY OF AMERICAN STUDIES - QUEENS,New,CAP,Q575,28-01 41ST AVENUE,Queens,40.751356,-73.937445
P.S. 078 - STATEN ISLAND,IP DIGITAL VIDEO SURVEILLANCE SYSTEM,CIP,R014,100 TOMPKINS AVENUE,Staten Island,40.622455,-74.078508
P.S. 23 - BRONX,FY17 RESOA PLAYGROUND REDEVELOPMENT,CIP,X023,2151 WASHINGTON AVENUE,Bronx,40.85294,-73.89474200000001
P.S. 87 - MANHATTAN,WINDOWS/RPZ BACKFLOW PREVENTION DEVICES/PLANYC BOILER CONVERSION/PLANYC CLIMATE CONTROL/ROOFS/PARAPETS/EXTERIOR MASONRY/EXTERIOR DOORS,CIP,M087,160 WEST 78 STREET,Manhattan,40.781958,-73.977638
P.S. 199 - QUEENS,EXTERIOR MASONRY/PARAPETS,CIP,Q199,39-20 48 AVENUE,Queens,40.740088,-73.926214
P.S. 340 ANNEX - BRONX,New,CAP,X448,25 WEST 195TH STREET,Bronx,40.869007,-73.89749
THE RIVERSIDE SCHOOL - MANHATTAN,New,CAP,M342,300 WEST 61ST STREET,Manhattan,40.772883,-73.989609
P.S. 55 - QUEENS,PLANYC CLIMATE CONTROL/PLANYC BOILER CONVERSION,CIP,Q055,131-10 97 AVENUE,Queens,40.694004,-73.81661700000001
BROOKLYN TECH HS - K,PA SYSTEM,CIP,K430,29 FT GREENE PLACE,Brooklyn,40.688834,-73.976905
I.S. 244 - BRONX,PLANYC BOILER/PLANYC CLIMATE CTRL,CIP,X143,120 WEST 231 STREET,Bronx,40.875911,-73.901099
I.S. 73 - QUEENS,LOW VOLT ELECTRICAL SYSTEMS,CIP,Q073,70-02 54 AVENUE,Queens,40.729215,-73.893624
ALC - BROOKLYN CHOICES,EXTERIOR MASONRY/WINDOWS/PARAPETS/ROOFS,CIP,K799,271 MELROSE STREET,Brooklyn,40.702083,-73.929647
LONG ISLAND CITY HS - Q,FIRE ALARM SYSTEM/BUILDING MGMT SYSTEM,CIP,Q452,14-30 BROADWAY,Queens,40.765826,-73.9328
P.S. 229 - BROOKLYN,FLOOD ELIMINATION/ROOFS/PARAPETS/EXTERIOR MASONRY/PAVED AREA- BLACKTOP,CIP,K229,1400 BENSON AVENUE,Brooklyn,40.610963,-74.013376
P.S. 81 - QUEENS,STANDALONE GYM ANNEX,CIP,Q342,1716 BLEECKER STREET,Queens,40.704168,-73.912235
THE SCHOLARS ACADEMY - QUEENS,CONDENSATION RESOLUTION,CIP,Q180,320 BEACH 104 STREET,Queens,40.584109000000005,-73.825711
HS FOR ENVIRONMENTAL STUDIES -,6TH FLOOR EGRESS/FIRE ALARM,CIP,M834,444 WEST 56 STREET,Manhattan,40.767791,-73.987531
PORT RICHMOND HS - R,TCU REMOVAL/MASONRY/ROOFS/PARAPETS/FLOOD ELIM,CIP,R445,85 ST JOSEPHS AVENUE,Staten Island,40.634573,-74.141818
I.S. 371 - BRONX,EXTERIOR MASONRY,CIP,X192,650 HOLLYWOOD AVENUE,Bronx,40.826526,-73.81841700000001
THE SCHOLARS ACADEMY - QUEENS,CONDENSATION RESOLUTION,CIP,Q180,320 BEACH 104 STREET,Queens,40.584109000000005,-73.825711
P.S. 94 - BROOKLYN,FY19 RESO A IPDVS CAMERA INSTALLATION,CIP,K094,5010 6TH AVENUE,Brooklyn,40.64366,-74.008252
P.S. 182 - BRONX,ROOFS/EXTERIOR MASONRY,CIP,X182,601 STICKBALL BLVD,Bronx,40.818228000000005,-73.856302
M.S. 282 - QUEENS,FY17 RESO A LIBRARY UPGRADES,CIP,Q465,8-21 BAY 25 STREET,Queens,40.60201,-73.762795
P.S. 151 - QUEENS,WATER INFILTRATION/ROOFS/PARAPETS/EXT MASONRY,CIP,Q151,50-05 31 AVENUE,Queens,40.757499,-73.908898
P.S. 253 - BROOKLYN,EXTERIOR MASONRY/FLOOD ELIMINATION/PARAPETS/ROOFS,CIP,K253,601 OCEANVIEW AVENUE,Brooklyn,40.579607,-73.962071
P.S. 201 - QUEENS,PLANYC CLIMATE CONTROL/PLANYC BOILER CONVERSION,CIP,Q201,65-11 155 STREET,Queens,40.736653,-73.813346
P.S. 48 - BROOKLYN,FLOOD ELIMINATION/EXTERIOR MASONRY/WINDOWS,CIP,K048,6015 18 AVENUE,Brooklyn,40.621871,-73.98739599999999
JAMES MADISON HS - BROOKLYN,SWIMMING POOL,CIP,K425,3787 BEDFORD AVENUE,Brooklyn,40.609912,-73.948512
I.S. 265 - BROOKLYN,PLANYC BOILER CONVERSION/PLANYC CLIMATE CONTROL,CIP,K265,101 PARK AVENUE,Brooklyn,40.696324,-73.97578
PERFORMING ARTS AND TECH. HS -,FY14 RESO A GYMNASIUM UPGRADE,CIP,K435,400 PENNSYLVANIA AVENUE,Brooklyn,40.667456,-73.894747
P.S. 65 - BRONX,STANDALONE GYM ANNEX,CIP,X478,677 EAST 141 STREET,Bronx,40.807335,-73.91273100000001
P.S. 90 - QUEENS,AUDITORIUM UPGRADE,CIP,Q090,86-50 109 STREET,Queens,40.697033000000005,-73.839213
I.S. 162 - BROOKLYN,INTERIOR STAIRS/EXT MASONRY/PARAPETS/ROOFS/FLOOD ELIM/WATER PENETRATION/CAFE FLOOR,CIP,K162,1390 WILLOUGHBY AVENUE,Brooklyn,40.707229,-73.91980500000001
P.S. 8 - BROOKLYN,SCIENCE LAB UPGRADES,CIP,K580,105 JOHNSON STREET,Brooklyn,40.694926,-73.98601500000001
K000 - BROOKLYN,FY18 RESO A PLAYGROUNDS,CIP,K768,7301 15TH AVENUE,Brooklyn,40.618718,-74.001898
P.S. 17 - BROOKLYN,BUILDING FAN REPLACEMENT/ELEC UPGRADE,CIP,K017,208 NORTH 5 STREET,Brooklyn,40.715351,-73.956716
P.S. 25 - BROOKLYN,ROOFS/PARAPETS/EXT MASONRY/EXT DOORS,CIP,K025,787 LAFAYETTE AVENUE,Brooklyn,40.691037,-73.941342
I.S. 221 - BRONX,LSP LL26 CODE COMPLIANCE/EXIT SIGN REPLACEMENT,CIP,X149,360 EAST 145 STREET,Bronx,40.813983,-73.92078199999999
P.S. 74 - STATEN ISLAND,FY18 RESO A ROOM CONVERSIONS/PARTITIONING,CIP,R831,211 DANIEL LOW TERRACE,Staten Island,40.639087,-74.079922
EAST NY FAMILY ACADEMY - K,New,CAP,K599,2057 LINDEN BLVD,Brooklyn,40.661072,-73.886942
J.H.S. 185 - QUEENS,IP DIGITAL VIDEO SURVEILLANCE SYSTEMS,CIP,Q185,147-26 25 DRIVE,Queens,40.775253,-73.819347
P.S. 92 - MANHATTAN,COLLASPED WALL,CIP,M092,222 WEST 134 STREET,Manhattan,40.815016,-73.945123
P.S. 189 - MANHATTAN,FLOOD ELIMINATION/ROOFS/PARAPETS/EXTERIOR MASONRY/PLAYGROUND,CIP,M189,2580 AMSTERDAM AVENUE,Manhattan,40.852631,-73.927604
P.S. 112 - BROOKLYN,TCU REMOVAL - PLAYGROUND REDEVELOPMENT,CIP,K112,7115 15 AVENUE,Brooklyn,40.61978,-74.000792
P.S. 6 - STATEN ISLAND,FY18 RESO A ROOM CONVERSIONS/PARTITIONING,CIP,R006,555 PAGE AVENUE,Staten Island,40.510735,-74.231109
P.S. @ 736 48TH STREET - BROOKLYN,Lease,CAP,K682,736 48TH STREET,Brooklyn,40.643018,-74.003856
MID-MAN ADULT LEARNING CENTER,STRUCTURAL/EXTERIOR MASONRY,CIP,M081,212 W 120TH ST,Manhattan,40.806063,-73.95134
P.S. 90 - BROOKLYN,FY18 RESO A LIBRARY UPGRADES,CIP,K090,2840 WEST 12 STREET,Brooklyn,40.578255,-73.979628
UNIVERSITY HEIGHTS HS - BRONX,IP DIGITAL VIDEO SURVEILLANCE SYSTEM,CIP,X470,701 ST ANNS AVENUE,Bronx,40.81825,-73.91103000000001
P.S. 312 - BROOKLYN,WATER PENETRATION,CIP,K312,7103 AVENUE T,Brooklyn,40.621413,-73.908987
P.S. 25 - BROOKLYN,ROOFS/PARAPETS/EXT MASONRY/EXT DOORS,CIP,K025,787 LAFAYETTE AVENUE,Brooklyn,40.691037,-73.941342
WILLIAM E. GRADY VOC HS - K,FY16 RESO A CULINARY ARTS ROOM,CIP,K620,25 BRIGHTON 4TH ROAD,Brooklyn,40.582585,-73.963477
J.H.S. 237 - QUEENS,FY16 RESO A AIR CONDITIONING SPLIT SYSTEM,CIP,Q237,46-21 COLDEN STREET,Queens,40.749545,-73.822073
PRE-K CENTER AT BISHOP FORD SC,PLAYGROUND,CIP,K280,500 19TH STREET,Brooklyn,40.656944,-73.983115
P.S. 128 ADDITION - QUEENS,Addition,CAP,Q247,69-10 65TH DRIVE,Queens,40.715344,-73.886215
FIORELLO LAGUARDIA HS - MANHAT,PARTIAL ACCESSIBILITY,CIP,M485,100 AMSTERDAM AVENUE,Manhattan,40.773629,-73.98527299999999
P.S. 57 - STATEN ISLAND,FY19 RESO A AUDITORIUM UPGRADE,CIP,R057,140 PALMA DRIVE,Staten Island,40.611508,-74.083177
MIDWOOD HS - BROOKLYN,IPDVS CAMERA INSTALLATION,CIP,K405,2839 BEDFORD AVENUE,Brooklyn,40.633237,-73.952929
I.S. 75 - STATEN ISLAND,CHILLER REPLACEMENT,CIP,R075,455 HUGUENOT AVENUE,Staten Island,40.54438,-74.197897
Q811 SPED - QUEENS,LL 41/16 COMPLIANCE,CIP,Q811,61-25 MARATHON PKWY,Queens,40.756778,-73.729487
BROOKLYN TECH HS - K,FY14 RESO A ATHLETIC FIELDS,CIP,K431,490 CLERMONT AVENUE,Brooklyn,40.682986,-73.968852
P.S. 75 - MANHATTAN,TEMPORARY BOILER,CIP,M075,735 WEST END AVENUE,Manhattan,40.795157,-73.973292
P.S. / I.S. 270 - QUEENS,DEFECTIVE PARAPETS/EXT MASONRY/ROOFS,CIP,Q270,233-15 MERRICK BLVD,Queens,40.674831,-73.736713
CONCOURSE VILLAGE ELEMENTARY S,ROOFS/PARAPETS/EXTERIOR MASONRY,CIP,X156,750 CONCOURSE VILLAGE WEST,Bronx,40.823174,-73.923326
P.S. 105 - BROOKLYN,LSP REPLACEMENT CAFETERIA FLOOR,CIP,K105,1031 59 STREET,Brooklyn,40.632936,-74.00374000000001
P.S. @ PARCEL F - QUEENS,Demo,CAP,Q375,1-35 57TH AVENUE,Queens,40.738836,-73.96060899999999
P.S. 32 - STATEN ISLAND,LSP LL26 CODE COMPLIANCE/EXIT SIGN REPLACEMENT,CIP,R032,232 BARLOW AVENUE,Staten Island,40.558966,-74.155517
P.S. 48 - STATEN ISLAND,RETAINING WALL,CIP,R048,1055 TARGEE STREET,Staten Island,40.60223,-74.09135500000001
COMMUNITY VOICES MIDDLE SCHOOL,FY18 RESO A SUPPLEMENTAL COOLING,CIP,Q231,145-00 SPRINGFIELD BLVD,Queens,40.664608,-73.75878399999999
P.S. 102 - QUEENS,FY19 RESO A ROOM CONVERSIONS/PARTITIONING,CIP,Q102,55-24 VAN HORN STREET,Queens,40.733514,-73.87785699999999
P.S. 214 - BROOKLYN,TCU REMOVAL AND PLAYGROUND REDEVELOPMENT,CIP,K214,2944 PITKIN AVENUE,Brooklyn,40.676513,-73.863151
P.S. 155 - QUEENS,TCU REMOVAL - PLAYGROUND REDEVELOPMENT,CIP,Q155,130-02 115 AVENUE,Queens,40.67956,-73.8106
P.S. 109 - BRONX,WATER PENETRATION/ROOF/ PARAPET/MASONRY,CIP,X109,1771 POPHAM AVENUE,Bronx,40.851414,-73.918533
I.S. 382 - BROOKLYN,STRUCTURAL DEFECTS AND ROOF,CIP,K465,911 FLATBUSH AVENUE,Brooklyn,40.649787,-73.95855
I.S. 382 - BROOKLYN,STRUCTURAL DEFECTS AND ROOF,CIP,K465,911 FLATBUSH AVENUE,Brooklyn,40.649787,-73.95855
P.S. 106 - QUEENS,DEMOLITION & PAVED AREA/TCU REMOVAL PLAYGROUND RED,CIP,Q806,180 BEACH 35 STREET,Queens,40.593779,-73.767199
P.S. 94 - BROOKLYN,EXT MASONRY/WINDOWS/FLOOD ELIMINATION,CIP,K094,5010 6TH AVENUE,Brooklyn,40.64366,-74.008252
BERGTRAUM HS - MANHATTAN,SCIENCE LAB UPGRADE/FIRE ALARM SYSTEMS,CIP,M520,411 PEARL STREET,Manhattan,40.711442,-74.000851
THE BROOKLYN SCHOOL FOR SOCIAL,SCHOOL BASED HEALTH CENTER,CIP,K480,400 IRVING AVENUE,Brooklyn,40.69697,-73.910791
P.S. 114 - QUEENS,SANDY:INT/HEATING/ELEC/FLOOD/CLIM/PLAYGRND/PIPING,CIP,Q114,134-01 CRONSTON AVE,Queens,40.578261,-73.854403
P.S. 114 - BRONX,PLANYC BOILER CONVERSION/PLANYC CLIMATE CONTROL,CIP,X114,1155 CROMWELL AVENUE,Bronx,40.834776,-73.923067
NEW UTRECHT HS - BROOKLYN,ATHLETIC FIELD REPAIRS,CIP,K446,1601 80 STREET,Brooklyn,40.613262,-74.003404
P.S. 73 - BROOKLYN,EXT MASONRY/FLOOD ELIMINATION/PARAPETS/ROOFS,CIP,K073,251 MACDOUGAL STREET,Brooklyn,40.680318,-73.91064399999999
WILLIAM C. BRYANT HS - QUEENS,TCU REMOVAL & PLAYGROUND REDEVELOPMENT,CIP,Q445,48-10 31 AVENUE,Queens,40.75823,-73.910514
P.S. 81 - BRONX,WATER INFILTRATION,CIP,X081,5550 RIVERDALE AVENUE,Bronx,40.903553,-73.905229
BROOKLYN COLLEGIATE: A COLLEGE,LOW VOLTAGE ELECTRICAL SYSTEM,CIP,K055,2021 BERGEN STREET,Brooklyn,40.674103,-73.913273
"QNS HS OF TEACH., LIB. ARTS&SC",FY18 RESO A SECURITY CAMERAS,CIP,Q566,74-20 COMMONWEALTH BLVD,Queens,40.746088,-73.727535
EAST SIDE COMMUNITY SCHOOL,FIFTH FLOOR CEILING REPLACEMENT,CIP,M060,420 EAST 12 STREET,Manhattan,40.729589,-73.982555
P.S. 249 - BROOKLYN,LOW VOLT/PLANYC CLIMATE CTRL/PLANYC BOILER CONV,CIP,K249,18 MARLBOROUGH ROAD,Brooklyn,40.64971,-73.96604599999999
P.S. 205 - QUEENS,BOILER/CLIMATE CTRL/FLOOD/MASONRY/ ROOFS/PARAPETS,CIP,Q205,75-25 BELL BLVD,Queens,40.737678,-73.756791
P.S. 312 - BROOKLYN,WATER PENETRATION,CIP,K312,7103 AVENUE T,Brooklyn,40.621413,-73.908987
I.S. 349 - BROOKLYN,SCIENCE LAB UPGRADES,CIP,K111,35 STARR STREET,Brooklyn,40.70069,-73.927481
M.S. 354 - BROOKLYN,IPDVS CAMERA INSTALLATION,CIP,K390,1224 PARK PLACE,Brooklyn,40.672713,-73.936924
P.S. 7 - BRONX,FY16 RESO A AIR CONDITIONING SPLIT SYSTEM,CIP,X007,3201 KINGSBRIDGE AVENUE,Bronx,40.881066,-73.905366
P.S. 114 - BROOKLYN,FY18 RESO A AUDITORIUM  UPGRADE,CIP,K114,1077 REMSEN AVENUE,Brooklyn,40.642792,-73.90880600000001
TOWNSEND HARRIS HS - Q,FY19 RESO A ROOM CONVERSIONS/PARTITIONING,CIP,Q515,149-11 MELBOURNE AVENUE,Queens,40.734390000000005,-73.821392
P.S. 91 - BRONX,FY18 RESO A GYMNASIUM UPGRADE,CIP,X091,2170 AQUEDUCT AVENUE,Bronx,40.857689,-73.908349
P.S. 33 - BRONX,PLANYC BOILER CNVSN/PLANYC CLIMATE CTRL,CIP,X033,2424 JEROME AVENUE,Bronx,40.86185,-73.90176
HS OF GRAPHIC COMM. ARTS (VOC),PLANYC BOILERS CONVERSION/CLIMATE CONTROL,CIP,M625,439 WEST 49 STREET,Manhattan,40.76337,-73.990593
J.H.S. 292 - MANHATTAN,ROOFS,CIP,M056,220 HENRY STREET,Manhattan,40.713684,-73.986336
P.S. 26 - QUEENS,PLANYC CLIMATE CTRL/PLANYC BOILER CONVERSION,CIP,Q026,195-02 69 AVENUE,Queens,40.736922,-73.77799
P.S. 175 HENRY H GARNET - M,FY17 RESO A GYMNASIUM UPGRADE,CIP,M175,175 WEST 134 STREET,Manhattan,40.814422,-73.943664
MIDWOOD HS - BROOKLYN,IPDVS CAMERA INSTALLATION,CIP,K405,2839 BEDFORD AVENUE,Brooklyn,40.633237,-73.952929
J.H.S. 194 - QUEENS,PLANYC BOILER CNVRSN/PLANYC CLIMATE CTRL,CIP,Q194,154-60 17 AVENUE,Queens,40.78365,-73.807838
P.S. 119 - BRONX,PLANYC CLIMATE CONTROL/PLANYC BOILER CONVERSION,CIP,X119,1075 PUGSLEY AVENUE,Bronx,40.828518,-73.856569
P.S. 45 - BROOKLYN,LSP VACUUM PUMPS,CIP,K045,84 SCHAEFER STREET,Brooklyn,40.686746,-73.91069300000001
FIORELLO LAGUARDIA HS - MANHAT,IPDVS CAMERA INSTALLATION,CIP,M485,100 AMSTERDAM AVENUE,Manhattan,40.773629,-73.98527299999999
P.S. 20 - QUEENS,FY16 RESO A SUPPLEMENTAL COOLING,CIP,Q020,142-30 BARCLAY AVENUE,Queens,40.758689,-73.824832
JAMES MADISON HS - BROOKLYN,SWIMMING POOL,CIP,K425,3787 BEDFORD AVENUE,Brooklyn,40.609912,-73.948512
P.S. 41 - BRONX,PLANYC BOILER CONVERSION/CLIMATE CONTROL,CIP,X041,3352 OLINVILLE AVENUE,Bronx,40.874313,-73.868157
TOWNSEND HARRIS HS - Q,FY18 RESO A IPDVS CAMERA INSTALLATION,CIP,Q515,149-11 MELBOURNE AVENUE,Queens,40.734390000000005,-73.821392
P.S. @ 256 59TH STREET- BROOKLYN,New,CAP,K746,256 59TH STREET,Brooklyn,40.643337,-74.021011
P.S. 111 - MANHATTAN,FACADE PANELS/ROOFS/PARAPETS,CIP,M111,440 WEST 53 STREET,Manhattan,40.765878,-73.988823
BRONX EARLY COLLEGE ACADEMY,SCIENCE LAB UPGRADE,CIP,X166,250 EAST 164 STREET,Bronx,40.828696,-73.917668
HERBERT H. LEHMAN HS - X,SANDY ELEC/HEAT/FLOOD/CLIM/SINK HOLES/PLUMBING,CIP,X405,3000 EAST TREMONT AVENUE,Bronx,40.840702,-73.838545
P.S. 132 - QUEENS,EXT MASONRY/ROOFS/PARAPETS/FLOOD ELIMINATION,CIP,Q132,132-15 218 STREET,Queens,40.682114,-73.74991999999999
RICHMOND HILL HS - QUEENS,ELECTRICAL WORK FOR A/C INITIATIVE,CIP,Q475,89-30 114 STREET,Queens,40.695888,-73.833681
P.S. 92 - QUEENS,Addition,CAP,Q292,99-01 34TH AVENUE,Queens,40.755418,-73.869017
P.S. 57 - BRONX,FY18 RESO A GYMNASIUM UPGRADE,CIP,X057,2111 CROTONA AVENUE,Bronx,40.848472,-73.888561
I.S. 10 - QUEENS,ELECTRICAL WORK FOR A/C INITIATIVE,CIP,Q010,45-11 31 AVENUE,Queens,40.759363,-73.912902
3K CENTER @ 1 TELEPORT DRIVE - STATEN ISLAND,Lease,CAP,R095,1 TELEPORT DRIVE,Staten Is,40.604274,-74.17846899999999
P.S. 288 - BROOKLYN,INTERIOR SPACES/HEATING/ELEC/FLOOD/CLIMATE,CIP,K288,2950 WEST 25 STREET,Brooklyn,40.574411,-73.99194
I.S. 54 - MANHATTAN,MASONRY & GRANITE STEP DEFECTS,CIP,M054,103 WEST 107 STREET,Manhattan,40.800119,-73.962837
P.S. 152 - BROOKLYN,RESO A FY18 RESO A PLAYGROUND UPGRADE,CIP,K776,1087 OCEAN AVENUE,Brooklyn,40.63589,-73.958303
PATHWAYS IN TECHNOLOGY EARLY C,EXT MASONRY/ROOFS/PARAPETS/WINDOWS/FLOOD,CIP,K625,150 ALBANY AVENUE,Brooklyn,40.675612,-73.938843
P.S. 3 - BROOKLYN,PLANYC BOILER CNVRSN/PLANYC CLIMATE CTRL,CIP,K003,50 JEFFERSON AVENUE,Brooklyn,40.682663,-73.955338
P.S. 3 - STATEN ISLAND,FY16 RESO A SUPPLEMENTAL COOLING,CIP,R003,80 SOUTH GOFF AVENUE,Staten Island,40.520699,-74.211264
I.S. 266 - BROOKLYN,MASONRY/PIPING/DOOR/FLOOD/WIN/PARAPETS/ROOF/HVAC,CIP,K902,62 PARK PLACE,Brooklyn,40.678983,-73.976497
P.S. 170 - BRONX,MASONRY ISSUE/PARAPETS/ROOFS,CIP,X170,1598 TOWNSEND AVENUE,Bronx,40.844316,-73.913604
I.S. 217 - QUEENS,PLANYC BOILER/PLANYC CLIMATE CONTROL,CIP,Q217,85-05 144 STREET,Queens,40.710024,-73.812508
J.H.S. 72 - QUEENS,SCIENCE LAB UPGRADES,CIP,Q072,133-25 GUY R BREWER BOULEVARD,Queens,40.673769,-73.775951
HS FOR HEALTH CAREER & SCIENCE,IPDVS CAMERA INSTALLATION,CIP,M465,549 AUDUBON AVENUE,Manhattan,40.855855,-73.92712
ACAD. FOR ENVIRON. LDRSHP - K,FY14 RESO A SCIENCE LAB,CIP,K480,400 IRVING AVENUE,Brooklyn,40.69697,-73.910791
P.S. 36 - QUEENS,ELECTRICAL WORK FOR A/C INITIATIVE,CIP,Q036,187-01 FOCH BLVD,Queens,40.690828,-73.76390699999999
X721 SPED - BRONX,EXTERIOR MASONRY WATER PENETRATION/WINDOWS/ROOFS/FLOOD ELIMINATION/PARAPETS,CIP,X722,2697 WESTCHESTER AVENUE,Bronx,40.842289,-73.838949
I.S. 278 - BROOKLYN,FY19 RESO A FLOORING,CIP,K278,1925 STUART STREET,Brooklyn,40.60665,-73.939176
P.S. 163 - QUEENS,Addition,CAP,Q163,159-01 59 AVENUE,Queens,40.740565,-73.80913100000001
JAMAICA GATEWAY TO THE SCIENCE,LSP GYMNASIUM BLEACHERS REPLACEMENT,CIP,Q470,167-01 GOTHIC DRIVE,Queens,40.713218,-73.797237
P.S. 41 - BRONX,FLOOD ELIMINATION/ROOFS/PARAPETS/EXTERIOR MASONRY/WINDOWS,CIP,X041,3352 OLINVILLE AVENUE,Bronx,40.874313,-73.868157
P.S. 57 - STATEN ISLAND,C OF O,CIP,R057,140 PALMA DRIVE,Staten Island,40.611508,-74.083177
GROVER CLEVELAND HS - QUEENS,FY18 RESO A ELECTRICAL SYSTEM,CIP,Q485,21-27 HIMROD STREET,Queens,40.711033,-73.908814
P.S. 42 - STATEN ISLAND,WATER PENTRATION/EXTERIOR MASONRY/ROOFS,CIP,R848,25 AUGUSTA AVENUE,Staten Island,40.551882,-74.168869
CLARA BARTON HS - K,FAILING COPING STONE/ROOFS,CIP,K600,901 CLASSON AVENUE,Brooklyn,40.669567,-73.961962
P.S. 2 - QUEENS,ELECTRICAL WORK FOR A/C INITIATIVE,CIP,Q002,75-10 21 AVENUE,Queens,40.770335,-73.894476
LIBERTY AVENUE MIDDLE SCHOOL,ENY SCIENCE LAB UPGRADES,CIP,K302,350 LINWOOD STREET,Brooklyn,40.677104,-73.883433
P.S. 55 - BRONX,MASONRY/WINDOWS/ROOFS/PARAPETS,CIP,X055,450 ST PAULS PLACE,Bronx,40.836404,-73.90501400000001
M.S./H.S. 342 - BRONX,BOILER FOR SWIMMING,CIP,X430,2780 RESERVOIR AVENUE,Bronx,40.870293,-73.898309
P.S. 40 - BROOKLYN,FY16 RESO A ROOFS,CIP,K040,265 RALPH AVENUE,Brooklyn,40.680463,-73.922264
P.S. 37 - QUEENS,FLOOD/FA/EXT MASONRY/ELEVATOR/PARAPETS/FLOOD,CIP,Q037,179-37 137 AVENUE,Queens,40.67588,-73.758505
BRONX HS FOR THE VISUAL ARTS -,COMPLETION OF PHASE II MERCY COLLEGE,CIP,X839,2040 ANTIN PLACE,Bronx,40.851405,-73.865036
P.S. 119 - BRONX,PLANYC CLIMATE CTRL/PLANYC BOILER CONVERSION,CIP,X119,1075 PUGSLEY AVENUE,Bronx,40.828518,-73.856569
AUGUST MARTIN HS - QUEENS,IP DIGITAL VIDEO SURVEILLANCE SYSTEM,CIP,Q400,156-10 BAISLEY BLVD,Queens,40.675633000000005,-73.783342
P.S. 115 - QUEENS,PARAPETS/EXT MASONRY,CIP,Q115,80-51 261 STREET,Queens,40.744099,-73.709845
P.S. 160 - QUEENS,CHIMNEY/ROOFS/PARAPETS/FLOOD,CIP,Q160,109-59 INWOOD STREET,Queens,40.688103000000005,-73.800415
P.S. 46 - BROOKLYN,AUDITORIUM UPGRADE,CIP,K046,100 CLERMONT AVENUE,Brooklyn,40.694633,-73.971165
P.S. 37 - QUEENS,PLANYC BOILER/PLANYC CLIMATE CONTROL,CIP,Q037,179-37 137 AVENUE,Queens,40.67588,-73.758505
ALC - BROOKLYN CHOICES,EXTERIOR MASONRY/WINDOWS/PARAPETS/ROOFS,CIP,K799,271 MELROSE STREET,Brooklyn,40.702083,-73.929647
I.S. 522 - BROOKLYN,PLANYC BOILER/PLANYC CLIMATE CONTROL,CIP,K271,1137 HERKIMER STREET,Brooklyn,40.677805,-73.91584300000001
ALFRED E. SMITH HS - X,FY16 RESO A AUDITORIUM UPGRADE,CIP,X600,333 EAST 151 STREET,Bronx,40.818232,-73.91986700000001
P.S.15 - BRONX,WATER PENETRATION,CIP,X015,2195 ANDREWS AVENUE,Bronx,40.85881,-73.909746
I.S. 35 - BROOKLYN,FULL PROGRAM ACCESSIBILITY,CIP,K035,272 MACDONOUGH STREET,Brooklyn,40.681896,-73.935963
P.S. 274 - BROOKLYN,FY18 RESO A ELECTRICAL SYSTEM,CIP,K274,800 BUSHWICK AVENUE,Brooklyn,40.694921,-73.927931
P.S. 123 - QUEENS,TCU REMOVAL & PLAYGROUND REDEVELOPMENT,CIP,Q123,145-01 119 AVENUE,Queens,40.678296,-73.79562
P.S. 3 - BRONX,HVAC CONTROLS/VENTILATION,CIP,X003,2100 LAFONTAINE AVE,Bronx,40.849897,-73.892289
P.S. 46 ADDITION,Addition,CAP,X046,2760 BRIGGS AVENUE,Bronx,40.867623,-73.890518
P.S. 174 - QUEENS,FY16 RESO A ROOM CONV/FY16 RESO A SCIENCE LAB UPG,CIP,Q174,65-10 DIETERLE CRESCENT,Queens,40.720924,-73.86135
FRANCIS LEWIS HS - QUEENS,FY15RESO A AUDITORIUM UPGRADE,CIP,Q430,58-20 UTOPIA PKWY,Queens,40.740724,-73.79283000000001
P.S. 149 - BROOKLYN,ELECTRICAL WORK FOR A/C INITIATIVE,CIP,K149,700 SUTTER AVENUE,Brooklyn,40.669719,-73.892822
P.S. 160 - BRONX,LSP FIRE ALARM PULL BOX,CIP,X160,4140 HUTCHINSON RIVER PARKWAY EAST,Bronx,40.864676,-73.824303
PERFORMING ARTS AND TECH. HS -,FY14 RESO A GYMNASIUM UPGRADE,CIP,K435,400 PENNSYLVANIA AVENUE,Brooklyn,40.667456,-73.894747
P.S. 181 - QUEENS,FLOORS & WALLS/ROOFS/PARAPETS/EXT MASONRY/FLOOD,CIP,Q181,148-15 230 STREET,Queens,40.656126,-73.75320699999999
HAMILTON GRANGE MIDDLE SCHOOL,SCIENCE LAB UPGRADE,CIP,M192,500 WEST 138 STREET,Manhattan,40.820953,-73.951145
P.S. 242 - QUEENS,IP DIGITAL VIDEO SURVEILLANCE SYSTEM,CIP,Q242,29-66 137TH STREET,Queens,40.771265,-73.831525
P.S. 398 - QUEENS,New,CAP,Q398,69-01 34TH AVENUE,Queens,40.752493,-73.896922
P.S. 164 - BROOKLYN,EXT MASONRY/ROOFS/CLIMATE CTRL/PARAPETS,CIP,K164,4211 14TH AVENUE,Brooklyn,40.637486,-73.985955
I.S. 226 - QUEENS,TCU REMOVAL AND PLAYGROUND REDEVELOPMENT,CIP,Q226,121-10 ROCKAWAY BOULEVARD,Queens,40.675771000000005,-73.81693800000001
P.S. 50 - MANHATTAN,FY RESO A AUDITORIUM UPGRADE,CIP,M050,433 EAST 100 STREET,Manhattan,40.785258,-73.941526
P.S. 98 - QUEENS,WATER PENETRATION,CIP,Q098,40-20 235 STREET,Queens,40.769271,-73.749369
THE SCIENCE AND MEDICINE MIDDL,FY18 RESO A ROOM CONVERSIONS/PARTITIONING,CIP,K366,965 EAST 107 STREET,Brooklyn,40.647323,-73.892022
P.S. 246 - BRONX,ELEVATOR/EXT MSNRY/FLOOD/ PARAPETS/ROOFS/WALL,CIP,X843,2641 GRAND CONCOURSE,Bronx,40.865593,-73.894758
ADULT AND CONTINUING EDUCATION,EXTERIOR MASONRY/LOW VOLTAGE ELECTRICAL SYSTEMS/VENTILATION/ROOFS/WINDOWS/PARAPETS/FLOOD ELIMINATION,CIP,K743,475 NOSTRAND AVENUE,Brooklyn,40.681233,-73.949737
SUNSET PARK HS - BROOKLYN,FY17 RESO A LIBRARY UPGRADES,CIP,K564,153 35TH STREET,Brooklyn,40.65571,-74.005197
P.S. 162 - QUEENS,PLANYC BOILER CONVERSION/CLIMATE CTRL,CIP,Q162,201-02 53 AVENUE,Queens,40.749036,-73.777213
P.S. 29 - BRONX,FY18 RESO A AUDITORIUMÃ¯Â¿Â½ UPGRADE,CIP,X029,758 COURTLANDT AVENUE,Bronx,40.821515000000005,-73.91727900000001
PRE-K CENTER @ 369 93RD STREET,New,CAP,K613,369 93RD STREET,Brooklyn,40.618041,-74.03138100000001
P.S. 151 - QUEENS,WATER INFILTRATION/ROOFS/PARAPETS/EXT MASONRY,CIP,Q151,50-05 31 AVENUE,Queens,40.757499,-73.908898
P.S. 123 - QUEENS,TCU REMOVAL & PLAYGROUND REDEVELOPMENT,CIP,Q123,145-01 119 AVENUE,Queens,40.678296,-73.79562
I.S. 24 - STATEN ISLAND,FY15 RESO A AUDITORIUM UPGRADE/PARTIAL ACCESSIBILITY,CIP,R024,225 CLEVELAND AVENUE,Staten Island,40.545281,-74.14631999999999
P.S. 133 - QUEENS,FY15 RESO A PLAYGROUND REDEVELOPMENT,CIP,Q133,248-05 86 AVENUE,Queens,40.731729,-73.71785899999999
P.S. 85 - BRONX,EXT MASONRY/PARAPETS/ROOFS/SECURITY LIGHTING/FLOOD,CIP,X085,2400 MARION AVENUE,Bronx,40.8591,-73.89494599999999
P.S. 268 - BROOKLYN,ELECTRICAL WORK FOR A/C INITIATIVE/LL26 CODE COMPLIANCE/EXIT SIGN REPLACEMENT,CIP,K268,133 EAST 53 STREET,Brooklyn,40.657131,-73.92801800000001
P.S. 20 - BRONX,LSP DOMESTIC WATER HEATER REPLACEMENT,CIP,X020,3050 WEBSTER AVENUE,Bronx,40.870002,-73.878875
PORT RICHMOND HS - R,ATHLETIC FIELD,CIP,R446,39 INNIS STREET,Staten Island,40.633704,-74.142364
P.S. 58 - BROOKLYN,PLANYC BOILER/PLANYC CLIMATE CONTROL,CIP,K058,330 SMITH STREET,Brooklyn,40.680149,-73.994938
P.S. 29 - BRONX,FY18 RESO A AUDITORIUMÃ¯Â¿Â½ UPGRADE,CIP,X029,758 COURTLANDT AVENUE,Bronx,40.821515000000005,-73.91727900000001
I.S. 234 - BROOKLYN,ELECTRICAL WORK FOR A/C INITIATIVE/LL26 CODE COMPLIANCE/EXIT SIGN REPLACEMENT,CIP,K234,1875 EAST 17 STREET,Brooklyn,40.60422,-73.955485
P.S. 85 - QUEENS,RPZ VALVES/LOW VOLTAGE/ELECTRICAL UPG,CIP,Q085,23-70 31 STREET,Queens,40.772863,-73.91470799999999
P.S. 317 - QUEENS,ELECTRICAL WORK FOR A/C INITIATIVE,CIP,Q225,1-90 BEACH 110 STREET,Queens,40.580928,-73.831836
I.S. 125 - BRONX,LIGHTING REPLACEMENT (DCAS),CIP,X125,1111 PUGSLEY AVENUE,Bronx,40.829232,-73.856734
KINGSBOROUGH EARLY COLLEGE SCH,SANDY:INT/HEAT/FLOOD/PIPING/NON-SANDY:PIPING/FLOOD,CIP,K400,2630 BENSON AVENUE,Brooklyn,40.594291,-73.98577
P.S. 174 - QUEENS,FY16 RESO A SUPPLEMENTAL COOLING,CIP,Q174,65-10 DIETERLE CRESCENT,Queens,40.720924,-73.86135
P.S. 226 - BRONX,DEFECTIVE MASONRY/ROOFS/FLOOD ELIMINATION,CIP,X826,1950 SEDGWICK AVENUE,Bronx,40.856586,-73.916198
P.S. 30 - STATEN ISLAND,EXTERIOR MASONRY/ROOFS/PARAPETS,CIP,R030,200 WARDWELL AVE,Staten Island,40.618439,-74.132645
I.S. 72 - STATEN ISLAND,ELECTRICAL WORK FOR A/C INITIATIVE/LL26 CODE COMPLIANCE/EXIT SIGN REPLACEMENT,CIP,R072,33 FERNDALE AVENUE,Staten Island,40.593005,-74.158988
P.S. 50 - QUEENS,Addition,CAP,Q050,143-26 101 AVENUE,Queens,40.695238,-73.807364
ALFRED E. SMITH HS - X,ROOM CONVERSION/UPG PLUMBING SHOP-RM B-50,CIP,X600,333 EAST 151 STREET,Bronx,40.818232,-73.91986700000001
I.S. 98 - BRONX,STH SBHC,CIP,X098,1619 BOSTON RD,Bronx,40.8359,-73.890458
I.S. 78 - BROOKLYN,IP DIGITAL VIDEO SURVEILLANCE SYSTEM,CIP,K078,1420 EAST 68 STREET,Brooklyn,40.621224,-73.91287
P.S. 80 - QUEENS,FY18 RESO A ROOM CONVERSIONS/PARTITIONING,CIP,Q080,171-05 137 AVENUE,Queens,40.67282,-73.76925200000001
P.S. @ 270 59TH STREET- BROOKLYN,New,CAP,K746,270 59TH STREET,Brooklyn,40.643211,-74.020802
P.S. 223 - QUEENS,WINDOWS/EXT MASONRY/PARAPETS,CIP,Q223,125-20 SUTPHIN BLVD,Queens,40.674519,-73.789399
P.S. 16 - STATEN ISLAND,FY18 RESO A GYMNASIUM UPGRADE,CIP,R016,80 MONROE AVENUE,Staten Island,40.6397,-74.079141
I.S. 61 - QUEENS,MASONRY/ROOFS/PARAPETS,CIP,Q061,98-50 50 AVENUE,Queens,40.742668,-73.86330699999999
P.S. 303 - QUEENS,Addition,CAP,Q003,68-60 110TH STREET,Queens,40.7261,-73.843502
P.S. 17 - BROOKLYN,STANDALONE GYM ANNEX,CIP,K315,208 NORTH 5 STREET,Brooklyn,40.715351,-73.956716
P.S. 47 - QUEENS,ROOFS,CIP,Q047,9 POWER ROAD,Queens,40.606353000000006,-73.82044499999999
P.S. 333 - QUEENS,SANDY NEW A/C CHILLERS,CIP,Q198,3-65 BEACH 56 STREET,Queens,40.593967,-73.786182
BROOKLYN GENERATION SCHOOL - K,ATHLETIC FIELD - TRACK,CIP,K516,6565 FLATLANDS AVENUE,Brooklyn,40.633285,-73.916735
P.S. 102 - QUEENS,FY19 RESO A ROOM CONVERSIONS/PARTITIONING,CIP,Q102,55-24 VAN HORN STREET,Queens,40.733514,-73.87785699999999
P.S. 36 - QUEENS,ELECTRICAL WORK FOR A/C INITIATIVE,CIP,Q036,187-01 FOCH BLVD,Queens,40.690828,-73.76390699999999
P.S. 20 - BRONX,LSP DOMESTIC WATER HEATER REPLACEMENT,CIP,X020,3050 WEBSTER AVENUE,Bronx,40.870002,-73.878875
P.S. 139 - QUEENS,WATER PENETRATION/ROOFS,CIP,Q139,93-06 63 DRIVE,Queens,40.72814,-73.863582
P.S. @ PARCEL F - QUEENS,New,CAP,Q375,1-35 57TH AVENUE,Queens,40.738836,-73.96060899999999
P.S. 91 - BRONX,FY18 RESO A GYMNASIUM UPGRADE,CIP,X091,2170 AQUEDUCT AVENUE,Bronx,40.857689,-73.908349
P.S. 354 - QUEENS,DEFECTIVE PARAPET WALL/ROOFS/EXT MASONRY,CIP,Q030,126-10 BEDELL STREET,Queens,40.68031,-73.77443199999999
P.S. 244 - QUEENS,FY16 RESO A PLAYGROUND REDEVELOPMEN,CIP,Q244,137-20 FRANKLIN AVENUE,Queens,40.754654,-73.826759
P.S. 175 HENRY H GARNET - M,FY17 RESO A GYMNASIUM UPGRADE,CIP,M175,175 WEST 134 STREET,Manhattan,40.814422,-73.943664
I.S. 73 - QUEENS,LOW VOLT ELECTRICCAL SYSTEMS,CIP,Q073,70-02 54 AVENUE,Queens,40.729215,-73.893624
FORT HAMILTON HS - K,POOL BOILER,CIP,K490,8301 SHORE ROAD,Brooklyn,40.627898,-74.039985
THE URBAN ASSEMBLY SCHOOL FOR,FY17 RESO A ROOM CONVERSIONS/PARTITIONING,CIP,M470,145 WEST 84 STREET,Manhattan,40.785803,-73.974614
P.S. 179 - BROOKLYN,FY16 RESO A AUDITORIUM UPGRADE,CIP,K179,202 AVENUE C,Brooklyn,40.640463,-73.977642
P.S. 163 - QUEENS,ELECTRICAL WORK FOR A/C INITIATIVE/LL26 CODE COMPLIANCE/EXIT SIGN REPLACEMENT,CIP,Q163,159-01 59 AVENUE,Queens,40.740565,-73.80913100000001
P.S. 52 - QUEENS,WATER PENETRATION/PARAPETS,CIP,Q052,178-37 146 TERRACE,Queens,40.661122,-73.766733
P.S. 68 - BRONX,WATER INFILTRATION/EXT MASONRY/PAVED AREA-BLACKTOP,CIP,X068,4011 MONTICELLO AVENUE,Bronx,40.891732,-73.838471
I.S. 14 - BROOKLYN,WATER PENETRATION/PLANYC BOILER/PLANYC CLIMATE,CIP,K014,2424 BATCHELDER STREET,Brooklyn,40.593521,-73.93767199999999
J.H.S. 72 - QUEENS,FY17 RESO A LIBRARY UPGRADES,CIP,Q072,133-25 GUY R BREWER BOULEVARD,Queens,40.673769,-73.775951
P.S. 75 - BRONX,FY19 RESO A SUPPLEMENTAL COOLING,CIP,X075,984 FAILE STREET,Bronx,40.822719,-73.88943499999999
P.S. 112 - QUEENS,FY19 RESO A GYMNASIUM UPGRADE,CIP,Q112,25-05 37 AVENUE,Queens,40.756891,-73.934523
BROOKLYN HS OF THE ARTS - BROO,ANSUL SYS/FIRE ALARM/MECHANICAL SYS - VENTILATION,CIP,K655,345 DEAN STREET,Brooklyn,40.683559,-73.98026999999999
P.S. 75 - MANHATTAN,TEMPORARY BOILER,CIP,M075,735 WEST END AVENUE,Manhattan,40.795157,-73.973292
P.S. 333 - QUEENS,NEW A/C CHILLERS,CIP,Q198,3-65 BEACH 56 STREET,Queens,40.593967,-73.786182
P.S. 256 ANNEX - QUEENS,New,CAP,Q816,445 BEACH 135 STREET,Queens,40.577026,-73.854539
P.S. 198 - BROOKLYN,LSP REPLACE STEAM TRAPS,CIP,K198,4105 FARRAGUT ROAD,Brooklyn,40.63694,-73.937339
I.S. 78 - BROOKLYN,IP DIGITAL VIDEO SURVEILLANCE SYSTEM,CIP,K078,1420 EAST 68 STREET,Brooklyn,40.621224,-73.91287
P.S. 214 - QUEENS,FY17 RESO A LOW VOLTAGE ELECTRICAL SYSTEMS,CIP,Q214,31-15 140 STREET,Queens,40.770387,-73.82861700000001
I.S. 340 - BROOKLYN,EXTERIOR MASONRY/FLOOD ELIMINATION,CIP,K874,227 STERLING PLACE,Brooklyn,40.676094,-73.97038
G. WASHINGTON CARVER HS FOR SC,FY17 RESO A PLAYGROUND REDEVELOPMENT,CIP,Q420,143-10 SPRINGFIELD BLVD,Queens,40.668235,-73.756839
MULTICULTURAL HS - BROOKLYN,PARAPETS/FLOOD ELIMINATION/ROOFS/EXTERIOR MASONRY,CIP,K420,999 JAMAICA AVENUE,Brooklyn,40.691146,-73.868328
P.S. 17 - BROOKLYN,BUILDING FAN REPLACEMENT/ELECTRICAL UPGRADE,CIP,K017,208 NORTH 5 STREET,Brooklyn,40.715351,-73.956716
AUGUST MARTIN HS - QUEENS,ELECTRICAL WORK FOR A/C INITIATIVE,CIP,Q400,156-10 BAISLEY BLVD,Queens,40.675633000000005,-73.783342
FORT HAMILTON HS - K,MASONRY DEFECTS/ROOFS/FLOOD ELIMINATION/PARAPETS,CIP,K490,8301 SHORE ROAD,Brooklyn,40.627898,-74.039985
P.S. 43 - QUEENS,SANDY INTERIOR SPACES/SANDY FLOOD ELIMINATION,CIP,Q907,12 MARVIN STREET,Queens,40.59359,-73.760448
P.S. 212 - BROOKLYN,FY18 RESO A ACCESSIBILITY,CIP,K212,87 BAY 49 STREET,Brooklyn,40.587616,-73.985948
ADULT AND CONTINUING EDUCATION,EXTERIOR MASONRY/LOW VOLTAGE ELECTRICAL SYSTEMS/VENTILATION/ROOFS/WINDOWS/PARAPETS/FLOOD ELIMINATION,CIP,K743,475 NOSTRAND AVENUE,Brooklyn,40.681233,-73.949737
P.S. 167 - BROOKLYN,EXT MASONRY - WATER PENETRATION/PARAPETS/ROOFS,CIP,K167,1025 EASTERN PARKWAY,Brooklyn,40.669001,-73.934635
I.S. 96 - BROOKLYN,FY16 RESO A SCIENCE LAB UPGRADE,CIP,K096,99 AVENUE P,Brooklyn,40.60754,-73.984661
P.S. 94 - BROOKLYN,EXTERIOR MASONRY/WINDOWS/FLOOD ELIMINATION,CIP,K094,5010 6TH AVENUE,Brooklyn,40.64366,-74.008252
P.S. 280 - BRONX,FY 17 RESO A AUDITORIUM UPGRADE,CIP,X080,149 EAST MOSHOLU PKWY N,Bronx,40.876299,-73.88153199999999
THE RIVERSIDE SCHOOL - MANHATT,New,CAP,M342,300 WEST 61ST STREET,Manhattan,40.772883,-73.989609
I.S. 151 - BRONX,STH SBHC,CIP,X151,250 EAST 156 STREET,Bronx,40.82316,-73.921631
P.S. 81 - BRONX,FY18 RESO A SUPPLEMENTAL COOLING,CIP,X081,5550 RIVERDALE AVENUE,Bronx,40.903553,-73.905229
FORDHAM HS FOR THE ARTS - BRON,FY16 RESO A LIBRARY UPGRADE,CIP,X435,500 EAST FORDHAM ROAD,Bronx,40.860043,-73.888267
P.S. 147 - QUEENS,FY17 RESO A PLAYGROUND REDEVELOPMENT,CIP,Q147,218-01 116 AVENUE,Queens,40.697309,-73.740948
PRE-K CENTER @ 1355 84TH STREET - BROOKLYN,Lease,CAP,K762,1355 84TH STREET,Brooklyn,40.614466,-74.011425
P.S. 160 - QUEENS,CHIMNEY/ROOFS/PARAPETS/FLOOD,CIP,Q160,109-59 INWOOD STREET,Queens,40.688103000000005,-73.800415
ABRAHAM LINCOLN HS - BROOKLYN,SANDY: INTERIOR/VENT/ELEC/FLOOD/ATHLETIC FIELD,CIP,K411,2800 OCEAN PARKWAY,Brooklyn,40.581681,-73.967308
I.S. 72 - STATEN ISLAND,PLANYC BOILER CONVERSION/PLANYC CLIMATE CONTROL,CIP,R072,33 FERNDALE AVENUE,Staten Island,40.593005,-74.158988
J.H.S. 194 - QUEENS,PLANYC BOILER CNVRSN/PLANYC CLIMATE CTRL,CIP,Q194,154-60 17 AVENUE,Queens,40.78365,-73.807838
P.S. 132 - MANHATTAN,IRON FENCE/FY16 RESO PLAYGRD/WATER INFILTRA/BOILER,CIP,M132,185 WADSWORTH AVENUE,Manhattan,40.850626,-73.934377
P.S. 200 - QUEENS,FY18 RESO A AUDITORIUM  UPGRADE,CIP,Q200,70-10 164 STREET,Queens,40.731369,-73.805116
P.S. 183 - MANHATTAN,PLANYC BOILER CONVERSION/PLANYC CLIMATE CONTROL/VENTILATION,CIP,M183,419 EAST 66 STREET,Manhattan,40.763736,-73.95815
P.S. 183 - MANHATTAN,EXTERIOR MASONRY/FLOOD ELIMINATION/ PARAPETS/ROOFS,CIP,M183,419 EAST 66 STREET,Manhattan,40.763736,-73.95815
P.S. 71 - QUEENS,PARAPETS/EXTERIOR MASONRY/ROOFS,CIP,Q071,62-85 FOREST AVENUE,Queens,40.711203000000005,-73.905286
P.S. 32 ADDITION - BROOKLYN,Addition,CAP,K032,317 HOYT STREET,Brooklyn,40.680445,-73.991949
I.S. 7 - STATEN ISLAND,MASONRY,CIP,R007,1270 HUGUENOT AVENUE,Staten Island,40.523757,-74.185941
HS OF BUSINESS - BRONX,ATHLETIC FIELD RETAINING WALL,CIP,X410,240 EAST 172 STREET,Bronx,40.840422,-73.91091
I.S. 210 - QUEENS,IPDVS CAMERA INSTALLATION,CIP,Q210,93-11 101 AVENUE,Queens,40.683858,-73.84747
P.S. 83 - MANHATTAN,FULL PROGRAM ACCESSIBILITY,CIP,M083,219 EAST 109 STREET,Manhattan,40.793194,-73.942548
P.S. 44 - BROOKLYN,PLANYC BOILER/PLANYC CLIMATE CTRL/FIRE ALARM,CIP,K044,432 MONROE STREET,Brooklyn,40.686592,-73.940747
JOHN BOWNE HS - QUEENS,IP DIGITAL VIDEO SURVEILLANCE SYSTEM,CIP,Q425,63-25 MAIN STREET,Queens,40.738139,-73.82494399999999
P.S. 332 - QUEENS,New,CAP,Q332,210-07 48TH AVENUE,Queens,40.754954,-73.770314
P.S. 48 - BROOKLYN,FLOOD ELIMINATION/EXTERIOR MASONRY/WINDOWS,CIP,K048,6015 18 AVENUE,Brooklyn,40.621871,-73.98739599999999
P.S. 200 - QUEENS,FY18 RESO A AUDITORIUM  UPGRADE,CIP,Q200,70-10 164 STREET,Queens,40.731369,-73.805116
P.S. 335 - BROOKLYN,PARTIAL ACESSIBILITY,CIP,K335,130 ROCHESTER AVENUE,Brooklyn,40.674656,-73.92779399999999
P.S. 163 - MANHATTAN,TCU REMOVAL & PLAYGROUND REDEVELOPMENT,CIP,M163,163 WEST 97 STREET,Manhattan,40.794264,-73.96870600000001
EDUCATIONAL CAMPUS @ 500 19TH STREET - BROOKLYN,Lease,CAP,K280,500 19TH STREET,Brooklyn,40.656944,-73.983115
BROOKLYN ACADEMY HS - BROOKLYN,PARAPETS/EXTERIOR MASONRY/ROOFS,CIP,K458,832 MARCY AVENUE,Brooklyn,40.685004,-73.947152
P.S. 677 - BROOKLYN,Lease,CAP,K677,139 MENAHAN STREET,Brooklyn,40.695717,-73.919473
I.S. 75 - STATEN ISLAND,FY17 RESO A LIBRARY UPGRADES,CIP,R075,455 HUGUENOT AVENUE,Staten Island,40.54438,-74.197897
PRE-K CENTER @ 1355 84TH STREET - BROOKLYN,Lease,CAP,K762,1355 84TH STREET,Brooklyn,40.614466,-74.011425
P.S. 197 - BROOKLYN,EXT MASONRY/PARAPETS/ROOFS/WINDOWS/FLOOD/PIPING,CIP,K197,1599 EAST 22 STREET,Brooklyn,40.612623,-73.95190600000001
P.S. 12 - QUEENS,BOILER REPLACE/ELEC SWITCH UPG/PLANYC CLIMATE CTRL,CIP,Q012,42-00 72 STREET,Queens,40.742633000000005,-73.89280500000001
P.S. 48 - MANHATTAN,TCU REMOVAL / PLAYGROUND REDEVELOPMENT,CIP,M048,4360-78 BROADWAY,Manhattan,40.853466,-73.934048
P.S. 133 - QUEENS,FY15 RESO A PLAYGROUND REDEVELOPMENT,CIP,Q133,248-05 86 AVENUE,Queens,40.731729,-73.71785899999999
P.S. 377 - BROOKLYN,LL 41-16 COMPLIANCE,CIP,K377,200 WOODBINE STREET,Brooklyn,40.694018,-73.915263
P.S. 72 - MANHATTAN,SCIENCE LAB UPGRADE,CIP,M072,131 EAST 104 STREET,Manhattan,40.791179,-73.947776
P.S. 216 - BROOKLYN,FY15 RESO A SUPPLEMENTAL COOLING,CIP,K216,350 AVENUE X,Brooklyn,40.590564,-73.969964
SECONDARY SCHOOL FOR LAW - K,DETERIORATED LEADER AND DRAIN LINES,CIP,K460,237 7TH AVENUE,Brooklyn,40.669629,-73.979287
P.S. 114 - BROOKLYN,EXTERIOR MASONRY,CIP,K114,1077 REMSEN AVENUE,Brooklyn,40.642792,-73.90880600000001
THE RIVERSIDE SCHOOL - MANHATTAN,New,CAP,M342,300 WEST 61ST STREET,Manhattan,40.772883,-73.989609
I.S. 88 - BROOKLYN,FY18 RESO A GYMNASIUM UPGRADE,CIP,K088,544 7TH AVENUE,Brooklyn,40.660024,-73.987637
P.S. 4 - STATEN ISLAND,FIRE ALARM SYSTEM REPLACEMENT,CIP,R004,200 NEDRA LANE,Staten Island,40.552975,-74.194597
I.S. 73 - QUEENS,LOW VOLT ELECTRICAL SYSTEMS,CIP,Q073,70-02 54 AVENUE,Queens,40.729215,-73.893624
P.S. 254 - BROOKLYN,SANDY - HEATING/ELEC SYS/FLOOD ELIM/CLIMATE CONTRL,CIP,K254,1801 AVENUE Y,Brooklyn,40.590423,-73.951753
P.S. 198 - MANHATTAN,FY17 RESO A SUPPLEMENTAL COOLING,CIP,M198,1700 3RD AVENUE,Manhattan,40.784826,-73.949611
P.S. 41 - QUEENS,FY17 RESO A ELECTRICAL SYSTEMS,CIP,Q041,214-43 35 AVENUE,Queens,40.769601,-73.770863
P.S. 36 - QUEENS,STANDALONE GYM ANNEX,CIP,Q357,187-01 FOCH BLVD,Queens,40.690828,-73.76390699999999
HS FOR MEDICAL PROFESSIONS - K,PLANYC BOILER CONVERSION/PLANYC CLIMATE CONTROL/FLOOD ELIMINATION,CIP,K500,1600 ROCKAWAY PKWY,Brooklyn,40.641474,-73.89825400000001
J.H.S. 8 - QUEENS,FY18 RESO A AUDITORIUM UPGRADE,CIP,Q008,108-35 167 STREET,Queens,40.69719,-73.787192
Q752 SPED - QUEENS,ELECTRICAL LIGHTING FIXTURES,CIP,Q142,142-10 LINDEN BLVD,Queens,40.684142,-73.801479
FASHION INDUSTRIES VOC HS - M,EXTERIOR MASONRY/PARAPETS/FLOOD ELIMINATION,CIP,M600,225 WEST 24 STREET,Manhattan,40.745156,-73.996074
NYC LAB MIDDLE SCHOOL - MANHAT,LOW VOLTAGE ELECTRICAL SYSTEM,CIP,M070,333 WEST 17 STREET,Manhattan,40.742129,-74.00219799999999
I.S. 78 - BROOKLYN,LSP REPLACE VERTICAL DUPLEX SEWAGE EJECTOR PUMPS,CIP,K078,1420 EAST 68 STREET,Brooklyn,40.621224,-73.91287
I.S. 281 - BROOKLYN,LSP PLAYGROUND REDEVELOPMENT,CIP,K281,8787 24 AVENUE,Brooklyn,40.595341,-73.99345699999999
P.S. 169 - QUEENS,FY16 RESO A AUDITORIUM UPGRADE,CIP,Q169,18-25 212 STREET,Queens,40.782298,-73.779099
FOREST HILLS HS - QUEENS,HAZARDOUS VIOLATION/EXTERIOR DOORS,CIP,Q440,67-01 110 STREET,Queens,40.729402,-73.845637
Q009 SPED - QUEENS,EXT MASONRY/PARAPETS/FLOOD/ACCESSIBILITY/FA/ROOFS,CIP,Q009,58-74 57 STREET,Queens,40.718935,-73.91220799999999
P.S. 175 HENRY H GARNET - M,FY18 RESO A AUDITORIUM  UPGRADE,CIP,M175,175 WEST 134 STREET,Manhattan,40.814422,-73.943664
P.S. 287 - BROOKLYN,ROOFS/PARAPETS/EXTERIOR MASONRY,CIP,K287,50 NAVY STREET,Brooklyn,40.697901,-73.98054
FOREST HILLS H.S.,CONCRETE PAVED AREAS,CIP,Q440,67-01 110 STREET,Queens,40.729402,-73.845637
I.S. 117 - BRONX,FY18 RESO A GYMNASIUM UPGRADE,CIP,X117,1865 MORRIS AVENUE,Bronx,40.848547,-73.908416
P.S. 192 - MANHATTAN,FY19 RESO A CAFETERIA / MULTIPURPOSE ROOM UPGRADE,CIP,M192,500 WEST 138 STREET,Manhattan,40.820953,-73.951145
I.S. 126 - QUEENS,IPDVS CAMERA INSTALLATION,CIP,Q126,31-51 21 STREET,Queens,40.766264,-73.930709
P.S. 127 - BROOKLYN,Addition,CAP,K127,7805 7 AVENUE,Brooklyn,40.624132,-74.018826
QUEENS COLLEGIATE SCHOOL - QUE,ELECTRICAL WORK FOR A/C INITIATIVE,CIP,Q470,167-01 GOTHIC DRIVE,Queens,40.713218,-73.797237
P.S. 22 - STATEN ISLAND,FY18 RESO A AUDITORIUM UPGRADE,CIP,R022,1860 FOREST AVENUE,Staten Island,40.625369,-74.15097
BROOKLYN TECH HS - K,LOW VOLT ELEC SYS/KITCHEN FIRE SUPRESSION SYS,CIP,K430,29 FT GREENE PLACE,Brooklyn,40.688834,-73.976905
P.S. 183 - MANHATTAN,EXTERIOR MASONRY/FLOOD ELIMINATION/ PARAPETS/ROOFS,CIP,M183,419 EAST 66 STREET,Manhattan,40.763736,-73.95815
Q177 SPED - QUEENS,PLANYC BOILER CONVERSION/PLANYC CLIMATE CONTROL,CIP,Q177,56-37 188 STREET,Queens,40.74391,-73.788133
P.S. 139 - QUEENS,LSP PLAYGROUND SAFETY SURFACING,CIP,Q139,93-06 63 DRIVE,Queens,40.72814,-73.863582
P.S. 119 - BRONX,TCU REMOVAL/PLAYGROUND REDEVELOPMENT,CIP,X119,1075 PUGSLEY AVENUE,Bronx,40.828518,-73.856569
WIILIAMSBURG PREP- BROOKLYN,ROOFS/WINDOWS/PARAPETS/EXT MASONRY,CIP,K650,257 N 6TH STREET,Brooklyn,40.715073,-73.95475400000001
P.S. 42 - BRONX,FLOOD ELIMINATION/PARAPETS/EXTERIOR MASONRY/ROOFS,CIP,X042,1537 WASHINGTON AVENUE,Bronx,40.838288,-73.902987
I.S. 187 - BROOKLYN,FY17 RESO A ROOM CONVERSIONS/PARTITIONING,CIP,K486,1171 65 STREET,Brooklyn,40.627784000000005,-74.004485
P.S. 75 - MANHATTAN,TEMPORARY BOILER,CIP,M075,735 WEST END AVENUE,Manhattan,40.795157,-73.973292
I.S. 331 - BRONX,FY19 RESO A GYMNASIUM UPGRADE,CIP,X306,40 WEST TREMONT AVENUE,Bronx,40.851823,-73.91118
JAMES MADISON HS - BROOKLYN,FY16 RESO A AUDITORIUM UPGRADE,CIP,K425,3787 BEDFORD AVENUE,Brooklyn,40.609912,-73.948512
P.S. 32 - BRONX,ELECTRICAL WORK FOR A/C INITIATIVE,CIP,X032,690 EAST 183 STREET,Bronx,40.852092,-73.885891
I.S. 59 - QUEENS,FY19 RESO A GYMNASIUM UPGRADE,CIP,Q059,132-55 RIDGEDALE STREET,Queens,40.68173,-73.753429
LONGWOOD PREPARATORY ACADEMY,IP DIGITAL VIDEO SURVEILLANCE SYSTEM,CIP,X039,965 LONGWOOD AVENUE,Bronx,40.817512,-73.898212
P.S. 9 - BRONX,PLANYC BOILER CNVSN/PLANYC CLIMATE CTRL,CIP,X009,230 EAST 183 STREET,Bronx,40.857067,-73.89893599999999
P.S. 213 - BROOKLYN,"LSP VACUUM PUMP SETS, CHEMICAL FEEDER",CIP,K213,580 HEGEMAN AVENUE,Brooklyn,40.66051,-73.890288
P.S. 23 - BROOKLYN,ELECTRICAL WORK FOR A/C INITIATIVE/LL26 CODE COMPLIANCE/EXIT SIGN REPLACEMENT,CIP,K023,545 WILLOUGHBY AVENUE,Brooklyn,40.69407,-73.94756
P.S. 112 - BROOKLYN,TCU REMOVAL - PLAYGROUND REDEVELOPMENT,CIP,K112,7115 15 AVENUE,Brooklyn,40.61978,-74.000792
A. PHILIP RANDOLPH HS -MANHATT,EXT MASONRY/FLOOD ELMNTN/PARAPETS/ROOFS,CIP,M540,443 WEST 135 STREET,Manhattan,40.818188,-73.950356
P.S. 398 - QUEENS,New,CAP,Q398,69-01 34TH AVENUE,Queens,40.752493,-73.896922
P.S. 57 - STATEN ISLAND,LSP FRONT STEPS,CIP,R057,140 PALMA DRIVE,Staten Island,40.611508,-74.083177
P.S. 9 - BRONX,PLANYC BOILER CONVERSION/PLANYC CLIMATE CONTROL,CIP,X009,230 EAST 183 STREET,Bronx,40.857067,-73.89893599999999
I.S. 419 - QUEENS,New,CAP,Q419,111-10 ASTORIA BOULEVARD,Queens,40.7599,-73.859218
J.H.S. 8 - QUEENS,FY18 RESO A AUDITORIUM UPGRADE,CIP,Q008,108-35 167 STREET,Queens,40.69719,-73.787192
NEW UTRECHT HS - BROOKLYN,ATHLETIC FIELD REPAIRS,CIP,K446,1601 80 STREET,Brooklyn,40.613262,-74.003404
E NY VOC HS OF TRANSIT TECH.-K,ENY LIBRARY UPGRADE,CIP,K615,1 WELLS STREET,Brooklyn,40.678276,-73.87595999999999
P.S. 131 - QUEENS,Addition,CAP,Q131,170-45 84TH AVENUE,Queens,40.716617,-73.794637
I.S. 424 - BRONX,FY19 RESO A SCHOOL SAFETY,CIP,X074,730 BRYANT AVENUE,Bronx,40.815455,-73.88577
P.S. 205 - QUEENS,BOILER/CLIMATE CTRL/FLOOD/MASONRY/ ROOFS/PARAPETS,CIP,Q205,75-25 BELL BLVD,Queens,40.737678,-73.756791
E NY VOC HS OF TRANSIT TECH.-K,ENY AUDITORIUM UPGRADE,CIP,K615,1 WELLS STREET,Brooklyn,40.678276,-73.87595999999999
P.S. 2 - QUEENS,FY15 RESO A ACCESSIBILITY,CIP,Q002,75-10 21 AVENUE,Queens,40.770335,-73.894476
NEW UTRECHT HS - BROOKLYN,WATER PENETRATION INTO BASEMENT/NATATORIUM RECONSTRUCTION,CIP,K445,1601 80 STREET,Brooklyn,40.613262,-74.003404
P.S. 70 - BRONX,EXT MASONRY/ROOFS/PARAPETS,CIP,X070,1691 WEEKS AVENUE,Bronx,40.844253,-73.907616
P.S. 131 - QUEENS,Addition,CAP,Q131,170-45 84TH AVENUE,Queens,40.716617,-73.794637
P.S. 62 - BRONX,EXT MASONRY/PARAPETS,CIP,X062,660 FOX STREET,Bronx,40.814031,-73.900609
I.S. 34 - STATEN ISLAND,FULL PROGRAM ACCESSIBILITY/FIRE ALARM SYSTEM,CIP,R034,528 ACADEMY AVE,Staten Island,40.508284,-74.24342800000001
P.S. 190 - BROOKLYN,STANDALONE GYM ANNEX,CIP,K478,590 SHEFIELD AVENUE,Brooklyn,,
P.S. 307 - BROOKLYN,FY17 RESO A LIBRARY UPGRADES,CIP,K307,209 YORK STREET,Brooklyn,40.701343,-73.982314
BERGTRAUM HS - MANHATTAN,SCIENCE LAB UPGRADE/FIRE ALARM SYSTEMS,CIP,M520,411 PEARL STREET,Manhattan,40.711442,-74.000851
Q721 SPED - QUEENS,FY16 RESO A AUDITORIUM UPGRADE,CIP,Q722,57-12 94TH STREET,Queens,40.736003,-73.867478
THE BROOKLYN SCHOOL FOR SOCIAL,RNWL SBHC,CIP,K480,400 IRVING AVENUE,Brooklyn,40.697185,-73.91117
I.S. 136 - BROOKLYN,RPZ VALVES/LOW VOLTAGE ELEC SYSTEM,CIP,K136,4004 4TH AVENUE,Brooklyn,40.651977,-74.006862
K753 SPED - BROOKLYN,PLANYC BOILER CNVRSN/PLANYC CLIMATE CTRL,CIP,K085,510 CLERMONT AVENUE,Brooklyn,40.682533,-73.968769
P.S. 3 - MANHATTAN,LSP LL26 CODE COMPLIANCE/EXIT SIGN REPLACEMENT,CIP,M003,490 HUDSON STREET,Manhattan,40.732593,-74.006466
P.S. 199 - BRONX,5TH SBHC,CIP,X104,1449 SHAKESPEARE AVENUE,Bronx,40.842943,-73.920563
I.S. 127 - BRONX,ACCESSIBILITY/WINDOWS/PARAPETS/EXT MASONRY/ROOFS,CIP,X127,1560 PURDY STREET,Bronx,40.837931,-73.853524
DISTRICT 27 PRE-K CENTER @ 160-06 CROSS BAY BOULEVARD - QUEENS,Demo,CAP,Q486,160-06 CROSS BAY BOULEVARD,Queens,40.657176,-73.839392
I.S. 62 - BROOKLYN,ELECTRICAL WORK FOR A/C INITIATIVE,CIP,K062,700 CORTELYOU ROAD,Brooklyn,40.638686,-73.971651
JOHN BOWNE HS - QUEENS,IP DIGITAL VIDEO SURVEILLANCE SYSTEM,CIP,Q425,63-25 MAIN STREET,Queens,40.738139,-73.82494399999999
J.H.S. 216 - QUEENS,FY19 RESO A AUDITORIUM UPGRADE,CIP,Q216,64-20 175 STREET,Queens,40.737517,-73.794031
HS FOR ARTS & TECHNOLOGY - M,FY16 RESO A TERRACE SURFACING/ROOFS/WINDOWS,CIP,M490,122 AMSTERDAM AVENUE,Manhattan,40.774351,-73.984753
HOLCOMBE L. RUCKER SCHOOLOF CO,FY16 RESO A AUDITORIUM UPGRADE,CIP,X039,965 LONGWOOD AVENUE,Bronx,40.817512,-73.898212
FASHION INDUSTRIES VOC HS - M,ACCESSIBILITY,CIP,M600,225 WEST 24 STREET,Manhattan,40.745156,-73.996074
I.S. 232 - BRONX,ROOFS/PARAPETS/EXTERIOR MASONRY,CIP,X082,1700 MACOMBS ROAD,Bronx,40.849532,-73.916077
FORT HAMILTON HS - K,POOL BOILER,CIP,K490,8301 SHORE ROAD,Brooklyn,40.627898,-74.039985
P.S. 15 - MANHATTAN,FY17 RESO A IPDVS CAMERA INSTALLATION,CIP,M015,333 EAST 4 STREET,Manhattan,40.721791,-73.97898599999999
P.S. 205 - BROOKLYN,FLOOD ELIMINATION/PARAPETS/EXTERIOR MASONRY/ROOFS,CIP,K205,6701 20 AVENUE,Brooklyn,40.61527,-73.987149
P.S. 25 - BRONX,ELECTRICAL WORK FOR A/C INITIATIVE,CIP,X025,811 EAST 149 STREET,Bronx,40.812619,-73.906063
M721 SPED - MANHATTAN,REINFORCE CINDER/FLOORS/ACCESSIBLITY/ELEC UPG/FA,CIP,M641,16 CLARKSON STREET,Manhattan,40.729412,-74.006148
BROOKLYN HS OF THE ARTS - BROO,PLANYC BOILER CONVERSION/PLANYC CLIMATE CONTROL,CIP,K656,500 PACIFIC STREET,Brooklyn,40.684504,-73.980678
P.S. 37 - QUEENS,FLOOD ELIMINATION/FIRE ALARM/EXTERIOR MASONRY/ELEVATOR/PARAPETS/FLOOD ELIMINATION,CIP,Q037,179-37 137 AVENUE,Queens,40.67588,-73.758505
P.S. 127 ADDITION,Addition,CAP,K127,7805 7 AVENUE,Brooklyn,40.624132,-74.018826
WASHINGTON IRVING H.S.,WATER STORAGE TANK,CIP,M460,40 IRVING PLACE,Manhattan,40.735494,-73.987659
THE BROOKLYN SCHOOL FOR SOCIAL,FLOOR TILE REPLACEMENT,CIP,K480,400 IRVING AVENUE,Brooklyn,40.69697,-73.910791
P.S. 124 - QUEENS,PLANYC BOILER CONVERSION/PLANYC CLIMATE CONTROL,CIP,Q124,129-15 150 AVENUE,Queens,40.665058,-73.811701
J.H.S. 8 - QUEENS,FY17 RESO A FENCING,CIP,Q008,108-35 167 STREET,Queens,40.69719,-73.787192
P.S. 214 - BRONX,EXTERIOR MASONRY/ROOFS,CIP,X167,1970 WEST FARMS ROAD,Bronx,40.839565,-73.880358
P.S. 159 - BROOKLYN,STANDALONE GYM ANNEX,CIP,K368,2781  PITKIN AVENUE,Brooklyn,40.675766,-73.869469
P.S. 5 - BROOKLYN,FY19 RESO A AUDITORIUM UPGRADE,CIP,K005,820 HANCOCK STREET,Brooklyn,40.685695,-73.922463
P.S. 1 - STATEN ISLAND,EXTERIOR MASONRY/PARAPETS/ROOFS/WINDOWS,CIP,R001,58 SUMMIT STREET,Staten Island,40.509037,-74.244118
HS OF GRAPHIC COMM. ARTS (VOC),PLANYC BOILERS CONVERSION/CLIMATE CONTROL,CIP,M625,439 WEST 49 STREET,Manhattan,40.76337,-73.9906
I.S. 221 - BRONX,GYMNASIUM UPGRADE/ROOFS,CIP,X149,360 EAST 145 STREET,Bronx,40.813983,-73.92078199999999
URBN ASSY SCHL CRIM JUSTICE -,SCIENCE LAB UPGRADE,CIP,K223,4200 16 AVENUE,Brooklyn,40.634875,-73.981528
P.S. 242 - MANHATTAN,PLANYC CLIMATE CONTROL/PLANYC BOILER CONVERSION,CIP,M144,134 WEST 122 STREET,Manhattan,40.8063,-73.948013
THE BROOKLYN SCHOOL FOR SOCIAL,EXTERIOR MASONRY/PARAPETS/ROOFS,CIP,K480,400 IRVING AVENUE,Brooklyn,40.69697,-73.910791
P.S. 124 - BROOKLYN,FLOOD/ROOFS/PARAPETS/EXT MASONRY,CIP,K124,515 4TH AVENUE,Brooklyn,40.667545,-73.991046
P.S. 183 - MANHATTAN,PLANYC BOILER CONVERSION/PLANYC CLIMATE CONTROL/VENTILATION,CIP,M183,419 EAST 66 STREET,Manhattan,40.763736,-73.95815
FRANCIS LEWIS HS ANNEX - QUEENS,New,CAP,Q434,58-20 UTOPIA PARKWAY,Queens,40.740724,-73.79283000000001
P.S. 40 - QUEENS,EXTERIOR MASONRY/TCU REMOVAL & PLAYGROUND/FLOOD,CIP,Q040,109-20 UNION HALL STREET,Queens,40.694125,-73.790675
P.S. /I.S 295 - QUEENS,IPDVS CAMERA INSTALLATION,CIP,Q263,222-14 JAMAICA AVENUE,Queens,40.720619,-73.73199699999999
P.S. 304 - BRONX,PLANYC BOILER CONVERSION/PLANYC CLIMATE CONTROL,CIP,X101,2750 LAFAYETTE AVENUE,Bronx,40.827471,-73.829753
P.S. 40 - BROOKLYN,FY13 RESO A SUPPLEMENTAL COOLING,CIP,K040,265 RALPH AVENUE,Brooklyn,40.680463,-73.922264
P.S. 197 - QUEENS,ELECTRICAL WORK FOR A/C INITIATIVE,CIP,Q197,825 HICKSVILLE ROAD,Queens,40.600199,-73.74396800000001
P.S. 176 - QUEENS,Addition,CAP,Q176,120-45 235 STREET,Queens,40.685492,-73.72998199999999
P.S. 112 - QUEENS,FY17 RESO A PLAYGROUND REDEVELOPMENT,CIP,Q112,25-05 37 AVENUE,Queens,40.756891,-73.934523
I.S. 167 - MANHATTAN,FY15 RESO A SCIENCE LAB UPGRADES,CIP,M167,220 EAST 76 STREET,Manhattan,40.77205,-73.958066
P.S. 307 - QUEENS,FY19 RESO A LIBRARY UPGRADE,CIP,Q260,40-20 100TH STREET,Queens,40.748838,-73.865161
P.S. 377 - BROOKLYN,AUDITORIUM UPGRADE,CIP,K377,200 WOODBINE STREET,Brooklyn,40.694018,-73.915263
HS FOR ENVIRONMENTAL STUDIES -,6TH FLOOR EGRESS/FIRE ALARM,CIP,M834,444 WEST 56 STREET,Manhattan,40.767791,-73.987531
THE BROOKLYN SCHOOL FOR SOCIAL,EXTERIOR MASONRY/PARAPETS/ROOFS,CIP,K480,400 IRVING AVENUE,Brooklyn,40.697185,-73.91117
P.S. 115 - QUEENS,PARAPETS/EXT MASONRY,CIP,Q115,80-51 261 STREET,Queens,40.744099,-73.709845
GROVER CLEVELAND HS - QUEENS,ELECTRICAL WORK FOR A/C INITIATIVE,CIP,Q485,21-27 HIMROD STREET,Queens,40.711033,-73.908814
M.S. 282 - QUEENS,LSP VACUUM PUMP REPLACEMENT,CIP,Q465,8-21 BAY 25 STREET,Queens,40.60201,-73.762795
P.S. 101 - BROOKLYN,Addition,CAP,K101,8696 24TH AVENUE,Brooklyn,40.597133,-73.991614
P.S. 112 - QUEENS,FY17 RESO A PLAYGROUND REDEVELOPMENT,CIP,Q112,25-05 37 AVENUE,Queens,40.756891,-73.934523
Q811 SPED - QUEENS,LL 41/16 COMPLIANCE,CIP,Q811,61-25 MARATHON PKWY,Queens,40.756778,-73.729487
P.S. 75 - MANHATTAN,TEMPORARY BOILER,CIP,M075,735 WEST END AVENUE,Manhattan,40.795157,-73.973292
P.S. 340 ANNEX - BRONX,New,CAP,X448,25 WEST 195TH STREET,Bronx,40.869007,-73.89749
P.S. 99 - QUEENS,FY17 RESO A ROOM CONVERSIONS/PARTITIONING,CIP,Q099,82-37 KEW GARDENS ROAD,Queens,40.711419,-73.82862800000001
I.S. 323 - MANHATTAN,New,CAP,M323,75 MORTON STREET,Manhattan,40.730999,-74.007191
P.S. 50 - QUEENS,Addition,CAP,Q050,143-26 101 AVENUE,Queens,40.695238,-73.807364
P.S. 94 - BROOKLYN,EXT MASONRY/WINDOWS/FLOOD ELIMINATION,CIP,K094,5010 6TH AVENUE,Brooklyn,40.64366,-74.008252
WIILIAMSBURG PREP- BROOKLYN,IPDVS CAMERA INSTALLATION,CIP,K650,257 N 6TH STREET,Brooklyn,40.715073,-73.95475400000001
P.S. 156 - QUEENS,TCU REMOVAL/PLAYGROUND REDEVELOPMENT,CIP,Q156,229-02 137 AVENUE,Queens,40.673069,-73.743173
P.S. 145 - MANHATTAN,PLANYC BOILER CNVSN/PLANYC CLIMATE CTRL,CIP,M145,150 WEST 105 STREET,Manhattan,40.799178000000005,-73.964842
P.S. 181 - QUEENS,FY18 RESO A LIBRARY UPGRADES,CIP,Q181,148-15 230 STREET,Queens,40.656126,-73.75320699999999
P.S. 189 - MANHATTAN,FLOOD ELIMINATION/ROOFS/PARAPETS/EXTERIOR MASONRY/PLAYGROUND,CIP,M189,2580 AMSTERDAM AVENUE,Manhattan,40.852631,-73.927604
P.S. 315 - BROOKLYN,LOW VOLTAGE ELECTRICAL SYSTEM,CIP,K152,725 EAST 23 STREET,Brooklyn,40.632562,-73.954724
P.S. 18 - BRONX,ELECTRICAL WORK FOR A/C INITIATIVE/LL26 CODE COMPLIANCE/EXIT SIGN REPLACEMENT,CIP,X018,502 MORRIS AVENUE,Bronx,40.816406,-73.92329000000001
MARTIN VAN BUREN HS - QUEENS,RNWL SBHC,CIP,Q435,230-17 HILLSIDE AVENUE,Queens,40.733066,-73.73875600000001
P.S. 24 ADDITION - QUEENS,Addition,CAP,Q024,141-11 HOLLY AVENUE,Queens,40.75146,-73.817849
NEW UTRECHT HS - BROOKLYN,ATHLETIC FIELD REPAIRS,CIP,K446,1601 80 STREET,Brooklyn,40.613262,-74.003404
UNIVERSITY NEIGHBORHOOD HS - M,FY18 RESO A SAFETY SYSTEMS,CIP,M446,200 MONROE STREET,Manhattan,40.712399,-73.98449699999999
FREDERICK DOUGLASS ACADEMY III,ELECTRICAL WORK FOR A/C INITIATIVE,CIP,X148,3630 THIRD AVENUE,Bronx,40.833511,-73.90449
"MATH, SCI., RESEARCH & TECH. H",ELECTRICAL WORK FOR A/C INITIATIVE,CIP,Q490,207-01 116 AVENUE,Queens,40.697819,-73.745728
PRE-K CENTER @ 2 LAFAYETTE STREET - MANHATTAN,Interior,CAP,M453,2 LAFAYETTE STREET,Manhattan,40.713723,-74.003586
I.S. 51 - STATEN ISLAND,IPDVS CAMERA INSTALLATION,CIP,R051,20 HOUSTON STREET,Staten Island,40.622585,-74.14488
P.S. 37 - QUEENS,PLANYC BOILER/PLANYC CLIMATE CONTROL,CIP,Q037,179-37 137 AVENUE,Queens,40.67588,-73.758505
M.S./H.S. 225 - BRONX,FY15 RESO A GREEN ROOF,CIP,X137,2225 WEBSTER AVENUE,Bronx,40.854493,-73.89671700000001
P.S. 269 - BROOKLYN,FY18 RESO A AUDITORIUM  UPGRADE,CIP,K269,1957 NOSTRAND AVENUE,Brooklyn,40.637711,-73.94815899999999
I.S. 144 - BRONX,PLANYC BOILER CONVERSION/CLIMATE CONTROL,CIP,X144,2545 GUNTHER AVENUE,Bronx,40.863735,-73.83606999999999
THE INTERNATIONAL HS - BROOKLY,MASONRY/WINDOWS/PARAPETS/ROOFS/FLOOD ELIMINATION,CIP,K440,883 CLASSON AVENUE,Brooklyn,40.670349,-73.96169499999999
P.S. 219 - QUEENS,ROOFS,CIP,Q219,144-39 GRAVETT ROAD,Queens,40.735275,-73.823778
M.S. 354 - BROOKLYN,PLANYC BOILER CONVERSION/PLANYC CLIMATE CONTROL,CIP,K390,1224 PARK PLACE,Brooklyn,40.672713,-73.936924
P.S. 116 - MANHATTAN,BULGING WALLS AND RUSTED GRATING SUPPORTS,CIP,M116,210 EAST 33 STREET,Manhattan,40.744838,-73.978116
P.S. 1 - BROOKLYN,FY19 RESO A AUDITORIUM UPGRADE,CIP,K001,309 47 STREET,Brooklyn,40.649042,-74.012289
BOYS & GIRLS HS - BROOKLYN,LSP REPLACE DAMAGED SECTION OF 2000 AMP SWITCHGEAR,CIP,K455,1700 FULTON STREET,Brooklyn,40.67944,-73.932407
P.S. 20 - BROOKLYN,ELECTRICAL WORK FOR A/C INITIATIVE,CIP,K020,225 ADELPHI STREET,Brooklyn,40.690765,-73.971376
P.S. 152 - MANHATTAN,M847 DEMOLITION/M152 PLAYGROUND REDEVELOPMENT,CIP,M847,93 NAGLE AVENUE,Manhattan,40.860412,-73.927936
P.S. 176 - QUEENS,Addition,CAP,Q176,120-45 235 STREET,Queens,40.685492,-73.72998199999999
THE URBAN ASSEMBLY SCHOOL FOR,HVAC (BMS) WORK/BACKFLOW PREVENTER & WATER METER,CIP,M470,145 WEST 84 STREET,Manhattan,40.785803,-73.974614
P.S. 16 - BROOKLYN,FLOOD ELIMINATION/ROOFS/EXT MASONRY/PARAPETS,CIP,K016,157 WILSON STREET,Brooklyn,40.706023,-73.961476
J.H.S. 157 - QUEENS,FY16 RESO A ROOM CONVERSIONS / PART,CIP,Q157,63-55 102ND STREET,Queens,40.732289,-73.853825
I.S. 259 - BROOKLYN,CRACKED EXTERIOR MASONRY/ROOFS/PARAPETS,CIP,K259,7305 FT HAMILTON PKWY,Brooklyn,40.62668,-74.01512
HILLCREST HS - QUEENS,ELECTRICAL WORK FOR A/C INITIATIVE,CIP,Q505,160-05 HIGHLAND AVENUE,Queens,40.709446,-73.80166
P.S. 232 - QUEENS,WATER INFILTRATION/PLANYC BOILER/PLANYC CLIMATE CONTROL/LOW-VOLTAGE ELECTRICAL SYSTEM/EXTERIOR MASONRY,CIP,Q232,153-23 83 STREET,Queens,40.665909,-73.85121600000001
I.S. 117 - BRONX,SCIENCE LAB UPGRADES/SCIENCE LAB UPGRADES,CIP,X117,1865 MORRIS AVENUE,Bronx,40.848547,-73.908416
FREDERICK DOUGLAS ACADEMY - M,SCIENCE LAB ACID WASTE LINES,CIP,M010,2581 7TH AVENUE,Manhattan,40.824319,-73.93712
P.S. 169 - QUEENS,Demo,CAP,Q169,18-25 212 STREET,Queens,40.782298,-73.779099
JAMES MADISON HS - BROOKLYN,SWIMMING POOL,CIP,K425,3787 BEDFORD AVENUE,Brooklyn,40.609912,-73.948512
PORT RICHMOND HS - R,TCU REMOVAL/MASONRY/ROOFS/PARAPETS/FLOOD ELIM,CIP,R445,85 ST JOSEPHS AVENUE,Staten Island,40.634573,-74.141818
P.S. 1 - BROOKLYN,FY18 RESO A IP SURVEILLANCE CAMERA INSTALLATION,CIP,K001,309 47 STREET,Brooklyn,40.649042,-74.012289
P.S. 50 - STATEN ISLAND,FY16 RESO A PLAYGROUND REDEVELOPMEN,CIP,R050,200 ADELAIDE AVENUE,Staten Island,40.561691,-74.124622
P.S. 40 - BROOKLYN,FY16 RESO A ROOFS,CIP,K040,265 RALPH AVENUE,Brooklyn,40.680463,-73.922264
NEW DORP HS - STATEN ISLAND,PARTIAL ACCESSIBILITY,CIP,R435,465 NEW DORP LANE,Staten Island,40.569393,-74.107737
P.S. 112 - BRONX,PLANYC BOILER CNVRSN/PLANYC CLIMATE CTRL,CIP,X112,1925 SCHIEFFELIN AVENUE,Bronx,40.885008,-73.843193
P.P.A.S. - MANHATTAN,FY13 RESO A ROOM CONVERSIONS / PART,CIP,M017,328 WEST 48 STREET,Manhattan,40.761448,-73.988019
P.S. 121 - BROOKLYN,EXTERIOR MASONRY/PARAPETS/ROOFS,CIP,K121,5301 20TH AVENUE,Brooklyn,40.623273,-73.978822
P.S. 48 - BROOKLYN,FLOOD ELIMINATION/EXTERIOR MASONRY/WINDOWS,CIP,K048,6015 18 AVENUE,Brooklyn,40.621871,-73.98739599999999
P.S. 29 - BRONX,ROOFS/FLOOD ELIMINATION/EXT MASONRY/PARAPETS,CIP,X029,758 COURTLANDT AVENUE,Bronx,40.821515000000005,-73.91727900000001
P.S. 116 - QUEENS,EXT MASONRY/ROOFS/CONCRETE ROOF DECK/PARAPETS,CIP,Q116,107-25 WREN PLACE,Queens,40.700606,-73.782302
P.S. 199 - QUEENS,PLANYC BOILER/PLANYC CLIMATE CONTROL,CIP,Q199,39-20 48 AVENUE,Queens,40.740088,-73.926214
I.S. 54 - MANHATTAN,PLANYC CLIMATE CONTROL/PLANYC BOILER CONVERSION,CIP,M054,103 WEST 107 STREET,Manhattan,40.800119,-73.962837
P.S. 1 - STATEN ISLAND,EXTERIOR MASONRY,CIP,R802,58 SUMMIT STREET,Staten Island,40.509037,-74.244118
P.S. 277 - BRONX,FLOOD ELIMINATION/ROOFS/EXTERIOR MASONRY,CIP,X027,519 ST ANNS AVENUE,Bronx,40.813517,-73.913402
SUSAN E. WAGNER HS ANNEX - STA,Addition,CAP,R462,1220 MANOR ROAD,Staten Island,40.596624,-74.12433399999999
P.S. 34 - QUEENS,LOOSE MASONRY/ROOFS/WINDOWS,CIP,Q034,104-12 SPRINGFIELD BLVD,Queens,40.711753,-73.736624
P.S. 46 ADDITION - BRONX,Addition,CAP,X046,279 EAST 196 STREET,Bronx,40.866827,-73.890725
Q177 SPED - QUEENS,PLANYC BOILER CONVERSION/PLANYC CLIMATE CONTROL,CIP,Q177,56-37 188 STREET,Queens,40.74391,-73.788133
P.S. 191 - BROOKLYN,EXTERIOR MASONRY/PARAPETS/ROOFS,CIP,K191,1600 PARK PLACE,Brooklyn,40.672005,-73.924329
NEW UTRECHT HS - BROOKLYN,WATER PENETRATION INTO BASEMENT/NATATORIUM RECONSTRUCTION,CIP,K445,1601 80 STREET,Brooklyn,40.613262,-74.003404
DEWITT CLINTON HS - X,GYMNASIUM UPGRADE,CIP,X440,100 W MOSHOLU PKWY S,Bronx,40.882178,-73.88691
CURTIS HIGH SCHOOL ANNEX - STATEN ISLAND,Addition,CAP,R453,105B HAMILTON AVENUE,Staten Is,40.644735,-74.081222
I.S. 78 - BROOKLYN,LSP VACUUM PUMPS,CIP,K078,1420 EAST 68 STREET,Brooklyn,40.621224,-73.91287
P.S. 48 - BRONX,FULL PROGRAM ACCESSIBILITY,CIP,X048,1290 SPOFFORD AVENUE,Bronx,40.814425,-73.886953
P.S. 50 - MANHATTAN,EXTERIOR MASONRY/ROOFS/PARAPETS/SITE WALLS,CIP,M050,433 EAST 100 STREET,Manhattan,40.785258,-73.941526
P.S. 1 - BROOKLYN,FY18 RESO A IP SURVEILLANCE CAMERA INSTALLATION,CIP,K001,309 47 STREET,Brooklyn,40.649042,-74.012289
MONROE ACAD FOR VISUAL ARTS -,BOILER/CLIMATE CONTROL/WATER INFILTRATION,CIP,X420,1300 BOYNTON AVENUE,Bronx,40.831601,-73.878912
P.S. 14 ADDITION,Addition,CAP,X014,3047 BRUCKNER BLVD,Bronx,40.83587,-73.825774
P.S. 45 - BROOKLYN,LSP VACUUM PUMPS,CIP,K045,84 SCHAEFER STREET,Brooklyn,40.686746,-73.91069300000001
P.S. 145 - MANHATTAN,PLANYC BOILER CNVSN/PLANYC CLIMATE CTRL,CIP,M145,150 WEST 105 STREET,Manhattan,40.799178000000005,-73.964842
P.S. 284 - BROOKLYN,LOW VOLTAGE ELECTRICAL SYSTEM/WATER PENETRATION,CIP,K284,213 OSBORN STREET,Brooklyn,40.667377,-73.908214
P.S. 132 - MANHATTAN,IRON FENCE/FY16 RESO PLAYGRD/WATER INFILTRA/BOILER,CIP,M132,185 WADSWORTH AVENUE,Manhattan,40.850626,-73.934377
P.S. 134 - MANHATTAN,ROOFS/PARAPETS/WINDOWS/EXTERIOR MASONRY,CIP,M134,293 EAST BROADWAY,Manhattan,40.71457,-73.983724
LONG ISLAND CITY HS - Q,CRACKED PARAPETS/FLOOD ELIMINATION/EXTERIOR MASONRY/ROOFS,CIP,Q452,14-30 BROADWAY,Queens,40.765826,-73.9328
P.S. 217 - BROOKLYN,EXT MASONRY/FLOOD/WINDOWS/PARAPETS,CIP,K217,1100 NEWKIRK AVENUE,Brooklyn,40.63398,-73.96655799999999
I.S. 145 - QUEENS,PLANYC BOILER CONVERSION/PLANYC CLIMATE CONTROL,CIP,Q145,33-34 80 STREET,Queens,40.754661,-73.887112
HS FOR ENVIRONMENTAL STUDIES -,6TH FLOOR EGRESS/FIRE ALARM,CIP,M834,444 WEST 56 STREET,Manhattan,40.767791,-73.987531
P.S. 8 - BRONX,FY16 RESO A AUDITORIUM UPGRADE,CIP,X008,3010 BRIGGS AVENUE,Bronx,40.872612,-73.883574
I.S. 322 - BRONX,CEILING TILE REPLACEMENT,CIP,X135,2441 WALLACE AVENUE,Bronx,40.862109,-73.864577
CURTIS HIGH SCHOOL ANNEX - STATEN ISLAND,Addition,CAP,R453,105B HAMILTON AVENUE,Staten Is,40.644735,-74.081222
YOUNG LEADERS ELEM - BRONX,FY18 RESO A PLAYGROUNDS,CIP,X040,468 EAST 140 STREET,Bronx,40.809534,-73.919903
I.S. 93 - QUEENS,ACCESSIBILITY/WINDOWS/ROOFS/EXT MASONRY/PARAPETS,CIP,Q093,66-56 FOREST AVENUE,Queens,40.706041,-73.90258399999999
P.P.A.S. - MANHATTAN,FY13 RESO A ROOM CONVERSIONS / PART,CIP,M017,328 WEST 48 STREET,Manhattan,40.761448,-73.988019
P.S. 46 - BRONX,Demo,CAP,X046,279 EAST 196 STREET,Bronx,40.866827,-73.890725
P.S. 5 - MANHATTAN,PARAPETS/ROOFS/WINDOWS,CIP,M005,3703 TENTH AVENUE,Manhattan,40.858990000000006,-73.922894
P.S. 112 - QUEENS,FY17 RESO A PLAYGROUND REDEVELOPMENT,CIP,Q112,25-05 37 AVENUE,Queens,40.756891,-73.934523
Q811 SPED - QUEENS,PLANYC BOILER CNVRSN/PLANYC CLIMATE CTRL,CIP,Q811,61-25 MARATHON PKWY,Queens,40.756778,-73.729487
THE MAURICE SENDAK COMMUNITY S,FY19 RESO A ACCESSIBILITY,CIP,K763,211 8TH STREET,Brooklyn,40.670764,-73.987787
HS FOR ARTS & TECHNOLOGY - M,IP DIGITAL VIDEO SURVEILLANCE SYSTEM,CIP,M490,122 AMSTERDAM AVENUE,Manhattan,40.774351,-73.984753
MANHTN CT FOR MATH & SCI. HS -,ELECTRICAL WORK FOR A/C INITIATIVE,CIP,M435,260 PLEASANT AVENUE,Manhattan,40.793856,-73.934028
ABRAHAM LINCOLN HS - BROOKLYN,SANDY: INTERIOR/VENT/ELEC/FLOOD/ATHLETIC FIELD,CIP,K411,2800 OCEAN PARKWAY,Brooklyn,40.581681,-73.967308
P.S. 233 - BROOKLYN,MASONRY/CORRODED BEAMS/ROOFS/PARAPETS,CIP,K233,9301 AVENUE B,Brooklyn,40.651022,-73.91402
P.S. /I.S 295 - QUEENS,FY19 RESO A AUDITORIUM UPGRADE,CIP,Q263,222-14 JAMAICA AVENUE,Queens,40.720619,-73.73199699999999
P.S. 44 - STATEN ISLAND,PLAY YARD PAVEMENT/CERTIFICATE OF OCCUPANCY/FLOOD ELIMINATION,CIP,R044,80 MAPLE PARKWAY,Staten Island,40.63179,-74.156439
I.S. 104 - MANHATTAN,FY17 RESO A SUPPLEMENTAL COOLING,CIP,M104,330 EAST 21 STREET,Manhattan,40.736094,-73.980663
HS FOR ENVIRONMENTAL STUDIES -,6TH FLOOR EGRESS/FIRE ALARM,CIP,M834,444 WEST 56 STREET,Manhattan,40.767791,-73.987531
P.S. 75 - BROOKLYN,EXTERIOR MASONRY/FLOOD ELIMINATION/ROOF,CIP,K075,95 GROVE STREET,Brooklyn,40.693313,-73.920666
P.S. 112 - BRONX,PLANYC BOILER CNVRSN/PLANYC CLIMATE CTRL,CIP,X112,1925 SCHIEFFELIN AVENUE,Bronx,40.885008,-73.843193
P.S. 179 - BRONX,FY17 RESO A SUPPLEMENTAL COOLING,CIP,X040,468 EAST 140 STREET,Bronx,40.809534,-73.919903
P.S. 158 - MANHATTAN,MASONRY/FLOOD ELIMINATION/ROOFS/WINDOWS/PARAPETS,CIP,M158,1458 YORK AVENUE,Manhattan,40.770419,-73.951135
K811 SPED - BROOKLYN,ELECTRICAL CODE COMPLIANCE,CIP,K286,2525 HARING STREET,Brooklyn,40.591109,-73.9391
D75 REPLACEMENT @ 15 FAIRFIELD STREET - STATEN ISLAND,New,CAP,R089,15 FAIRFIELD STREET,Staten Is,40.56397,-74.150885
J.H.S. 172 - QUEENS,FY18 RESO A LOCKER ROOM UPGRADE,CIP,Q172,81-14 257 STREET,Queens,40.741944,-73.712965
P.S. 206 - MANHATTAN,FY17 RESO A AUDITORIUM UPGRADE,CIP,M206,508 EAST 120 STREET,Manhattan,40.797467,-73.930868
P.S. 158 - BROOKLYN,ENY AUDITORIUM UPGRADE,CIP,K158,400 ASHFORD STREET,Brooklyn,40.672579,-73.884803
P.S. 136 - QUEENS,FY18 RESO A AUDITORIUM  UPGRADE,CIP,Q136,201-15 115 AVENUE,Queens,40.698279,-73.752654
P.S. 165 - MANHATTAN,EXTERIOR MASONRY/ROOFS,CIP,M165,234 WEST 109 STREET,Manhattan,40.802917,-73.965613
AUTOMOTIVE TRADES VOC HS - K,ELECTRICAL LIGHTING FIXTURES,CIP,K610,50 BEDFORD AVENUE,Brooklyn,40.721981,-73.953281
I.S. 126 - QUEENS,FY16 RESO A PLAYGROUND REDEVELOPMENT,CIP,Q126,31-51 21 STREET,Queens,40.766264,-73.930709
P.S. 418 - BROOKLYN,PUBLIC ADDRESS SYS REPLACEMENT/FA SYS REPLACEMENT,CIP,K834,512 CARROLL STREET,Brooklyn,40.676668,-73.985258
SPRING CREEK COMMUNITY SCHOOL,LSP FLOOR CRACKS,CIP,K422,1065 ELTON STREET,Brooklyn,40.657434,-73.874734
P.S. 312 - BROOKLYN,WATER PENETRATION,CIP,K312,7103 AVENUE T,Brooklyn,40.621413,-73.908987
BROOKLYN TECH HS - K,ELECTRICAL WORK FOR A/C INITIATIVE,CIP,K430,29 FT GREENE PLACE,Brooklyn,40.688834,-73.976905
P.S. 111 - BRONX,FY16 RESO A AUDITORIUM UPGRADE,CIP,X111,3740 BAYCHESTER AVENUE,Bronx,40.884343,-73.840254
I.S. 35 - BROOKLYN,FULL PROGRAM ACCESSIBILITY,CIP,K035,272 MACDONOUGH STREET,Brooklyn,40.681896,-73.935963
P.S. 164 - BROOKLYN,EXT MASONRY/ROOFS/CLIMATE CTRL/PARAPETS,CIP,K164,4211 14TH AVENUE,Brooklyn,40.637486,-73.985955
P.S. 63 - BRONX,FY18 RESO A AUDITORIUM  UPGRADE,CIP,X063,1260 FRANKLIN AVENUE,Bronx,40.830995,-73.90270500000001
P.S. 21 - QUEENS,CEILNG REPAIR,CIP,Q021,147-36 26TH AVENUE,Queens,40.774512,-73.819284
HEADQTRS 65 CNTRL ADMIN. - K,FACADE/WINDOWS,CIP,K801,65 COURT STREET,Brooklyn,40.692012,-73.991227
I.S. 328 - MANHATTAN,IP DIGITAL VIDEO SURVEILLANCE SYSTEM,CIP,M164,401 WEST 164 STREET,Manhattan,40.836536,-73.937159
I.S. 75 - STATEN ISLAND,CHILLER REPLACEMENT,CIP,R075,455 HUGUENOT AVENUE,Staten Island,40.54438,-74.197897
THE BROOKLYN SCHOOL FOR SOCIAL,IP DIGITAL VIDEO SURVEILLANCE SYSTEM,CIP,K480,400 IRVING AVENUE,Brooklyn,40.697185,-73.91117
M.S. 354 - BROOKLYN,PLANYC BOILER CONVERSION/PLANYC CLIMATE CONTROL,CIP,K390,1224 PARK PLACE,Brooklyn,40.672713,-73.936924
HS OF GRAPHIC COMM. ARTS (VOC),PLANYC BOILERS CONVERSION/CLIMATE CONTROL,CIP,M625,439 WEST 49 STREET,Manhattan,40.76337,-73.990593
P.S. 162 - QUEENS,PARAPET/FLOOD ELIMINATION/EXT MASONRY/ROOFING,CIP,Q162,201-02 53 AVENUE,Queens,40.749036,-73.777213
P.S. 214 - BRONX,EXTERIOR MASONRY/ROOFS,CIP,X167,1970 WEST FARMS ROAD,Bronx,40.839565,-73.880358
P.S. 122 - QUEENS,FY16 RESO A SOLAR PANELS,CIP,Q122,21-21 DITMARS BLVD,Queens,40.780347,-73.916655
P.S. 19 ADDITION,Addition,CAP,Q019,98-02 ROOSEVELT AVENUE,Queens,40.749381,-73.867354
I.S. 53 - QUEENS,CONCRETE/FLOOD/PARAPETS/ ROOFS/WINDOWS/C OF O,CIP,Q053,10-45 NAMEOKE STREET,Queens,40.603622,-73.74909699999999
MONROE ACAD FOR VISUAL ARTS -,BOILER/CLIMATE CONTROL/WATER INFILTRATION,CIP,X420,1300 BOYNTON AVENUE,Bronx,40.831601,-73.878912
P.S. 46 - BROOKLYN,"LSP- VACUUM/PUMP CONDENSATE PUMPS, THERMOSTAT, CHEMICAL FEED SYSTEM",CIP,K046,100 CLERMONT AVENUE,Brooklyn,40.694633,-73.971165
P.S. 129 - QUEENS,Addition,CAP,Q129,128-02 7TH AVENUE,Queens,40.790638,-73.839771
ALFRED E. SMITH HS - X,FY18 RESO A GYMNASIUM UPGRADE,CIP,X600,333 EAST 151 STREET,Bronx,40.818232,-73.91986700000001
COY L. COX SCHOOL,DEFECTIVE EXT WALL/FLOOD ELIMINATION/PARAPETS/ROOF,CIP,K369,383 STATE STREET,Brooklyn,40.687257,-73.983579
P.S. 255 - BROOKLYN,ROOFS/PARAPETS/WINDOWS/EXTERIOR MASONRY,CIP,K255,1866 EAST 17 STREET,Brooklyn,40.604349,-73.955528
MARTIN VAN BUREN HS - QUEENS,LSP- GYM WATER PENETRATION,CIP,Q435,230-17 HILLSIDE AVENUE,Queens,40.733066,-73.73875600000001
P.S. 222 - QUEENS,UPE- INTERIOR CONVERSION/ENCLOSED ROOFTOP PLAYGROUND,CIP,Q222,86-15 37TH AVENUE,Queens,40.750172,-73.880363
P.S. 201 - QUEENS,PLANYC CLIMATE CTRL/PLANYC BOILER CONVERSION,CIP,Q201,65-11 155 STREET,Queens,40.736653,-73.813346
P.S. 121 - BROOKLYN,EXTERIOR MASONRY/PARAPETS/ROOFS,CIP,K121,5301 20TH AVENUE,Brooklyn,40.623273,-73.978822
P.S. 312 - BROOKLYN,WATER PENETRATION,CIP,K312,7103 AVENUE T,Brooklyn,40.621413,-73.908987
FRANCIS LEWIS HS ANNEX - QUEENS,New,CAP,Q434,58-20 UTOPIA PARKWAY,Queens,40.740724,-73.79283000000001
P.S. 99 - QUEENS,WATER PENETRATION/PARAPETS,CIP,Q099,82-37 KEW GARDENS ROAD,Queens,40.711419,-73.82862800000001
BRONX MATH PREP - BRONX,FLOOD ELIMINATION/ROOFS/PARAPETS/EXT MASONRY,CIP,X174,456 WHITE PLAINS ROAD,Bronx,40.814833,-73.85658000000001
P.S./I.S. 189 (@STEENWICK AVE),IPDVS CAMERA INSTALLATION,CIP,X189,3441 STEENWICK AVENUE,Bronx,40.883025,-73.830366
P.S. 246 - BRONX,GYM STANDALONE GYM ANNEX,CIP,X472,2641 GRAND CONCOURSE,Bronx,40.865593,-73.894758
P.S. 167 - BROOKLYN,EXTERIOR MASONRY- WATER PENETRATION/PARAPETS/ROOFS,CIP,K167,1025 EASTERN PARKWAY,Brooklyn,40.669001,-73.934635
G. WASHINGTON CARVER HS FOR SC,IP DIGITAL VIDEO SURVEILLANCE SYSTEM,CIP,Q420,143-10 SPRINGFIELD BLVD,Queens,40.668235,-73.756839
I.S. 73 - QUEENS,LOW VOLT ELECTRICAL SYSTEMS,CIP,Q073,70-02 54 AVENUE,Queens,40.729215,-73.893624
I.S. 322 - MANHATTAN,FY19 RESO A MULTIMEDIA CENTER UPGRADES,CIP,M218,4600 BROADWAY,Manhattan,40.86079,-73.930672
P.S. 46 ADDITION,Addition,CAP,X046,2760 BRIGGS AVENUE,Bronx,40.867623,-73.890518
P.S. 418 - BROOKLYN,PUBLIC ADDRESS SYS REPLACEMENT/FA SYS REPLACEMENT,CIP,K834,512 CARROLL STREET,Brooklyn,40.676668,-73.985258
P.S. 251 - BROOKLYN,PLANYC BOILER CONVERSION/PLANYC CLIMATE CONTROL,CIP,K251,1037 EAST 54 STREET,Brooklyn,40.632524,-73.924417
P.S. 89 - BRONX,FLOOD ELIMINATION,CIP,X089,980 MACE AVENUE,Bronx,40.863055,-73.859387
P.S. 65 - BRONX,FY16 RESO A AUDITORIUM UPGRADE/EXTERIOR MASONRY/PARAPETS/ROOFING,CIP,X065,677 EAST 141 STREET,Bronx,40.807335,-73.91273100000001
P.S. @ 4302 4TH AVENUE - BROOKLYN,Demo,CAP,K557,4302 4TH AVENUE,Brooklyn,40.650305,-74.008602
P.S. 290 - BROOKLYN,ROOFS/WINDOWS/PARAPETS,CIP,K290,135 SCHENCK AVENUE,Brooklyn,40.677890000000005,-73.889758
P.S. 44 - BROOKLYN,FY13 RESO A SCIENCE LAB UPGRADES,CIP,K044,432 MONROE STREET,Brooklyn,40.686592,-73.940747
P.S. 103 - BRONX,PARAPET/EXTERIOR MASONRY/FLOOD ELIMINATION,CIP,X103,4125 CARPENTER AVENUE,Bronx,40.892151,-73.86146600000001
P.S. 151 - QUEENS,TCU REMOVAL/PLAYGROUND REDEVELOPMENT,CIP,Q151,50-05 31 AVENUE,Queens,40.757499,-73.908898
HS FOR HEALTH CAREER & SCIENCE,WATER MAIN- BACKFLOW ISSUE,CIP,M465,549 AUDUBON AVENUE,Manhattan,40.855855,-73.92712
P.S. 89 - QUEENS,LSP WATER BOOSTER PUMP REPLACEMENT,CIP,Q089,85-28 BRITTON AVENUE,Queens,40.745923,-73.880205
NEW DESIGN HS - MANHATTAN,IPDVS CAMERA INSTALLATION,CIP,M445,350 GRAND STREET,Manhattan,40.717349,-73.98959599999999
P.S. 182 - BRONX,ROOFS/EXTERIOR MASONRY,CIP,X182,601 STICKBALL BLVD,Bronx,40.818228000000005,-73.856302
IT TAKES A VILLAGE ACADEMY - K,ELECTRICAL WORK FOR A/C INITIATIVE/LL26 CODE COMPLIANCE/EXIT SIGN REPLACEMENT,CIP,K415,5800 TILDEN AVENUE,Brooklyn,40.648657,-73.92217099999999
P.S. 214 - QUEENS,FY17 RESO A LOW VOLTAGE ELECTRICAL SYSTEMS,CIP,Q214,31-15 140 STREET,Queens,40.770387,-73.82861700000001
MIDDLE SCHOOL FOR ART & PHILOS,EXTERIOR MASONRY/PARAPETS/ROOFS,CIP,K252,1084 LENOX ROAD,Brooklyn,40.658295,-73.920109
P.S. 189 - BROOKLYN,STANDALONE GYM ANNEX,CIP,K707,1100  EAST NEW YORK AVENUE,Brooklyn,40.665565,-73.92624599999999
P.S. 95 - BRONX,ELECTRICAL WORK FOR A/C INITIATIVE/LSP LL26 CODE COMPLIANCE/EXIT SIGN REPLACEMENT,CIP,X095,3961 HILLMAN AVENUE,Bronx,40.882898,-73.891256
PORT RICHMOND HS - R,LSP REPLACE BOILER,CIP,R446,39 INNIS STREET,Staten Island,40.633704,-74.142364
P.S. 58 - STATEN ISLAND,IP DIGITAL VIDEO SURVEILLANCE SYSTEM,CIP,R058,77 MARSH AVENUE,Staten Island,40.583139,-74.161862
P.S. 171 - MANHATTAN,FLOOD ELIMINATION/WINDOWS/EXTERIOR MASONRY/HEATING PLANT UPGRADE,CIP,M171,19 EAST 103 STREET,Manhattan,40.792122,-73.951961
I.S. @ 47-10 BARNETT AVENUE - QUEENS,Demo,CAP,Q429,47-10 BARNETT AVENUE,Queens,40.750017,-73.915867
P.S. 272 - BROOKLYN,PLAYGROUND REDEVELOPMENT AND TCU REMOVAL,CIP,K272,101-24 SEAVIEW AVENUE,Brooklyn,40.635916,-73.88641199999999
P.S. 40 - QUEENS,EXTERIOR MASONRY/TCU REMOVAL & PLAYGROUND/FLOOD,CIP,Q040,109-20 UNION HALL STREET,Queens,40.694125,-73.790675
P.S. 198 - MANHATTAN,FY18 RESO A PLAYGROUNDS,CIP,M198,1700 3RD AVENUE,Manhattan,40.784826,-73.949611
FORT HAMILTON HS - K,MASONRY DEFECTS/ROOFS/FLOOD/PARAPETS,CIP,K490,8301 SHORE ROAD,Brooklyn,40.627835,-74.04004599999999
P.S. 128 - MANHATTAN,PLANYC BOILER CNVSN/PLANYC CLIMATE CTRL,CIP,M128,560 WEST 169 STREET,Manhattan,40.841321,-73.938506
Q811 SPED - QUEENS,PLANYC BOILER CNVRSN/PLANYC CLIMATE CTRL,CIP,Q811,61-25 MARATHON PKWY,Queens,40.756778,-73.729487
FLUSHING HS - QUEENS,FY15 RESO A AUDITORIUM UPGRADE,CIP,Q460,35-01 UNION STREET,Queens,40.765166,-73.82789
P.S. 303 - QUEENS,Addition,CAP,Q003,108-55 69TH AVENUE,Queens,40.725098,-73.845091
EAST FLATBUSH COMMUNITY RESCH,PARAPETS/EXTERIOR MASONRY/ROOFS,CIP,K232,905 WINTHROP STREET,Brooklyn,40.65843,-73.929076
I.S. 123 - BRONX,RENEWAL SCHOOL BASED HEALTH CENTER,CIP,X123,1025 MORRISON AVENUE,Bronx,40.825403,-73.873666
P.S. 16 - QUEENS,EXTERIOR MASONRY,CIP,Q721,41-15 104 STREET,Queens,40.748987,-73.86123
BOYS & GIRLS HS - BROOKLYN,REPLACE CHILLERS & COOLING TOWERS,CIP,K455,1700 FULTON STREET,Brooklyn,40.67944,-73.932407
I.S. 73 - QUEENS,PLANYC CLIMATE CONTROL/PLANYC BOILER CONVERSION,CIP,Q073,70-02 54 AVENUE,Queens,40.729215,-73.893624
NORTH BRONX SCHOOL OF EMPOWERM,LOW VOLTAGE ELECTRICAL SYSTEM,CIP,X113,3710 BARNES AVENUE,Bronx,40.880873,-73.860904
P.S. 354 - QUEENS,WATER INFILTRATION,CIP,Q030,126-10 BEDELL STREET,Queens,40.68031,-73.77443199999999
PROGRESS HS - K,ROOFS/WINDOWS/EXTERIOR MASONRY/PARAPETS,CIP,K450,850 GRAND STREET,Brooklyn,40.712184,-73.939722
MARTIN VAN BUREN HS - QUEENS,ELECTRICAL WORK FOR A/C INITIATIVE,CIP,Q435,230-17 HILLSIDE AVENUE,Queens,40.733066,-73.73875600000001
Q811 SPED - QUEENS,PLANYC BOILER CONVERSION/PLANYC CLIMATE CONTROL,CIP,Q811,61-25 MARATHON PKWY,Queens,40.756778,-73.729487
I.S. @ 47-10 BARNETT AVENUE - QUEENS,New,CAP,Q429,47-10 BARNETT AVENUE,Queens,40.750017,-73.915867
P.S. 16 - BROOKLYN,FLOOD ELIMINATION/ROOFS/EXT MASONRY/PARAPETS,CIP,K016,157 WILSON STREET,Brooklyn,40.706023,-73.961476
THE BROOKLYN SCHOOL OF INQUIRY,RESO A ROOFTOP GREENHOUSE,CIP,K237,50 AVENUE P,Brooklyn,40.60731,-73.986595
EXCELSIOR PREP HIGH SCHOOL - Q,EXT MASONRY/ROOFS/PAVED AREA-CONCRETE,CIP,Q420,143-10 SPRINGFIELD BLVD,Queens,40.668235,-73.756839
P.S. 384 - BROOKLYN,LSP DOMESTIC WATER BOOSTER PUMP REPLACEMENT,CIP,K384,242 COOPER STREET,Brooklyn,40.690353,-73.904803
P.S. 170 - BRONX,MASONRY ISSUE/PARAPETS/ROOFS,CIP,X170,1598 TOWNSEND AVENUE,Bronx,40.844316,-73.913604
HUNTER SCIENCE HS - MANHATTAN,FY17 RESO A SCIENCE LAB UPGRADES,CIP,M490,122 AMSTERDAM AVENUE,Manhattan,40.774351,-73.984753
P.S. 312 - BROOKLYN,FY19 RESO A AUDITORIUM UPGRADE,CIP,K312,7103 AVENUE T,Brooklyn,40.621413,-73.908987
I.S. 343 - BRONX,FY16 RESO A SUPPLEMENTAL COOLING,CIP,X139,345 BROOK AVENUE,Bronx,40.81004,-73.917792
J.H.S. 237 - QUEENS,FY19 RESO A DOOR REPLACEMENT,CIP,Q237,46-21 COLDEN STREET,Queens,40.749545,-73.822073
P.S. 97 ADDITION,Addition,CAP,X097,1375 MACE AVENUE,Bronx,40.862839,-73.84679100000001
P.S. 6 - BRONX,STANDALONE GYM ANNEX,CIP,X449,1000 EAST TREMONT AVENUE,Bronx,40.840755,-73.88170699999999
P.S. 282 - BROOKLYN,ELECTRICAL WORK FOR A/C INITIATIVE/LSP LL26 CODE COMPLIANCE/EXIT SIGN REPLACEMENT,CIP,K282,180 6TH AVENUE,Brooklyn,40.67634,-73.977367
P.S. 75 - BROOKLYN,EXTERIOR MASONRY/FLOOD ELIMINATION/ROOF,CIP,K075,95 GROVE STREET,Brooklyn,40.693313,-73.920666
P.S. 105 - QUEENS,SANDY:HEATING/ELEC/FLOOD/AUD/PIPING/HVAC/INT/PAVED,CIP,Q105,420 BEACH 51 STREET,Queens,40.595779,-73.781876
I.S. 522 - BROOKLYN,PLANYC BOILER/PLANYC CLIMATE CONTROL,CIP,K271,1137 HERKIMER STREET,Brooklyn,40.677805,-73.91584300000001
J.H.S. 190 - QUEENS,IP DIGITAL VIDEO SURVEILLANCE SYSTEM,CIP,Q190,68-17 AUSTIN STREET,Queens,40.722707,-73.851699
I.S. 371 - BRONX,EXTERIOR MASONRY,CIP,X192,650 HOLLYWOOD AVENUE,Bronx,40.826526,-73.81841700000001
PERFORMING ARTS AND TECH. HS -,FY14 RESO A GYMNASIUM UPGRADE,CIP,K435,400 PENNSYLVANIA AVENUE,Brooklyn,40.667456,-73.894747
P.S. 251 - BROOKLYN,FY16 RESO A AUDITORIUM UPGRAD,CIP,K251,1037 EAST 54 STREET,Brooklyn,40.632524,-73.924417
P.S. 199 - QUEENS,PLANYC BOILER/PLANYC CLIMATE CONTROL,CIP,Q199,39-20 48 AVENUE,Queens,40.740088,-73.926214
QUEENS COLLEGIATE SCHOOL - QUE,WEST AREAWAY DRAINS,CIP,Q470,167-01 GOTHIC DRIVE,Queens,40.713218,-73.797237
P.S. 66 - QUEENS,Addition,CAP,Q066,85-11 102 STREET,Queens,40.697836,-73.846558
P.S. 205 - QUEENS,BOILER/CLIMATE CTRL/FLOOD/MASONRY/ ROOFS/PARAPETS,CIP,Q205,75-25 BELL BLVD,Queens,40.737678,-73.756791
P.S. 19 - STATEN ISLAND,FY19 RESO A IPDVS CAMERA INSTALLATION,CIP,R019,780 POST AVENUE,Staten Island,40.631214,-74.127101
P.S. 19 - BRONX,Addition,CAP,X019,4318 KATONAH AVENUE,Bronx,40.899295,-73.8675
IS/HS 336 - QUEENS,Lease,CAP,Q336,124-06 14TH AVENUE,Queens,40.785327,-73.843749
BROOKLYN TECH HS - K,LSP INSTALL NEW CEILING IN BOYS & GIRLS LOCKER ROOMS,CIP,K430,29 FT GREENE PLACE,Brooklyn,40.688834,-73.976905
THE BROOKLYN SCHOOL FOR SOCIAL,SCHOOL BASED HEALTH CENTER,CIP,K480,400 IRVING AVENUE,Brooklyn,40.69697,-73.910791
EDWARD R. MURROW HS - K,ELECTRICAL WORK FOR A/C INITIATIVE,CIP,K525,1600 AVENUE L,Brooklyn,40.620525,-73.959285
P.S. 205 - BROOKLYN,FLOOD ELIMINATION/PARAPETS/EXTERIOR MASONRY/ROOFS,CIP,K205,6701 20 AVENUE,Brooklyn,40.61527,-73.987149
FORDHAM HS FOR THE ARTS - BRON,FY16 RESO A LIBRARY UPGRADE,CIP,X435,500 EAST FORDHAM ROAD,Bronx,40.860043,-73.888267
X186 SPED - BRONX,PLANYC BOILER CONVERSION/PLANYC CLIMATE CTRL/FLOOD,CIP,X136,750 JENNINGS STREET,Bronx,40.83182,-73.898075
FRANCIS LEWIS HS - QUEENS,FY15RESO A AUDITORIUM UPGRADE,CIP,Q430,58-20 UTOPIA PKWY,Queens,40.740724,-73.79283000000001
P.S. 81 - BRONX,FY18 RESO A SUPPLEMENTAL COOLING,CIP,X081,5550 RIVERDALE AVENUE,Bronx,40.903553,-73.905229
FASHION INDUSTRIES VOC HS - M,EXTERIOR MASONRY/PARAPETS/FLOOD ELIMINATION,CIP,M600,225 WEST 24 STREET,Manhattan,40.745156,-73.996074
I.S. 162 - BROOKLYN,LOW VOLTAGE ELECTRICAL SYSTEM,CIP,K162,1390 WILLOUGHBY AVENUE,Brooklyn,40.707229,-73.91980500000001
P.S. 128 - QUEENS,Addition,CAP,Q247,69-10 65TH DRIVE,Queens,40.715344,-73.886215
P.S. 677 - BROOKLYN,Lease,CAP,K677,139 MENAHAN STREET,Brooklyn,40.695717,-73.919473
P.S. 36 - BRONX,FULL PROGRAM ACCESSIBILITY,CIP,X036,1070 CASTLE HILL AVENUE,Bronx,40.829344,-73.85042800000001
DISTRICT 27 PRE-K CENTER @ 160-06 CROSS BAY BOULEVARD - QUEENS,Demo,CAP,Q486,160-06 CROSS BAY BOULEVARD,Queens,40.657176,-73.839392
P.S. 50 - QUEENS,Addition,CAP,Q050,143-26 101 AVENUE,Queens,40.695238,-73.807364
X188 SPED - BRONX,FLOOD ELIMINATION/ROOFS/PARAPETS/EXTERIOR MASONRY,CIP,X034,770 GROTE STREET,Bronx,40.850561,-73.88374300000001
BRONX MATH PREP - BRONX,FLOOD ELIMINATION/ROOFS/PARAPETS/EXT MASONRY,CIP,X174,456 WHITE PLAINS ROAD,Bronx,40.814833,-73.85658000000001
I.S. 136 - BROOKLYN,ELECTRICAL SYSTEM UPGRADE/FLOOD ELIMINATION,CIP,K136,4004 4TH AVENUE,Brooklyn,40.651977,-74.006862
THE URBAN ASSEMBLY SCHOOL FOR,FY17 RESO A ROOM CONVERSION/PARTITIONING,CIP,M470,145 WEST 84 STREET,Manhattan,40.785803,-73.974614
M811 SPED - MANHATTAN,EXTERIOR MASONRY/FLOOD ELIMINATION,CIP,M841,466 WEST END AVENUE,Manhattan,40.786611,-73.97951
P.S. 303 - QUEENS,Demo,CAP,Q003,108-55 69TH AVENUE,Queens,40.725098,-73.845091
DEWITT CLINTON HS - X,EXTERIOR MASONRY/FLOOD ELIMINATION/PARAPETS/ROOF,CIP,X440,100 W MOSHOLU PKWY S,Bronx,40.882178,-73.88691
I.S. 34 - STATEN ISLAND,FULL PROGRAM ACCESSIBILITY/FIRE ALARM SYSTEM,CIP,R034,528 ACADEMY AVE,Staten Island,40.508284,-74.24342800000001
P.S. 193 - QUEENS,FY17 RESO A AUDITORIUM UPGRADE,CIP,Q193,152-20 11 AVENUE,Queens,40.792483,-73.809741
P.S. 128 - QUEENS,Addition,CAP,Q247,69-10 65TH DRIVE,Queens,40.715344,-73.886215
P.S. 132 - MANHATTAN,ELECTRICAL WORK FOR A/C INITIATIVE,CIP,M132,185 WADSWORTH AVENUE,Manhattan,40.850626,-73.934377
P.S. 1 - BROOKLYN,PUBLIC ADDRESS/CLOCK SYSTEM,CIP,K001,309 47 STREET,Brooklyn,40.649042,-74.012289
P.S. @ 4302 4TH AVENUE - BROOKLYN,Demo,CAP,K557,4302 4TH AVENUE,Brooklyn,40.650305,-74.008602
P.S. 160 - BRONX,FY17 RESO A GYMNASIUM UPGRADE,CIP,X160,4140 HUTCHINSON RIVER PARKWAY EAST,Bronx,40.864676,-73.824303
NEW DORP HS - STATEN ISLAND,PARTIAL ACCESSIBILITY,CIP,R435,465 NEW DORP LANE,Staten Island,40.569393,-74.107737
P.S. 399 - BROOKLYN,BOILER REPLACEMENT,CIP,K399,2707 ALBEMARLE ROAD,Brooklyn,40.648044,-73.951891
P.S. 1 - BROOKLYN,FY19 RESO A AUDITORIUM UPGRADE,CIP,K001,309 47 STREET,Brooklyn,40.649042,-74.012289
FORT HILL COLLABORATIVE ELEMEN,FY18 RESO A PLAYGROUNDS,CIP,R016,80 MONROE AVENUE,Staten Island,40.6397,-74.079141
CHRISTOPHER COLUMBUS HS - X,PARAPETS/ROOFS/EXT MASONRY,CIP,X415,925 ASTOR AVENUE,Bronx,40.859665,-73.861006
P.S. 288 - BROOKLYN,ROOF,CIP,K288,2950 WEST 25 STREET,Brooklyn,40.574411,-73.99194
P.S. 159 - BROOKLYN,STANDALONE GYM ANNEX,CIP,K368,2781  PITKIN AVENUE,Brooklyn,40.675766,-73.869469
RALPH R. MCKEE CAREER AND TECH,LSP VENTILATION/DUST COLLECTION SYSTEM,CIP,R600,290 ST MARKS PLACE,Staten Island,40.642793,-74.07873000000001
P.S. 209 - BROOKLYN,LSP VACUUM CONDENSATE PUMP AND STEAM TRAPS,CIP,K209,2609 EAST 7TH ST,Brooklyn,40.586845,-73.96198000000001
I.S. 162 - BROOKLYN,INTERIOR STAIRS/EXT MASONRY/PARAPETS/ROOFS/FLOOD ELIM/WATER PENETRATION/CAFE FLOOR,CIP,K162,1390 WILLOUGHBY AVENUE,Brooklyn,40.707229,-73.91980500000001
P.S. 110 - BROOKLYN,FY18 RESO A ELECTRICAL SYSTEMS,CIP,K110,124 MONITOR STREET,Brooklyn,40.723897,-73.942312
P.S. 92 - BROOKLYN,ELECTRICAL WORK FOR A/C INITIATIVE/LL26 CODE COMPLIANCE/EXIT SIGN REPLACEMENT,CIP,K092,601 PARKSIDE AVENUE,Brooklyn,40.656046,-73.953742
P.S. 317 - QUEENS,SANDY: HEAT/FLOOD/ELEC/ INTERIOR/NON-SANDY:CLIMATE,CIP,Q225,1-90 BEACH 110 STREET,Queens,40.580928,-73.831836
J.H.S. 50 - BROOKLYN,FY17 RESO A ROOM CONVERSIONS/PARTITIONING,CIP,K050,183 SOUTH 3RD STREET,Brooklyn,40.711704,-73.960275
EAST SIDE COMMUNITY SCHOOL,FIFTH FLOOR CEILING REPLACEMENT,CIP,M060,420 EAST 12 STREET,Manhattan,40.729589,-73.982555
FORT HAMILTON HS - K,MASONRY DEFECTS/ROOFS/FLOOD/PARAPETS,CIP,K490,8301 SHORE ROAD,Brooklyn,40.627835,-74.04004599999999
BENJAMIN N. CARDOZO HS - QUEEN,WATER PENETRATION THROUGH FOUNDATION,CIP,Q415,57-00 223 STREET,Queens,40.752333,-73.75599
P.S. 176 - QUEENS,ELECTRICAL WORK FOR A/C INITIATIVE/LSP LL26 CODE COMPLIANCE/EXIT SIGN REPLACEMENT,CIP,Q176,120-45 235 STREET,Queens,40.685492,-73.72998199999999
P.S. 150 - BROOKLYN,EXTERIOR MASONRY DEFECTS/FLOOD ELIMINATION/PARAPET,CIP,K150,364 SACKMAN STREET,Brooklyn,40.66896,-73.904726
CURTIS HS - STATEN ISLAND,BRIDGE & REPAIR WK/PARAPETS/WASTE SYS/WINDOWS/ROOF,CIP,R450,105 HAMILTON AVENUE,Staten Island,40.644735,-74.081222
BENJAMIN N. CARDOZO HS - QUEEN,IP DIGITAL VIDEO SURVEILLANCE SYSTEM,CIP,Q415,57-00 223 STREET,Queens,40.752333,-73.75599
P.S. 15 - MANHATTAN,FY17 RESO A IPDVS CAMERA INSTALLATION,CIP,M015,333 EAST 4 STREET,Manhattan,40.721807,-73.979022
P.S. 20 - QUEENS,FLOOD ELIMINATION/EXTERIOR MASONRY/ROOFS/PARAPETS,CIP,Q020,142-30 BARCLAY AVENUE,Queens,40.758689,-73.824832
RICHMOND HILL HS - QUEENS,FY18 RESO A AUDITORIUM  UPGRADE,CIP,Q475,89-30 114 STREET,Queens,40.695888,-73.833681
P.S. 152 - MANHATTAN,WATER INFILTRATION,CIP,M152,93 NAGLE AVENUE,Manhattan,40.860412,-73.927936
P.S. 143 ADDITION,Addition,CAP,Q143,34-74 113 STREET,Queens,40.755451,-73.855192
P.S. 64 - QUEENS,PLANYC BOILER CONVERSION/PLANYC CLIMATE CTRL/FA,CIP,Q064,82-01 101 AVENUE,Queens,40.681172,-73.85691800000001
P.S. 198 - MANHATTAN,FY18 RESO A PLAYGROUNDS,CIP,M198,1700 3RD AVENUE,Manhattan,40.784826,-73.949611
QUEENS METROPOLITAN HIGH SCHOO,FY16 RESO A GREEN ROOF,CIP,Q686,91-30 METROPOLITAN AVENUE,Queens,40.711367,-73.856698
P.S. 13 - QUEENS,ELECTRICAL WORK FOR A/C INITIATIVE,CIP,Q013,55-01 94TH STREET,Queens,40.737613,-73.86851
P.S. 105 - BROOKLYN,LSP - REPLACE DOMESTIC WATER HEATER,CIP,K105,1031 59 STREET,Brooklyn,40.632936,-74.00374000000001
BEACH CHANNEL HS - QUEENS,SANDY FIRE ALARM/NON SANDY PA SYSTEM,CIP,Q410,100-00 BEACH CHANNEL DRIVE,Queens,40.586066,-73.822624
MILLENIUM ART ACADEMY - BRONX,LSP CEILING REPLACEMENT,CIP,X450,1980 LAFAYETTE AVENUE,Bronx,40.82229,-73.856167
P.S. 50 - MANHATTAN,EXTERIOR MASONRY/ROOFS/PARAPETS/SITE WALLS,CIP,M050,433 EAST 100 STREET,Manhattan,40.785258,-73.941526
P.S. 85 - BRONX,ELECTRICAL WORK FOR A/C INITIATIVE,CIP,X085,2400 MARION AVENUE,Bronx,40.858831,-73.895167
P.S. 226 - BRONX,FY08 RESO A GYM UPGRADE,CIP,X827,1910 SEDGWICK AVENUE,Bronx,40.855944,-73.916358
M811 SPED - MANHATTAN,EXT MASONRY/FLOOD ELIMINATION,CIP,M841,466 WEST END AVENUE,Manhattan,40.786611,-73.97951
NEW UTRECHT HS - BROOKLYN,ATHLETIC FIELD REPAIRS,CIP,K446,1601 80 STREET,Brooklyn,40.613262,-74.003404
I.S. 61 - STATEN ISLAND,ROOFS/PARAPETS/WINDOWS/EXTERIOR MASONRY,CIP,R061,445 CASTLETON AVENUE,Staten Island,40.634009000000006,-74.097826
MIDWOOD HS - BROOKLYN,CRACKED CONCRETE STRUCTURE/FIELD HOUSE,CIP,K406,1124 EAST 17 STREET,Brooklyn,40.622641,-73.958988
THE FORWARD SCHOOL - BRONX,LOW VOLTAGE ELECTRICAL SYSTEM,CIP,X113,3710 BARNES AVENUE,Bronx,40.880873,-73.860904
FRANCIS LEWIS HS - QUEENS,FY15RESO A AUDITORIUM UPGRADE,CIP,Q430,58-20 UTOPIA PKWY,Queens,40.740724,-73.79283000000001
I.S. 109 - QUEENS,FY15RESO A SCIENCE LAB UPGRADES,CIP,Q109,213-10 92 AVENUE,Queens,40.720713,-73.747001
"QNS HS OF TEACH., LIB. ARTS&SC",LSP-GYMNASIUM BLEACHERS REPLACEMENT,CIP,Q566,74-20 COMMONWEALTH BLVD,Queens,40.746088,-73.727535
EDWARD R. MURROW HS - K,IPDVS CAMERA INSTALLATION,CIP,K525,1600 AVENUE L,Brooklyn,40.620525,-73.959285
