School Name,Project Description,Project type,Building ID,Building Address,City,Latitude,Longitude
P.S. 32 - BRONX,EXTERIOR MASONRY/WINDOWS/PARAPETS,CIP,X032,690 EAST 183 STREET,Bronx,40.852103,-73.885935
P.S. 63 - BRONX,FY18 RESO A AUDITORIUM  UPGRADE,CIP,X063,1260 FRANKLIN AVENUE,Bronx,40.830995,-73.90270500000001
P.S. 503 - BROOKLYN,EXTERIOR MASONRY/PARAPETS/ROOFS,CIP,K314,330 59 STREET,Brooklyn,40.642121,-74.018997
P.S. 219 - QUEENS,FY11 RESO A SUPPLEMENTAL COOLING,CIP,Q219,144-39 GRAVETT ROAD,Queens,40.735275,-73.823778
Q811 SPED - QUEENS,LL 41/16 COMPLIANCE,CIP,Q811,61-25 MARATHON PKWY,Queens,40.756778,-73.729487
P.S. 68 - BRONX,WATER INFILTRATION/EXT MASONRY/PAVED AREA-BLACKTOP,CIP,X068,4011 MONTICELLO AVENUE,Bronx,40.891732,-73.838471
G. WASHINGTON CARVER HS FOR SC,IPDVS CAMERA INSTALLATION,CIP,Q420,143-10 SPRINGFIELD BLVD,Queens,40.668235,-73.756839
P.S. 197 - QUEENS,ELECTRICAL WORK FOR A/C INITIATIVE,CIP,Q197,825 HICKSVILLE ROAD,Queens,40.600199,-73.74396800000001
Q004 SPED - QUEENS,FY17 RESO A SUPPLEMENTAL COOLING,CIP,Q179,196-25 PECK AVENUE,Queens,40.741852,-73.77979599999999
P.S. 165 - MANHATTAN,ELECTRICAL WORK FOR A/C INITIATIVE/LL26 CODE COMPLIANCE/EXIT SIGN REPLACEMENT,CIP,M165,234 WEST 109 STREET,Manhattan,40.802917,-73.965613
P.S. 9 - BRONX,PLANYC BOILER CNVSN/PLANYC CLIMATE CTRL,CIP,X009,230 EAST 183 STREET,Bronx,40.857067,-73.89893599999999
P.S. 26 - STATEN ISLAND,FY18 RESO A LIBRARY UPGRADE,CIP,R026,4108 VICTORY BLVD,Staten Island,40.591702000000005,-74.190648
I.S. 522 - BROOKLYN,PLANYC BOILER/PLANYC CLIMATE CONTROL,CIP,K271,1137 HERKIMER STREET,Brooklyn,40.677805,-73.91584300000001
3K CENTER @ 104-06 101 AVENUE - QUEENS,Lease,CAP,Q474,104-06 101 AVENUE,Queens,40.686281,-73.838882
P.S. 198 - BROOKLYN,LSP REPLACE STEAM TRAPS,CIP,K198,4105 FARRAGUT ROAD,Brooklyn,40.63694,-73.937339
P.S. 42 - QUEENS,ELECTRICAL WORK FOR A/C INITIATIVE,CIP,Q042,488 BEACH 66 STREET,Queens,40.594538,-73.795304
NEWTOWN HS - QUEENS,ELECTRICAL WORK FOR A/C INITIATIVE/LL26 CODE COMPLIANCE/EXIT SIGN REPLACEMENT,CIP,Q455,48-01 90 STREET,Queens,40.741122,-73.874721
Q009 SPED - QUEENS,EXTERIOR MASONRY/PARAPETS/FLOOD ELIMINATION/PARTIAL ACCESSIBILITY/FIRE ALARM/ROOFS,CIP,Q009,58-74 57 STREET,Queens,40.718935,-73.91220799999999
MID-MAN ADULT LEARNING CENTER,STRUCTURAL/EXTERIOR MASONRY,CIP,M081,212 W 120TH ST,Manhattan,40.806063,-73.95134
GROVER CLEVELAND HS - QUEENS,FY18 RESO A ELECTRICAL SYSTEM,CIP,Q485,21-27 HIMROD STREET,Queens,40.711033,-73.908814
P.S. 14 - QUEENS,ROOFS/PARAPETS/EXT MASONRY,CIP,Q014,107-01 OTIS AVENUE,Queens,40.74056,-73.85413100000001
P.S. 333 - QUEENS,REINF SLAB/HEATING PLT/ELEC/FLOOD ELIM/CLIM CTRL,CIP,Q198,3-65 BEACH 56 STREET,Queens,40.593967,-73.786182
P.S. 19 - MANHATTAN,ROOFS,CIP,M019,185 1ST AVENUE,Manhattan,40.729636,-73.983818
P.S. 66 - QUEENS,Addition,CAP,Q066,85-11 102 STREET,Queens,40.697836,-73.846558
I.S. 10 - QUEENS,ELECTRICAL WORK FOR A/C INITIATIVE,CIP,Q010,45-11 31 AVENUE,Queens,40.759363,-73.912902
LONG ISLAND CITY HS - Q,CULINARY ARTS ROOM,CIP,Q452,14-30 BROADWAY,Queens,40.765826,-73.9328
FORT HAMILTON HS - K,FY16 RESO A ATHLETIC FIELD UPGRADE,CIP,K490,8301 SHORE ROAD,Brooklyn,40.627835,-74.04004599999999
BEACH CHANNEL HS - QUEENS,SANDY:HTNG/ELEC/FLD/CLIMATE/ PIPING/INT/GENERATOR,CIP,Q410,100-00 BEACH CHANNEL DRIVE,Queens,40.586066,-73.822624
"MIDDLE SCHL MEDIA, LAW AND FIN",PARAPETS/EXTERIOR MASONRY/ROOFS,CIP,K232,905 WINTHROP STREET,Brooklyn,40.65843,-73.929076
P.S. 132 - BROOKLYN,STANDALONE GYM ANNEX,CIP,K745,320 MANHATTAN AVENUE,Brooklyn,40.71466,-73.946108
P.S. 253 - BROOKLYN,EXTERIOR MASONRY/FLOOD ELIMINATION/PARAPETS/ROOFS,CIP,K253,601 OCEANVIEW AVENUE,Brooklyn,40.579607,-73.962071
P.S. 36 - QUEENS,PLANYC CLIMATE CTRL/PLANYC BOILER CONVERSION,CIP,Q036,187-01 FOCH BLVD,Queens,40.690828,-73.76390699999999
P.S. 131 - QUEENS,Addition,CAP,Q131,170-45 84TH AVENUE,Queens,40.716617,-73.794637
HS FOR MEDIA & COMM - MANHATTA,FY17 RESO A ROOM CONVERSIONS/PARTITIONING,CIP,M465,549 AUDUBON AVENUE,Manhattan,40.855855,-73.92712
P.S. 110 - BROOKLYN,FY18 RESO A ELECTRICAL SYSTEMS,CIP,K110,124 MONITOR STREET,Brooklyn,40.723897,-73.942312
M.S. 354 - BROOKLYN,PLANYC BOILER CONVERSION/PLANYC CLIMATE CONTROL,CIP,K390,1224 PARK PLACE,Brooklyn,40.672713,-73.936924
P.S. 108 - QUEENS,FLOOD ELIMINATION/ROOFS/EXTERIOR MASONRY/WINDOWS/PARAPETS,CIP,Q108,108-10 109 AVENUE,Queens,40.679584000000006,-73.831547
P.S./I.S. @ 3269 ATLANTIC AVENUE - BROOKLYN,New,CAP,K667,3269 ATLANTIC AVENUE,Brooklyn,40.680655,-73.875152
P.S. 80 - STATEN ISLAND,GAS SERVICE,CIP,R880,715 OCEAN TERRACE,Staten Island,40.608512,-74.102067
NEW DORP HS - STATEN ISLAND,ATHLETIC FIELDS,CIP,R436,465 NEW DORP LANE,Staten Island,40.569393,-74.107737
P.S. 39 - STATEN ISLAND,STANDALONE GYM ANNEX,CIP,R099,71  SAND LANE,Staten Island,40.597679,-74.071529
BROOKLYN TECH HS - K,FY14 RESO A ATHLETIC FIELDS,CIP,K431,490 CLERMONT AVENUE,Brooklyn,40.682986,-73.968852
P.S. 225 - BROOKLYN,FLOOD ELMNTN/ROOFS/EXTERIOR MASONRY/PARAPETS,CIP,K225,1075 OCEAN VIEW AVENUE,Brooklyn,40.579737,-73.956329
ABRAHAM LINCOLN HS - BROOKLYN,SANDY: INTERIOR/VENT/ELEC/FLOOD/ATHLETIC FIELD,CIP,K411,2800 OCEAN PARKWAY,Brooklyn,40.581681,-73.967308
P.S. 92 - QUEENS,Addition,CAP,Q292,99-01 34TH AVENUE,Queens,40.755418,-73.869017
P.S. 75 - BRONX,FY19 RESO A SUPPLEMENTAL COOLING,CIP,X075,984 FAILE STREET,Bronx,40.822719,-73.88943499999999
P.S. 128 - MANHATTAN,PLANYC BOILER CONVERSION/PLANYC CLIMATE CONTROL,CIP,M128,560 WEST 169 STREET,Manhattan,40.841359,-73.93859300000001
3K CENTER @ 101 AVENUE - QUEENS,Lease,CAP,Q474,104-06 101 AVENUE,Queens,40.686281,-73.838882
BROOKLYN ACADEMY HS - BROOKLYN,WORK REQUIRED TO OBTAIN A C OF O,CIP,K458,832 MARCY AVENUE,Brooklyn,40.685004,-73.947152
GEORGE WESTINGHOUSE VOC. HS,ELECTRICAL WORK FOR A/C INITIATIVE/LL26 CODE COMPLIANCE/EXIT SIGN REPLACEMENT,CIP,K580,105 JOHNSON STREET,Brooklyn,40.694926,-73.98601500000001
P.S. 21 - QUEENS,CEILING REPAIR,CIP,Q021,147-36 26TH AVENUE,Queens,40.774512,-73.819284
MOTT HALL CHARTER SCHOOL,LOW VOLTAGE ELECTRICAL SYSTEM,CIP,X862,1260 FRANKLIN AVENUE,Bronx,40.830995,-73.90270500000001
J.H.S. 190 - QUEENS,ROOFS,CIP,Q190,68-17 AUSTIN STREET,Queens,40.722707,-73.851699
P.S. 191 - BROOKLYN,EXTERIOR MASONRY/PARAPETS/ROOFS,CIP,K191,1600 PARK PLACE,Brooklyn,40.672005,-73.924329
I.S. 322 - MANHATTAN,FY19 RESO A MULTIMEDIA CENTER UPGRADES,CIP,M218,4600 BROADWAY,Manhattan,40.86079,-73.930672
DISTRICT 2 PRE-K CENTER @ 355 EAST 76 STREET - MANHATTAN,Lease,CAP,M471,355 EAST 76 STREET,Manhattan,40.77086,-73.95520400000001
P.S. 298 - BROOKLYN,ELECTRICAL WORK FOR A/C INITIATIVE/LL26 CODE COMPLIANCE/EXIT SIGN REPLACEMENT,CIP,K298,85 WATKINS STREET,Brooklyn,40.670986,-73.908194
P.S. 167 - BROOKLYN,EXTERIOR MASONRY- WATER PENETRATION/PARAPETS/ROOFS,CIP,K167,1025 EASTERN PARKWAY,Brooklyn,40.669001,-73.934635
P.S. 40 - QUEENS,EXTERIOR MASONRY/TCU REMOVAL & PLAYGROUND/FLOOD,CIP,Q040,109-20 UNION HALL STREET,Queens,40.694125,-73.790675
MILLENIUM ART ACADEMY - BRONX,TCU REMOVAL/PLAYGROUND REDEVELOPMENT,CIP,X450,1980 LAFAYETTE AVENUE,Bronx,40.82229,-73.856167
I.S. 75 - STATEN ISLAND,CHILLER REPLACEMENT,CIP,R075,455 HUGUENOT AVENUE,Staten Island,40.54438,-74.197897
P.S. 21 - BRONX,DETERIORATED RETAINING WALLS,CIP,X021,715 EAST 225 STREET,Bronx,40.887582,-73.85973299999999
P.S. @ 270 59TH STREET- BROOKLYN,New,CAP,K746,270 59TH STREET,Brooklyn,40.643211,-74.020802
P.S. 205 - BROOKLYN,FLOOD ELIMINATION/PARAPETS/EXTERIOR MASONRY/ROOFS,CIP,K205,6701 20 AVENUE,Brooklyn,40.61527,-73.987149
P.S. 317 - QUEENS,SANDY: HEAT/FLOOD/ELEC/ INTERIOR/NON-SANDY:CLIMATE,CIP,Q225,1-90 BEACH 110 STREET,Queens,40.580928,-73.831836
P.S. 124 - BROOKLYN,FY16 RESO A SUPPLEMENTAL COOLING,CIP,K124,515 4TH AVENUE,Brooklyn,40.667545,-73.991046
I.S. 35 - BROOKLYN,FY18 RESO A GYMNASIUM UPGRADE,CIP,K035,272 MACDONOUGH STREET,Brooklyn,40.681896,-73.935963
P.S. 298 - QUEENS,New,CAP,Q298,50-51 98TH STREET,Queens,40.742167,-73.864109
P.S. 194 - BROOKLYN,MASONRY/WINDOWS/ROOFS/PARAPETS,CIP,K194,3117 AVENUE W,Brooklyn,40.596757,-73.933499
BROOKLYN COLLEGIATE: A COLLEGE,LOW VOLTAGE ELECTRICAL SYSTEM,CIP,K055,2021 BERGEN STREET,Brooklyn,40.674103,-73.913273
NORTH BRONX SCHOOL OF EMPOWERM,LOW VOLTAGE ELECTRICAL SYSTEM,CIP,X113,3710 BARNES AVENUE,Bronx,40.880873,-73.860904
M.S./H.S. 368 - BRONX,FY18 RESO A GYMNASIUM UPGRADE,CIP,X368,2975 TIBBETT AVENUE,Bronx,40.879368,-73.909896
I.S. 371 - BRONX,EXTERIOR MASONRY,CIP,X192,650 HOLLYWOOD AVENUE,Bronx,40.826526,-73.81841700000001
P.S. 151 - QUEENS,WATER INFILTRATION/ROOFS/PARAPETS/EXT MASONRY,CIP,Q151,50-05 31 AVENUE,Queens,40.757499,-73.908898
P.S. 28 - BRONX,ELECTRICAL WORK FOR A/C INITIATIVE/LL26 CODE COMPLIANCE/EXIT SIGN REPLACEMENT,CIP,X028,1861 ANTHONY AVENUE,Bronx,40.848057,-73.903522
BRONX CNTR FOR SCIENCE & MATH,FY17 RESO A AUDITORIUM  UPGRADE,CIP,X002,1365 FULTON AVENUE,Bronx,40.833696,-73.902477
P.S. 333 - QUEENS,SANDY NEW A/C CHILLERS,CIP,Q198,3-65 BEACH 56 STREET,Queens,40.593967,-73.786182
I.S. 75 - STATEN ISLAND,FY18 RESO A AUDITORIUM  UPGRADE,CIP,R075,455 HUGUENOT AVENUE,Staten Island,40.54438,-74.197897
P.S. 217 - BROOKLYN,EXT MASONRY/FLOOD/WINDOWS/PARAPETS,CIP,K217,1100 NEWKIRK AVENUE,Brooklyn,40.63398,-73.96655799999999
Q075 SPED - QUEENS,EXTERIOR MASONRY/ROOFS,CIP,Q048,155-02 108 AVENUE,Queens,40.694119,-73.797003
P.S. 1 - MANHATTAN,FLOOD ELIMINATION/WINDOWS/EXTERIOR MASONRY/ROOF,CIP,M001,8 HENRY STREET,Manhattan,40.71276,-73.997489
H.S. 745 - BROOKLYN,IP DIGITAL VIDEO SURVEILLANCE SYSTEM,CIP,K470,600 KINGSTON AVENUE,Brooklyn,40.658893,-73.942458
P.S. 52 - QUEENS,FY19 RESO A AUDITORIUM UPGRADE,CIP,Q052,178-37 146 TERRACE,Queens,40.661122,-73.766733
M.S./H.S. 368 - BRONX,PAVED AREAS CONCRETE,CIP,X368,2975 TIBBETT AVENUE,Bronx,40.879368,-73.909896
X721 SPED - BRONX,EXT MSNRY WATER PENETR/WINDOW/ROOF/ FLOOD/PARAPET,CIP,X722,2697 WESTCHESTER AVENUE,Bronx,40.842289,-73.838949
P.S. 64 - QUEENS,PLANYC BOILER CONVERSION/PLANYC CLIMATE CTRL/FA,CIP,Q064,82-01 101 AVENUE,Queens,40.681172,-73.85691800000001
J.H.S. 216 - QUEENS,FY19 RESO A AUDITORIUM UPGRADE,CIP,Q216,64-20 175 STREET,Queens,40.737517,-73.794031
I.S. 53 - QUEENS,CONCRETE/FLOOD/PARAPETS/ ROOFS/WINDOWS/C OF O,CIP,Q053,10-45 NAMEOKE STREET,Queens,40.603622,-73.74909699999999
J.H.S. 190 - QUEENS,IP DIGITAL VIDEO SURVEILLANCE SYSTEM,CIP,Q190,68-17 AUSTIN STREET,Queens,40.722707,-73.851699
CARDOZO HIGH SCHOOL ANNEX - QUEENS,New,CAP,Q469,221-15 58TH AVENUE,Queens,40.751122,-73.756912
WILLIAM E. GRADY VOC HS - K,IP DIGITAL VIDEO SURVEILLANCE SYSTEM,CIP,K620,25 BRIGHTON 4TH ROAD,Brooklyn,40.582585,-73.963477
I.S. 227 - QUEENS,FY17 RESO A ELECTRICAL SYSTEMS,CIP,Q227,32-02 JUNCTION BLVD,Queens,40.758408,-73.874472
P.S. 109 - BRONX,WATER PENETRATION/ROOF/ PARAPET/MASONRY,CIP,X109,1771 POPHAM AVENUE,Bronx,40.851414,-73.918533
I.S. 363 - BROOKLYN,ENY AUDITORIUM UPGRADE,CIP,K298,85 WATKINS STREET,Brooklyn,40.670986,-73.908194
DEWITT CLINTON HS - X,EXTERIOR MASONRY/FLOOD ELIMINATION/PARAPETS/ROOF,CIP,X440,100 W MOSHOLU PKWY S,Bronx,40.882178,-73.88691
P.S. 36 - BRONX,FULL PROGRAM ACCESSIBILITY,CIP,X036,1070 CASTLE HILL AVENUE,Bronx,40.829344,-73.85042800000001
P.S. 58 - STATEN ISLAND,IP DIGITAL VIDEO SURVEILLANCE SYSTEM,CIP,R058,77 MARSH AVENUE,Staten Island,40.583139,-74.161862
BROOKLYN HS OF THE ARTS - BROO,DAMAGED EXTERIOR WALLS/ROOFS,CIP,K655,345 DEAN STREET,Brooklyn,40.683559,-73.98026999999999
CHELSEA VOC HS - MANHATTAN,LOW VOLTAGE ELECTRICAL SYSTEM/ANSUL SYSTEM,CIP,M615,131 AVE OF THE AMERICAS,Manhattan,40.7244,-74.004625
P.S. 178 - BRONX,WINDOWS,CIP,X178,850 BAYCHESTER AVENUE,Bronx,40.875894,-73.833863
I.S. 53 - QUEENS,ELECTRICAL UPGRADE,CIP,Q053,10-45 NAMEOKE STREET,Queens,40.603622,-73.74909699999999
PARK WEST H. S. (ECF),C OF O/C OF O VENT/WATER PLANT/BOILER/ENERGY MGMT,CIP,M535,525 WEST 50 STREET,Manhattan,40.765184000000005,-73.992953
I.S. 117 - BRONX,FY18 RESO A GYMNASIUM UPGRADE,CIP,X117,1865 MORRIS AVENUE,Bronx,40.848547,-73.908416
JOHN F. KENNEDY HS - BRONX,SCIENCE LAB UPGRADE,CIP,X475,99 TERRACE VIEW AVENUE,Bronx,40.877105,-73.912256
J.H.S. 216 - QUEENS,ELECTRICAL WORK FOR A/C INITIATIVE/LSP LL26 CODE COMPLIANCE/EXIT SIGN REPLACEMENT,CIP,Q216,64-20 175 STREET,Queens,40.737517,-73.794031
P.S. 312 - BROOKLYN,WATER PENETRATION,CIP,K312,7103 AVENUE T,Brooklyn,40.621413,-73.908987
P.S. 95 - QUEENS,ELECTRICAL WORK FOR A/C INITIATIVE,CIP,Q095,179-01 90TH AVENUE,Queens,40.710624,-73.783423
P.S. 37 - QUEENS,PLANYC BOILER/PLANYC CLIMATE CONTROL,CIP,Q037,179-37 137 AVENUE,Queens,40.67588,-73.758505
I.S. 328 - MANHATTAN,IP DIGITAL VIDEO SURVEILLANCE SYSTEM,CIP,M164,401 WEST 164 STREET,Manhattan,40.836536,-73.937159
HOLCOMBE L. RUCKER SCHOOLOF CO,FY16 RESO A AUDITORIUM UPGRADE,CIP,X039,965 LONGWOOD AVENUE,Bronx,40.817512,-73.898212
P.S. 24 ADDITION - QUEENS,Addition,CAP,Q024,141-11 HOLLY AVENUE,Queens,40.75146,-73.817849
HARVEY MILK SCHOOL - MANHATTAN,FY15 RESO A SECURITY CAMERAS,CIP,M807,2-10 ASTOR PLACE,Manhattan,40.730038,-73.992632
X721 SPED - BRONX,EXTERIOR MASONRY WATER PENETRATION/WINDOWS/ROOFS/FLOOD ELIMINATION/PARAPETS,CIP,X722,2697 WESTCHESTER AVENUE,Bronx,40.842289,-73.838949
P.S. 375 - BROOKLYN,PLANYC BOILER CNVRSN/PLANYC CLIMATE CTRL,CIP,K320,46 MCKEEVER PLACE,Brooklyn,40.665035,-73.95903100000001
P.S. 161 - QUEENS,FY19 RESO A LIBRARY UPGRADE,CIP,Q161,101-33 124TH STREET,Queens,40.690798,-73.821657
BROOKLYN TECH HS - K,IPDVS CAMERA INSTALLATION,CIP,K430,29 FT GREENE PLACE,Brooklyn,40.688834,-73.976905
P.S. 97 ADDITION,Addition,CAP,X097,1375 MACE AVENUE,Bronx,40.862839,-73.84679100000001
JULIA RICHMAN H.S.,LL 41-16 COMPLIANCE,CIP,M480,317 EAST 67 STREET,Manhattan,40.765359,-73.960059
P.S. 146 - BROOKLYN,FALLING MASONRY,CIP,K142,610 HENRY STREET,Brooklyn,40.68007,-74.001377
P.S. 219 - QUEENS,FY11 RESO A SUPPLEMENTAL COOLING,CIP,Q219,144-39 GRAVETT ROAD,Queens,40.735275,-73.823778
I.S. 254 - BRONX,FACADE/ROOFS,CIP,X254,2452 WASHINGTON AVENUE,Bronx,40.858815,-73.890232
I.S. 126 - QUEENS,IP DIGITAL VIDEO SURVEILLANCE SYSTEM,CIP,Q126,31-51 21 STREET,Queens,40.766264,-73.930709
Q004 SPED - QUEENS,IPDVS CAMERA INSTALLATION,CIP,Q667,24-30 SKILLMAN AVENUE,Queens,40.742302,-73.945605
P.S. 147 - BROOKLYN,WATER INFILTRATION/ROOFS,CIP,K147,325 BUSHWICK AVENUE,Brooklyn,40.705204,-73.93940699999999
P.S. 193 - BROOKLYN,FY19 RESO A LIBRARY UPGRADE,CIP,K193,2515 AVENUE L,Brooklyn,40.621507,-73.950473
P.S. 198 - MANHATTAN,WINDOWS/ROOFS/PARAPETS,CIP,M198,1700 3RD AVENUE,Manhattan,40.784826,-73.949611
P.S. 97 - BRONX,Addition,CAP,X097,1375 MACE AVENUE,Bronx,40.862839,-73.84679100000001
HS FOR MEDIA & COMM - MANHATTA,FY17 RESO A ROOM CONVERSIONS/PARTITIONING,CIP,M465,549 AUDUBON AVENUE,Manhattan,40.855855,-73.92712
I.S. 49 - STATEN ISLAND,IP DIGITAL VIDEO SURVEILLANCE SYSTEM,CIP,R049,101 WARREN STREET,Staten Island,40.620347,-74.081643
P.S. 197 - BROOKLYN,EXT MASONRY/PARAPETS/ROOFS/WINDOWS/FLOOD/PIPING,CIP,K197,1599 EAST 22 STREET,Brooklyn,40.612623,-73.95190600000001
P.S. 79 - QUEENS,RPZ VALVE,CIP,Q079,147-27 15 DRIVE,Queens,40.785909,-73.818058
I.S. 78 - BROOKLYN,LSP REPLACE VERTICAL DUPLEX SEWAGE EJECTOR PUMPS,CIP,K078,1420 EAST 68 STREET,Brooklyn,40.621224,-73.91287
P.S. 57 - STATEN ISLAND,FY19 RESO A AUDITORIUM UPGRADE,CIP,R057,140 PALMA DRIVE,Staten Island,40.611508,-74.083177
P.S. 125 - MANHATTAN,ROOFS/FLOOD ELIMINATION/EXTERIOR MASONRY/PARAPETS,CIP,M125,425 WEST 123 STREET,Manhattan,40.810431,-73.955809
QUEENS SATELLITE HS FOR OPPORT,ELECTRICAL WORK FOR A/C INITIATIVE/LSP LL26 CODE COMPLIANCE/EXIT SIGN REPLACEMENT,CIP,Q595,162-02 HILLSIDE AVENUE,Queens,40.70848,-73.800065
P.S. 107 - BROOKLYN,EXTERIOR MASONRY/ROOFS/PARAPETS,CIP,K107,1301 8TH AVENUE,Brooklyn,40.663251,-73.981289
YOUNG WOMENS' LEADERSHIP SCHOO,ROOF STRUCTURAL DAMAGE/EXTERIOR MASONRY,CIP,Q680,150-91 87 ROAD,Queens,40.707527,-73.806412
DEWITT CLINTON HS - X,EXTERIOR MASONRY/FLOOD ELIMINATION/PARAPETS/ROOF,CIP,X440,100 W MOSHOLU PKWY S,Bronx,40.882178,-73.88691
3K CENTER @ 100-02 ROCKAWAY BOULEVARD - QUEENS,Lease,CAP,Q468,100-02 ROCKAWAY BOULEVARD,Queens,40.679938,-73.839399
P.S. 75 - MANHATTAN,TEMPORARY BOILER,CIP,M075,735 WEST END AVENUE,Manhattan,40.795157,-73.973292
THE FRESH CREEK SCHOOL - BROOK,ELECTRICAL WORK FOR A/C INITIATIVE,CIP,K260,875 WILLIAMS AVENUE,Brooklyn,40.654031,-73.89485400000001
P.S. 88 - QUEENS,LSP DOMESTIC WATER PRESSURE PUMP REPLACEMENT,CIP,Q088,60-85 CATALPA AVENUE,Queens,40.703779,-73.896374
MIDDLE SCHOOL FOR ART & PHILOS,EXTERIOR MASONRY/PARAPETS/ROOFS,CIP,K252,1084 LENOX ROAD,Brooklyn,40.658295,-73.920109
I.S. 7 - STATEN ISLAND,MASONRY,CIP,R007,1270 HUGUENOT AVENUE,Staten Island,40.523757,-74.185941
DISTRICT 2 PRE-K CENTER @ 606 WEST 57TH STREET - MANHATTAN,Lease,CAP,M444,606 WEST 57TH STREET,Manhattan,40.770531,-73.991945
P.S. 192 - MANHATTAN,FY19 RESO A CAFETERIA / MULTIPURPOSE ROOM UPGRADE,CIP,M192,500 WEST 138 STREET,Manhattan,40.820953,-73.951145
P.S. 150 - QUEENS,ELECTRICAL WORK FOR A/C INITIATIVE,CIP,Q150,40-01 43 AVENUE,Queens,40.745537,-73.923776
FORT HAMILTON HS - K,POOL BOILER,CIP,K490,8301 SHORE ROAD,Brooklyn,40.627898,-74.039985
P.S. 282 - BROOKLYN,LSP VACUUM PUMP,CIP,K282,180 6TH AVENUE,Brooklyn,40.67634,-73.977367
P.S. 246 - BRONX,FY18 RESO A SCIENCE LAB UPGRADES,CIP,X843,2641 GRAND CONCOURSE,Bronx,40.865593,-73.894758
I.S. 281 - BROOKLYN,SANDY:ELEVATOR UPG/FLOOD/FIRE ALARM,CIP,K281,8787 24 AVENUE,Brooklyn,40.595341,-73.99345699999999
P.S. 121 - QUEENS,TCU REMOVAL & PLAYGROUND REDEVELOPMENT,CIP,Q121,126-10 109 AVENUE,Queens,40.68405,-73.815834
I.S. 187 - BROOKLYN,FY17 RESO A ROOM CONVERSIONS/PARTITIONING,CIP,K486,1171 65 STREET,Brooklyn,40.627784000000005,-74.004485
DISTRICT 20 PRE-K CENTER,BACKFLOW PREVENTION DEVICES,CIP,K767,1668 46TH STREET,Brooklyn,40.631768,-73.98221
P.S. 54 - BRONX,FYRESO A PLAYGROUNDS,CIP,X054,2703 WEBSTER AVENUE,Bronx,40.864527,-73.88782900000001
BEACH CHANNEL HS - QUEENS,SANDY REPAIRS-ATHLETIC FIELD,CIP,Q411,100-00 BEACH CHANNEL DRIVE,Queens,40.586066,-73.822624
HERBERT H. LEHMAN HS - X,STRUCTURAL DEFECTS,CIP,X405,3000 EAST TREMONT AVENUE,Bronx,40.840702,-73.838545
HS FOR MEDICAL PROFESSIONS - K,PLANYC BOILER CONVERSION/PLANYC CLIMATE CTRL/FLOOD,CIP,K500,1600 ROCKAWAY PKWY,Brooklyn,40.641474,-73.89825400000001
HS FOR ARTS & TECHNOLOGY - M,ROOFS/WINDOWS,CIP,M490,122 AMSTERDAM AVENUE,Manhattan,40.774351,-73.984753
MIDWOOD HS - BROOKLYN,CRACKED CONCRETE STRUCTURE/FIELD HOUSE,CIP,K406,1124 EAST 17 STREET,Brooklyn,40.622641,-73.958988
P.S. 164 - QUEENS,FY19 RESO A LIBRARY UPGRADE,CIP,Q164,138-01 77 AVENUE,Queens,40.720924,-73.823362
P.S. 105 - BROOKLYN,LSP REPLACEMENT CAFETERIA FLOOR,CIP,K105,1031 59 STREET,Brooklyn,40.632936,-74.00374000000001
P.S. 14 ADDITION - BRONX,Addition,CAP,X014,3041 BRUCKNER BLVD,Bronx,40.835779,-73.825735
JOHN ADAMS HS - QUEENS,EXTERIOR MASONRY/ROOFS/PARAPETS/WINDOWS/FLOOD ELIMINATION,CIP,Q480,102-10 ROCKAWAY BOULEVARD,Queens,40.679487,-73.836476
I.S. 167 - MANHATTAN,FACADE DAMAGE/SITE WORK/FLOOD/PARAPETS/WINDOWS,CIP,M167,220 EAST 76 STREET,Manhattan,40.77205,-73.958066
P.S. 288 - BROOKLYN,ROOF,CIP,K288,2950 WEST 25 STREET,Brooklyn,40.574411,-73.99194
P.S. 111 - MANHATTAN,FACADE PANELS/ROOFS/PARAPETS,CIP,M111,440 WEST 53 STREET,Manhattan,40.765878,-73.988823
RICHMOND HILL HS - QUEENS,LSP GYMNASIUM  BLEACHERS REPLACEMENT,CIP,Q475,89-30 114 STREET,Queens,40.695888,-73.833681
GEORGE WESTINGHOUSE VOC. HS,PARAPETS/EXTERIOR MASONRY/ROOFS/FLOOD ELIMINATION,CIP,K580,105 JOHNSON STREET,Brooklyn,40.694926,-73.98601500000001
X721 SPED - BRONX,PLANYC BOILER CNVRSN/PLANYC CLIMATE CTRL,CIP,X722,2697 WESTCHESTER AVENUE,Bronx,40.842289,-73.838949
P.S. 174 - QUEENS,FY16 RESO A ROOM CONV/FY16 RESO A SCIENCE LAB UPG,CIP,Q174,65-10 DIETERLE CRESCENT,Queens,40.720924,-73.86135
P.S. 253 - BROOKLYN,EXTERIOR MASONRY/FLOOD ELIMINATION/PARAPETS/ROOFS,CIP,K253,601 OCEANVIEW AVENUE,Brooklyn,40.579607,-73.962071
P.S. 131 - BROOKLYN,WATER PENETRATION/FLOOD/PARAPETS/ROOFS,CIP,K131,4305 FT HAMILTON PKWY,Brooklyn,40.641157,-73.993482
ALFRED E. SMITH HS - X,FY16 RESO A AUDITORIUM UPGRADE,CIP,X600,333 EAST 151 STREET,Bronx,40.818232,-73.91986700000001
P.S. 201 - QUEENS,PLANYC CLIMATE CONTROL/PLANYC BOILER CONVERSION,CIP,Q201,65-11 155 STREET,Queens,40.736653,-73.813346
CLARA BARTON HS - K,FAILING COPING STONE/ROOFS,CIP,K600,901 CLASSON AVENUE,Brooklyn,40.669567,-73.961962
P.S. 183 - MANHATTAN,PLANYC BOILER CONVERSION/PLANYC CLIMATE CONTROL/VENTILATION,CIP,M183,419 EAST 66 STREET,Manhattan,40.763736,-73.95815
P.S. 103 - BRONX,PARAPET/EXTERIOR MASONRY/FLOOD ELIMINATION,CIP,X103,4125 CARPENTER AVENUE,Bronx,40.892151,-73.86146600000001
J.H.S. 157 - QUEENS,FY16 RESO A ROOM CONVERSIONS / PART,CIP,Q157,63-55 102ND STREET,Queens,40.732289,-73.853825
PRE-K CENTER @ 108-18 ROOSEVELT AVENUE - QUEENS,Lease,CAP,Q422,108-18 ROOSEVELT AVENUE,Queens,40.750844,-73.858303
THE BROOKLYN SCHOOL FOR SOCIAL,EXTERIOR MASONRY/PARAPETS/ROOFS,CIP,K480,400 IRVING AVENUE,Brooklyn,40.697185,-73.91117
P.S. 215 - BROOKLYN,LSP REPLACE PVI DOMESTIC WATER HEATER,CIP,K215,415 AVENUE S,Brooklyn,40.602084000000005,-73.970013
P.S. 377 - BROOKLYN,FY17 RESO A LIBRARY UPGRADES,CIP,K377,200 WOODBINE STREET,Brooklyn,40.694018,-73.915263
I.S. 75 - STATEN ISLAND,IPDVS CAMERA INSTALLATION,CIP,R075,455 HUGUENOT AVENUE,Staten Island,40.54438,-74.197897
BRONX HS OF SCIENCE - X,ROOF REPLACEMENT/PARAPETS,CIP,X445,75 W 205 STREET,Bronx,40.877590000000005,-73.89104
ALFRED E. SMITH HS - X,ROOM CONVERSION/UPG PLUMBING SHOP-RM B-50,CIP,X600,333 EAST 151 STREET,Bronx,40.818232,-73.91986700000001
P.S. 66 - QUEENS,Addition,CAP,Q066,85-11 102 STREET,Queens,40.697836,-73.846558
MARTIN VAN BUREN HS - QUEENS,ELECTRICAL WORK FOR A/C INITIATIVE,CIP,Q435,230-17 HILLSIDE AVENUE,Queens,40.733066,-73.73875600000001
I.S. 232 - BRONX,ROOFS/PARAPETS/EXTERIOR MASONRY,CIP,X082,1700 MACOMBS ROAD,Bronx,40.849532,-73.916077
BEACH CHANNEL HS - QUEENS,SANDY REPAIRS-ATHLETIC FIELD,CIP,Q411,100-00 BEACH CHANNEL DRIVE,Queens,40.586066,-73.822624
FRANCIS LEWIS HS - QUEENS,FY15RESO A AUDITORIUM UPGRADE,CIP,Q430,58-20 UTOPIA PKWY,Queens,40.740724,-73.79283000000001
K053 SPED - BROOKLYN,IPDVS CAMERA INSTALLATION,CIP,K296,125 COVERT STREET,Brooklyn,40.688387,-73.910276
P.S. 108 - MANHATTAN,PLANYC BOILER/PLANC CLIMATE CTRL/LOW VOLT/KITCHEN,CIP,M108,1615 MADISON AVENUE,Manhattan,40.795146,-73.948368
M811 SPED - MANHATTAN,EXTERIOR MASONRY/FLOOD ELIMINATION,CIP,M841,466 WEST END AVENUE,Manhattan,40.786611,-73.97951
P.S. 36 - BRONX,FULL PROGRAM ACCESSIBILITY,CIP,X036,1070 CASTLE HILL AVENUE,Bronx,40.829344,-73.85042800000001
BROOKLYN ACADEMY HS - BROOKLYN,WORK REQUIRED TO OBTAIN A C OF O,CIP,K458,832 MARCY AVENUE,Brooklyn,40.685004,-73.947152
I.S. 61 - STATEN ISLAND,ROOFS/PARAPETS/WINDOWS/EXTERIOR MASONRY,CIP,R061,445 CASTLETON AVENUE,Staten Island,40.634009000000006,-74.097826
NORTH BRONX SCHOOL OF EMPOWERM,IP DIGITAL VIDEO SURVEILLANCE SYSTEM,CIP,X113,3710 BARNES AVENUE,Bronx,40.880873,-73.860904
GREGORIO LUPERON PREP. SCHOOL,FY19 RESO A SCIENCE LAB UPGRADE,CIP,M876,501 WEST 165 STREET,Manhattan,40.838167,-73.938642
P.S. 200 - QUEENS,FY18 RESO A AUDITORIUM  UPGRADE,CIP,Q200,70-10 164 STREET,Queens,40.731369,-73.805116
P.S. 377 - BROOKLYN,AUDITORIUM UPGRADE,CIP,K377,200 WOODBINE STREET,Brooklyn,40.694018,-73.915263
J.H.S. 185 - QUEENS,ELECTRICAL WORK FOR A/C INITIATIVE,CIP,Q185,147-26 25 DRIVE,Queens,40.775253,-73.819347
P.S. 123 - QUEENS,TCU REMOVAL & PLAYGROUND REDEVELOPMENT,CIP,Q123,145-01 119 AVENUE,Queens,40.678296,-73.79562
P.S. 97 - BROOKLYN,Addition,CAP,K097,1855 STILLWELL AVENUE,Brooklyn,40.601433,-73.986139
FASHION INDUSTRIES VOC HS - M,EXTERIOR MASONRY/PARAPETS/FLOOD ELIMINATION,CIP,M600,225 WEST 24 STREET,Manhattan,40.745156,-73.996074
BERGTRAUM HS - MANHATTAN,SCIENCE LAB UPGRADE/FIRE ALARM SYSTEMS,CIP,M520,411 PEARL STREET,Manhattan,40.711442,-74.000851
EDUCATIONAL CAMPUS @ 500 19TH,Lease,CAP,K280,500 19TH STREET,Brooklyn,40.656944,-73.983115
P.S. 63 - QUEENS,FY15 RESO A AUDITORIUM UPGRADE,CIP,Q063,90-15 SUTTER AVENUE,Queens,40.67641,-73.846773
P.S. 43 - QUEENS,SANDY-INTERIOR/HEATING/FLOOD/SHINGLE ROOF/CLIMATE,CIP,Q043,160 BEACH 29TH STREET,Queens,40.593834,-73.76174
P.S. 217 - BROOKLYN,EXTERIOR MASONRY/FLOOD ELIMINATION/WINDOWS/PARAPETS,CIP,K217,1100 NEWKIRK AVENUE,Brooklyn,40.63398,-73.96655799999999
P.S. 345 - BROOKLYN,PLANYC BOILER CONVERSION/PLANYC CLIMATE CONTROL,CIP,K345,111 BERRIMAN STREET,Brooklyn,40.676129,-73.880337
P.S. 131 - BROOKLYN,WATER PENETRATION/FLOOD/PARAPETS/ROOFS,CIP,K131,4305 FT HAMILTON PKWY,Brooklyn,40.641157,-73.993482
P.S. 107 - BROOKLYN,EXTERIOR MASONRY/ROOFS/PARAPETS,CIP,K107,1301 8TH AVENUE,Brooklyn,40.663251,-73.981289
P.S. 54 - STATEN ISLAND,FY19 RESO A AUDITORIUM UPGRADE,CIP,R054,1060 WILLOWBROOK RD,Staten Island,40.603232,-74.13798100000001
RALPH R. MCKEE CAREER AND TECH,EXTERIOR MASONRY/PARAPETS/ROOFS/FLOOD ELIMINATION,CIP,R600,290 ST MARKS PLACE,Staten Island,40.642793,-74.07873000000001
COLLEGIATE INST FOR MATH & SCI,FIRE ALARM SYSTEM,CIP,X415,925 ASTOR AVENUE,Bronx,40.859665,-73.861006
P.S. 132 - MANHATTAN,FUEL OIL TANK REPLACEMENT,CIP,M233,601 WEST 183 STREET,Manhattan,40.850592,-73.93304300000001
P.S. 108 - MANHATTAN,AC INITIATIVE,CIP,M108,1615 MADISON AVENUE,Manhattan,40.795146,-73.948368
P.S. 315 - BROOKLYN,FY18 RESO A AUDITORIUM  UPGRADE,CIP,K152,725 EAST 23 STREET,Brooklyn,40.632562,-73.954724
P.S. 234 - MANHATTAN,FY16 RESO A AUDITORIUM UPGRADE,CIP,M234,292 GREENWICH STREET,Manhattan,40.71602,-74.01103499999999
QUEENS COLLEGIATE SCHOOL - QUE,IPDVS CAMERA INSTALLATION,CIP,Q470,167-01 GOTHIC DRIVE,Queens,40.713218,-73.797237
WEST END SECONDARY SCHOOL - MANHATTAN,Lease,CAP,M837,227-243 WEST 61 STREET,Manhattan,40.772007,-73.98747900000001
P.S. 162 - QUEENS,ELECTRICAL WORK FOR A/C INITIATIVE,CIP,Q162,201-02 53 AVENUE,Queens,40.749036,-73.777213
P.S. 91 - BROOKLYN,LSP REPLACE (2) VACUUM PUMP UNITS,CIP,K091,532 ALBANY AVENUE,Brooklyn,40.661886,-73.93994
COLLEGIATE INST FOR MATH & SCI,FIRE ALARM SYSTEM,CIP,X415,925 ASTOR AVENUE,Bronx,40.859665,-73.861006
NEWTOWN HS - QUEENS,FY18 RESO A LOW-VOLTAGE ELECTRICAL SYSTEMS,CIP,Q455,48-01 90 STREET,Queens,40.741122,-73.874721
I.S. 522 - BROOKLYN,PLANYC BOILER/PLANYC CLIMATE CONTROL,CIP,K271,1137 HERKIMER STREET,Brooklyn,40.677805,-73.91584300000001
FRANCIS LEWIS HS ANNEX - QUEENS,New,CAP,Q434,58-20 UTOPIA PARKWAY,Queens,40.740724,-73.79283000000001
BROOKLYN TECH HS - K,EXTERIOR MASONRY/ROOFS/PARAPETS/WINDOWS/PAVED AREA,CIP,K430,29 FT GREENE PLACE,Brooklyn,40.688834,-73.976905
CURTIS HS - STATEN ISLAND,LSP- BOILER FEED WATER TANK REPLACEMENT,CIP,R450,105 HAMILTON AVENUE,Staten Island,40.644735,-74.081222
P.S. 246 - BRONX,GYM STANDALONE GYM ANNEX,CIP,X472,2641 GRAND CONCOURSE,Bronx,40.865593,-73.894758
WILLIAM E. GRADY VOC HS - K,ELECTRICAL WORK FOR A/C INITIATIVE,CIP,K620,25 BRIGHTON 4TH ROAD,Brooklyn,40.582585,-73.963477
P.S. 148 - QUEENS,ROOFS/EXTERIOR MASONRY,CIP,Q148,89-02 32 AVENUE,Queens,40.758377,-73.87908900000001
MILLENIUM ART ACADEMY - BRONX,LSP CEILING REPLACEMENT,CIP,X450,1980 LAFAYETTE AVENUE,Bronx,40.82229,-73.856167
P.S. 183 - MANHATTAN,FY19 RESO A SUPPLEMENTAL COOLING,CIP,M183,419 EAST 66 STREET,Manhattan,40.763736,-73.95815
P.S. 2 - QUEENS,Demo,CAP,Q002,75-10 21 AVENUE,Queens,40.770335,-73.894476
MONROE ACAD FOR VISUAL ARTS -,EXTERIOR MASONRY/FLOOD ELIMINATION/PARAPETS/ROOFS/WINDOWS,CIP,X420,1300 BOYNTON AVENUE,Bronx,40.831601,-73.878912
LAFAYETTE ACADEMY - MANHATTAN,ELEVATOR MODERNIZATION,CIP,M118,154 WEST 93 STREET,Manhattan,40.791709,-73.970802
P.S. 146 - MANHATTAN,PLANYC BOILER CNVRSN/PLANYC CLIMATE CTRL,CIP,M146,421 EAST 106 STREET,Manhattan,40.789295,-73.939262
P.S. 191 - BROOKLYN,FY18 RESO A LIBRARY UPGRADES,CIP,K191,1600 PARK PLACE,Brooklyn,40.672005,-73.924329
P.S. 198 - MANHATTAN,FY17 RESO A SUPPLEMENTAL COOLING,CIP,M198,1700 3RD AVENUE,Manhattan,40.784826,-73.949611
P.S. 43 - BRONX,WATER PENE/BOILER/SUPPORT/MASONRY/CLIM CTRL/PIPING,CIP,X043,165 BROWN PLACE,Bronx,40.806351,-73.921196
P.S. 277 - BROOKLYN,PLANYC BOILER CONVERSION/PLANYC CLIMATE CONTROL,CIP,K277,2529 GERRITSEN AVENUE,Brooklyn,40.596145,-73.928793
P.S. 312 - BROOKLYN,WATER PENETRATION,CIP,K312,7103 AVENUE T,Brooklyn,40.621413,-73.908987
K000 - BROOKLYN,FY18 RESO A PLAYGROUNDS,CIP,K768,7301 15TH AVENUE,Brooklyn,40.618718,-74.001898
P.S. 157 - BRONX,ROOFS/WINDOWS,CIP,X157,757 CAULDWELL AVENUE,Bronx,40.819258000000005,-73.908553
P.S. 176 - QUEENS,Addition,CAP,Q176,120-45 235 STREET,Queens,40.685492,-73.72998199999999
P.S. 115 - QUEENS,PLANYC BOILER CNVRSN/PLANYC CLIMATE CTRL,CIP,Q115,80-51 261 STREET,Queens,40.744099,-73.709845
I.S. 51 - STATEN ISLAND,IPDVS CAMERA INSTALLATION,CIP,R051,20 HOUSTON STREET,Staten Island,40.622585,-74.14488
P.S. 50 - MANHATTAN,EXTERIOR MASONRY/ROOFS/PARAPETS/SITE WALLS,CIP,M050,433 EAST 100 STREET,Manhattan,40.785258,-73.941526
P.S. 124 - BROOKLYN,FY16 RESO A SUPPLEMENTAL COOLING,CIP,K124,515 4TH AVENUE,Brooklyn,40.667545,-73.991046
P.S. 295 - BROOKLYN,GYM & CAFE FLOOR/FLOOD/FLOOR/PARAPETS/MASONRY/ROOF,CIP,K845,330 18 STREET,Brooklyn,40.660976,-73.988297
P.S. 80 - STATEN ISLAND,FY17 RESO A GYMNASIUM UPGRADE,CIP,R880,715 OCEAN TERRACE,Staten Island,40.608517,-74.102078
WEST END SECONDARY SCHOOL - MANHATTAN,Lease,CAP,M837,227-243 WEST 61 STREET,Manhattan,40.772007,-73.98747900000001
P.S. 123 - BROOKLYN,LSP DOMESTIC WATER BOOSTER PUMP REPLACEMENT,CIP,K123,100 IRVING AVENUE,Brooklyn,40.703767,-73.922702
UNIVERSITY HEIGHTS HS - BRONX,ATHLETIC FIELDS,CIP,X471,701 ST ANNS AVENUE,Bronx,40.81825,-73.91103000000001
P.S. 62 - BRONX,EXT MASONRY/PARAPETS,CIP,X062,660 FOX STREET,Bronx,40.814031,-73.900609
PRE-K CENTER @ 98-22 55 AVENUE - QUEENS,Lease,CAP,Q437,98-22 55 AVENUE,Queens,40.739192,-73.862261
TOWNSEND HARRIS HS - Q,FY19 RESO A ROOM CONVERSIONS/PARTITIONING,CIP,Q515,149-11 MELBOURNE AVENUE,Queens,40.734390000000005,-73.821392
LYFE PROGRAM,LYFE CENTER,CIP,M081,212 W 120TH ST,Manhattan,40.806063,-73.95134
P.S. 384 - BROOKLYN,ELECTRICAL WORK FOR A/C INITIATIVE/LSP LL26 CODE COMPLIANCE/EXIT SIGN REPLACEMENT,CIP,K384,242 COOPER STREET,Brooklyn,40.690353,-73.904803
I.S. 49 - STATEN ISLAND,FLOOD ELIMINATION,CIP,R049,101 WARREN STREET,Staten Island,40.620347,-74.081643
P.S. 333 - MANHATTAN,FY18 RESO A AUDITORIUM  UPGRADE,CIP,M118,154 WEST 93 STREET,Manhattan,40.791709,-73.970802
P.S. 131 - QUEENS,Addition,CAP,Q131,170-45 84TH AVENUE,Queens,40.716617,-73.794637
P.S. 198 - MANHATTAN,WINDOWS/ROOFS/PARAPETS,CIP,M198,1700 3RD AVENUE,Manhattan,40.784826,-73.949611
JULIA RICHMAN H.S.,LL 41-16 COMPLIANCE,CIP,M480,317 EAST 67 STREET,Manhattan,40.765359,-73.960059
Q009 SPED - QUEENS,EXT MSNRY/PARAPET/FLOOD/ ACCESSIBILITY/FIRE ALARM,CIP,Q009,58-74 57 STREET,Queens,40.718935,-73.91220799999999
NEW UTRECHT HS - BROOKLYN,WATER PENETRATION INTO BASEMENT/NATATORIUM RECONST,CIP,K445,1601 80 STREET,Brooklyn,40.613262,-74.003404
I.S. 75 - STATEN ISLAND,CHILLER REPLACEMENT,CIP,R075,455 HUGUENOT AVENUE,Staten Island,40.54438,-74.197897
BRONX CNTR FOR SCIENCE & MATH,PLANYC BOILER CONVERSION/PLANYC CLIMATE CTRL,CIP,X002,1365 FULTON AVENUE,Bronx,40.833696,-73.902477
PRE-K CENTER @ JACKSON AVENUE - QUEENS,Lease,CAP,Q972,27-35 JACKSON AVENUE,Queens,40.747962,-73.940046
P.S. 92 - MANHATTAN,COLLAPSED WALL,CIP,M092,222 WEST 134 STREET,Manhattan,40.815016,-73.945123
P.S. 212 - BROOKLYN,EXT MASONRY - WATER PENETRATION/PARAPETS/ROOFS/WIN,CIP,K212,87 BAY 49 STREET,Brooklyn,40.587616,-73.985948
P.S. 197 - BROOKLYN,EXTERIOR MASONRY/PARAPETS/ROOFS/WINDOWS/FLOOD ELIMINATION/PIPING REPLACEMENT,CIP,K197,1599 EAST 22 STREET,Brooklyn,40.612623,-73.95190600000001
P.S. 132 - MANHATTAN,IRON FENCE & HANDRAILS/WATER INFILTRATION/BOILER,CIP,M132,185 WADSWORTH AVENUE,Manhattan,40.850626,-73.934377
I.S. 394 - BROOKLYN,WATER PENETRATION,CIP,K210,188 ROCHESTER AVENUE,Brooklyn,40.672762,-73.927973
I.S. 34 - STATEN ISLAND,FY18 RESO A ROOM CONVERSIONS/PARTITIONING,CIP,R034,528 ACADEMY AVE,Staten Island,40.508284,-74.24342800000001
P.S. 139 - BROOKLYN,ELECTRICAL WORK FOR A/C INITIATIVE,CIP,K139,330 RUGBY ROAD,Brooklyn,40.641937,-73.965523
P.S. 73 - BROOKLYN,EXT MASONRY/FLOOD ELIMINATION/PARAPETS/ROOFS,CIP,K073,251 MACDOUGAL STREET,Brooklyn,40.680318,-73.91064399999999
I.S. 136 - BROOKLYN,RPZ VALVES/LOW VOLTAGE ELEC SYSTEM,CIP,K136,4004 4TH AVENUE,Brooklyn,40.651977,-74.006862
BROOKLYN GENERATION SCHOOL - K,INSTALL BACKFLOW PREVENTION DEVICES,CIP,K515,6565 FLATLANDS AVENUE,Brooklyn,40.633285,-73.916735
PRE-K CENTER @ 2510 MARION AVENUE - BRONX,Lease,CAP,X444,2510 MARION AVENUE,Bronx,40.861286,-73.89325799999999
P.S. 1 - MANHATTAN,FLOOD ELIMINATION/WINDOWS/EXTERIOR MASONRY/ROOF,CIP,M001,8 HENRY STREET,Manhattan,40.71276,-73.997489
P.S. 298 - BROOKLYN,ELECTRICAL WORK FOR A/C INITIATIVE/LL26 CODE COMPLIANCE/EXIT SIGN REPLACEMENT,CIP,K298,85 WATKINS STREET,Brooklyn,40.670986,-73.908194
TELECOM. ARTS & TECH. HS - K,C OF O/ELECTRICAL WORK FOR A/C INITIATIVE,CIP,K485,350 67 STREET,Brooklyn,40.637282,-74.023849
P.S. 43 - QUEENS,SANDY- ELEVATOR REPAIR,CIP,Q043,160 BEACH 29TH STREET,Queens,40.593834,-73.76174
I.S. 126 - QUEENS,FY16 RESO A PLAYGROUND REDEVELOPMENT,CIP,Q126,31-51 21 STREET,Queens,40.766264,-73.930709
P.S. 256 ANNEX - QUEENS,New,CAP,Q816,445 BEACH 135 STREET,Queens,40.577026,-73.854539
NEW DORP HS - STATEN ISLAND,ATHLETIC FIELDS,CIP,R436,465 NEW DORP LANE,Staten Island,40.569393,-74.107737
P.S. 21 - QUEENS,CEILNG REPAIR,CIP,Q021,147-36 26TH AVENUE,Queens,40.774512,-73.819284
EAST NY FAMILY ACADEMY - K,New,CAP,K599,2057 LINDEN BLVD,Brooklyn,40.661072,-73.886942
P.S. 72 - MANHATTAN,PARAPETS/MASONRY/RM UPG/FLOOD/ROOF/PLAYGROUND,CIP,M072,131 EAST 104 STREET,Manhattan,40.791179,-73.947776
COLLEGIATE INST FOR MATH & SCI,FY19 RESO A AUDITORIUM UPGRADE,CIP,X415,925 ASTOR AVENUE,Bronx,40.859665,-73.861006
I.S. 419 - QUEENS,New,CAP,Q419,111-10 ASTORIA BOULEVARD,Queens,40.7599,-73.859218
HS OF GRAPHIC COMM. ARTS (VOC),EXT MASONRY/ROOFS/PARAPETS,CIP,M625,439 WEST 49 STREET,Manhattan,40.76337,-73.9906
PORT RICHMOND HS - R,LSP REPLACE BOILER,CIP,R446,39 INNIS STREET,Staten Island,40.633704,-74.142364
I.S. 78 - BROOKLYN,LSP VACUUM PUMPS,CIP,K078,1420 EAST 68 STREET,Brooklyn,40.621224,-73.91287
FORT HAMILTON HS - K,IP DIGITAL VIDEO SURVEILLANCE SYSTEM,CIP,K490,8301 SHORE ROAD,Brooklyn,40.627898,-74.039985
P.S. 232 - QUEENS,WATER INFILTRATION/PLANYC BOILER/PLANYC CLIMATE CONTROL/LOW-VOLTAGE ELECTRICAL SYSTEM/EXTERIOR MASONRY,CIP,Q232,153-23 83 STREET,Queens,40.665909,-73.85121600000001
J.H.S. 190 - QUEENS,ROOFS,CIP,Q190,68-17 AUSTIN STREET,Queens,40.722707,-73.851699
P.S. 344 - BRONX,FY19 RESO A PLAYGROUND,CIP,X095,3961 HILLMAN AVENUE,Bronx,40.882898,-73.891256
P.S. 20 - QUEENS,FLOOD ELIMINATION/EXTERIOR MASONRY/ROOFS/PARAPETS,CIP,Q020,142-30 BARCLAY AVENUE,Queens,40.758689,-73.824832
LONG ISLAND CITY HS - Q,CULINARY ARTS ROOM,CIP,Q452,14-30 BROADWAY,Queens,40.765826,-73.9328
P.S. 32 - BRONX,EXTERIOR MASONRY/WINDOWS/PARAPETS,CIP,X032,690 EAST 183 STREET,Bronx,40.852103,-73.885935
P.S. 170 - BRONX,MASONRY ISSUE/PARAPETS/ROOFS,CIP,X170,1598 TOWNSEND AVENUE,Bronx,40.844316,-73.913604
P.S. 28 - MANHATTAN,PLANYC BOILER CONVERSION/PLANYC CLIMATE CONTROL/WATER SERVICE UPGRADE,CIP,M028,475 WEST 155 STREET,Manhattan,40.831227,-73.942143
P.P.A.S. - MANHATTAN,MASONRY/AUD UPG/WIN/FLOOD/PARAPETS/ROOFS/FA,CIP,M017,328 WEST 48 STREET,Manhattan,40.761448,-73.988019
PORT RICHMOND HS - R,TCU REMOVAL/MASONRY/ROOFS/PARAPETS/FLOOD ELIM,CIP,R445,85 ST JOSEPHS AVENUE,Staten Island,40.634573,-74.141818
HS FOR ARTS & TECHNOLOGY - M,FY16 RESO A TERRACE SURFACING AND PAVEMENTS/ROOFS/WINDOWS,CIP,M490,122 AMSTERDAM AVENUE,Manhattan,40.774351,-73.984753
AUGUST MARTIN HS - QUEENS,IP DIGITAL VIDEO SURVEILLANCE SYSTEM,CIP,Q400,156-10 BAISLEY BLVD,Queens,40.675633000000005,-73.783342
RICHMOND HILL HS - QUEENS,STEEL DETERIORATED COLUMS & COLUMN,CIP,Q475,89-30 114 STREET,Queens,40.695888,-73.833681
FLUSHING HS - QUEENS,ELECTRICAL WORK FOR A/C INITIATIVE,CIP,Q460,35-01 UNION STREET,Queens,40.765166,-73.82789
PORT RICHMOND HS - R,ATHLETIC FIELD,CIP,R446,39 INNIS STREET,Staten Island,40.633704,-74.142364
P.S. 40 - QUEENS,ELECTRICAL WORK FOR A/C INITIATIVE/LSP LL26 CODE COMPLIANCE/EXIT SIGN REPLACEMENT,CIP,Q040,109-20 UNION HALL STREET,Queens,40.694125,-73.790675
BRONX MATH PREP - BRONX,FLOOD ELIMINATION/ROOFS/PARAPETS/EXT MASONRY,CIP,X174,456 WHITE PLAINS ROAD,Bronx,40.814833,-73.85658000000001
P.S. 166 - QUEENS,FY18 RESO A AUDITORIUM  UPGRADE,CIP,Q166,33-09 35 AVENUE,Queens,40.757309,-73.926733
P.S. 47 - QUEENS,FIRE ALARM REPLACEMENT,CIP,Q047,9 POWER ROAD,Queens,40.606353000000006,-73.82044499999999
I.S. 49 - STATEN ISLAND,FY18 RESO A GYMNASIUM UPGRADE,CIP,R049,101 WARREN STREET,Staten Island,40.620347,-74.081643
P.S. 31 - QUEENS,CHIMNEY LINER REPLAC/PLANYC BOILER/CLIMATE/MASONRY,CIP,Q031,211-45 46 ROAD,Queens,40.757064,-73.770122
P.S. 108 - MANHATTAN,PLANYC BOILER/PLANC CLIMATE CTRL/LOW VOLT/KITCHEN,CIP,M108,1615 MADISON AVENUE,Manhattan,40.795146,-73.948368
P.S. 19 - BRONX,Addition,CAP,X019,4318 KATONAH AVENUE,Bronx,40.899295,-73.8675
P.S. 89 - BRONX,FLOOD ELIMINATION,CIP,X089,980 MACE AVENUE,Bronx,40.863055,-73.859387
P.S. 16 - STATEN ISLAND,FY18 RESO A GYMNASIUM UPGRADE,CIP,R016,80 MONROE AVENUE,Staten Island,40.6397,-74.079141
P.S. 32 - BRONX,ELECTRICAL WORK FOR A/C INITIATIVE,CIP,X032,690 EAST 183 STREET,Bronx,40.852092,-73.885891
HS FOR ENVIRONMENTAL STUDIES -,6TH FLOOR EGRESS/FIRE ALARM,CIP,M834,444 WEST 56 STREET,Manhattan,40.767791,-73.987531
I.S. 74 - QUEENS,LSP LL26 CODE COMPLIANCE/EXIT SIGN REPLACEMENT,CIP,Q074,61-15 OCEANIA STREET,Queens,40.745201,-73.76744599999999
P.S. 85 - BRONX,EXT MASONRY/PARAPETS/ROOFS/SECURITY LIGHTING/FLOOD,CIP,X085,2400 MARION AVENUE,Bronx,40.8591,-73.89494599999999
P.S. 64 - QUEENS,PLANYC BOILER CONVERSION/PLANYC CLIMATE CONTROL/FIRE ALARM SYSTEMS,CIP,Q064,82-01 101 AVENUE,Queens,40.681172,-73.85691800000001
P.S. 66 - BROOKLYN,FIRE ALARM SYSTEM REPLACEMENT,CIP,K066,845 EAST 96 STREET,Brooklyn,40.64883,-73.907774
P.S. 256 ANNEX - QUEENS,New,CAP,Q816,445 BEACH 135 STREET,Queens,40.577026,-73.854539
P.S. 122 - QUEENS,FY18 RESO A CAFETERIA / MULTIPURPOSE ROOM UPGRADE,CIP,Q122,21-21 DITMARS BLVD,Queens,40.780347,-73.916655
EAST BRONX ACADEMY FOR THE FUT,IPDVS CAMERA INSTALLATION,CIP,X973,1716 SOUTHERN BLVD,Bronx,40.836356,-73.888361
P.S. 106 - QUEENS,DEMOLITION & PAVED AREA/TCU REMOVAL PLAYGROUND RED,CIP,Q806,180 BEACH 35 STREET,Queens,40.593779,-73.767199
P.S. 119 - BRONX,ELECTRICAL WORK FOR A/C INITIATIVE,CIP,X119,1075 PUGSLEY AVENUE,Bronx,40.828518,-73.856569
P.S. 33 - QUEENS,TCU REMOVAL/PLAYGROUND REDEVELOPMENT,CIP,Q033,91-37 222 STREET,Queens,40.727134,-73.735077
URBN ASSY SCHL CRIM JUSTICE -,SCIENCE LAB UPGRADE,CIP,K223,4200 16 AVENUE,Brooklyn,40.634875,-73.981528
P.S. 414 - BROOKLYN,STRUCTURAL STABILIZATION,CIP,K019,325 SOUTH 3RD STREET,Brooklyn,40.709647,-73.95465
3K CENTER @ 92-80 220TH STREET - QUEENS,Lease,CAP,Q442,92-80 220 STREET,Queens,40.723336,-73.736561
I.S. 5 - QUEENS,LSP VACUUM/CONDENSATE PUMP SYSTEM REPLACEMENT,CIP,Q005,50-40 JACOBUS STREET,Queens,40.737718,-73.887429
P.S. 42 - BRONX,FLOOD ELIMINATION/PARAPETS/EXTERIOR MASONRY/ROOFS,CIP,X042,1537 WASHINGTON AVENUE,Bronx,40.838288,-73.902987
P.S. 132 - MANHATTAN,IRON FENCE/FY16 RESO PLAYGRD/WATER INFILTRA/BOILER,CIP,M132,185 WADSWORTH AVENUE,Manhattan,40.850626,-73.934377
WADLEIGH SECONDARY SCHOOL FOR,ENY AUDITORIUM UPGRADE,CIP,M088,215 WEST 114 STREET,Manhattan,40.802207,-73.954142
P.S. 36 - QUEENS,ELECTRICAL WORK FOR A/C INITIATIVE,CIP,Q036,187-01 FOCH BLVD,Queens,40.690828,-73.76390699999999
DEWITT CLINTON HS - X,IP DIGITAL VIDEO SURVEILLANCE SYSTEM,CIP,X440,100 W MOSHOLU PKWY S,Bronx,40.882178,-73.88691
P.S. 25 - BRONX,EXTERIOR MASONRY/PARAPETS/ROOFS/WINDOWS,CIP,X025,811 EAST 149 STREET,Bronx,40.812619,-73.906063
I.S. 78 - BROOKLYN,LSP VACUUM PUMPS,CIP,K078,1420 EAST 68 STREET,Brooklyn,40.621224,-73.91287
P.S. 72 - MANHATTAN,SCIENCE LAB UPGRADE,CIP,M072,131 EAST 104 STREET,Manhattan,40.791179,-73.947776
P.S. 16 - QUEENS,EXTERIOR MASONRY,CIP,Q721,41-15 104 STREET,Queens,40.748987,-73.86123
HS OF COMPUTERS & TECHNOLOGY -,ELECTRICAL WORK FOR A/C INITIATIVE,CIP,X425,800 EAST GUN HILL ROAD,Bronx,40.875953,-73.86197
DISTRICT 27 PRE-K CENTER @ 160-06 CROSS BAY BOULEVARD - QUEENS,Demo,CAP,Q486,160-06 CROSS BAY BOULEVARD,Queens,40.657176,-73.839392
P.S. 7 - BRONX,FY16 RESO A AIR CONDITIONING SPLIT SYSTEM,CIP,X007,3201 KINGSBRIDGE AVENUE,Bronx,40.881066,-73.905366
P.S. 212 - BROOKLYN,EXT MASONRY - WATER PENETRATION/PARAPETS/ROOFS/WIN,CIP,K212,87 BAY 49 STREET,Brooklyn,40.587616,-73.985948
THE RIVERSIDE SCHOOL - MANHATTAN,New,CAP,M342,300 WEST 61ST STREET,Manhattan,40.772883,-73.989609
P.S. 201 - QUEENS,PLANYC CLIMATE CONTROL/PLANYC BOILER CONVERSION,CIP,Q201,65-11 155 STREET,Queens,40.736653,-73.813346
FASHION INDUSTRIES VOC HS - M,EXTERIOR MASONRY/PARAPETS/FLOOD ELIMINATION,CIP,M600,225 WEST 24 STREET,Manhattan,40.745156,-73.996074
I.S. 226 - QUEENS,TCU REMOVAL AND PLAYGROUND REDEVELOPMENT,CIP,Q226,121-10 ROCKAWAY BOULEVARD,Queens,40.675771000000005,-73.81693800000001
ESSEX STREET ACADEMY - MANHATT,FY17 RESO A BOYS LOCKER ROOM UPGRADE,CIP,M445,350 GRAND STREET,Manhattan,40.717349,-73.98959599999999
P.S. 290 - BROOKLYN,ROOFS/WINDOWS/PARAPETS,CIP,K290,135 SCHENCK AVENUE,Brooklyn,40.677890000000005,-73.889758
FASHION INDUSTRIES VOC HS - M,ELECTRICAL WORK FOR A/C INITIATIVE,CIP,M600,225 WEST 24 STREET,Manhattan,40.745156,-73.996074
P.S. 131 - QUEENS,Addition,CAP,Q131,170-45 84TH AVENUE,Queens,40.716617,-73.794637
X811 SPED - BRONX,PROBES-REPAIRS/PARAPETS/ ROOFS/WINDOWS,CIP,X084,1434 LONGFELLOW AVENUE,Bronx,40.830589,-73.887587
P.S. 164 - BROOKLYN,EXT MASONRY/ROOFS/CLIMATE CTRL/PARAPETS,CIP,K164,4211 14TH AVENUE,Brooklyn,40.637486,-73.985955
P.S. 112 - BRONX,FY19 RESO A AUDITORIUM UPGRADE,CIP,X112,1925 SCHIEFFELIN AVENUE,Bronx,40.885008,-73.843193
WILLIAM C. BRYANT HS - QUEENS,IPDVS CAMERA INSTALLATION,CIP,Q445,48-10 31 AVENUE,Queens,40.75823,-73.910514
FOREST HILLS HS - QUEENS,FY18 RESO A SCIENCE LAB UPGRADES,CIP,Q440,67-01 110 STREET,Queens,40.729402,-73.845637
PROGRESS HS - K,ROOFS/WINDOWS/EXTERIOR MASONRY/PARAPETS,CIP,K450,850 GRAND STREET,Brooklyn,40.712184,-73.939722
MASPETH HIGH SCHOOL - QUEENS,FY18 RESO A AUDITORIUM  UPGRADE,CIP,Q585,54-40 74TH STREET,Queens,40.729939,-73.88748199999999
P.S. 215 - QUEENS,LOW VOLTAGE ELECTRICAL SYSTEM,CIP,Q215,535 BRIAR PLACE,Queens,40.5993,-73.758206
P.S. 307 - BROOKLYN,RENOVATION OF CLASSROOM 332,CIP,K307,209 YORK STREET,Brooklyn,40.701343,-73.982314
P.S. 50 - STATEN ISLAND,FY16 RESO A PLAYGROUND REDEVELOPMEN,CIP,R050,200 ADELAIDE AVENUE,Staten Island,40.561691,-74.124622
P.S. 158 - BROOKLYN,ELECTRICAL WORK FOR A/C INITIATIVE,CIP,K158,400 ASHFORD STREET,Brooklyn,40.672579,-73.884803
P.S. 128 - MANHATTAN,PLANYC BOILER CNVSN/PLANYC CLIMATE CTRL,CIP,M128,560 WEST 169 STREET,Manhattan,40.841321,-73.938506
DEWITT CLINTON HS - X,EXTERIOR MASONRY/FLOOD ELIMINATION/PARAPETS/ROOF,CIP,X440,100 W MOSHOLU PKWY S,Bronx,40.882178,-73.88691
NYC SCHOOL CONSTRUCTION AUTHOR,CAPITAL PLANNING NEW OFFICE BUILDOUT,CIP,Q998,30-30 THOMSON AVENUE,Queens,40.745042,-73.93619100000001
Q811 SPED - QUEENS,PLANYC BOILER CNVRSN/PLANYC CLIMATE CTRL,CIP,Q811,61-25 MARATHON PKWY,Queens,40.756778,-73.729487
M.S. 354 - BROOKLYN,LIBRARY UPGRADE,CIP,K390,1224 PARK PLACE,Brooklyn,40.672713,-73.936924
P.S. 146 - BROOKLYN,DETERIORATED MASONRY,CIP,K142,610 HENRY STREET,Brooklyn,40.68007,-74.001377
HS FOR ARTS & TECHNOLOGY - M,IP DIGITAL VIDEO SURVEILLANCE SYSTEM,CIP,M490,122 AMSTERDAM AVENUE,Manhattan,40.774351,-73.984753
P.S. 333 - QUEENS,SANDY NEW A/C CHILLERS,CIP,Q198,3-65 BEACH 56 STREET,Queens,40.593967,-73.786182
P.S. 163 - MANHATTAN,TCU REMOVAL & PLAYGROUND REDEVELOPMENT,CIP,M163,163 WEST 97 STREET,Manhattan,40.794264,-73.96870600000001
P.S. 64 - QUEENS,PLANYC BOILER CONVERSION/PLANYC CLIMATE CONTROL/FIRE ALARM SYSTEMS,CIP,Q064,82-01 101 AVENUE,Queens,40.681172,-73.85691800000001
P.S. 30 - STATEN ISLAND,EXTERIOR MASONRY/ROOFS/PARAPETS,CIP,R030,200 WARDWELL AVE,Staten Island,40.618439,-74.132645
ESSEX STREET ACADEMY - MANHATT,FY17 RESO A BOYS LOCKER ROOM UPGRADE,CIP,M445,350 GRAND STREET,Manhattan,40.716778000000005,-73.989337
P.S. 274 - BROOKLYN,FY18 RESO A ELECTRICAL SYSTEM,CIP,K274,800 BUSHWICK AVENUE,Brooklyn,40.694921,-73.927931
JULIA RICHMAN H.S.,LL 41/16 COMPLIANCE,CIP,M480,317 EAST 67 STREET,Manhattan,40.765359,-73.960059
P.S. 119 - BROOKLYN,PLANYC BOILER CNVRSN/PLANYC CLIMATE CTRL,CIP,K119,3829 AVENUE K,Brooklyn,40.625662,-73.938265
I.S. 104 - MANHATTAN,FY17 RESO A SUPPLEMENTAL COOLING,CIP,M104,330 EAST 21 STREET,Manhattan,40.736094,-73.980663
JULIA RICHMAN H.S.,LL 41-16 COMPLIANCE,CIP,M480,317 EAST 67 STREET,Manhattan,40.765359,-73.960059
P.S. 87 - BRONX,FLOOD ELIMINATION/EXT MASONRY/WINDOWS/PARAPETS,CIP,X087,1935 BUSSING AVENUE,Bronx,40.895104,-73.845968
I.S. 24 - STATEN ISLAND,LSP CAFETERIA FLOOR REPLACEMENT,CIP,R024,225 CLEVELAND AVENUE,Staten Island,40.545281,-74.14631999999999
P.S. 125 - MANHATTAN,ROOFS/FLOOD ELIMINATION/EXTERIOR MASONRY/PARAPETS,CIP,M125,425 WEST 123 STREET,Manhattan,40.810431,-73.955809
P.S. 290 - BROOKLYN,TCU REMOVAL & PLAYGROUND REDEVELOPMENT,CIP,K290,135 SCHENCK AVENUE,Brooklyn,40.677890000000005,-73.889758
I.S. 339 - BRONX,RENEWAL SCHOOL BASED HEALTH CENTER,CIP,X147,1600 WEBSTER AVENUE,Bronx,40.840878,-73.904754
P.S. 288 - BROOKLYN,ROOF,CIP,K288,2950 WEST 25 STREET,Brooklyn,40.574411,-73.99194
WILLIAM C. BRYANT HS - QUEENS,IPDVS CAMERA INSTALLATION,CIP,Q445,48-10 31 AVENUE,Queens,40.75823,-73.910514
P.S. 213 - BROOKLYN,"LSP VACUUM PUMP SETS, CHEMICAL FEEDER",CIP,K213,580 HEGEMAN AVENUE,Brooklyn,40.66051,-73.890288
IS/HS 336 - QUEENS,Lease,CAP,Q336,124-06 14TH AVENUE,Queens,40.785327,-73.843749
P.S. 18 - STATEN ISLAND,FY18 RESO A AUDITORIUM UPGRADE,CIP,R018,221 BROADWAY,Staten Island,40.636587,-74.117509
P.S. 112 - QUEENS,FY19 RESO A GYMNASIUM UPGRADE,CIP,Q112,25-05 37 AVENUE,Queens,40.756891,-73.934523
PRE-K CENTER @ 98-22 55 AVENUE - QUEENS,Lease,CAP,Q437,98-22 55 AVENUE,Queens,40.739192,-73.862261
P.S. 48 - BROOKLYN,FLOOD ELIMINATION/EXTERIOR MASONRY/WINDOWS,CIP,K048,6015 18 AVENUE,Brooklyn,40.621871,-73.98739599999999
P.S. 183 - MANHATTAN,EXTERIOR MASONRY/FLOOD ELIMINATION/ PARAPETS/ROOFS,CIP,M183,419 EAST 66 STREET,Manhattan,40.763736,-73.95815
P.S. 102 - QUEENS,FLOOD ELIMINATION/PARAPETS/EXTERIOR MASONRY/ROOFS/WINDOWS,CIP,Q102,55-24 VAN HORN STREET,Queens,40.733514,-73.87785699999999
P.S. 166 - MANHATTAN,FY18 RESO A LIBRARY UPGRADES,CIP,M166,132 WEST 89 STREET,Manhattan,40.788865,-73.971847
P.S. 66 - BRONX,RENEWAL SCHOOL BASED HEALTH CENTER,CIP,X066,1001 JENNINGS STREET,Bronx,40.831165000000006,-73.88709399999999
P.S. 171 - MANHATTAN,FLOOD ELIM/WINDOWS/EXT MASONRY/HEATING PLANT UPG,CIP,M171,19 EAST 103 STREET,Manhattan,40.792122,-73.951961
P.S./I.S. 323 - BROOKLYN,ELECTRICAL WORK FOR A/C INITIATIVE,CIP,K263,210 CHESTER STREET,Brooklyn,40.666545,-73.910904
P.S. 16 - BRONX,LSP FIRE ALARM PULL BOX,CIP,X016,4550 CARPENTER AVENUE,Bronx,40.902205,-73.85482900000001
P.P.A.S. - MANHATTAN,FY13 RESO A ROOM CONVERSIONS / PART,CIP,M017,328 WEST 48 STREET,Manhattan,40.761448,-73.988019
P.S. 46 - STATEN ISLAND,FY19 RESO A FENCING,CIP,R046,41 REID AVENUE,Staten Island,40.59377,-74.08058
I.S. 144 - BRONX,PLANYC BOILER CONVERSION/CLIMATE CONTROL,CIP,X144,2545 GUNTHER AVENUE,Bronx,40.863735,-73.83606999999999
P.S. 233 - BROOKLYN,MASONRY/CORRODED BEAMS/ROOFS/PARAPETS,CIP,K233,9301 AVENUE B,Brooklyn,40.651022,-73.91402
P.S. 90 - BROOKLYN,FY18 RESO A LIBRARY UPGRADES,CIP,K090,2840 WEST 12 STREET,Brooklyn,40.578255,-73.979628
P.S. 109 - BROOKLYN,LSP REPLACE LEAKING PVI DOMESTIC WATER HEATER,CIP,K395,1001 EAST 45 STREET,Brooklyn,40.636455,-73.933582
PRE-K CENTER @ 104-04 CORONA AVENUE - QUEENS,New,CAP,Q373,104-04 CORONA AVENUE,Queens,40.744001,-73.85840400000001
SUSAN E. WAGNER HS - STATEN IS,EXT DOORS/EXT MASONRY/WINDOWS/PARAPETS/ROOFS,CIP,R460,1200 MANOR ROAD,Staten Island,40.596803,-74.124227
I.S. 371 - BRONX,EXTERIOR MASONRY,CIP,X192,650 HOLLYWOOD AVENUE,Bronx,40.826526,-73.81841700000001
P.S. 45 - BROOKLYN,LSP VACUUM PUMPS,CIP,K045,84 SCHAEFER STREET,Brooklyn,40.686746,-73.91069300000001
P.S. 128 - MANHATTAN,PLANYC BOILER CNVSN/PLANYC CLIMATE CTRL,CIP,M128,560 WEST 169 STREET,Manhattan,40.841321,-73.938506
M.S. 354 - BROOKLYN,PLANYC BOILER CONVERSION/PLANYC CLIMATE CONTROL,CIP,K390,1224 PARK PLACE,Brooklyn,40.672713,-73.936924
FORT HAMILTON HS - K,POOL BOILER,CIP,K490,8301 SHORE ROAD,Brooklyn,40.627835,-74.04004599999999
P.S. 85 - BRONX,ELECTRICAL WORK FOR A/C INITIATIVE,CIP,X085,2400 MARION AVENUE,Bronx,40.858831,-73.895167
BROOKLYN SCHOOL FOR MATH AND R,LOW VOLT/ELECTRICAL WORK FOR A/C INITIATIVE,CIP,K480,400 IRVING AVENUE,Brooklyn,40.697185,-73.91117
P.S. 92 - BROOKLYN,ELECTRICAL WORK FOR A/C INITIATIVE/LL26 CODE COMPLIANCE/EXIT SIGN REPLACEMENT,CIP,K092,601 PARKSIDE AVENUE,Brooklyn,40.656046,-73.953742
P.S. 196 ADDITION,Addition,CAP,Q196,71-25 113 STREET,Queens,40.722782,-73.837946
P.S. 17 - BROOKLYN,BUILDING FAN REPLACEMENT/ELECTRICAL UPGRADE,CIP,K017,208 NORTH 5 STREET,Brooklyn,40.715351,-73.956716
FORDHAM HS FOR THE ARTS - BRON,FY16 RESO A LIBRARY UPGRADE,CIP,X435,500 EAST FORDHAM ROAD,Bronx,40.860043,-73.888267
P.S. @ 4525 8TH AVENUE - BROOKLYN,New,CAP,K730,4525 8TH AVENUE,Brooklyn,40.643734,-74.000977
P.S. 34 - BROOKLYN,PLANYC BOILER CNVRSN/PLANYC CLIMATE CTRL,CIP,K034,131 NORMAN AVENUE,Brooklyn,40.726135,-73.949649
KINGSBOROUGH EARLY COLLEGE SCH,ELECTRICAL WORK FOR A/C INITIATIVE,CIP,K400,2630 BENSON AVENUE,Brooklyn,40.594291,-73.98577
I.S. 98 - BRONX,STH SBHC,CIP,X098,1619 BOSTON RD,Bronx,40.8359,-73.890458
P.S. 23 - BRONX,FY17 RESOA PLAYGROUND REDEVELOPMENT,CIP,X023,2151 WASHINGTON AVENUE,Bronx,40.85294,-73.89474200000001
P.S. 4 - STATEN ISLAND,FIRE ALARM SYSTEM REPLACEMENT,CIP,R004,200 NEDRA LANE,Staten Island,40.552975,-74.194597
P.S. 36 - BRONX,FULL PROGRAM ACCESSIBILITY,CIP,X036,1070 CASTLE HILL AVENUE,Bronx,40.829344,-73.85042800000001
P.S. 46 - BRONX,Addition,CAP,X046,279 EAST 196 STREET,Bronx,40.866827,-73.890725
LIFE SCIENCE SECONDARY SCHOOL,HAZARDOUS - FACADE REPAIR,CIP,M645,320 EAST 96 STREET,Manhattan,40.783625,-73.945637
P.S. 342 (RIVERSIDE CENTER) - MANHATTAN,New,CAP,M342,300 WEST 61ST STREET,Manhattan,40.772883,-73.989609
MILLENIUM ART ACADEMY - BRONX,TCU REMOVAL/PLAYGROUND REDEVELOPMENT,CIP,X450,1980 LAFAYETTE AVENUE,Bronx,40.82229,-73.856167
I.S. 34 - STATEN ISLAND,MASONRY/WINDOWS/PARAPETS/ROOFS,CIP,R034,528 ACADEMY AVE,Staten Island,40.508284,-74.24342800000001
P.S. 121 - BROOKLYN,FY15 RESO A AIR CONDITIONING SPLIT SYSTEM,CIP,K121,5301 20TH AVENUE,Brooklyn,40.623273,-73.978822
RALPH MCKEE VOC HS - S. I.,FY16 RESO A ROOM CONVERSIONS,CIP,R600,290 ST MARKS PLACE,Staten Island,40.642793,-74.07873000000001
P.S./I.S. 338 - BROOKLYN,Demo,CAP,K338,21 HINCKLEY PLACE,Brooklyn,40.644469,-73.971032
I.S. 101 - BRONX,WINDOW SILL ISSUE/ROOFS,CIP,X101,2750 LAFAYETTE AVENUE,Bronx,40.827471,-73.829753
P.S. 42 - QUEENS,ELECTRICAL WORK FOR A/C INITIATIVE,CIP,Q042,488 BEACH 66 STREET,Queens,40.594538,-73.795304
I.S. 125 - BRONX,LIGHTING REPLACEMENT (DCAS),CIP,X125,1111 PUGSLEY AVENUE,Bronx,40.829232,-73.856734
P.S. 88 - QUEENS,LSP DOMESTIC WATER PRESSURE PUMP REPLACEMENT,CIP,Q088,60-85 CATALPA AVENUE,Queens,40.703779,-73.896374
I.S. 125 - BRONX,LIGHTING REPLACEMENT (DCAS),CIP,X125,1111 PUGSLEY AVENUE,Bronx,40.829232,-73.856734
P.S. 153 - MANHATTAN,FY17 RESO A PLAYGROUND REDEVELPOMENT,CIP,M153,1750 AMSTERDAM AVENUE,Manhattan,40.826295,-73.946845
A-TECH HIGH SCHOOL - K,FLOOD ELIMINATION/ROOFS/PARAPETS/ WINDOWS/EXTERIOR MASONRY,CIP,K610,50 BEDFORD AVENUE,Brooklyn,40.721981,-73.953281
P.S. 20 - BROOKLYN,ELECTRICAL WORK FOR A/C INITIATIVE,CIP,K020,225 ADELPHI STREET,Brooklyn,40.690765,-73.971376
EDUCATIONAL CAMPUS @ 500 19TH STREET - BROOKLYN,Lease,CAP,K280,500 19TH STREET,Brooklyn,40.656944,-73.983115
P.S. 33 - QUEENS,FY19 RESO A GYMNASIUM UPGRADE,CIP,Q033,91-37 222 STREET,Queens,40.727134,-73.735077
P.S. 68 - BRONX,WATER INFILTRATION/EXT MASONRY/PAVED AREA-BLACKTOP,CIP,X068,4011 MONTICELLO AVENUE,Bronx,40.891732,-73.838471
P.S. 199 - QUEENS,EXTERIOR MASONRY/PARAPETS,CIP,Q199,39-20 48 AVENUE,Queens,40.740088,-73.926214
THE 30TH AVENUE SCHOOL,FY18 RESO A SCIENCE LAB UPGRADES,CIP,Q126,31-51 21 STREET,Queens,40.766264,-73.930709
P.S. 7 - QUEENS,CLIMATE CONTROL/LOW VOLTAGE ELECTRICAL SYSTEM,CIP,Q007,80-55 CORNISH AVENUE,Queens,40.739115000000005,-73.882487
P.S./I.S. @ 3269 ATLANTIC AVENUE - BROOKLYN,New,CAP,K667,3269 ATLANTIC AVENUE,Brooklyn,40.680655,-73.875152
I.S. 109 - QUEENS,FY15RESO A SCIENCE LAB UPGRADES,CIP,Q109,213-10 92 AVENUE,Queens,40.720713,-73.747001
P.S. @ PARCEL F - QUEENS,Demo,CAP,Q375,1-35 57TH AVENUE,Queens,40.738836,-73.96060899999999
G. WASHINGTON CARVER HS FOR SC,IPDVS CAMERA INSTALLATION,CIP,Q420,143-10 SPRINGFIELD BLVD,Queens,40.668235,-73.756839
P.S. 124 - BROOKLYN,FLOOD/ROOFS/PARAPETS/EXT MASONRY,CIP,K124,515 4TH AVENUE,Brooklyn,40.667545,-73.991046
P.S. 105 - QUEENS,SANDY:HEATING/ELEC/FLOOD/AUD/PIPING/HVAC/INT/PAVED,CIP,Q105,420 BEACH 51 STREET,Queens,40.595779,-73.781876
P.S. 103 - BRONX,PARAPET/EXTERIOR MASONRY/FLOOD ELIMINATION,CIP,X103,4125 CARPENTER AVENUE,Bronx,40.892151,-73.86146600000001
JOHN ADAMS HS - QUEENS,EXTERIOR MASONRY/ROOFS/PARAPETS/WINDOWS/FLOOD ELIMINATION,CIP,Q480,102-10 ROCKAWAY BOULEVARD,Queens,40.679487,-73.836476
P.S. 116 - QUEENS,EXT MASONRY/ROOFS/CONCRETE ROOF DECK/PARAPETS,CIP,Q116,107-25 WREN PLACE,Queens,40.700606,-73.782302
I.S. 51 - STATEN ISLAND,FY15 RESO A SCHOOL YARD RENOVATION,CIP,R051,20 HOUSTON STREET,Staten Island,40.622585,-74.14488
P.S. 24 - QUEENS,Addition,CAP,Q024,45-57 UNION STREET,Queens,40.75207,-73.818789
I.S. 14 - BROOKLYN,WATER PENETRATION/PLANYC BOILER/PLANYC CLIMATE,CIP,K014,2424 BATCHELDER STREET,Brooklyn,40.593521,-73.93767199999999
CURTIS HS - STATEN ISLAND,LSP- BOILER FEED WATER TANK REPLACEMENT,CIP,R450,105 HAMILTON AVENUE,Staten Island,40.644735,-74.081222
I.S. 118 - BRONX,FY19 RESO A AUDITORIUM UPGRADE,CIP,X118,577 EAST 179 STREET,Bronx,40.848339,-73.89308
P.S. 236 - BROOKLYN,FY17 RESO A AUDITORIUM UPGRADE,CIP,K236,6302 AVENUE U,Brooklyn,40.615998,-73.912989
I.S. 49 - STATEN ISLAND,ELECTRICAL WORK FOR A/C INITIATIVE,CIP,R049,101 WARREN STREET,Staten Island,40.620347,-74.081643
G. WASHINGTON CARVER HS FOR SC,IP DIGITAL VIDEO SURVEILLANCE SYSTEM,CIP,Q420,143-10 SPRINGFIELD BLVD,Queens,40.668235,-73.756839
P.S. 158 - BROOKLYN,LSP DETERIORATED GYM FLOOR,CIP,K158,400 ASHFORD STREET,Brooklyn,40.672579,-73.884803
P.S. 173 - QUEENS,FY15 RESO A AUDITORIUM UPGRADE,CIP,Q173,174-10 67TH AVENUE,Queens,40.734572,-73.795484
BRONX INTERNATIONAL - BRONX,TOWER TERRA COTTA REPLACEMENT/FLOOD ELIMINATION/ROOFS/WINDOWS/INTERIOR SPACES,CIP,X400,1110 BOSTON RD,Bronx,40.827642,-73.904473
P.S. 29 - STATEN ISLAND,EXTERIOR MASONRY/ROOFS/PARAPETS,CIP,R029,1581 VICTORY BLVD,Staten Island,40.613604,-74.115988
I.S. 210 - QUEENS,IP DIGITAL VIDEO SURVEILLANCE SYSTEM,CIP,Q210,93-11 101 AVENUE,Queens,40.683858,-73.84747
P.S. 116 - MANHATTAN,BULGING WALLS AND RUSTED GRATING SUPPORTS,CIP,M116,210 EAST 33 STREET,Manhattan,40.744838,-73.978116
P.S. 9 - BRONX,PLANYC BOILER CNVSN/PLANYC CLIMATE CTRL,CIP,X009,230 EAST 183 STREET,Bronx,40.857067,-73.89893599999999
P.S. 112 - QUEENS,FY17 RESO A PLAYGROUND REDEVELOPMENT,CIP,Q112,25-05 37 AVENUE,Queens,40.756891,-73.934523
I.S./J.H.S. 63 - STATEN ISLAND,FY17 RESO A AUDITORIUM UPGRADE,CIP,R043,100 ESSEX DRIVE,Staten Island,40.581315,-74.158589
P.S. 112 - QUEENS,FY17 RESO A PLAYGROUND REDEVELOPMENT,CIP,Q112,25-05 37 AVENUE,Queens,40.756891,-73.934523
I.S. 123 - BRONX,RENEWAL SCHOOL BASED HEALTH CENTER,CIP,X123,1025 MORRISON AVENUE,Bronx,40.825403,-73.873666
P.S. 188 - BROOKLYN,LSP MASONRY,CIP,K188,3314 NEPTUNE AVENUE,Brooklyn,40.577217,-74.000194
GROVER CLEVELAND HS - QUEENS,ELECTRICAL WORK FOR A/C INITIATIVE,CIP,Q485,21-27 HIMROD STREET,Queens,40.711033,-73.908814
P.S. 44 - BRONX,EXTERIOR MASONRY/PARAPETS/ROOFS,CIP,X044,1825 PROSPECT AVENUE,Bronx,40.842084,-73.891116
P.S. 161 - BROOKLYN,FLOOD ELIMINATION,CIP,K161,330 CROWN STREET,Brooklyn,40.666181,-73.949013
I.S. 265 - BROOKLYN,PLANYC BOILER CONVERSION/PLANYC CLIMATE CONTROL,CIP,K265,101 PARK AVENUE,Brooklyn,40.696324,-73.97578
H.S. 745 - BROOKLYN,IPDVS CAMERA INSTALLATION,CIP,K470,600 KINGSTON AVENUE,Brooklyn,40.658893,-73.942458
P.S. 5 - MANHATTAN,PARAPETS/ROOFS/WINDOWS/PLAYGROUND REDEVELOPMENT,CIP,M005,3703 TENTH AVENUE,Manhattan,40.858990000000006,-73.922894
P.S. 244 - BROOKLYN,ELECTRICAL WORK FOR A/C INITIATIVE,CIP,K244,5404 TILDEN AVENUE,Brooklyn,40.648423,-73.92594799999999
CYPRESS HILLS COLLEGIATE - K,PARAPETS/ELECTRICAL WORK FOR A/C INITIATIVE/FLOOD ELIM/ROOFS/EXT MASONRY/LL26 CODE COMPLIANCE/EXIT SIGN REPLACEMENT,CIP,K420,999 JAMAICA AVENUE,Brooklyn,40.691146,-73.868328
M.S. 282 - QUEENS,FY17 RESO A LIBRARY UPGRADES,CIP,Q465,8-21 BAY 25 STREET,Queens,40.60201,-73.762795
P.S. 176 - QUEENS,FY19 RESO A AUDITORIUM UPGRADE,CIP,Q176,120-45 235 STREET,Queens,40.685492,-73.72998199999999
P.S. 7 - QUEENS,CLIMATE CONTROL/LOW VOLTAGE ELECTRICAL SYSTEM,CIP,Q007,80-55 CORNISH AVENUE,Queens,40.739115000000005,-73.882487
P.S. 101 - BROOKLYN,Addition,CAP,K101,2360 BENSON AVENUE,Brooklyn,40.597863,-73.99169300000001
P.S. 90 - QUEENS,AUDITORIUM UPGRADE,CIP,Q090,86-50 109 STREET,Queens,40.697033000000005,-73.839213
P.S. 333 - QUEENS,REINFORCING/HEATING PLT/ELEC/FLOOD ELIM/CLIMATE CO,CIP,Q198,3-65 BEACH 56 STREET,Queens,40.593967,-73.786182
J.H.S. 237 - QUEENS,FY19 RESO A DOOR REPLACEMENT,CIP,Q237,46-21 COLDEN STREET,Queens,40.749545,-73.822073
P.S. 121 - BROOKLYN,EXTERIOR MASONRY/PARAPETS/ROOFS,CIP,K121,5301 20TH AVENUE,Brooklyn,40.623273,-73.978822
THE FORWARD SCHOOL - BRONX,LOW VOLTAGE ELECTRICAL SYSTEM,CIP,X113,3710 BARNES AVENUE,Bronx,40.880873,-73.860904
I.S. 529 - BRONX,ELECTRICAL WORK FOR A/C INITIATIVE/LSP LL26 CODE COMPLIANCE/EXIT SIGN REPLACEMENT,CIP,X142,3750 BAYCHESTER AVENUE,Bronx,40.884953,-73.840524
FORT HAMILTON HS - K,IPDVS CAMERA INSTALLATION,CIP,K490,8301 SHORE ROAD,Brooklyn,40.627898,-74.039985
P.S. 19 - BROOKLYN,FY16 RESO A PLAYGROUND REDVELOPMENT,CIP,K019,325 SOUTH 3RD STREET,Brooklyn,40.709647,-73.95465
THOMAS A. EDISON HS - Q,FY17 RESO A ROOM CONVERSIONS/PARTITIONING,CIP,Q620,165-65 84 AVENUE,Queens,40.715389,-73.80036899999999
P.S. 6 - BRONX,STANDALONE GYM ANNEX,CIP,X449,1000 EAST TREMONT AVENUE,Bronx,40.840755,-73.88170699999999
PATHWAYS IN TECHNOLOGY EARLY C,EXTERIOR MASONRY/ROOFS/PARAPETS/WINDOWS/FLOOD ELIMINATION,CIP,K625,150 ALBANY AVENUE,Brooklyn,40.675612,-73.938843
M811 SPED - MANHATTAN,EXT MASONRY/FLOOD ELIMINATION,CIP,M841,466 WEST END AVENUE,Manhattan,40.786611,-73.97951
THE BROOKLYN SCHOOL FOR SOCIAL,LOW VOLTAGE ELECTRICAL SYSTEMS/ELECTRICAL WORK FOR A/C INITIATIVE,CIP,K480,400 IRVING AVENUE,Brooklyn,40.697185,-73.91117
FRANCIS LEWIS HS ANNEX - QUEEN,Demo,CAP,Q434,58-20 UTOPIA PARKWAY,Queens,40.740724,-73.79283000000001
P.S. 116 - QUEENS,EXT MASONRY/ROOFS/CONCRETE ROOF DECK/PARAPETS,CIP,Q116,107-25 WREN PLACE,Queens,40.700606,-73.782302
P.S. 145 - MANHATTAN,PLANYC BOILER CNVSN/PLANYC CLIMATE CTRL,CIP,M145,150 WEST 105 STREET,Manhattan,40.799178000000005,-73.964842
P.S. 123 - QUEENS,TCU REMOVAL & PLAYGROUND REDEVELOPMENT,CIP,Q123,145-01 119 AVENUE,Queens,40.678296,-73.79562
D75 REPLACEMENT @ 15 FAIRFIELD STREET - STATEN ISLAND,Demo,CAP,R089,15 FAIRFIELD STREET,Staten Is,40.56397,-74.150885
FREDERICK DOUGLASS ACADEMY VI,MASONRY/ROOFS/WINDOWS/PARAPETS/NATATORIUM STRUCTURAL REPAIRS,CIP,Q465,8-21 BAY 25 STREET,Queens,40.60201,-73.762795
P.S. 128 - MANHATTAN,PLANYC BOILER CNVSN/PLANYC CLIMATE CTRL,CIP,M128,560 WEST 169 STREET,Manhattan,40.841359,-73.93859300000001
P.S. 40 - BROOKLYN,FY16 RESO A ROOFS,CIP,K040,265 RALPH AVENUE,Brooklyn,40.680463,-73.922264
MARTIN VAN BUREN HS - QUEENS,RNWL SBHC,CIP,Q435,230-17 HILLSIDE AVENUE,Queens,40.733066,-73.73875600000001
NORMAN THOMAS HS - MANHATTAN,SCIENCE LAB,CIP,M620,111 EAST 33 STREET,Manhattan,40.746176,-73.981241
BRONX INTERNATIONAL - BRONX,TERRA COTTA REPL/FLOOD/ROOFS/WINDOW/INTERIOR SPACE,CIP,X400,1110 BOSTON RD,Bronx,40.827642,-73.904473
P.S. 37 - QUEENS,FLOOD/FA/EXT MASONRY/ELEVATOR/PARAPETS/FLOOD,CIP,Q037,179-37 137 AVENUE,Queens,40.67588,-73.758505
P.S. 114 - BROOKLYN,FY18 RESO A AUDITORIUM  UPGRADE,CIP,K114,1077 REMSEN AVENUE,Brooklyn,40.642792,-73.90880600000001
JOHN BOWNE HS - QUEENS,EXTERIOR MASONRY/ROOFS,CIP,Q425,63-25 MAIN STREET,Queens,40.738139,-73.82494399999999
P.S. 55 - QUEENS,PLANYC CLIMATE CONTROL/PLANYC BOILER CONVERSION,CIP,Q055,131-10 97 AVENUE,Queens,40.694004,-73.81661700000001
P.S. 81 - BRONX,FY18 RESO A SUPPLEMENTAL COOLING,CIP,X081,5550 RIVERDALE AVENUE,Bronx,40.903553,-73.905229
P.S. 16 - BRONX,TCU REMOVAL/PLAYGROUND REDEVELOPMENT,CIP,X016,4550 CARPENTER AVENUE,Bronx,40.902205,-73.85482900000001
P.S. 11 - STATEN ISLAND,TOILETS - STUDENTS,CIP,R011,50 JEFFERSON STREET,Staten Island,40.590562,-74.09770400000001
P.S. 19 - QUEENS,Addition,CAP,Q019,98-02 ROOSEVELT AVENUE,Queens,40.749381,-73.867354
P.S. 3 - STATEN ISLAND,FY18 RESO A PLAYGROUNDS,CIP,R003,80 SOUTH GOFF AVENUE,Staten Island,40.520699,-74.211264
P.S. 128 - MANHATTAN,PLANYC BOILER CNVSN/PLANYC CLIMATE CTRL,CIP,M128,560 WEST 169 STREET,Manhattan,40.841321,-73.938506
P.S. 171 - MANHATTAN,FLOOD ELIM/WINDOWS/EXT MASONRY/HEATING PLANT UPG,CIP,M171,19 EAST 103 STREET,Manhattan,40.792122,-73.951961
FASHION INDUSTRIES VOC HS - M,ACCESSIBILITY,CIP,M600,225 WEST 24 STREET,Manhattan,40.745156,-73.996074
PATHWAYS IN TECHNOLOGY EARLY C,EXT MASONRY/ROOFS/PARAPETS/WINDOWS/FLOOD,CIP,K625,150 ALBANY AVENUE,Brooklyn,40.675612,-73.938843
P.S. 174 - QUEENS,FY16 RESO A ROOM CONV/FY16 RESO A SCIENCE LAB UPG,CIP,Q174,65-10 DIETERLE CRESCENT,Queens,40.720924,-73.86135
ALFRED E. SMITH HS - X,FY16 RESO A AUDITORIUM UPGRADE,CIP,X600,333 EAST 151 STREET,Bronx,40.818232,-73.91986700000001
P.S. 143 ADDITION - QUEENS,Addition,CAP,Q143,34-74 113 STREET,Queens,40.755451,-73.855192
BARD COLLEGE HS - MANHATTAN,NON-SANDY:MASONRY/ROOF/PARAPET/SANDY FLOOD/MSNRY,CIP,M097,525 EAST HOUSTON STREET,Manhattan,40.719029,-73.975891
I.S. 259 - BROOKLYN,PLANYC BOILER CONVERSION/PLANYC CLIMATE CONTROL,CIP,K259,7305 FT HAMILTON PKWY,Brooklyn,40.62668,-74.01512
P.S. 161 - BROOKLYN,FLOOD ELIMINATION,CIP,K161,330 CROWN STREET,Brooklyn,40.666181,-73.949013
P.S. 42 - QUEENS,SANDY:INT/HEATING/FLOOD/CLIMATE/PIPING/HVAC/ELEC,CIP,Q042,488 BEACH 66 STREET,Queens,40.594538,-73.795304
P.S. 134 - BRONX,MINI BUILDING CONDITIONS/PLAYGROUND REDEVELOPMENT,CIP,X134,1330 BRISTOW STREET,Bronx,40.831194,-73.894773
QUEENS METROPOLITAN HIGH SCHOO,FY16 RESO A GREEN ROOF,CIP,Q686,91-30 METROPOLITAN AVENUE,Queens,40.711367,-73.856698
I.S. 125 - BRONX,FY17 RESO A SUPPLEMENTAL COOLING,CIP,X125,1111 PUGSLEY AVENUE,Bronx,40.829232,-73.856734
I.S. 78 - BROOKLYN,LSP REPLACE VERTICAL DUPLEX SEWAGE EJECTOR PUMPS,CIP,K078,1420 EAST 68 STREET,Brooklyn,40.621224,-73.91287
Q721 SPED - QUEENS,FY16 RESO A AUDITORIUM UPGRADE,CIP,Q722,57-12 94TH STREET,Queens,40.736003,-73.867478
P.S. @ 736 48TH STREET - BROOKLYN,Lease,CAP,K682,736 48TH STREET,Brooklyn,40.643018,-74.003856
JOHN ADAMS HS - QUEENS,ELECTRICAL WORK FOR A/C INITIATIVE,CIP,Q480,102-10 ROCKAWAY BOULEVARD,Queens,40.679487,-73.836476
P.S. 41 - QUEENS,FY17 RESO A ELECTRICAL WORK FOR A/C INITIATIVE,CIP,Q041,214-43 35 AVENUE,Queens,40.769601,-73.770863
I.S. 234 - BROOKLYN,ELECTRICAL WORK FOR A/C INITIATIVE/LL26 CODE COMPLIANCE/EXIT SIGN REPLACEMENT,CIP,K234,1875 EAST 17 STREET,Brooklyn,40.60422,-73.955485
P.S. 63 - BRONX,FY18 RESO A AUDITORIUM  UPGRADE,CIP,X063,1260 FRANKLIN AVENUE,Bronx,40.830995,-73.90270500000001
P.S. 63 - MANHATTAN,FY17 RESO A IPDVS CAMERA INSTALLATION,CIP,M063,121 EAST 3 STREET,Manhattan,40.724117,-73.98638100000001
PREPARATORY ACADEMY FOR WRITER,REPAVING PARKING LOT,CIP,Q421,143-10 SPRINGFIELD BLVD,Queens,40.668235,-73.756839
P.S. 143 - QUEENS,Addition,CAP,Q143,34-74 113 STREET,Queens,40.755451,-73.855192
P.S. 2 - QUEENS,ELECTRICAL WORK FOR A/C INITIATIVE,CIP,Q002,75-10 21 AVENUE,Queens,40.770335,-73.894476
THE URBAN ASSEMBLY SCHOOL FOR,HVAC (BMS) WORK/BACKFLOW PREVENTER & WATER METER,CIP,M470,145 WEST 84 STREET,Manhattan,40.785803,-73.974614
P.S. 37 - QUEENS,FLOOD ELIMINATION/FIRE ALARM/EXTERIOR MASONRY/ELEVATOR/PARAPETS/FLOOD ELIMINATION,CIP,Q037,179-37 137 AVENUE,Queens,40.67588,-73.758505
WILLIAM E. GRADY VOC HS - K,FY16 RESO A CULINARY ARTS ROOM,CIP,K620,25 BRIGHTON 4TH ROAD,Brooklyn,40.582585,-73.963477
P.S. 111 - BRONX,FY16 RESO A AUDITORIUM UPGRADE,CIP,X111,3740 BAYCHESTER AVENUE,Bronx,40.884343,-73.840254
I.S. 371 - BRONX,ELECTRICAL WORK FOR A/C INITIATIVE,CIP,X192,650 HOLLYWOOD AVENUE,Bronx,40.826526,-73.81841700000001
P.S. 152 - MANHATTAN,WATER INFILTRATION,CIP,M152,93 NAGLE AVENUE,Manhattan,40.860412,-73.927936
P.S. 303 - QUEENS,Addition,CAP,Q003,108-55 69TH AVENUE,Queens,40.725098,-73.845091
I.S. 123 - BRONX,RENEWAL SCHOOL BASED HEALTH CENTER,CIP,X123,1025 MORRISON AVENUE,Bronx,40.825403,-73.873666
P.S. 280 - BRONX,FY 17 RESO A AUDITORIUM UPGRADE,CIP,X080,149 EAST MOSHOLU PKWY N,Bronx,40.876299,-73.88153199999999
BROOKLYN COLLEGIATE: A COLLEGE,LSP CONDENSATE PUMP,CIP,K055,2021 BERGEN STREET,Brooklyn,40.674103,-73.913273
RED HOOK NEIGHBORHOOD SCHOOL,FY19 RESO A LIBRARY UPGRADE,CIP,K027,27 HUNTINGTON STREET,Brooklyn,40.677564,-74.005166
P.S. 72 - BRONX,ELECTRICAL WORK FOR A/C INITIATIVE/LSP LL26 CODE COMPLIANCE/EXIT SIGN REPLACEMENT,CIP,X072,2951 DEWEY AVENUE,Bronx,40.822604,-73.818247
I.S. 5 - QUEENS,LSP VACUUM/CONDENSATE PUMP SYSTEM REPLACEMENT,CIP,Q005,50-40 JACOBUS STREET,Queens,40.737718,-73.887429
P.S. 19 - QUEENS,Addition,CAP,Q019,98-02 ROOSEVELT AVENUE,Queens,40.749381,-73.867354
THE URBAN ASSEMBLY BRONX ACADE,FLOOD ELIMINATION/PARAPETS/ROOFS/EXTERIOR MASONRY,CIP,X183,339 MORRIS AVENUE,Bronx,40.813641,-73.925313
P.S. 213 - BROOKLYN,"LSP VACUUM PUMP SETS, CHEMICAL FEEDER",CIP,K213,580 HEGEMAN AVENUE,Brooklyn,40.66051,-73.890288
A. PHILIP RANDOLPH HS -MANHATT,EXTERIOR MASONRY/FLOOD ELIMINATION/PARAPETS/ROOFS,CIP,M540,443 WEST 135 STREET,Manhattan,40.818188,-73.950356
A-TECH HIGH SCHOOL - K,ELECTRICAL WORK FOR A/C INITIATIVE,CIP,K610,50 BEDFORD AVENUE,Brooklyn,40.721981,-73.953281
I.S. 117 - BRONX,SCIENCE LAB UPGRADES/SCIENCE LAB UPGRADES,CIP,X117,1865 MORRIS AVENUE,Bronx,40.848516,-73.908427
EAST NY FAMILY ACADEMY - K,New,CAP,K599,2057 LINDEN BLVD,Brooklyn,40.661072,-73.886942
P.S. 16 - BROOKLYN,FLOOD ELIMINATION/ROOFS/EXT MASONRY/PARAPETS,CIP,K016,157 WILSON STREET,Brooklyn,40.706023,-73.961476
P.S. 238 - BROOKLYN,EXTERIOR MASONRY/PARAPETS,CIP,K238,1633 EAST 8 STREET,Brooklyn,40.608862,-73.965058
I.S. 226 - QUEENS,PUBLIC ADDRESS SYSTEM,CIP,Q226,121-10 ROCKAWAY BOULEVARD,Queens,40.675771000000005,-73.81693800000001
P.S. 98 - QUEENS,DETERIORATED MASONRY,CIP,Q098,40-20 235 STREET,Queens,40.769271,-73.749369
I.S. 259 - BROOKLYN,CRACKED EXTERIOR MASONRY/ROOFS/PARAPETS,CIP,K259,7305 FT HAMILTON PKWY,Brooklyn,40.62668,-74.01512
EAST NY FAMILY ACADEMY - K,New,CAP,K599,2057 LINDEN BLVD,Brooklyn,40.661072,-73.886942
J.H.S. 237 - QUEENS,FY16 RESO A AIR CONDITIONING SPLIT SYSTEM,CIP,Q237,46-21 COLDEN STREET,Queens,40.749545,-73.822073
P.S. 16 - BRONX,TCU REMOVAL/PLAYGROUND REDEVELOPMENT,CIP,X016,4550 CARPENTER AVENUE,Bronx,40.902205,-73.85482900000001
NEWCOMERS HIGH SCHOOL - Q,RPZ VALVES,CIP,Q450,28-01 41ST AVENUE,Queens,40.751356,-73.937445
TOTTENVILLE HS - STATEN ISLAND,IPDVS CAMERA INSTALLATION,CIP,R455,100 LUTEN AVENUE,Staten Island,40.528092,-74.192032
I.S. 221 - BRONX,LSP LL26 CODE COMPLIANCE/EXIT SIGN REPLACEMENT,CIP,X149,360 EAST 145 STREET,Bronx,40.813983,-73.92078199999999
NEW DORP HS - STATEN ISLAND,ATHLETIC FIELDS,CIP,R436,465 NEW DORP LANE,Staten Island,40.569393,-74.107737
P.S. 219 - QUEENS,ROOFS,CIP,Q219,144-39 GRAVETT ROAD,Queens,40.735275,-73.823778
UNIVERSITY NEIGHBORHOOD HS - M,FIRE ALARM/VENTILATION,CIP,M446,200 MONROE STREET,Manhattan,40.712399,-73.98449699999999
P.S. 8 - BROOKLYN,SCIENCE LAB UPGRADES,CIP,K580,105 JOHNSON STREET,Brooklyn,40.694926,-73.98601500000001
P.S. 230 - BROOKLYN,ELECTRICAL WORK FOR A/C INITIATIVE,CIP,K230,1 ALBEMARLE ROAD,Brooklyn,40.645017,-73.980761
P.S. 213 - BROOKLYN,PLANYC CLIMATE CONTROL/PLANYC BOILER CONVERSION,CIP,K213,580 HEGEMAN AVENUE,Brooklyn,40.66051,-73.890288
P.S. 104 - BROOKLYN,WATER INFILTRATION/FLOOD ELIMINATION/PARAPETS/ROOFS,CIP,K104,9115 5TH AVENUE,Brooklyn,40.618415,-74.028842
I.S./J.H.S. 63 - STATEN ISLAND,FY19 RESO A AUDITORIUM UPGRADE,CIP,R043,100 ESSEX DRIVE,Staten Island,40.581315,-74.158589
P.S. 35 - STATEN ISLAND,FY14 RESO A ATHLETIC FIELDS,CIP,R035,60 FOOTE AVENUE,Staten Island,40.613721000000005,-74.099626
P.S. 29 - BRONX,FY18 RESO A AUDITORIUM UPGRADE,CIP,X029,758 COURTLANDT AVENUE,Bronx,40.821515000000005,-73.91727900000001
P.S./I.S. 338 - BROOKLYN,New,CAP,K338,21 HINCKLEY PLACE,Brooklyn,40.644469,-73.971032
P.S. 279 - BROOKLYN,BACKFLOW PREVENTION DEVICES,CIP,K279,1070 EAST 104 STREET,Brooklyn,40.644203000000005,-73.892264
PRE-K CENTER @ 104-04 CORONA AVENUE - QUEENS,New,CAP,Q373,104-04 CORONA AVENUE,Queens,40.744001,-73.85840400000001
WILLIAM MAXWELL VOC HS - K,PARAPETS/WINDOWS/EXTERIOR MASONRY/ROOFS,CIP,K660,145 PENNSYLVANIA AVENUE,Brooklyn,40.674135,-73.89643000000001
M.S./H.S. 141 - BRONX,ROOFS/PARAPETS/EXTERIOR MASONRY,CIP,X141,660 WEST 237 STREET,Bronx,40.888338,-73.91348599999999
P.S. 192 - BROOKLYN,DETERIORATED WINDOW WELL WALLS/FLOOD/PARAPETS/ROOF,CIP,K192,4715 18 AVENUE,Brooklyn,40.629303,-73.979995
I.S. 117 - BRONX,SCIENCE LAB UPGRADES/SCIENCE LAB UPGRADES,CIP,X117,1865 MORRIS AVENUE,Bronx,40.848547,-73.908416
P.S. 119 - BRONX,FLOOD ELIMINATION/PARAPETS,CIP,X119,1075 PUGSLEY AVENUE,Bronx,40.828518,-73.856569
BROOKLYN TECH HS - K,LSP INSTALL NEW CEILING IN BOYS & GIRLS LOCKER ROOMS,CIP,K430,29 FT GREENE PLACE,Brooklyn,40.688834,-73.976905
MORRIS H.S.,CERTIFICATE OF OCCUPANCY,CIP,X400,1110 BOSTON RD,Bronx,40.827642,-73.904473
EAST BRONX ACADEMY FOR THE FUT,IPDVS CAMERA INSTALLATION,CIP,X973,1716 SOUTHERN BLVD,Bronx,40.836356,-73.888361
EDUCATIONAL CAMPUS @ 500 19TH STREET - BROOKLYN,Lease,CAP,K280,500 19TH STREET,Brooklyn,40.656944,-73.983115
TELECOM. ARTS & TECH. HS - K,LSP REPLACE BURNER CONTROLS,CIP,K485,350 67 STREET,Brooklyn,40.637282,-74.023849
I.S. 362 - MANHATTAN,KITCHEN AREAS/ROOM CONVERSION,CIP,M125,425 WEST 123 STREET,Manhattan,40.810431,-73.955809
J.H.S. 172 - QUEENS,FY18 RESO A LOCKER ROOM UPGRADE,CIP,Q172,81-14 257 STREET,Queens,40.741944,-73.712965
BROOKLYN GARDENS ELEMENTARY SC,ELECTRICAL WORK FOR A/C INITIATIVE/LL26 CODE COMPLIANCE/EXIT SIGN REPLACEMENT,CIP,K174,574 DUMONT AVENUE,Brooklyn,40.665798,-73.897723
P.S. 340 ANNEX - BRONX,New,CAP,X448,25 WEST 195TH STREET,Bronx,40.869007,-73.89749
P.S. 203 - QUEENS,WINDOWS,CIP,Q203,53-11 SPRINGFIELD BLVD,Queens,40.754201,-73.760636
P.S. 158 - BROOKLYN,LSP DETERIORATED GYM FLOOR,CIP,K158,400 ASHFORD STREET,Brooklyn,40.672579,-73.884803
I.S. 75 - STATEN ISLAND,FY17 RESO A LIBRARY UPGRADES,CIP,R075,455 HUGUENOT AVENUE,Staten Island,40.54438,-74.197897
P.S. 82 - STATEN ISLAND,Lease,CAP,R082,104 GORDON STREET,Staten Is,40.624263,-74.082667
P.S. 152 - MANHATTAN,ELECTRICAL SYSTEMS,CIP,M152,93 NAGLE AVENUE,Manhattan,40.860412,-73.927936
I.S. 226 - QUEENS,FLOOD ELIMINATION/PARAPETS/EXTERIOR MASONRY,CIP,Q226,121-10 ROCKAWAY BOULEVARD,Queens,40.675771000000005,-73.81693800000001
P.S. 31 - QUEENS,CHIMNEY LINER REPLAC/PLANYC BOILER/CLIMATE/MASONRY,CIP,Q031,211-45 46 ROAD,Queens,40.757064,-73.770122
I.S. 229 - BRONX,STH SBHC,CIP,X229,275 HARLEM RIVER PARK BRIDGE,Bronx,40.852536,-73.921467
P.S. 1 - BROOKLYN,FY18 RESO A IP SURVEILLANCE CAMERA INSTALLATION,CIP,K001,309 47 STREET,Brooklyn,40.649042,-74.012289
P.S. 229 - BROOKLYN,FLOOD ELIMINATION/ROOFS/PARAPETS/EXTERIOR MASONRY/PAVED AREA- BLACKTOP,CIP,K229,1400 BENSON AVENUE,Brooklyn,40.610963,-74.013376
EAST SIDE COMMUNITY SCHOOL,FIFTH FLOOR CEILING REPLACEMENT,CIP,M060,420 EAST 12 STREET,Manhattan,40.729589,-73.982555
P.S. 254 - QUEENS,ROOF/PARAPETS/EXT MASONRY/PAVED AREA CONCRETE,CIP,Q254,84-40 101ST STREET,Queens,40.697961,-73.84796
P.S. 14 - QUEENS,FY19 RESO A AUDITORIUM UPGRADE,CIP,Q014,107-01 OTIS AVENUE,Queens,40.74056,-73.85413100000001
P.S. 174 - QUEENS,FY16 RESO A SUPPLEMENTAL COOLING,CIP,Q174,65-10 DIETERLE CRESCENT,Queens,40.720924,-73.86135
M721 SPED - MANHATTAN,REINFORCE CINDER/FLOORS/ACCESSIBLITY/ELEC UPG/FA,CIP,M641,16 CLARKSON STREET,Manhattan,40.729412,-74.006148
P.S. 116 - MANHATTAN,FY18 RESO A SAFETY SYSTEMS,CIP,M116,210 EAST 33 STREET,Manhattan,40.744838,-73.978116
PATHWAYS IN TECHNOLOGY EARLY C,EXT MASONRY/ROOFS/PARAPETS/WINDOWS/FLOOD,CIP,K625,150 ALBANY AVENUE,Brooklyn,40.675612,-73.938843
P.S. 303 - QUEENS,Demo,CAP,Q003,108-55 69TH AVENUE,Queens,40.725098,-73.845091
ADULT AND CONTINUING EDUCATION,EXT MSNRY/LOW VOLT/VENT/ROOFS/WIN/ PARAPETS/FLOOD,CIP,K743,475 NOSTRAND AVENUE,Brooklyn,40.681233,-73.949737
P.S. 123 - MANHATTAN,FLOOD ELIMINATION,CIP,M123,301 WEST 140 STREET,Manhattan,40.819767,-73.94443299999999
P.S. 14 - BRONX,PARAPETS/WINDOWS/EXTERIOR MASONRY/ROOFS,CIP,X014,3047 BRUCKNER BLVD,Bronx,40.83587,-73.825774
I.S. 24 - STATEN ISLAND,FY18 RESO A SCIENCE LAB UPGRADES,CIP,R024,225 CLEVELAND AVENUE,Staten Island,40.545281,-74.14631999999999
P.S. 75 - MANHATTAN,TEMPORARY BOILER,CIP,M075,735 WEST END AVENUE,Manhattan,40.795157,-73.973292
P.S. 236 - BRONX,FALLING COPING STONES/EXT MASONRY,CIP,X173,1871 WALTON AVENUE,Bronx,40.848899,-73.90952800000001
P.S. 236 - BROOKLYN,FY18 RESO A ELECTRICAL SYSTEMS,CIP,K236,6302 AVENUE U,Brooklyn,40.615998,-73.912989
P.S. 90 - QUEENS,AUDITORIUM UPGRADE,CIP,Q090,86-50 109 STREET,Queens,40.697033000000005,-73.839213
P.S. 152 - MANHATTAN,ELECTRICAL SYSTEMS,CIP,M152,93 NAGLE AVENUE,Manhattan,40.860412,-73.927936
P.S. @ 4302 4TH AVENUE - BROOKLYN,Demo,CAP,K557,4302 4TH AVENUE,Brooklyn,40.650305,-74.008602
P.S. 078 - STATEN ISLAND,IPDVS CAMERA INSTALLATION,CIP,R014,100 TOMPKINS AVENUE,Staten Island,40.622455,-74.078508
P.S./I.S. 338 - BROOKLYN,New,CAP,K338,510 CONEY ISLAND AVE,Brooklyn,40.645199,-73.97052
I.S. 343 - BRONX,FY16 RESO A SUPPLEMENTAL COOLING,CIP,X139,345 BROOK AVENUE,Bronx,40.81004,-73.917792
P.S. 11 - QUEENS,Addition,CAP,Q011,54-25 SKILLMAN AVENUE,Queens,40.745244,-73.90872
MARBLE HILL INTERNATIONAL HS -,EXT MASONRY/FLOOD/PARAPETS/ROOFS,CIP,X475,99 TERRACE VIEW AVENUE,Bronx,40.877105,-73.912256
P.S. 31 - BROOKLYN,EXTERIOR MASONRY/PARAPETS,CIP,K031,75 MESEROLE AVENUE,Brooklyn,40.726587,-73.95427
CASCADES CTR FOR TCHING & LNG,ENY AUDITIORIUM UPGRADE,CIP,M510,198 FORSYTH STREET,Manhattan,40.72252,-73.990728
P.S. 105 - BRONX,WATER INFILTRATION/PARAPETS,CIP,X105,725 BRADY AVENUE,Bronx,40.852398,-73.866617
K753 SPED - BROOKLYN,LOW VOLTAGE ELECTRICAL SYSTEM/ANSUL SYSTEM,CIP,K085,510 CLERMONT AVENUE,Brooklyn,40.682533,-73.968769
P.S. 119 - BRONX,PLANYC CLIMATE CONTROL/PLANYC BOILER CONVERSION,CIP,X119,1075 PUGSLEY AVENUE,Bronx,40.828518,-73.856569
P.S. 14 - QUEENS,ELECTRICAL WORK FOR A/C INITIATIVE,CIP,Q014,107-01 OTIS AVENUE,Queens,40.74056,-73.85413100000001
M811 SPED - MANHATTAN,FY17 RESO A PLAYGROUND REDEVELOPMENT,CIP,M841,466 WEST END AVENUE,Manhattan,40.786616,-73.979507
I.S. 93 - QUEENS,ACCESSIBILITY/WINDOWS/ROOFS/EXT MASONRY/PARAPETS,CIP,Q093,66-56 FOREST AVENUE,Queens,40.706041,-73.90258399999999
I.S./H.S. @ 715 OCEAN TERRACE - STATEN ISLAND,New,CAP,R086,715 OCEAN TERRACE,Staten Is,40.608512,-74.102067
I.S. 24 - STATEN ISLAND,FY15 RESO A AUDITORIUM UPGRADE/PARTIAL ACCESSIBILITY,CIP,R024,225 CLEVELAND AVENUE,Staten Island,40.545281,-74.14631999999999
P.S. 193 - BROOKLYN,FY18 RESO A AUDITORIUM  UPGRADE,CIP,K193,2515 AVENUE L,Brooklyn,40.621507,-73.950473
J.H.S. 50 - BROOKLYN,FY17 RESO A ROOM CONVERSIONS/PARTITIONING,CIP,K050,183 SOUTH 3RD STREET,Brooklyn,40.711704,-73.960275
P.S. 80 - STATEN ISLAND,GAS SERVICE,CIP,R880,715 OCEAN TERRACE,Staten Island,40.608512,-74.102067
I.S. 2 - BROOKLYN,FY19 RESO A LIBRARY UPGRADE,CIP,K002,655 PARKSIDE AVENUE,Brooklyn,40.656183,-73.951583
P.S. 48 - BRONX,FULL ACCESSIBILITY,CIP,X048,1290 SPOFFORD AVENUE,Bronx,40.814425,-73.886953
WASHINGTON IRVING HS - MANHATT,EXTERIOR MASONRY/ROOFS/PARAPETS/FLOOD ELIMINATION/WINDOWS/GYM FLOOR,CIP,M460,40 IRVING PLACE,Manhattan,40.735494,-73.987659
A. PHILIP RANDOLPH HS -MANHATT,EXT MASONRY/FLOOD ELMNTN/PARAPETS/ROOFS,CIP,M540,443 WEST 135 STREET,Manhattan,40.818188,-73.950356
P.S. 166 - QUEENS,FY18 RESO A AUDITORIUM  UPGRADE,CIP,Q166,33-09 35 AVENUE,Queens,40.757309,-73.926733
P.S. 184 - MANHATTAN,FY19 RESO A AUDITORIUM UPGRADE,CIP,M137,327 CHERRY STREET,Manhattan,40.711549,-73.986542
P.S. 93 - BRONX,ROOFS/EXTERIOR MASONRY/PARAPETS,CIP,X093,1535 STORY AVENUE,Bronx,40.821776,-73.876918
P.S. 33 - QUEENS,ROOF REPAIR/PARAPETS/EXTERIOR MASONRY,CIP,Q033,91-37 222 STREET,Queens,40.727134,-73.735077
P.S. 162 - QUEENS,PLANYC BOILER CONVERSION/CLIMATE CTRL,CIP,Q162,201-02 53 AVENUE,Queens,40.749036,-73.777213
P.S. 46 - BRONX,Addition,CAP,X046,279 EAST 196 STREET,Bronx,40.866827,-73.890725
P.S./I.S. 217 - MANHATTAN,FY14 RESO A GREEN ROOF,CIP,M271,645 MAIN STREET,Manhattan,40.763894,-73.947916
P.S. 1 - STATEN ISLAND,EXT MASONRY/PARAPETS/ROOFS/WINDOWS/WATER HEATER,CIP,R001,58 SUMMIT STREET,Staten Island,40.509037,-74.244118
P.S. 151 - QUEENS,TCU REMOVAL/PLAYGROUND REDEVELOPMENT,CIP,Q151,50-05 31 AVENUE,Queens,40.757499,-73.908898
M.S. 354 - BROOKLYN,IPDVS CAMERA INSTALLATION,CIP,K390,1224 PARK PLACE,Brooklyn,40.672713,-73.936924
P.S. 223 - QUEENS,WINDOWS/EXT MASONRY/PARAPETS,CIP,Q223,125-20 SUTPHIN BLVD,Queens,40.674519,-73.789399
MARTIN VAN BUREN HS - QUEENS,LSP- GYM WATER PENETRATION,CIP,Q435,230-17 HILLSIDE AVENUE,Queens,40.733066,-73.73875600000001
P.S. 279 - BROOKLYN,FY19 RESO A PLAYGROUND,CIP,K279,1070 EAST 104 STREET,Brooklyn,40.644203000000005,-73.892264
P.S. 354 - QUEENS,WATER INFILTRATION,CIP,Q030,126-10 BEDELL STREET,Queens,40.68031,-73.77443199999999
P.S. 130 - BROOKLYN,WATER PENETRATION THROUGH EXTERIOR/PARAPETS/ROOFS,CIP,K130,70 OCEAN PARKWAY,Brooklyn,40.648884,-73.975607
P.S. 14 - BRONX,Addition,CAP,X014,3047 BRUCKNER BLVD,Bronx,40.83587,-73.825774
P.S. 144 - QUEENS,Addition,CAP,Q144,93-02 69 AVENUE,Queens,40.714978,-73.853372
P.S. 165 - MANHATTAN,EXTERIOR MASONRY/ROOFS,CIP,M165,234 WEST 109 STREET,Manhattan,40.802917,-73.965613
ABRAHAM LINCOLN HS - BROOKLYN,SANDY: INTERIOR/VENT/ELEC/FLOOD/ATHLETIC FIELD,CIP,K411,2800 OCEAN PARKWAY,Brooklyn,40.581681,-73.967308
WIILIAMSBURG PREP- BROOKLYN,ROOFS/WINDOWS/PARAPETS/EXT MASONRY,CIP,K650,257 N 6TH STREET,Brooklyn,40.715073,-73.95475400000001
P.S. 47 - QUEENS,ROOFS,CIP,Q047,9 POWER ROAD,Queens,40.606353000000006,-73.82044499999999
UNIVERSITY HEIGHTS HS - BRONX,IP DIGITAL VIDEO SURVEILLANCE SYSTEM,CIP,X470,701 ST ANNS AVENUE,Bronx,40.81825,-73.91103000000001
P.S. 134 - MANHATTAN,ROOFS/PARAPETS/WINDOWS/EXTERIOR MASONRY,CIP,M134,293 EAST BROADWAY,Manhattan,40.71457,-73.983724
HS FOR ENVIRONMENTAL STUDIES -,6TH FLOOR EGRESS/FIRE ALARM,CIP,M834,444 WEST 56 STREET,Manhattan,40.767791,-73.987531
LIBERATION DIPLOMA PLUS H.S. -,FY18 RESO A GYMNASIUM UPGRADE,CIP,K728,2865 WEST 19 STREET,Brooklyn,40.577208,-73.98595300000001
I.S. 35 - BROOKLYN,FULL PROGRAM ACCESSIBILITY,CIP,K035,272 MACDONOUGH STREET,Brooklyn,40.681896,-73.935963
HERBERT H. LEHMAN HS - X,STRUCTURAL DEFECTS,CIP,X405,3000 EAST TREMONT AVENUE,Bronx,40.840702,-73.838545
M721 SPED - MANHATTAN,REINFORCE CINDER/FLOORS/ACCESSIBLITY/ELEC UPG/FA,CIP,M641,16 CLARKSON STREET,Manhattan,40.729412,-74.006148
P.S. 197 - QUEENS,EXTERIOR MASONRY/ROOFS,CIP,Q197,825 HICKSVILLE ROAD,Queens,40.600199,-73.74396800000001
P.S. 95 - BROOKLYN,PARAPET/ROOFS/EXT MASONRY,CIP,K095,345 VAN SICKLEN STREET,Brooklyn,40.595698,-73.97518000000001
I.S. 232 - BRONX,LSP ELECTRICAL PANEL REPLACEMENT,CIP,X082,1700 MACOMBS ROAD,Bronx,40.849532,-73.916077
BAYSIDE HIGH SCHOOL - QUEENS,ELECTRICAL WORK FOR A/C INITIATIVE/LL26 CODE COMPLIANCE/EXIT SIGN REPLACEMENT,CIP,Q405,32-24 CORPORAL KENNEDY STREET,Queens,40.771755,-73.78029599999999
P.S. 17 - BROOKLYN,BUILDING FAN REPLACEMENT/ELEC UPGRADE,CIP,K017,208 NORTH 5 STREET,Brooklyn,40.715351,-73.956716
GEORGE WESTINGHOUSE VOC. HS,PARAPETS/EXTERIOR MASONRY/ROOFS/FLOOD ELIMINATION,CIP,K580,105 JOHNSON STREET,Brooklyn,40.694926,-73.98601500000001
P.S. 97 ADDITION,Addition,CAP,K097,1855 STILLWELL AVENUE,Brooklyn,40.601433,-73.986139
ACHIEVEMENT FIRST ASPIRE CHART,TCU REMOVAL/PLAYGROUND REDEVELOPMENT,CIP,K202,982 HEGEMAN AVENUE,Brooklyn,40.666417,-73.876563
MARTIN VAN BUREN HS - QUEENS,LSP- GYM WATER PENETRATION,CIP,Q435,230-17 HILLSIDE AVENUE,Queens,40.733066,-73.73875600000001
P.S. 158 - BROOKLYN,STRUCTURAL DEFECTS,CIP,K158,400 ASHFORD STREET,Brooklyn,40.672579,-73.884803
P.S. 241 - MANHATTAN,PLANYC BOILER CONVERSION/CIMATE CONTROL,CIP,M113,240 WEST 113 STREET,Manhattan,40.801689,-73.95490799999999
P.S. 226 - BRONX,DEFECTIVE MASONRY/ROOFS/FLOOD ELIMINATION,CIP,X826,1950 SEDGWICK AVENUE,Bronx,40.856586,-73.916198
MIDWOOD HS - BROOKLYN,CRACKED CONCRETE STRUCTURE/FIELD HOUSE,CIP,K406,1124 EAST 17 STREET,Brooklyn,40.622641,-73.958988
P.S. 746 - BROOKLYN,New,CAP,K746,256 59TH STREET,Brooklyn,40.643337,-74.021011
P.S. 503 - BROOKLYN,EXTERIOR MASONRY/PARAPETS/ROOFS,CIP,K314,330 59 STREET,Brooklyn,40.642121,-74.018997
P.S. 200 - BROOKLYN,PARAPETS/ROOFS/EXT MASONRY,CIP,K200,1940 BENSON AVENUE,Brooklyn,40.603188,-74.001408
JAMES MADISON HS - BROOKLYN,SWIMMING POOL,CIP,K425,3787 BEDFORD AVENUE,Brooklyn,40.609912,-73.948512
I.S. 93 - QUEENS,ACCESSIBILITY/WINDOWS/ROOFS/EXT MASONRY/PARAPETS,CIP,Q093,66-56 FOREST AVENUE,Queens,40.706041,-73.90258399999999
P.S. 245 - BROOKLYN,ELECTRICAL WORK FOR A/C INITIATIVE/LSP LL26 CODE COMPLIANCE/EXIT SIGN REPLACEMENT,CIP,K735,249 EAST 17 STREET,Brooklyn,40.645016,-73.963208
I.S. 73 - QUEENS,LOW VOLT ELECTRICAL SYSTEMS,CIP,Q073,70-02 54 AVENUE,Queens,40.729215,-73.893624
JAMES MADISON HS - BROOKLYN,FY16 RESO A AUDITORIUM UPGRADE,CIP,K425,3787 BEDFORD AVENUE,Brooklyn,40.609912,-73.948512
P.S. 29 - BRONX,ROOFS/FLOOD ELIMINATION/EXTERIOR MASONRY/PARAPETS,CIP,X029,758 COURTLANDT AVENUE,Bronx,40.821515000000005,-73.91727900000001
J.H.S. 47 (SCH FOR THE DEAF) -,PARAPETS/WINDOWS/EXTERIOR MASONRY,CIP,M047,223 EAST 23 STREET,Manhattan,40.738548,-73.982455
P.S. 161 - QUEENS,FY19 RESO A LIBRARY UPGRADE,CIP,Q161,101-33 124TH STREET,Queens,40.690798,-73.821657
P.S. 205 - BROOKLYN,FLOOD ELIMINATION/PARAPETS/EXTERIOR MASONRY/ROOFS,CIP,K205,6701 20 AVENUE,Brooklyn,40.61527,-73.987149
SATELLITE AT FORSYTHE,PARAPET/FLOOD ELIMINATION/EXTERIOR MASONRY/ROOFS,CIP,M510,198 FORSYTH STREET,Manhattan,40.72252,-73.990728
I.S. 7 - STATEN ISLAND,MASONRY,CIP,R007,1270 HUGUENOT AVENUE,Staten Island,40.523757,-74.185941
P.S. 112 - BRONX,PLANYC BOILER CNVRSN/PLANYC CLIMATE CTRL,CIP,X112,1925 SCHIEFFELIN AVENUE,Bronx,40.885008,-73.843193
I.S. 328 - MANHATTAN,IPDVS CAMERA INSTALLATION,CIP,M164,401 WEST 164 STREET,Manhattan,40.836536,-73.937159
P.S. 162 - QUEENS,PLANYC BOILER CONVERSION/PLANYC CLIMATE CONTROL,CIP,Q162,201-02 53 AVENUE,Queens,40.749036,-73.777213
P.S. 303 - QUEENS,Demo,CAP,Q003,108-55 69TH AVENUE,Queens,40.725098,-73.845091
TELECOM. ARTS & TECH. HS - K,C OF O/ELECTRICAL WORK FOR A/C INITIATIVE,CIP,K485,350 67 STREET,Brooklyn,40.637282,-74.023849
PRE-K CENTER 2 @ 2490-2500 WEBSTER AVENUE - BRONX,Lease,CAP,X432,2490-2500 WEBSTER AVE,Bronx,40.860848,-73.892224
P.S. 85 - QUEENS,RPZ VALVES/LOW VOLTAGE/ELECTRICAL UPG,CIP,Q085,23-70 31 STREET,Queens,40.772863,-73.91470799999999
I.S. 5 - QUEENS,PUBLIC ADDRESS SYSTEM/HVAC,CIP,Q005,50-40 JACOBUS STREET,Queens,40.737718,-73.887429
I.S. 323 - MANHATTAN,New,CAP,M323,75 MORTON STREET,Manhattan,40.730999,-74.007191
P.S. 42 - QUEENS,SANDY:INTERIOR SPACES/HEATING PLANT/FLOOD ELIM/SANITARY/STORM PIPING/HVAC/ELEC SYS/NON-SANDY: CLIMATE CTRL/ELEC SYS,CIP,Q042,488 BEACH 66 STREET,Queens,40.594538,-73.795304
P.S. 72 - BRONX,ELECTRICAL WORK FOR A/C INITIATIVE/LSP LL26 CODE COMPLIANCE/EXIT SIGN REPLACEMENT,CIP,X072,2951 DEWEY AVENUE,Bronx,40.822604,-73.818247
P.S. 253 - BROOKLYN,EXTERIOR MASONRY/FLOOD ELIMINATION/PARAPETS/ROOFS,CIP,K253,601 OCEANVIEW AVENUE,Brooklyn,40.579607,-73.962071
K396 SPED - BROOKLYN,ELEVATOR,CIP,K396,110 CHESTER STREET,Brooklyn,40.668856,-73.91149899999999
P.S. 503 - BROOKLYN,FY16 RESO A PLAYGROUND REDEVELOPMENT,CIP,K314,330 59 STREET,Brooklyn,40.642121,-74.018997
P.S. 3 - STATEN ISLAND,LSP-REPLACE HOT WATER HEATER,CIP,R003,80 SOUTH GOFF AVENUE,Staten Island,40.520699,-74.211264
I.S. 265 - BROOKLYN,PLANYC BOILER CNVRSN/PLANYC CLIMATE CTRL,CIP,K265,101 PARK AVENUE,Brooklyn,40.696324,-73.97578
MOTT HAVEN COMMUNITY HIGH SCHO,FLOOD ELIMINATION/WINDOWS,CIP,X655,455 SOUTHERN BLVD,Bronx,40.810803,-73.907015
P.S. @ 4513 8TH AVENUE - BROOKLYN,New,CAP,K730,4513 8TH AVENUE,Brooklyn,40.643781,-74.000926
P.S. 48 - BROOKLYN,FLOOD ELIMINATION/EXTERIOR MASONRY/WINDOWS,CIP,K048,6015 18 AVENUE,Brooklyn,40.621871,-73.98739599999999
P.S. 333 - MANHATTAN,FY18 RESO A AUDITORIUM UPGRADE,CIP,M118,154 WEST 93 STREET,Manhattan,40.791709,-73.970802
BROOKLYN TECH HS - K,LOW VOLT ELEC SYS/KITCHEN FIRE SUPRESSION SYS,CIP,K430,29 FT GREENE PLACE,Brooklyn,40.688834,-73.976905
MONROE ACAD FOR VISUAL ARTS -,IP DIGITAL VIDEO SURVEILLANCE SYSTEM,CIP,X420,1300 BOYNTON AVENUE,Bronx,40.831601,-73.878912
I.S. 204 - QUEENS,LSP GYM ACOUSTICAL CEILING TILE REPLACEMENT,CIP,Q204,36-41 28 STREET,Queens,40.757065,-73.932664
I.S. @ 47-10 BARNETT AVENUE - QUEENS,Demo,CAP,Q429,47-10 BARNETT AVENUE,Queens,40.750017,-73.915867
JAMAICA GATEWAY TO THE SCIENCE,LSP GYMNASIUM BLEACHERS REPLACEMENT,CIP,Q470,167-01 GOTHIC DRIVE,Queens,40.713218,-73.797237
P.S. 95 - BROOKLYN,PARAPET/ROOFS/EXT MASONRY,CIP,K095,345 VAN SICKLEN STREET,Brooklyn,40.595698,-73.97518000000001
MIDDLE SCHOOL FOR ART & PHILOS,FY18 RESO A ROOM CONVERSIONS/PARTITIONING,CIP,K252,1084 LENOX ROAD,Brooklyn,40.658295,-73.920109
P.S. 102 - QUEENS,FY19 RESO A ROOM CONVERSIONS/PARTITIONING,CIP,Q102,55-24 VAN HORN STREET,Queens,40.733514,-73.87785699999999
BROOKLYN TECH HS - K,FY14 RESO A ATHLETIC FIELDS,CIP,K431,490 CLERMONT AVENUE,Brooklyn,40.682986,-73.968852
P.S. 169 - QUEENS,FY16 RESO A AUDITORIUM UPGRADE,CIP,Q169,18-25 212 STREET,Queens,40.782298,-73.779099
THE URBAN ASSEMBLY SCHOOL FOR,FY17 RESO A ROOM CONVERSION/PARTITIONING,CIP,M470,145 WEST 84 STREET,Manhattan,40.785803,-73.974614
P.S. 184 - QUEENS,PLANYC BOILER CNVRSN/PLANYC CLIMATE CTRL,CIP,Q184,163-15 21 ROAD,Queens,40.778095,-73.800163
P.S. 230 - BROOKLYN,FY18 RESO A SUPPLEMENTAL COOLING,CIP,K230,1 ALBEMARLE ROAD,Brooklyn,40.645017,-73.980761
P.S. 80 - STATEN ISLAND,PAVED AREAS,CIP,R885,715 OCEAN TERRACE,Staten Island,40.608517,-74.102078
K396 SPED - BROOKLYN,FY15 RESO A IPDVS CAMERA INSTALLATION,CIP,K396,110 CHESTER STREET,Brooklyn,40.668856,-73.91149899999999
P.S. 31 - QUEENS,CHIMNEY LINER REPLACEMENT/PLANYC BOILER CONVERSION/PLANYC CLIMATE CONTROL/REINFORCING SUPPORT ELEMENTS/EXTERIOR MASONRY/ROOFS/PARAPETS,CIP,Q031,211-45 46 ROAD,Queens,40.757064,-73.770122
JAMES MADISON HS - BROOKLYN,SWIMMING POOL,CIP,K425,3787 BEDFORD AVENUE,Brooklyn,40.609912,-73.948512
K753 SPED - BROOKLYN,PLANYC BOILER CNVRSN/PLANYC CLIMATE CTRL,CIP,K085,510 CLERMONT AVENUE,Brooklyn,40.682533,-73.968769
AVIATION HS - QUEENS,FY16 RESO A ROOM CONVERSIONS / PART,CIP,Q610,45-30 36 STREET,Queens,40.743509,-73.929076
THE BROOKLYN SCHOOL OF INQUIRY,RESO A ROOFTOP GREENHOUSE,CIP,K237,50 AVENUE P,Brooklyn,40.60731,-73.986595
ESSEX STREET ACADEMY - MANHATT,FY17 RESO A BOYS LOCKER ROOM UPGRADE,CIP,M445,350 GRAND STREET,Manhattan,40.716778000000005,-73.989337
P.S. 36 - QUEENS,ELECTRICAL WORK FOR A/C INITIATIVE,CIP,Q036,187-01 FOCH BLVD,Queens,40.690828,-73.76390699999999
P.S. 3 - BRONX,HVAC CONTROLS/VENTILATION,CIP,X003,2100 LAFONTAINE AVE,Bronx,40.849897,-73.892289
I.S. 244 - BRONX,PLANYC BOILER CONVERSION/PLANYC CLIMATE CONTROL,CIP,X143,120 WEST 231 STREET,Bronx,40.875916,-73.90111
KHALIL GIBRAN INTERNATIONAL AC,LSP-VACUUM/PUMP SET/RADIATOR VALVE/FLOAT AND THERMOSTATIC STEAM TRAPS,CIP,K806,362 SCHERMERHORN STREET,Brooklyn,40.686499,-73.979649
K753 SPED - BROOKLYN,PLANYC BOILER CNVRSN/PLANYC CLIMATE CTRL,CIP,K085,510 CLERMONT AVENUE,Brooklyn,40.682533,-73.968769
BROOKLYN TECH HS - K,ELECTRICAL WORK FOR A/C INITIATIVE,CIP,K430,29 FT GREENE PLACE,Brooklyn,40.688834,-73.976905
I.S. 162 - BROOKLYN,STAIRS/EXT MASONRY/PARAPETS/ROOF/FLOOD/WATER PNTRN,CIP,K162,1390 WILLOUGHBY AVENUE,Brooklyn,40.707229,-73.91980500000001
WILLIAM E. GRADY VOC HS - K,IP DIGITAL VIDEO SURVEILLANCE SYSTEM,CIP,K620,25 BRIGHTON 4TH ROAD,Brooklyn,40.582585,-73.963477
COMMUNITY VOICES MIDDLE SCHOOL,FY18 RESO A SUPPLEMENTAL COOLING,CIP,Q231,145-00 SPRINGFIELD BLVD,Queens,40.664608,-73.75878399999999
P.S. 205 - QUEENS,BOILER/CLIMATE CTRL/FLOOD/MASONRY/ ROOFS/PARAPETS,CIP,Q205,75-25 BELL BLVD,Queens,40.737678,-73.756791
P.S. 147 - BROOKLYN,WATER INFILTRATION/ROOFS,CIP,K147,325 BUSHWICK AVENUE,Brooklyn,40.705204,-73.93940699999999
P.S. 62 - BRONX,EXT MASONRY/PARAPETS,CIP,X062,660 FOX STREET,Bronx,40.814031,-73.900609
THE RIVERSIDE SCHOOL - MANHATTAN,New,CAP,M342,300 WEST 61ST STREET,Manhattan,40.772883,-73.989609
P.S. 306 - BROOKLYN,ELECTRICAL WORK FOR A/C INITIATIVE/LL26 CODE COMPLIANCE/EXIT SIGN REPLACEMENT,CIP,K306,970 VERMONT STREET,Brooklyn,40.655997,-73.886547
I.S. 145 - QUEENS,PLANYC BOILER CNVRSN/PLANYC CLIMATE CTRL,CIP,Q145,33-34 80 STREET,Queens,40.754661,-73.887112
P.S. 396 - BRONX,PLANYC BOILER CNVSN/PLANYC CLIMATE CTRL,CIP,X026,1930 ANDREWS AVENUE,Bronx,40.854701,-73.913197
THE BROOKLYN SCHOOL FOR SOCIAL,FY17 RESO A GYMNASIUM UPGRADE,CIP,K480,400 IRVING AVENUE,Brooklyn,40.69697,-73.910791
HOLCOMBE L. RUCKER SCHOOLOF CO,FY16 RESO A AUDITORIUM UPGRADE,CIP,X039,965 LONGWOOD AVENUE,Bronx,40.817512,-73.898212
I.S. 5 - QUEENS,HVAC/PUBLIC ADDRESS SYSTEM,CIP,Q005,50-40 JACOBUS STREET,Queens,40.737718,-73.887429
P.S. 354 - QUEENS,TCU REMOVAL AND PLAYGROUND REDEVELOPMENT,CIP,Q030,126-10 BEDELL STREET,Queens,40.68031,-73.77443199999999
P.S. 14 - QUEENS,FY19 RESO A AUDITORIUM UPGRADE,CIP,Q014,107-01 OTIS AVENUE,Queens,40.74056,-73.85413100000001
ADULT AND CONTINUING EDUCATION,EXTERIOR MASONRY/LOW VOLTAGE ELECTRICAL SYSTEMS/VENTILATION/ROOFS/WINDOWS/PARAPETS/FLOOD ELIMINATION,CIP,K743,475 NOSTRAND AVENUE,Brooklyn,40.681233,-73.949737
NYC SCHOOL CONSTRUCTION AUTHOR,3RD FLOOR PANTRY AND OFFICE BUILD OUT,CIP,Q998,30-30 THOMSON AVENUE,Queens,40.745042,-73.93619100000001
I.S. 266 - BROOKLYN,MASONRY/PIPING/DOOR/FLOOD/WIN/PARAPETS/ROOF/HVAC,CIP,K902,62 PARK PLACE,Brooklyn,40.678983,-73.976497
P.S. 249 - BROOKLYN,LOW VOLTAGE ELECTRICAL/PLANYC CLIMATE CONTROL/PLANYC BOILER CONVERSION,CIP,K249,18 MARLBOROUGH ROAD,Brooklyn,40.64971,-73.96604599999999
P.S. 375 - BROOKLYN,PLANYC CLIMATE CONTROL/PLANYC BOILER CONVERSION,CIP,K320,46 MCKEEVER PLACE,Brooklyn,40.665035,-73.95903100000001
P.S. 199 - QUEENS,PLANYC BOILER/PLANYC CLIMATE CONTROL,CIP,Q199,39-20 48 AVENUE,Queens,40.740088,-73.926214
A. PHILIP RANDOLPH HS -MANHATT,LIGHTING REPLACEMENT,CIP,M540,443 WEST 135 STREET,Manhattan,40.818188,-73.950356
P.S. 333 - MANHATTAN,EXTERIOR MASONRY/ROOFS/PARAPETS,CIP,M118,154 WEST 93 STREET,Manhattan,40.791728000000006,-73.970845
I.S. 35 - BROOKLYN,FY18 RESO A GYMNASIUM UPGRADE,CIP,K035,272 MACDONOUGH STREET,Brooklyn,40.681896,-73.935963
NEWTOWN HS - QUEENS,IPDVS CAMERA INSTALLATION,CIP,Q455,48-01 90 STREET,Queens,40.741122,-73.874721
P.S. 129 - QUEENS,Demo,CAP,Q129,128-02 7TH AVENUE,Queens,40.790638,-73.839771
P.S. 80 - QUEENS,FY18 RESO A ROOM CONVERSIONS/PARTITIONING,CIP,Q080,171-05 137 AVENUE,Queens,40.67282,-73.76925200000001
P.S. 20 - BRONX,LSP DOMESTIC WATER HEATER REPLACEMENT,CIP,X020,3050 WEBSTER AVENUE,Bronx,40.870002,-73.878875
J.H.S. 157 - QUEENS,FY16 RESO A ROOM CONVERSIONS / PART,CIP,Q157,63-55 102ND STREET,Queens,40.732289,-73.853825
TELECOM ARTS & TECHNOLOGY H.S.,C OF O,CIP,K485,350 67 STREET,Brooklyn,40.637282,-74.023849
P.S. 182 - BRONX,PLUMBING/REINFORCING SUPPORT ELEMENTS/PAVED AREAS- CONCRETE,CIP,X182,601 STICKBALL BLVD,Bronx,40.818228000000005,-73.856302
P.S. 230 - BRONX,SEWAGE LEAK/FIRE SYS SPRINKLER/CRACKED CONCRETE/FA,CIP,X229,275 HARLEM RIVER PARK BRIDGE,Bronx,40.852536,-73.921467
P.S. 212 - BROOKLYN,EXT MASONRY - WATER PENETRATION/PARAPETS/ROOFS/WIN,CIP,K212,87 BAY 49 STREET,Brooklyn,40.587616,-73.985948
MULTICULTURAL HS - BROOKLYN,PARAPETS/FLOOD ELIMINATION/ROOFS/EXTERIOR MASONRY,CIP,K420,999 JAMAICA AVENUE,Brooklyn,40.691146,-73.868328
P.S. 219 - QUEENS,ROOFS,CIP,Q219,144-39 GRAVETT ROAD,Queens,40.735275,-73.823778
LONG ISLAND CITY HS - Q,CULINARY ARTS ROOM,CIP,Q452,14-30 BROADWAY,Queens,40.765826,-73.9328
HERBERT H. LEHMAN HS - X,GAS METER ROOM COMPLIANCE PROJECT,CIP,X405,3000 EAST TREMONT AVENUE,Bronx,40.840702,-73.838545
P.S. 345 - BROOKLYN,PLANYC PLAYGROUND,CIP,K345,111 BERRIMAN STREET,Brooklyn,40.676129,-73.880337
SUSAN E. WAGNER HS - STATEN IS,EXT DOORS/EXT MASONRY/WINDOWS/PARAPETS/ROOFS,CIP,R460,1200 MANOR ROAD,Staten Island,40.596803,-74.124227
PRE-K CENTER @ 70-24 47TH AVENUE - QUEENS,Lease,CAP,Q321,70-24 47TH AVENUE,Queens,40.739014000000005,-73.893771
HS OF GRAPHIC COMM. ARTS (VOC),EXT MASONRY/ROOFS/PARAPETS,CIP,M625,439 WEST 49 STREET,Manhattan,40.76337,-73.990593
P.S. 151 - QUEENS,IPDVS CAMERA INSTALLATION,CIP,Q151,50-05 31 AVENUE,Queens,40.757499,-73.908898
P.S. 1 - STATEN ISLAND,ELECTRICAL WORK FOR A/C INITIATIVE,CIP,R001,58 SUMMIT STREET,Staten Island,40.509037,-74.244118
P.S. 102 - QUEENS,FY19 RESO A ROOM CONVERSIONS/PARTITIONING,CIP,Q102,55-24 VAN HORN STREET,Queens,40.733514,-73.87785699999999
P.S. 193 - QUEENS,ELECTRICAL WORK FOR A/C INITIATIVE,CIP,Q193,152-20 11 AVENUE,Queens,40.792483,-73.809741
P.S. 146 - QUEENS,TCU REMOVAL/PLAYGROUND REDEVELOPMENT/PATH OF TRAVEL TCU REMOVAL / PLAYGROUND REDEVELOPMENT,CIP,Q146,98-01 159 AVENUE,Queens,40.659873,-73.835068
ALC - BROOKLYN CHOICES,EXTERIOR MASONRY/WINDOWS/PARAPETS/ROOFS,CIP,K799,271 MELROSE STREET,Brooklyn,40.702083,-73.929647
P.S. 346 - BROOKLYN,PARTIAL ACCESSIBILITY RAMPS,CIP,K346,1400 PENNSYLVANIA AVENUE,Brooklyn,40.64726,-73.881114
I.S. 54 - MANHATTAN,PLANYC CLIMATE CONTROL/PLANYC BOILER CONVERSION,CIP,M054,103 WEST 107 STREET,Manhattan,40.800119,-73.962837
I.S. 459 - BRONX,REPAIR STEPS & VPS/ROOFS/PARTIAL ACCESSIBILITY,CIP,X115,120 EAST 184 STREET,Bronx,40.859752,-73.900161
P.S. 111 - QUEENS,FY19 RESO A GYMNASIUM UPGRADE,CIP,Q111,37-15 13 STREET,Queens,40.758831,-73.93938
I.S. 522 - BROOKLYN,PLANYC BOILER CONVERSION/PLANYC CLIMATE CONTROL,CIP,K271,1137 HERKIMER STREET,Brooklyn,40.677805,-73.91584300000001
I.S. 24 - STATEN ISLAND,FY17 RESO A SCIENCE LAB UPGRADES,CIP,R024,225 CLEVELAND AVENUE,Staten Island,40.545281,-74.14631999999999
P.S. 119 - BRONX,TCU REMOVAL/PLAYGROUND REDEVELOPMENT,CIP,X119,1075 PUGSLEY AVENUE,Bronx,40.828518,-73.856569
M000 - MANHATTAN,TEMP CHILLER 2018,CIP,MJJC,445 W 59 STREET,Manhattan,40.769787,-73.986083
HS FOR ARTS & TECHNOLOGY - M,IPDVS CAMERA INSTALLATION,CIP,M490,122 AMSTERDAM AVENUE,Manhattan,40.774351,-73.984753
I.S. 231 - QUEENS,FY14 RESO A PLAYGROUND REDEVELOPMENT,CIP,Q231,145-00 SPRINGFIELD BLVD,Queens,40.664597,-73.758748
LIFE SCIENCE SECONDARY SCHOOL,HAZARDOUS-FACADE REPAIR,CIP,M645,320 EAST 96 STREET,Manhattan,40.783625,-73.945637
P.S. 1 - BROOKLYN,PUBLIC ADDRESS/CLOCK SYSTEM,CIP,K001,309 47 STREET,Brooklyn,40.649042,-74.012289
P.S. 375 - BROOKLYN,PLANYC CLIMATE CONTROL/PLANYC BOILER CONVERSION,CIP,K320,46 MCKEEVER PLACE,Brooklyn,40.665035,-73.95903100000001
J.H.S. 216 - QUEENS,PLANYC BOILER CNVRSN/PLANYC CLIMATE CTRL,CIP,Q216,64-20 175 STREET,Queens,40.737517,-73.794031
J.H.S. 216 - QUEENS,ELECTRICAL WORK FOR A/C INITIATIVE/LSP LL26 CODE COMPLIANCE/EXIT SIGN REPLACEMENT,CIP,Q216,64-20 175 STREET,Queens,40.737517,-73.794031
P.S. 382 - BRONX,DAMAGE STONE/PARAPETS/ROOFS/WINDOWS,CIP,X079,125 EAST 181 STREET,Bronx,40.854872,-73.903458
MILLENIUM ART ACADEMY - BRONX,ELECTRICAL WORK FOR A/C INITIATIVE,CIP,X450,1980 LAFAYETTE AVENUE,Bronx,40.82229,-73.856167
P.S. 158 - BROOKLYN,STRUCTURAL DEFECTS,CIP,K158,400 ASHFORD STREET,Brooklyn,40.672579,-73.884803
P.S. 317 - QUEENS,SANDY: HEAT/FLOOD/ELECTRICAL SYSTEMS/ INTERIOR/NON-SANDY:CLIMATE,CIP,Q225,1-90 BEACH 110 STREET,Queens,40.580928,-73.831836
P.S. 189 - MANHATTAN,FLOOD ELIM/ROOFS/PARAPETS/EXT MASONRY/PLAYGROUND,CIP,M189,2580 AMSTERDAM AVENUE,Manhattan,40.852631,-73.927604
RALPH R. MCKEE CAREER AND TECH,LSP VENTILATION/DUST COLLECTION SYSTEM,CIP,R600,290 ST MARKS PLACE,Staten Island,40.642793,-74.07873000000001
Q009 SPED - QUEENS,EXT MSNRY/PARAPET/FLOOD/ ACCESSIBILITY/FIRE ALARM,CIP,Q009,58-74 57 STREET,Queens,40.718935,-73.91220799999999
P.S. 277 - BROOKLYN,FY18 RESO A SCIENCE LAB UPGRADES,CIP,K277,2529 GERRITSEN AVENUE,Brooklyn,40.596145,-73.928793
P.S. 115 - MANHATTAN,DEFECTIVE STRUCTURE,CIP,M115,586 WEST 177 STREET,Manhattan,40.846542,-73.93520500000001
P.S. 199 - QUEENS,EXTERIOR MASONRY/PARAPETS,CIP,Q199,39-20 48 AVENUE,Queens,40.740088,-73.926214
RICHMOND HILL HS - QUEENS,FY18 RESO A AUDITORIUM  UPGRADE,CIP,Q475,89-30 114 STREET,Queens,40.695888,-73.833681
P.S. 85 - BRONX,EXT MASONRY/PARAPETS/ROOFS/SECURITY LIGHTING/FLOOD,CIP,X085,2400 MARION AVENUE,Bronx,40.8591,-73.89494599999999
ALFRED E. SMITH HS - X,FY16 RESO A AUDITORIUM UPGRADE,CIP,X600,333 EAST 151 STREET,Bronx,40.818232,-73.91986700000001
P.S. 298 - BROOKLYN,ENY PLAYGROUND UPGRADE,CIP,K298,85 WATKINS STREET,Brooklyn,40.670986,-73.908194
BAYSIDE HIGH SCHOOL - QUEENS,IPDVS CAMERA INSTALLATION,CIP,Q405,32-24 CORPORAL KENNEDY STREET,Queens,40.771755,-73.78029599999999
HOLCOMBE L. RUCKER SCHOOLOF CO,FY16 RESO A AUDITORIUM UPGRADE,CIP,X039,965 LONGWOOD AVENUE,Bronx,40.817512,-73.898212
AUGUST MARTIN HS - QUEENS,ELECTRICAL WORK FOR A/C INITIATIVE,CIP,Q400,156-10 BAISLEY BLVD,Queens,40.675633000000005,-73.783342
P.S. 24 - BRONX,CERTIFICATE OF OCCUPANCY/FIRE ALARM/PLANYC BOILER CONVERSION/PLANYC CLIMATE CONTROL,CIP,X024,660 WEST 236 STREET,Bronx,40.887111,-73.913697
P.S. 1 - BROOKLYN,PUBLIC ADDRESS/CLOCK SYSTEM,CIP,K001,309 47 STREET,Brooklyn,40.649042,-74.012289
P.S. 81 - QUEENS,ELECTRICAL WORK FOR A/C INITIATIVE/LSP LL26 CODE COMPLIANCE/EXIT SIGN REPLACEMENT,CIP,Q848,511 SENECA AVENUE,Queens,40.705315,-73.911909
P.S. 15 - MANHATTAN,FY17 RESO A IPDVS CAMERA INSTALLATION,CIP,M015,333 EAST 4 STREET,Manhattan,40.721807,-73.979022
ACORN COMMUNITY HS - K,IPDVS CAMERA INSTALLATION,CIP,K909,561 GRAND AVENUE,Brooklyn,40.678488,-73.96210500000001
NYC LAB MIDDLE SCHOOL - MANHAT,FY19 RESO A ROOM CONVERSIONS/PARTITIONING,CIP,M070,333 WEST 17 STREET,Manhattan,40.742129,-74.00219799999999
I.S. 162 - BROOKLYN,LOW VOLTAGE ELECTRICAL SYSTEM,CIP,K162,1390 WILLOUGHBY AVENUE,Brooklyn,40.707229,-73.91980500000001
P.S. 132 - QUEENS,EXTERIOR MASONRY/ROOFS/PARAPETS/FLOOD ELIMINATION,CIP,Q132,132-15 218 STREET,Queens,40.682114,-73.74991999999999
P.S. 92 - BROOKLYN,EXTERIOR MASONRY/ROOFS/PARAPETS,CIP,K092,601 PARKSIDE AVENUE,Brooklyn,40.656046,-73.953742
P.S. 117 - QUEENS,LSP DOMESTIC WATER HEATER,CIP,Q117,85-15 143RD STREET,Queens,40.709463,-73.813376
A. PHILIP RANDOLPH HS -MANHATT,ELECTRICAL WORK FOR A/C INITIATIVE,CIP,M540,443 WEST 135 STREET,Manhattan,40.818188,-73.950356
BRONX HS OF SCIENCE - X,IPDVS CAMERA INSTALLATION,CIP,X445,75 W 205 STREET,Bronx,40.877590000000005,-73.89104
P.S. 68 - BRONX,WATER INFILTRATION/EXT MASONRY/PAVED AREA-BLACKTOP,CIP,X068,4011 MONTICELLO AVENUE,Bronx,40.891732,-73.838471
P.S. 158 - MANHATTAN,PLAYGROUNDS,CIP,M158,1458 YORK AVENUE,Manhattan,40.770419,-73.951135
P.S. 36 - QUEENS,PLANYC CLIMATE CTRL/PLANYC BOILER CONVERSION,CIP,Q036,187-01 FOCH BLVD,Queens,40.690828,-73.76390699999999
P.S. 176 - QUEENS,ELECTRICAL WORK FOR A/C INITIATIVE/LSP LL26 CODE COMPLIANCE/EXIT SIGN REPLACEMENT,CIP,Q176,120-45 235 STREET,Queens,40.685492,-73.72998199999999
WASHINGTON IRVING H.S.,WATER STORAGE TANK,CIP,M460,40 IRVING PLACE,Manhattan,40.735494,-73.987659
P.S. 143 - QUEENS,Addition,CAP,Q143,34-74 113 STREET,Queens,40.755451,-73.855192
P.S. 277 - BROOKLYN,FY18 RESO A SCIENCE LAB UPGRADES,CIP,K277,2529 GERRITSEN AVENUE,Brooklyn,40.596145,-73.928793
P.S. 80 - STATEN ISLAND,FY17 RESO A GYMNASIUM UPGRADE,CIP,R880,715 OCEAN TERRACE,Staten Island,40.608517,-74.102078
I.S. 232 - BRONX,ROOFS/PARAPETS/EXTERIOR MASONRY,CIP,X082,1700 MACOMBS ROAD,Bronx,40.849532,-73.916077
P.S. 171 - MANHATTAN,FLOOD ELIMINATION/WINDOWS/EXTERIOR MASONRY/HEATING PLANT UPGRADE,CIP,M171,19 EAST 103 STREET,Manhattan,40.792122,-73.951961
P.S. 14 - BRONX,PARAPETS/WINDOWS/EXTERIOR MASONRY/ROOFS,CIP,X014,3047 BRUCKNER BLVD,Bronx,40.83587,-73.825774
TOWNSEND HARRIS HS - Q,FY18 RESO A IPDVS CAMERA INSTALLATION,CIP,Q515,149-11 MELBOURNE AVENUE,Queens,40.734390000000005,-73.821392
P.S. 128 - QUEENS,Addition,CAP,Q247,69-10 65TH DRIVE,Queens,40.715344,-73.886215
P.S. 34 - QUEENS,LOOSE MASONRY/ROOFS/WINDOWS,CIP,Q034,104-12 SPRINGFIELD BLVD,Queens,40.711753,-73.736624
BROOKLYN TECH HS - K,PA SYSTEM,CIP,K430,29 FT GREENE PLACE,Brooklyn,40.688834,-73.976905
I.S. 127 - BRONX,ACCESSIBILITY/WINDOWS/PARAPETS/EXT MASONRY/ROOFS,CIP,X127,1560 PURDY STREET,Bronx,40.837931,-73.853524
NEW DORP HS - STATEN ISLAND,FY16 RESO A CAFETERIA/MULTIPURPOSE,CIP,R435,465 NEW DORP LANE,Staten Island,40.569393,-74.107737
P.S. 246 - BRONX,ELEVATOR/EXT MSNRY/FLOOD/ PARAPETS/ROOFS/WALL,CIP,X843,2641 GRAND CONCOURSE,Bronx,40.865593,-73.894758
P.S. 24 - QUEENS,Addition,CAP,Q024,45-57 UNION STREET,Queens,40.75207,-73.818789
FORT HAMILTON HS - K,POOL BOILER,CIP,K490,8301 SHORE ROAD,Brooklyn,40.627835,-74.04004599999999
Q811 SPED - QUEENS,PLANYC BOILER CNVRSN/PLANYC CLIMATE CTRL,CIP,Q811,61-25 MARATHON PKWY,Queens,40.756778,-73.729487
P.S. 50 - BRONX,SWITCH GEAR REPLACEMENT,CIP,X050,1550 VYSE AVENUE,Bronx,40.834157,-73.887512
P.S. 114 - QUEENS,SANDY:INT/HEATING/ELEC/FLOOD/CLIM/PLAYGRND/PIPING,CIP,Q114,134-01 CRONSTON AVE,Queens,40.578261,-73.854403
I.S. 73 - QUEENS,LOW VOLT ELECTRICAL SYSTEMS,CIP,Q073,70-02 54 AVENUE,Queens,40.729215,-73.893624
P.S. 68 - BRONX,WATER INFILTRATION/EXT MASONRY/PAVED AREA-BLACKTOP,CIP,X068,4011 MONTICELLO AVENUE,Bronx,40.891732,-73.838471
P.S. 137 - BROOKLYN,EXTERIOR MASONRY/ROOFS,CIP,K137,121 SARATOGA AVENUE,Brooklyn,40.682458,-73.917088
P.S. 212 - BROOKLYN,FY17 RESO A LIBRARY UPGRADES,CIP,K212,87 BAY 49 STREET,Brooklyn,40.587616,-73.985948
FRANCIS LEWIS HS ANNEX - QUEENS,New,CAP,Q434,58-20 UTOPIA PARKWAY,Queens,40.740724,-73.79283000000001
P.S. 144 - QUEENS,Addition,CAP,Q144,93-02 69 AVENUE,Queens,40.714978,-73.853372
P.S. 1 - STATEN ISLAND,EXTERIOR MASONRY,CIP,R802,58 SUMMIT STREET,Staten Island,40.509037,-74.244118
P.S. 116 - BROOKLYN,FY17 RESO A VISUAL ART LAB,CIP,K116,515 KNICKERBOCKER AVENUE,Brooklyn,40.697779,-73.916521
M.S. 282 - QUEENS,LSP VACUUM PUMP REPLACEMENT,CIP,Q465,8-21 BAY 25 STREET,Queens,40.60201,-73.762795
P.S. 14 - QUEENS,ELECTRICAL WORK FOR A/C INITIATIVE/LSP LL26 CODE COMPLIANCE/EXIT SIGN REPLACEMENT,CIP,Q322,89-11 43RD AVENUE,Queens,40.742724,-73.876522
Q177 SPED - QUEENS,PARTIAL ACCESSIBILITY/FLOOD ELIMINATION/ROOFS/PARAPETS/EXTERIOR MASONRY/WINDOWS,CIP,Q177,56-37 188 STREET,Queens,40.74391,-73.788133
BKLYN STUDIO SEC. SCL - BROOKL,EXT MASONRY/ROOFS/WINDOWS,CIP,K721,8310 21ST AVE,Brooklyn,40.604879,-73.994404
P.S. 109 - BROOKLYN,DEFECTIVE GYMNASIUM WALLS/ROOFS/PARAPETS,CIP,K395,1001 EAST 45 STREET,Brooklyn,40.636455,-73.933582
WIILIAMSBURG PREP- BROOKLYN,IP DIGITAL VIDEO SURVEILLANCE SYSTEM,CIP,K650,257 N 6TH STREET,Brooklyn,40.715073,-73.95475400000001
P.S. 191 - QUEENS,FLOOD ELIMINATION/ROOFS/PARAPETS/EXTERIOR MASONRY,CIP,Q191,85-15 258 STREET,Queens,40.734318,-73.709137
,,CAP,M777,227 WEST 27TH STREET,Manhattan,40.747031,-73.99476
P.S. 134 - MANHATTAN,ROOFS/PARAPETS/WINDOWS/EXTERIOR MASONRY,CIP,M134,293 EAST BROADWAY,Manhattan,40.71457,-73.983724
I.S. 73 - QUEENS,LOW VOLT ELECTRICCAL SYSTEMS,CIP,Q073,70-02 54 AVENUE,Queens,40.729215,-73.893624
P.S. 174 - QUEENS,FY16 RESO A SUPPLEMENTAL COOLING,CIP,Q174,65-10 DIETERLE CRESCENT,Queens,40.720924,-73.86135
P.S. 29 - STATEN ISLAND,FY16 RESO A AIR CONDITIONING,CIP,R029,1581 VICTORY BLVD,Staten Island,40.613604,-74.115988
P.S. 54 - BRONX,FY18 RESO A AUDITORIUM  UPGRADE,CIP,X054,2703 WEBSTER AVENUE,Bronx,40.864527,-73.88782900000001
A-TECH HIGH SCHOOL - K,FLOOD ELIMINATION/ROOFS/PARAPETS/WINDOWS/EXTERIOR MASONRY,CIP,K610,50 BEDFORD AVENUE,Brooklyn,40.721981,-73.953281
P.S. 317 - QUEENS,ELECTRICAL WORK FOR A/C INITIATIVE,CIP,Q225,1-90 BEACH 110 STREET,Queens,40.580928,-73.831836
KINGSBOROUGH EARLY COLLEGE SCH,SANDY:INT/HEAT/FLOOD/PIPING/NON-SANDY:PIPING/FLOOD,CIP,K400,2630 BENSON AVENUE,Brooklyn,40.594291,-73.98577
BEACH CHANNEL HS - QUEENS,SANDY FIRE ALARM/NON SANDY PA SYSTEM,CIP,Q410,100-00 BEACH CHANNEL DRIVE,Queens,40.586066,-73.822624
P.S. 47 - BRONX,ROOFS/PARAPETS/MASONRY/FLOOD,CIP,X047,1794 EAST 172 STREET,Bronx,40.832902,-73.866848
P.S. 94 - BROOKLYN,EXTERIOR MASONRY/WINDOWS/FLOOD ELIMINATION,CIP,K094,5010 6TH AVENUE,Brooklyn,40.64366,-74.008252
P.S. 11 - BRONX,DEFECTIVE RETAINING WALL & PAVEMENTS,CIP,X011,1257 OGDEN AVENUE,Bronx,40.839378,-73.925714
MARTIN VAN BUREN HS - QUEENS,ELECTRICAL WORK FOR A/C INITIATIVE,CIP,Q435,230-17 HILLSIDE AVENUE,Queens,40.733066,-73.73875600000001
I.S. 393 - BROOKLYN,FULL PROGRAM ACCESSIBILITY/LOW VOLTAGE ELECTRICAL,CIP,K026,1014 LAFAYETTE AVENUE,Brooklyn,40.692126,-73.931731
P.S./I.S. @ 3269 ATLANTIC AVENUE - BROOKLYN,New,CAP,K667,3269 ATLANTIC AVENUE,Brooklyn,40.680655,-73.875152
AUGUST MARTIN HS - QUEENS,PLANYC BOILER/PLANYC CLIMATE CONTROL,CIP,Q400,156-10 BAISLEY BLVD,Queens,40.675633000000005,-73.783342
J.H.S. 47 (SCH FOR THE DEAF) -,PARAPETS/WINDOWS/EXTERIOR MASONRY,CIP,M047,223 EAST 23 STREET,Manhattan,40.738548,-73.982455
P.S. 43 - QUEENS,SANDY- ELEVATOR REPAIR,CIP,Q043,160 BEACH 29TH STREET,Queens,40.593834,-73.76174
P.S. 121 - BROOKLYN,EXTERIOR MASONRY/PARAPETS/ROOFS,CIP,K121,5301 20TH AVENUE,Brooklyn,40.623273,-73.978822
P.S. 175 HENRY H GARNET - M,FY17 RESO A GYMNASIUM UPGRADE,CIP,M175,175 WEST 134 STREET,Manhattan,40.814422,-73.943664
Q811 SPED - QUEENS,LL 41/16 COMPLIANCE,CIP,Q811,61-25 MARATHON PKWY,Queens,40.756778,-73.729487
P.S. 354 - QUEENS,TCU REMOVAL AND PLAYGROUND REDEVELOPMENT,CIP,Q030,126-10 BEDELL STREET,Queens,40.68031,-73.77443199999999
P.S. 288 - BROOKLYN,FY19 RESO A SUPPLEMENTAL COOLING,CIP,K288,2950 WEST 25 STREET,Brooklyn,40.574411,-73.99194
THE FAMILY SCHOOL - BRONX,EXTERIOR MASONRY/ROOFS,CIP,X090,1116 SHERIDAN AVENUE,Bronx,40.831992,-73.91796
P.S. 345 - BROOKLYN,PLANYC PLAYGROUND,CIP,K345,111 BERRIMAN STREET,Brooklyn,40.676129,-73.880337
P.S. 200 - BROOKLYN,PARAPETS/ROOFS/EXT MASONRY,CIP,K200,1940 BENSON AVENUE,Brooklyn,40.603188,-74.001408
SUSAN E. WAGNER HS - STATEN IS,EXT DOORS/EXT MASONRY/WINDOWS/PARAPETS/ROOFS,CIP,R460,1200 MANOR ROAD,Staten Island,40.596803,-74.124227
JAMES MADISON HS - BROOKLYN,SWIMMING POOL,CIP,K425,3787 BEDFORD AVENUE,Brooklyn,40.609912,-73.948512
P.S. 677 - BROOKLYN,Lease,CAP,K677,139 MENAHAN STREET,Brooklyn,40.695717,-73.919473
UNIVERSITY NEIGHBORHOOD HS - M,FY18 RESO A SAFETY SYSTEMS,CIP,M446,200 MONROE STREET,Manhattan,40.712399,-73.98449699999999
I.S. 75 - STATEN ISLAND,FY18 RESO A AUDITORIUM  UPGRADE,CIP,R075,455 HUGUENOT AVENUE,Staten Island,40.54438,-74.197897
EDUCATIONAL CAMPUS @ 500 19TH STREET - BROOKLYN,Lease,CAP,K280,500 19TH STREET,Brooklyn,40.656944,-73.983115
P.S. 191 - BROOKLYN,EXTERIOR MASONRY/PARAPETS/ROOFS,CIP,K191,1600 PARK PLACE,Brooklyn,40.672005,-73.924329
HS FOR MEDIA & COMM - MANHATTA,FY17 RESO A ROOM CONVERSIONS/PARTITIONING,CIP,M465,549 AUDUBON AVENUE,Manhattan,40.855855,-73.92712
FRANCIS LEWIS HS - QUEENS,WATER PENETRATION,CIP,Q430,58-20 UTOPIA PKWY,Queens,40.740724,-73.79283000000001
P.S. 219 - QUEENS,LOW VOLTAGE ELECTRICAL/KITCHEN UPGRADE,CIP,Q219,144-39 GRAVETT ROAD,Queens,40.735275,-73.823778
I.S. 484 - BROOKLYN,FY18 RESO A SCIENCE LAB UPGRADES,CIP,K012,430 HOWARD AVE,Brooklyn,40.673073,-73.91959399999999
P.S. @ PARCEL F - QUEENS,New,CAP,Q375,2ND STREET BETWEEN 56TH AND 57TH AVENUE,Queens,,
I.S. 72 - STATEN ISLAND,PLANYC BOILER CONVERSION/PLANYC CLIMATE CONTROL,CIP,R072,33 FERNDALE AVENUE,Staten Island,40.593005,-74.158988
I.S. 136 - BROOKLYN,ELECTRICAL SYSTEMS UPGRADE,CIP,K136,4004 4TH AVENUE,Brooklyn,40.651977,-74.006862
FREDERICK DOUGLASS ACADEMY VI,MSNRY/ROOFS/WINDOWS/PARAPETS/NATATORIUM STRUC REPR,CIP,Q465,8-21 BAY 25 STREET,Queens,40.60201,-73.762795
P.S. 84 - MANHATTAN,RESO A GREENROOF,CIP,M084,32 WEST 92 STREET,Manhattan,40.789526,-73.967574
J.H.S. 157 - QUEENS,FY16 RESO A ROOM CONVERSIONS / PART,CIP,Q157,63-55 102ND STREET,Queens,40.732289,-73.853825
P.S. 297 - BROOKLYN,FY16 RESO A LIBRARY UPGRADE,CIP,K297,700 PARK AVENUE,Brooklyn,40.697781,-73.94780899999999
CURTIS HIGH SCHOOL ANNEX - STATEN ISLAND,Addition,CAP,R453,105B HAMILTON AVENUE,Staten Is,40.644735,-74.081222
I.S. 266 - BROOKLYN,FY19 RESO A ROOM CONVERSIONS/PARTITIONING,CIP,K902,62 PARK PLACE,Brooklyn,40.678983,-73.976497
NEWTOWN HS - QUEENS,ELECTRICAL WORK FOR A/C INITIATIVE/LL26 CODE COMPLIANCE/EXIT SIGN REPLACEMENT,CIP,Q455,48-01 90 STREET,Queens,40.741122,-73.874721
BROOKLYN TECH HS - K,LOW VOLTAGE ELECTRICAL SYSTEM/KITCHEN FIRE SUPRESSION SYSTEM,CIP,K430,29 FT GREENE PLACE,Brooklyn,40.688834,-73.976905
P.S. 13 - BROOKLYN,PUBLIC ADDRESS SYSTEM/PROGRAM CLOCK SYSTEM REPLACE,CIP,K013,557 PENNSYLVANIA AVENUE,Brooklyn,40.663673,-73.893754
X721 SPED - BRONX,PLANYC BOILER CNVRSN/PLANYC CLIMATE CTRL,CIP,X722,2697 WESTCHESTER AVENUE,Bronx,40.842289,-73.838949
3K CENTER @ 1 TELEPORT DRIVE - STATEN ISLAND,Lease,CAP,R095,1 TELEPORT DRIVE,Staten Is,40.604274,-74.17846899999999
THE BROOKLYN SCHOOL FOR SOCIAL,RNWL SBHC,CIP,K480,400 IRVING AVENUE,Brooklyn,40.697185,-73.91117
MIDWOOD HS - BROOKLYN,CRACKED CONCRETE STRUCTURE/FIELD HOUSE,CIP,K406,1124 EAST 17 STREET,Brooklyn,40.622641,-73.958988
P.S. @ PARCEL F - QUEENS,New,CAP,Q375,2ND STREET BETWEEN 56TH AND 57TH AVENUE,Queens,,
BROOKLYN BRIDGE ACADEMY - K,WINDOWS/ELECTRICAL WORK FOR A/C INITIATIVE,CIP,K515,6565 FLATLANDS AVENUE,Brooklyn,40.633285,-73.916735
I.S. 218 - BROOKLYN,WATER PENETRATION/EXT MASONRY,CIP,K218,370 FOUNTAIN AVENUE,Brooklyn,40.670724,-73.874208
P.S. 274 - BROOKLYN,FY18 RESO A ELECTRICAL SYSTEM,CIP,K274,800 BUSHWICK AVENUE,Brooklyn,40.694921,-73.927931
P.S. 95 - BROOKLYN,FY17 RESO A SUPPLEMENTAL COOLING,CIP,K095,345 VAN SICKLEN STREET,Brooklyn,40.595698,-73.97518000000001
P.S. 36 - BRONX,EXT MASONRY/ROOFS/PARAPETS/WINDOWS/EXT DOORS/FLOOD,CIP,X036,1070 CASTLE HILL AVENUE,Bronx,40.829344,-73.85042800000001
I.S. 231 - QUEENS,FY14 RESO A PLAYGROUND REDEVELOPMENT,CIP,Q231,145-00 SPRINGFIELD BLVD,Queens,40.664597,-73.758748
P.S. 131 - BROOKLYN,WATER PENETRATION/FLOOD/PARAPETS/ROOFS,CIP,K131,4305 FT HAMILTON PKWY,Brooklyn,40.641157,-73.993482
P.S. @ 56-10 214 STREET - QUEENS,Lease,CAP,Q361,56-10 214 STREET,Queens,40.750221,-73.764732
NORTH BRONX SCHOOL OF EMPOWERM,IP DIGITAL VIDEO SURVEILLANCE SYSTEM,CIP,X113,3710 BARNES AVENUE,Bronx,40.880873,-73.860904
P.S. 239 - QUEENS,IP DIGITAL VIDEO SURVEILLANCE SYSTEM,CIP,Q239,17-15 WEIRFIELD STREET,Queens,40.699149,-73.90379899999999
I.S. 145 - QUEENS,PLANYC BOILER CNVRSN/PLANYC CLIMATE CTRL,CIP,Q145,33-34 80 STREET,Queens,40.754661,-73.887112
P.S. 205 - QUEENS,LIGHTING REPLACEMENT,CIP,Q205,75-25 BELL BLVD,Queens,40.737678,-73.756791
P.S. 53 - STATEN ISLAND,FY18 RESO A GYMNASIUM UPGRADE,CIP,R053,330 DURANT AVENUE,Staten Island,40.55258,-74.13705999999999
P.S. 91 - BRONX,FY18 RESO A GYMNASIUM UPGRADE,CIP,X091,2170 AQUEDUCT AVENUE,Bronx,40.857689,-73.908349
QUEENS SATELLITE HS FOR OPPORT,ELECTRICAL WORK FOR A/C INITIATIVE/LSP LL26 CODE COMPLIANCE/EXIT SIGN REPLACEMENT,CIP,Q595,162-02 HILLSIDE AVENUE,Queens,40.70848,-73.800065
P.S. 198 - MANHATTAN,WINDOWS/ROOFS/PARAPETS,CIP,M198,1700 3RD AVENUE,Manhattan,40.784826,-73.949611
P.S. 6 - STATEN ISLAND,FY18 RESO A ROOM CONVERSIONS/PARTITIONING,CIP,R006,555 PAGE AVENUE,Staten Island,40.510735,-74.231109
P.S. 170 - BROOKLYN,CRACKED EXTERIOR MASONRY,CIP,K170,619 72ND STREET,Brooklyn,40.630031,-74.018878
HS OF BUSINESS - BRONX,ATHLETIC FIELD RETAINING WALL,CIP,X410,240 EAST 172 STREET,Bronx,40.840422,-73.91091
P.S. 159 - QUEENS,FLOOD ELIMINATION,CIP,Q159,205-01 33 AVENUE,Queens,40.76936,-73.78394300000001
P.S. 1 - BROOKLYN,FY19 RESO A AUDITORIUM UPGRADE,CIP,K001,309 47 STREET,Brooklyn,40.649042,-74.012289
P.S. 42 - BRONX,FLOOD ELIMINATION/PARAPETS/EXTERIOR MASONRY/ROOFS,CIP,X042,1537 WASHINGTON AVENUE,Bronx,40.838288,-73.902987
P.S. 103 - BRONX,PARAPET/EXTERIOR MASONRY/FLOOD ELIMINATION,CIP,X103,4125 CARPENTER AVENUE,Bronx,40.892151,-73.86146600000001
P.S. 223 - QUEENS,WINDOWS/EXT MASONRY/PARAPETS,CIP,Q223,125-20 SUTPHIN BLVD,Queens,40.674519,-73.789399
P.S. 199 - BRONX,FLOOD ELIMINATION,CIP,X104,1449 SHAKESPEARE AVENUE,Bronx,40.842943,-73.920563
P.S. 183 - MANHATTAN,FY18 RESO A SCIENCE LAB UPGRADES,CIP,M183,419 EAST 66 STREET,Manhattan,40.763736,-73.95815
COY L. COX SCHOOL,DEFECTIVE EXT WALL/FLOOD ELIMINATION/PARAPETS/ROOF,CIP,K369,383 STATE STREET,Brooklyn,40.687257,-73.983579
P.S. 46 - BRONX,Addition,CAP,X046,279 EAST 196 STREET,Bronx,40.866827,-73.890725
I.S. 254 - BRONX,FY16 RESO A IP SURVEILLANCE CAMERA INSTALLATION,CIP,X254,2452 WASHINGTON AVENUE,Bronx,40.858815,-73.890232
JOHN DEWEY HS - BROOKLYN,FY17 RESO A CULINARY ARTS KITCHEN UPGRADES,CIP,K540,50 AVENUE X,Brooklyn,40.589268,-73.981738
P.S. 114 - BROOKLYN,FY18 RESO A AUDITORIUM  UPGRADE,CIP,K114,1077 REMSEN AVENUE,Brooklyn,40.642545,-73.908529
3K CENTER @ 20 EBBITTS STREET - STATEN ISLAND,Demo,CAP,R091,20 EBBITTS STREET,Staten Is,40.565319,-74.111823
P.S. 884 - BROOKLYN,Lease,CAP,K884,15 SNYDER AVENUE,Brooklyn,40.648568,-73.957639
I.S. 78 - BROOKLYN,IP DIGITAL VIDEO SURVEILLANCE SYSTEM,CIP,K078,1420 EAST 68 STREET,Brooklyn,40.621224,-73.91287
NEWCOMERS HIGH SCHOOL - Q,RPZ VALVES,CIP,Q450,28-01 41ST AVENUE,Queens,40.751356,-73.937445
LIFE SCIENCE SECONDARY SCHOOL,LSP HOT WATER HEATER,CIP,M645,320 EAST 96 STREET,Manhattan,40.783625,-73.945637
P.S. 399 - BROOKLYN,BOILER REPLACEMENT,CIP,K399,2707 ALBEMARLE ROAD,Brooklyn,40.648044,-73.951891
JOHN BOWNE HS - QUEENS,IP DIGITAL VIDEO SURVEILLANCE SYSTEM,CIP,Q425,63-25 MAIN STREET,Queens,40.738139,-73.82494399999999
MARBLE HILL INTERNATIONAL HS -,EXT MASONRY/FLOOD/PARAPETS/ROOFS,CIP,X475,99 TERRACE VIEW AVENUE,Bronx,40.877105,-73.912256
P.S. 377 - BROOKLYN,FY17 RESO A LIBRARY UPGRADES,CIP,K377,200 WOODBINE STREET,Brooklyn,40.694018,-73.915263
THE URBAN ASSEMBLY SCHOOL FOR,FACADE/PAVED AREAS CONCRETE,CIP,M501,2005 MADISON AVENUE,Manhattan,40.807383,-73.939433
I.S. 49 - STATEN ISLAND,FY18 RESO A GYMNASIUM UPGRADE,CIP,R049,101 WARREN STREET,Staten Island,40.620347,-74.081643
P.S. 160 - QUEENS,CHIMNEY/ROOFS/PARAPETS/FLOOD,CIP,Q160,109-59 INWOOD STREET,Queens,40.688103000000005,-73.800415
P.S. 37 - QUEENS,PLANYC BOILER/PLANYC CLIMATE CONTROL,CIP,Q037,179-37 137 AVENUE,Queens,40.67588,-73.758505
P.S. 137 - BROOKLYN,LSP- HOT WATER HEATER,CIP,K137,121 SARATOGA AVENUE,Brooklyn,40.682458,-73.917088
I.S. 54 - MANHATTAN,MASONRY & GRANITE STEP DEFECTS,CIP,M054,103 WEST 107 STREET,Manhattan,40.800119,-73.962837
P.S. 42 - BRONX,FLOOD ELIMINATION/PARAPETS/EXTERIOR MASONRY/ROOFS,CIP,X042,1537 WASHINGTON AVENUE,Bronx,40.838288,-73.902987
I.S. 61 - QUEENS,MASONRY/ROOFS/PARAPETS,CIP,Q061,98-50 50 AVENUE,Queens,40.742668,-73.86330699999999
LIFE SCIENCE SECONDARY SCHOOL,LSP HOT WATER HEATER,CIP,M645,320 EAST 96 STREET,Manhattan,40.783625,-73.945637
BERGTRAUM HS - MANHATTAN,SCIENCE LAB UPGRADE/FIRE ALARM SYSTEMS,CIP,M520,411 PEARL STREET,Manhattan,40.711442,-74.000851
PRE-K CENTER @ 104-04 CORONA AVENUE - QUEENS,New,CAP,Q373,104-04 CORONA AVENUE,Queens,40.744001,-73.85840400000001
NEW UTRECHT HS - BROOKLYN,ATHLETIC FIELD REPAIRS,CIP,K446,1601 80 STREET,Brooklyn,40.613262,-74.003404
HS OF GRAPHIC COMM. ARTS (VOC),EXT MASONRY/ROOFS/PARAPETS,CIP,M625,439 WEST 49 STREET,Manhattan,40.76337,-73.990593
SUNSET PARK HS - BROOKLYN,FY17 RESO A LIBRARY UPGRADES,CIP,K564,153 35TH STREET,Brooklyn,40.65571,-74.005197
MARBLE HILL INTERNATIONAL HS -,EXT MASONRY/FLOOD/PARAPETS/ROOFS,CIP,X475,99 TERRACE VIEW AVENUE,Bronx,40.877105,-73.912256
P.S. 277 - BRONX,FLOOD ELIMINATION/ROOFS/EXTERIOR MASONRY,CIP,X027,519 ST ANNS AVENUE,Bronx,40.813517,-73.913402
SUCCESS ACADEMY CHARTER SCHOOL,PLANYC BOILER CONVERSION/PLANYC CLIMATE CONTROL,CIP,K033,70 TOMPKINS AVENUE,Brooklyn,40.697152,-73.946641
P.S. 36 - QUEENS,PLANYC CLIMATE CONTROL/PLANYC BOILER CONVERSION,CIP,Q036,187-01 FOCH BLVD,Queens,40.690828,-73.76390699999999
P.S. 219 - BROOKLYN,BOILER REPLACEMENT,CIP,K860,9517 KINGS HIGHWAY,Brooklyn,40.65911,-73.92036800000001
P.S. 69 - QUEENS,COOLING TOWER REPLACEMENT,CIP,Q069,77-02 37 AVENUE,Queens,40.749266,-73.888817
P.S. 188 - BROOKLYN,SANDY:INT/HEATING/ELEC/FLOOD/CLIMATE/VENT/FA,CIP,K188,3314 NEPTUNE AVENUE,Brooklyn,40.577217,-74.000194
P.S. 70 - BRONX,FY14 RESO A LIBRARY UPGRADE,CIP,X070,1691 WEEKS AVENUE,Bronx,40.844253,-73.907616
P.S. 41 - QUEENS,FY17 RESO A ELECTRICAL SYSTEMS,CIP,Q041,214-43 35 AVENUE,Queens,40.769601,-73.770863
M811 SPED - MANHATTAN,EXT MASONRY/FLOOD ELIMINATION,CIP,M841,466 WEST END AVENUE,Manhattan,40.786616,-73.979507
BROOKLYN SCHOOL FOR MATH AND R,LOW VOLTAGE ELECTRICAL SYSTEMS,CIP,K480,400 IRVING AVENUE,Brooklyn,40.69697,-73.910791
P.S. 16 - QUEENS,FY15 RESO A AUDITORIUM UPGRADE,CIP,Q721,41-15 104 STREET,Queens,40.748987,-73.86123
P.S. 41 - BRONX,PLANYC BOILER CONVERSION/CLIMATE CONTROL,CIP,X041,3352 OLINVILLE AVENUE,Bronx,40.874313,-73.868157
AUGUST MARTIN HS - QUEENS,IP DIGITAL VIDEO SURVEILLANCE SYSTEM,CIP,Q400,156-10 BAISLEY BLVD,Queens,40.675633000000005,-73.783342
I.S. 7 - STATEN ISLAND,FY17 RESO A AUDITORIUM UPGRADE,CIP,R007,1270 HUGUENOT AVENUE,Staten Island,40.523757,-74.185941
P.S. 143 ADDITION,Addition,CAP,Q143,34-74 113 STREET,Queens,40.755451,-73.855192
K396 SPED - BROOKLYN,ELEVATOR,CIP,K396,110 CHESTER STREET,Brooklyn,40.668856,-73.91149899999999
P.S. 58 - STATEN ISLAND,METAL ROOFING,CIP,R058,77 MARSH AVENUE,Staten Island,40.583139,-74.161862
P.S. 101 - QUEENS,FY19 RESO A AUDITORIUM UPGRADE,CIP,Q101,2 RUSSELL PLACE,Queens,40.715585,-73.843898
P.S. 153 - QUEENS,CRACKED LOOSE WINDOW SILLS/ROOFS/PARAPETS/MASONRY,CIP,Q153,60-02 60 LANE,Queens,40.716609000000005,-73.903669
P.S. 143 - QUEENS,BACKFLOW PREVENTION DEVICE,CIP,Q269,86-37 53RD AVENUE,Queens,40.735609,-73.878535
BOYS & GIRLS HS - BROOKLYN,REPLACE CHILLERS & COOLING TOWERS,CIP,K455,1700 FULTON STREET,Brooklyn,40.67944,-73.932407
P.S. 124 - BROOKLYN,FLOOD ELIMINATION/ROOFS/PARAPETS/EXTERIOR MASONRY,CIP,K124,515 4TH AVENUE,Brooklyn,40.667545,-73.991046
I.S./J.H.S. 63 - STATEN ISLAND,FY17 RESO A AUDITORIUM UPGRADE,CIP,R043,100 ESSEX DRIVE,Staten Island,40.581315,-74.158589
NYC SCHOOL CONSTRUCTION AUTHOR,DATA CENTER SECONDARY COOLING,CIP,Q998,30-30 THOMSON AVENUE,Queens,40.745042,-73.93619100000001
BROOKLYN HS OF THE ARTS - BROO,ANSUL SYS/FIRE ALARM/MECHANICAL SYS - VENTILATION,CIP,K655,345 DEAN STREET,Brooklyn,40.683559,-73.98026999999999
P.S. 84 - MANHATTAN,RESO A GREENROOF,CIP,M084,32 WEST 92 STREET,Manhattan,40.789526,-73.967574
P.S. 321 - BROOKLYN,FULL PROGRAM ACCESSIBILITY/FIRE ALARM,CIP,K321,180 7TH AVENUE,Brooklyn,40.67146,-73.977783
P.S. 109 - BROOKLYN,DEFECTIVE GYMNASIUM WALLS/ROOFS/PARAPETS,CIP,K395,1001 EAST 45 STREET,Brooklyn,40.636455,-73.933582
HERBERT H. LEHMAN HS - X,SANDY ELEC/HEAT/FLOOD/CLIM/SINK HOLES/PLUMBING,CIP,X405,3000 EAST TREMONT AVENUE,Bronx,40.840702,-73.838545
P.S. 121 - QUEENS,ROOFS/PARAPETS/WINDOWS/EXTERIOR MASONRY/FENCING/FLOOD ELIMINATION/EXTERIOR DOORS,CIP,Q121,126-10 109 AVENUE,Queens,40.68405,-73.815834
I.S. 24 - STATEN ISLAND,FY18 RESO A SCIENCE LAB UPGRADES,CIP,R024,225 CLEVELAND AVENUE,Staten Island,40.545281,-74.14631999999999
P.S. 131 - QUEENS,ROOFS/EXT MASONRY/PARAPETS/TCU REMOVAL,CIP,Q131,170-45 84TH AVENUE,Queens,40.716617,-73.794637
BROOKLYN GENERATION SCHOOL - K,INSTALL BACKFLOW PREVENTION DEVICES,CIP,K515,6565 FLATLANDS AVENUE,Brooklyn,40.633285,-73.916735
FASHION INDUSTRIES VOC HS - M,EXTERIOR MASONRY/PARAPETS/FLOOD ELIMINATION,CIP,M600,225 WEST 24 STREET,Manhattan,40.745156,-73.996074
P.S. 184 - BROOKLYN,PLAYGROUND SURFACES/PARAPETS/EXTERIOR MASONRY/ROOFS,CIP,K184,273 NEWPORT STREET,Brooklyn,40.659966,-73.904901
I.S. 228 - BROOKLYN,FY18 RESO A GYMNASIUM UPGRADE,CIP,K228,228 AVENUE S,Brooklyn,40.6013,-73.97695300000001
P.S. 25 - BRONX,EXTERIOR MASONRY/PARAPETS/ROOFS/WINDOWS,CIP,X025,811 EAST 149 STREET,Bronx,40.812619,-73.906063
NEW DORP HS - STATEN ISLAND,ATHLETIC FIELDS,CIP,R436,465 NEW DORP LANE,Staten Island,40.569393,-74.107737
I.S. 75 - STATEN ISLAND,CHILLER REPLACEMENT,CIP,R075,455 HUGUENOT AVENUE,Staten Island,40.54438,-74.197897
FASHION INDUSTRIES VOC HS - M,EXTERIOR MASONRY/PARAPETS/FLOOD ELIMINATION,CIP,M600,225 WEST 24 STREET,Manhattan,40.745156,-73.996074
I.S. 24 - STATEN ISLAND,LSP CAFETERIA FLOOR REPLACEMENT,CIP,R024,225 CLEVELAND AVENUE,Staten Island,40.545281,-74.14631999999999
P.S. 58 - BROOKLYN,PLANYC BOILER CONVERSION/PLANYC CLIMATE CONTROL,CIP,K058,330 SMITH STREET,Brooklyn,40.680415,-73.994754
I.S. 265 - BROOKLYN,PLANYC BOILER CNVRSN/PLANYC CLIMATE CTRL,CIP,K265,101 PARK AVENUE,Brooklyn,40.696324,-73.97578
P.S. 11 - BROOKLYN,FLOOD ELIMINATION/ROOFS/PARAPETS/EXTERIOR MASONRY,CIP,K011,419 WAVERLY AVENUE,Brooklyn,40.685491,-73.966291
P.S. /I.S 295 - QUEENS,FY19 RESO A AUDITORIUM UPGRADE,CIP,Q263,222-14 JAMAICA AVENUE,Queens,40.720619,-73.73199699999999
P.S. 125 - MANHATTAN,ROOFS/FLOOD ELIMINATION/EXTERIOR MASONRY/PARAPETS,CIP,M125,425 WEST 123 STREET,Manhattan,40.810431,-73.955809
I.S. 109 - QUEENS,FY15RESO A SCIENCE LAB UPGRADES,CIP,Q109,213-10 92 AVENUE,Queens,40.720713,-73.747001
P.S. 163 - BROOKLYN,LSP- REPLACE DUPLEX SEWAGE EJECTOR PUMPS,CIP,K807,109 BAY 14TH STREET,Brooklyn,40.606792,-74.00806
LONG ISLAND CITY HS - Q,CULINARY ARTS ROOM,CIP,Q452,14-30 BROADWAY,Queens,40.765826,-73.9328
P.S. 121 - BROOKLYN,EXTERIOR MASONRY/PARAPETS/ROOFS,CIP,K121,5301 20TH AVENUE,Brooklyn,40.623273,-73.978822
FLUSHING HS - QUEENS,PARAPETS/EXTERIOR MASONRY/ROOFS,CIP,Q460,35-01 UNION STREET,Queens,40.765166,-73.82789
P.S. 321 - BROOKLYN,FULL PROGRAM ACCESSIBILITY/FIRE ALARM,CIP,K321,180 7TH AVENUE,Brooklyn,40.67146,-73.977783
P.S. 55 - BRONX,MASONRY/WINDOWS/ROOFS/PARAPETS,CIP,X055,450 ST PAULS PLACE,Bronx,40.836404,-73.90501400000001
P.S. 3 - BRONX,HVAC CONTROLS/VENTILATION,CIP,X003,2100 LAFONTAINE AVE,Bronx,40.849897,-73.892289
K140 SPED - BROOKLYN,PUBLIC ADDRESS SYSTEM,CIP,K258,141 MACON STREET,Brooklyn,40.681572,-73.94544599999999
UNIVERSITY NEIGHBORHOOD HS - M,FY18 RESO A SAFETY SYSTEMS,CIP,M446,200 MONROE STREET,Manhattan,40.712399,-73.98449699999999
P.S. 244 - BROOKLYN,FY18 RESO A AUDITORIUM  UPGRADE,CIP,K244,5404 TILDEN AVENUE,Brooklyn,40.648423,-73.92594799999999
P.S. 128 - QUEENS,Addition,CAP,Q247,69-10 65TH DRIVE,Queens,40.715344,-73.886215
"QNS HS OF TEACH., LIB. ARTS&SC",FY18 RESO A SECURITY CAMERAS,CIP,Q566,74-20 COMMONWEALTH BLVD,Queens,40.746088,-73.727535
P.S. 145 - MANHATTAN,PLANYC BOILER CNVSN/PLANYC CLIMATE CTRL,CIP,M145,150 WEST 105 STREET,Manhattan,40.799178000000005,-73.964842
PERFORMING ARTS AND TECH. HS -,FY14 RESO A GYMNASIUM UPGRADE,CIP,K435,400 PENNSYLVANIA AVENUE,Brooklyn,40.667456,-73.894747
J.H.S. 216 - QUEENS,PLANYC BOILER CNVRSN/PLANYC CLIMATE CTRL,CIP,Q216,64-20 175 STREET,Queens,40.737517,-73.794031
HERBERT H. LEHMAN HS - X,FY17 RESO A LIBRARY UPGRADES,CIP,X405,3000 EAST TREMONT AVENUE,Bronx,40.840702,-73.838545
BROOKLYN BRIDGE ACADEMY - K,WINDOWS,CIP,K515,6565 FLATLANDS AVENUE,Brooklyn,40.633285,-73.916735
P.S. 282 - BROOKLYN,LSP VACUUM PUMP,CIP,K282,180 6TH AVENUE,Brooklyn,40.67634,-73.977367
P.S. 158 - BROOKLYN,FLOOD ELIMINATION/PARAPETS/WINDOWS/PAVED AREAS-CONCRETE/EXTERIOR MASONRY/ROOFS,CIP,K158,400 ASHFORD STREET,Brooklyn,40.672579,-73.884803
LIFE SCIENCE SECONDARY SCHOOL,HAZARDOUS - FACADE REPAIR,CIP,M645,320 EAST 96 STREET,Manhattan,40.783625,-73.945637
P.S. 6 - MANHATTAN,FY14 RESO A PLAYGROUND REDEVELOPMENT,CIP,M006,45 EAST 81 STREET,Manhattan,40.777455,-73.960713
Q004 SPED - QUEENS,IPDVS CAMERA INSTALLATION,CIP,Q667,24-30 SKILLMAN AVENUE,Queens,40.742302,-73.945605
P.S. 205 - BROOKLYN,FY19 RESO A AUDITORIUM UPGRADE,CIP,K205,6701 20 AVENUE,Brooklyn,40.61527,-73.987149
P.S. 44 - BROOKLYN,FY13 RESO A SCIENCE LAB UPGRADES,CIP,K044,432 MONROE STREET,Brooklyn,40.686592,-73.940747
EAST FLATBUSH COMMUNITY RESCH,PARAPETS/EXTERIOR MASONRY/ROOFS,CIP,K232,905 WINTHROP STREET,Brooklyn,40.65843,-73.929076
P.S. 102 - BROOKLYN,WATER INFILTRATION/ROOFS/EXT MASONRY,CIP,K102,211 72 STREET,Brooklyn,40.63402,-74.029036
P.S. 303 - QUEENS,Addition,CAP,Q003,108-55 69TH AVENUE,Queens,40.725098,-73.845091
J.H.S. 237 - QUEENS,FY16 RESO A SUPPLEMENTAL COOLING,CIP,Q237,46-21 COLDEN STREET,Queens,40.749545,-73.822073
P.S. 40 - QUEENS,EXTERIOR MASONRY/TCU REMOVAL AND PLAYGROUND REDEVELOPMENT/FLOOD ELIMINATION,CIP,Q040,109-20 UNION HALL STREET,Queens,40.694125,-73.790675
P.S. 129 - MANHATTAN,SCIENCE LAB UPGRADES,CIP,M129,425 WEST 130 STREET,Manhattan,40.814637,-73.951912
P.S. 209 - BRONX,FLOOD ELIMINATION/ROOFS/PARAPETS/EXTERIOR MASONRY,CIP,X209,313 EAST 183 STREET,Bronx,40.856585,-73.897491
J.H.S. 72 - QUEENS,SCIENCE LAB UPGRADES,CIP,Q072,133-25 GUY R BREWER BOULEVARD,Queens,40.673769,-73.775951
GRAMERCY ARTS HS - MANHATTAN,ELECTRICAL SYSTEMS/PA SYSTEM,CIP,M460,40 IRVING PLACE,Manhattan,40.735494,-73.987659
P.S. 89 - BRONX,FLOOD ELIMINATION,CIP,X089,980 MACE AVENUE,Bronx,40.863055,-73.859387
I.S. 259 - BROOKLYN,CRACKED EXTERIOR MASONRY/ROOFS/PARAPETS,CIP,K259,7305 FT HAMILTON PKWY,Brooklyn,40.62668,-74.01512
P.S. 57 - BRONX,FY18 RESO A GYMNASIUM UPGRADE,CIP,X057,2111 CROTONA AVENUE,Bronx,40.848472,-73.888561
MARTIN VAN BUREN HS - QUEENS,LSP- GYM WATER PENETRATION,CIP,Q435,230-17 HILLSIDE AVENUE,Queens,40.733066,-73.73875600000001
P.S. 82 - QUEENS,WATER PENETRATION/ROOFS/PARAPETS,CIP,Q082,88-02 144 STREET,Queens,40.704072,-73.811771
FORT HAMILTON HS - K,MASONRY DEFECTS/ROOFS/FLOOD/PARAPETS,CIP,K490,8301 SHORE ROAD,Brooklyn,40.627835,-74.04004599999999
P.S. 307 - BROOKLYN,RENOVATION OF CLASSROOM 332,CIP,K307,209 YORK STREET,Brooklyn,40.701343,-73.982314
P.S. 150 - BROOKLYN,EXTERIOR MASONRY DEFECTS/FLOOD ELIMINATION/PARAPET,CIP,K150,364 SACKMAN STREET,Brooklyn,40.66896,-73.904726
P.S. 9 - BRONX,PLANYC BOILER CNVSN/PLANYC CLIMATE CTRL,CIP,X009,230 EAST 183 STREET,Bronx,40.857067,-73.89893599999999
P.S. 418 - BROOKLYN,PUBLIC ADDRESS SYS REPLACEMENT/FA SYS REPLACEMENT,CIP,K834,512 CARROLL STREET,Brooklyn,40.676668,-73.985258
P.S. @ 357 TARGEE STREET - STATEN ISLAND,Demo,CAP,R070,357 TARGEE STREET,Staten Is,40.618679,-74.084846
JAMES MADISON HS - BROOKLYN,FY16 RESO A AUDITORIUM UPGRADE,CIP,K425,3787 BEDFORD AVENUE,Brooklyn,40.609912,-73.948512
P.S. 33 - BRONX,PLANYC BOILER CNVSN/PLANYC CLIMATE CTRL,CIP,X033,2424 JEROME AVENUE,Bronx,40.86185,-73.90176
P.S. 173 - MANHATTAN,FLOOD ELIMINATION/PARAPETS/EXTERIOR MASONRY/PAVED AREAS- CONCRETE/ROOFS,CIP,M173,306 FORT WASHINGTON AVE,Manhattan,40.845469,-73.94046800000001
WILLIAM C. BRYANT HS - QUEENS,IP DIGITAL VIDEO SURVEILLANCE SYSTEM,CIP,Q445,48-10 31 AVENUE,Queens,40.75823,-73.910514
HOLCOMBE L. RUCKER SCHOOLOF CO,FY16 RESO A AUDITORIUM UPGRADE,CIP,X039,965 LONGWOOD AVENUE,Bronx,40.817512,-73.898212
I.S. 145 - QUEENS,ELECTRICAL WORK FOR A/C INITIATIVE,CIP,Q145,33-34 80 STREET,Queens,40.754661,-73.887112
P.S. 198 - BROOKLYN,PLAYGROUND REDEVELOPMENT AND TCU,CIP,K198,4105 FARRAGUT ROAD,Brooklyn,40.63694,-73.937339
FIORELLO LAGUARDIA HS - MANHAT,IPDVS CAMERA INSTALLATION,CIP,M485,100 AMSTERDAM AVENUE,Manhattan,40.773629,-73.98527299999999
I.S. 145 - QUEENS,PLANYC BOILER CONVERSION/PLANYC CLIMATE CONTROL,CIP,Q145,33-34 80 STREET,Queens,40.754661,-73.887112
P.S. 167 - BROOKLYN,EXT MASONRY - WATER PENETRATION/PARAPETS/ROOFS,CIP,K167,1025 EASTERN PARKWAY,Brooklyn,40.669001,-73.934635
EL PUENTE ACADEMY - BROOKLYN,MASONRY/WINDOWS/PARAPETS/ROOFS,CIP,K778,250 HOOPER STREET,Brooklyn,40.705898,-73.955611
I.S. 286 - MANHATTAN,WINDOWS/EXTERIOR MASONRY/ROOFS/PARAPETS,CIP,M043,509 WEST 129 STREET,Manhattan,40.815256,-73.955325
P.S. 200 - BROOKLYN,PARAPETS/ROOFS/EXT MASONRY,CIP,K200,1940 BENSON AVENUE,Brooklyn,40.603188,-74.001408
QUEENS COLLEGIATE SCHOOL - QUE,TENNIS COURT SURFACE,CIP,Q470,167-01 GOTHIC DRIVE,Queens,40.713218,-73.797237
P.S. 55 - BRONX,MASONRY/WINDOWS/ROOFS/PARAPETS,CIP,X055,450 ST PAULS PLACE,Bronx,40.836404,-73.90501400000001
URBAN ASSEMBLY SCHOOL FOR THE,LSP VACUUM CONDESATE PUMPS,CIP,M043,509 WEST 129 STREET,Manhattan,40.815256,-73.955325
P.S. 223 - QUEENS,WINDOWS/EXT MASONRY/PARAPETS,CIP,Q223,125-20 SUTPHIN BLVD,Queens,40.674519,-73.789399
P.S. 148 - QUEENS,ROOFS/EXTERIOR MASONRY,CIP,Q148,89-02 32 AVENUE,Queens,40.758377,-73.87908900000001
P.S. 3 - BRONX,DTERIORATED COPING STONES/PAVED AREA CONCRETE/ROOF,CIP,X003,2100 LAFONTAINE AVE,Bronx,40.849897,-73.892289
I.S. 75 - STATEN ISLAND,FY17 RESO A LIBRARY UPGRADES,CIP,R075,455 HUGUENOT AVENUE,Staten Island,40.54438,-74.197897
THE RIVERSIDE SCHOOL FOR MAKER,FY17 RESO A LIBRARY UPGRADE,CIP,M191,210 WEST 61 STREET,Manhattan,40.771925,-73.987328
THE BROOKLYN SCHOOL FOR SOCIAL,FY18 RESO A SCIENCE LAB UPGRADES,CIP,K480,400 IRVING AVENUE,Brooklyn,40.697185,-73.91117
M.S. 282 - QUEENS,LSP VACUUM PUMP REPLACEMENT,CIP,Q465,8-21 BAY 25 STREET,Queens,40.60201,-73.762795
P.S. 137 - BROOKLYN,LSP- HOT WATER HEATER,CIP,K137,121 SARATOGA AVENUE,Brooklyn,40.682458,-73.917088
FRANCIS LEWIS HS - QUEENS,WATER PENETRATION,CIP,Q430,58-20 UTOPIA PKWY,Queens,40.740724,-73.79283000000001
NEW DESIGN HS - MANHATTAN,IPDVS CAMERA INSTALLATION,CIP,M445,350 GRAND STREET,Manhattan,40.716778000000005,-73.989337
P.S. 151 - MANHATTAN,FY16 RESO A ROOFTOP PLAYGROUND,CIP,M066,421 EAST 88 STREET,Manhattan,40.777911,-73.947757
P.S. @ 836-841 5TH AVENUE - BROOKLYN,Demo,CAP,K671,836-841 5TH AVENUE,Brooklyn,40.653319,-74.001791
Q721 SPED - QUEENS,EXTERIOR MASONRY/ROOFS,CIP,Q722,57-12 94TH STREET,Queens,40.736003,-73.867478
P.S. 216 - BROOKLYN,FY15 RESO A SUPPLEMENTAL COOLING,CIP,K216,350 AVENUE X,Brooklyn,40.590564,-73.969964
P.S. 219 - BROOKLYN,WATER INFILTRATION/ROOFS/EXT MASONRY/PARAPETS,CIP,K219,1060 CLARKSON AVENUE,Brooklyn,40.659288,-73.922919
P.S. 19 - STATEN ISLAND,PARAPETS/FLOOD/AREAWAY WINDOWS/EXT MASONRY,CIP,R019,780 POST AVENUE,Staten Island,40.631214,-74.127101
J.H.S. 172 - QUEENS,FY18 RESO A LOCKER ROOM UPGRADE,CIP,Q172,81-14 257 STREET,Queens,40.741944,-73.712965
K753 SPED - BROOKLYN,LOW VOLTAGE ELEC SYSTEM/ANSUL SYSTEM,CIP,K085,510 CLERMONT AVENUE,Brooklyn,40.682533,-73.968769
P.S. 207 - BRONX,ELECTRICAL WORK FOR A/C INITIATIVE,CIP,X819,3030 GODWIN TERRACE,Bronx,40.878322,-73.90655600000001
ACADEMY OF AMERICAN STUDIES - QUEENS,New,CAP,Q575,28-01 41ST AVENUE,Queens,40.751356,-73.937445
A. PHILIP RANDOLPH HS -MANHATT,LSP VACUUM CONDENSATE PUMPS,CIP,M540,443 WEST 135 STREET,Manhattan,40.818188,-73.950356
P.S. 170 - BRONX,MASONRY ISSUE/PARAPETS/ROOFS,CIP,X170,1598 TOWNSEND AVENUE,Bronx,40.844316,-73.913604
HS OF GRAPHIC COMM. ARTS (VOC),PLANYC BOILERS CONVERSION/CLIMATE CONTROL,CIP,M625,439 WEST 49 STREET,Manhattan,40.76337,-73.990593
THOMAS A. EDISON HS - Q,FY17 RESO A ROOM CONVERSIONS/PARTITIONING,CIP,Q620,165-65 84 AVENUE,Queens,40.715389,-73.80036899999999
P.S./I.S. @ 3269 ATLANTIC AVENUE - BROOKLYN,New,CAP,K667,3269 ATLANTIC AVENUE,Brooklyn,40.680655,-73.875152
P.S. 2 - QUEENS,FY15 RESO A ACCESSIBILITY,CIP,Q002,75-10 21 AVENUE,Queens,40.770335,-73.894476
P.S. 213 - BROOKLYN,"LSP VACUUM PUMP SETS, CHEMICAL FEEDER",CIP,K213,580 HEGEMAN AVENUE,Brooklyn,40.66051,-73.890288
ACADEMY OF AMERICAN STUDIES - QUEENS,New,CAP,Q575,40-11 28 STREET,Queens,40.752390000000005,-73.93665
P.S. 42 - QUEENS,FY19 RESO A AUDITORIUM UPGRADE,CIP,Q042,488 BEACH 66 STREET,Queens,40.594538,-73.795304
P.S. 48 - BROOKLYN,FLOOD ELIMINATION/EXTERIOR MASONRY/WINDOWS,CIP,K048,6015 18 AVENUE,Brooklyn,40.621871,-73.98739599999999
P.S. 82 - QUEENS,LSP LL26 CODE COMPLIANCE/EXIT SIGN REPLACEMENT,CIP,Q814,108-43 SUTPHIN BLVD,Queens,40.692182,-73.798509
P.S. 80 - STATEN ISLAND,GAS SERVICE,CIP,R880,715 OCEAN TERRACE,Staten Island,40.608517,-74.102078
P.S. 69 - BROOKLYN,ROOFS/EXTERIOR MASONRY,CIP,K069,6302 9TH AVENUE,Brooklyn,40.632379,-74.00922299999999
P.S. 81 - QUEENS,ELECTRICAL WORK FOR A/C INITIATIVE/LSP LL26 CODE COMPLIANCE/EXIT SIGN REPLACEMENT,CIP,Q848,511 SENECA AVENUE,Queens,40.705315,-73.911909
P.S. 160 - BRONX,FY17 RESO A PLAYGROUND REDEVELOPMENT,CIP,X160,4140 HUTCHINSON RIVER PARKWAY EAST,Bronx,40.864676,-73.824303
BRONX EARLY COLLEGE ACADEMY,SCIENCE LAB UPGRADE,CIP,X166,250 EAST 164 STREET,Bronx,40.828696,-73.917668
I.S. 187 - BROOKLYN,LSP REPLACE VACUUM CONDENSATE PUMP AND STEAM TRAPS,CIP,K486,1171 65 STREET,Brooklyn,40.627784000000005,-74.004485
J.H.S. 157 - QUEENS,FY16 RESO A ROOM CONVERSIONS / PART,CIP,Q157,63-55 102ND STREET,Queens,40.732289,-73.853825
P.S. 44 - BRONX,EXTERIOR MASONRY/PARAPETS/ROOFS,CIP,X044,1825 PROSPECT AVENUE,Bronx,40.842084,-73.891116
P.S. 124 - BROOKLYN,FLOOD/ROOFS/PARAPETS/EXT MASONRY,CIP,K124,515 4TH AVENUE,Brooklyn,40.667545,-73.991046
I.S. 348 - MANHATTAN,FY16 RESO A PLAYGROUND UPGRADE,CIP,M859,512 WEST 182 STREET,Manhattan,40.848925,-73.931028
P.S. 50 - QUEENS,Addition,CAP,Q050,143-26 101 AVENUE,Queens,40.695238,-73.807364
I.S. 210 - QUEENS,IP DIGITAL VIDEO SURVEILLANCE SYSTEM,CIP,Q210,93-11 101 AVENUE,Queens,40.683858,-73.84747
P.S. 47 - QUEENS,FIRE ALARM REPLACEMENT,CIP,Q047,9 POWER ROAD,Queens,40.606353000000006,-73.82044499999999
BROOKLYN GENERATION SCHOOL - K,ATHLETIC FIELD - TRACK,CIP,K516,6565 FLATLANDS AVENUE,Brooklyn,40.633285,-73.916735
HS OF GRAPHIC COMM. ARTS (VOC),EXT MASONRY/ROOFS/PARAPETS,CIP,M625,439 WEST 49 STREET,Manhattan,40.76337,-73.990593
J.H.S. 194 - QUEENS,PLANYC BOILER CONVERSION/PLANYC CLIMATE CONTROL,CIP,Q194,154-60 17 AVENUE,Queens,40.78365,-73.807838
P.S. 242 - MANHATTAN,PLANYC CLIMATE CTRL/PLANYC BOILER CONVERSION,CIP,M144,134 WEST 122 STREET,Manhattan,40.8063,-73.948013
JULIA RICHMAN H.S.,LL 41-16 COMPLIANCE,CIP,M480,317 EAST 67 STREET,Manhattan,40.765359,-73.960059
I.S. 61 - QUEENS,MASONRY/ROOFS/PARAPETS,CIP,Q061,98-50 50 AVENUE,Queens,40.742668,-73.86330699999999
P.S. 214 - BRONX,EXTERIOR MASONRY/ROOFS,CIP,X167,1970 WEST FARMS ROAD,Bronx,40.839565,-73.880358
IT TAKES A VILLAGE ACADEMY - K,ELECTRICAL WORK FOR A/C INITIATIVE/LL26 CODE COMPLIANCE/EXIT SIGN REPLACEMENT,CIP,K415,5800 TILDEN AVENUE,Brooklyn,40.648657,-73.92217099999999
P.S. 11 - QUEENS,Addition,CAP,Q011,54-25 SKILLMAN AVENUE,Queens,40.745244,-73.90872
I.S. 232 - BRONX,OIL VAULT & STAIRWAY/PIPING/TOILETS/FLOOD,CIP,X082,1700 MACOMBS ROAD,Bronx,40.849623,-73.91606999999999
SCHOOL FOR INT'L STUD - K,DAMAGED EXTERIOR MASONRY/PARAPETS/ROOF,CIP,K293,284 BALTIC STREET,Brooklyn,40.685419,-73.993351
P.S. 46 - BRONX,Addition,CAP,X046,279 EAST 196 STREET,Bronx,40.866827,-73.890725
P.S. 14 - BRONX,Addition,CAP,X014,3041 BRUCKNER BLVD,Bronx,40.835779,-73.825735
I.S. 34 - STATEN ISLAND,LSP REPLACE VACUUM CONDENSATE UNIT,CIP,R034,528 ACADEMY AVE,Staten Island,40.508284,-74.24342800000001
I.S. 75 - STATEN ISLAND,CHILLER REPLACEMENT,CIP,R075,455 HUGUENOT AVENUE,Staten Island,40.54438,-74.197897
I.S. 339 - BRONX,RENEWAL SCHOOL BASED HEALTH CENTER,CIP,X147,1600 WEBSTER AVENUE,Bronx,40.840878,-73.904754
P.S. 80 - STATEN ISLAND,GAS SERVICE,CIP,R880,715 OCEAN TERRACE,Staten Island,40.608517,-74.102078
P.S. 254 - QUEENS,ROOF/PARAPETS/EXT MASONRY/PAVED AREA CONCRETE,CIP,Q254,84-40 101ST STREET,Queens,40.697961,-73.84796
PRE-K CENTER @ 104-04 CORONA AVENUE - QUEENS,New,CAP,Q373,104-04 CORONA AVENUE,Queens,40.744001,-73.85840400000001
I.S. 210 - QUEENS,IP DIGITAL VIDEO SURVEILLANCE SYSTEM,CIP,Q210,93-11 101 AVENUE,Queens,40.683858,-73.84747
NEW UTRECHT HS - BROOKLYN,WATER PENETRATION INTO BASEMENT/NATATORIUM RECONST,CIP,K445,1601 80 STREET,Brooklyn,40.613262,-74.003404
WADLEIGH SECONDARY SCHOOL FOR,ENY AUDITORIUM UPGRADE,CIP,M088,215 WEST 114 STREET,Manhattan,40.802207,-73.954142
P.S. 257 - BROOKLYN,FY18 RESO A AUDITORIUM UPGRADE,CIP,K257,60 COOK STREET,Brooklyn,40.702392,-73.941801
P.S. 80 - QUEENS,FY18 RESO A ROOM CONVERSIONS/PARTITIONING,CIP,Q080,171-05 137 AVENUE,Queens,40.67282,-73.76925200000001
