NPRI ID,Facility name,Company name,City,Province,PostalCode
24279,Seal Bitumen Battery 09-25,Obsidian Energy Ltd.,,Alberta,
27769,Alexander 08-01,Spartan Energy Corp.,Calgary,Alberta,T2P 0M5
29913,Mannville Mwb 10-16-052-07w4,Husky Oil Operations Limited,Vermilion River,Alberta,
26397,Nordstrong Equipment,Nordstrong Equipment Limited,Cannington,Ontario,L0E 1E0
28684,Coral Hill Oil Swb 06-21,Crescent Point Energy Corp.,,Alberta,
28325,Seibert Lake Bitumen Battery 01-23-063-09w4,Canadian Natural Resources Limited,,Alberta,
15395,Countess 08-36-020-16w4,Journey Energy Inc.,,Alberta,
18877,Kaybob Compressor Station 07-25-058-18w5,Canadian Natural Resources Limited,,Alberta,
22285,Severn 05-18 Booster,Lynx Energy Ulc,,Alberta,
22141,Surmont Sagd Commercial Battery,Conocophillips Surmont Partnership,Anzac,Alberta,
17877,Ram Compressor,Shell Canada Limited,Caroline,Alberta,T0M0M0
15689,Elmworth Comp Stn 11-07,Cenovus Energy Inc.,,Alberta,
15821,Killam Sweet Gas Plant 04-05-044-09w4,Canadian Natural Resources Limited,,Alberta,
29692,Torc Torquay Oil Battery 1-33-001-12w2,TORC Oil & Gas Ltd.,,Saskatchewan,
27901,South Kaybob 02-20,XTO Energy Canada ULC,Calgary,Alberta,T2P 0M5
30155,Hcft 07-32 Booster,Lynx Energy Ulc,,Alberta,
26188,Tangleflags 02-29-050-24w3,Baytex Energy Ltd,Tangleflags,Saskatchewan,
17209,Gilby Sweet Gas Plant 01-04,Tidewater Midstream and Infrastructure Ltd.,Gilby,Alberta,
16666,Maxhamish Oil Mwb A-018-J,Crescent Point Energy Corp.,,British Columbia,
17437,Cameron Hills,Paramount Resources Ltd.,BC-Pres - Liard/Ne BC,Northwest Territories,
22087,Rigel Oil Battery A-014-A/094-A-15,Canadian Natural Resources Limited,,British Columbia,
30042,Fairborne Hz Pine Ck 16-3-56-19,Bonavista Energy Corporation,Marlboro,Alberta,
17011,Fort Kent Compressor Station 14-10-062-04w4,Husky Oil Operations Limited,Bonnyville,Alberta,T9N2H4
3610,Prince Albert Pulp Inc,Prince Albert Pulp Inc.,Prince Albert,Saskatchewan,S6V5T5
17143,Boundary Lake 08-12-088-15w6,Chinook Energy (2010) Inc.,,British Columbia,
15380,Hatton Senate Compressor Station 16-15-016-28w3,Canadian Natural Resources Limited,,Saskatchewan,
30146,Harvest 14-34-36-02w5 Gas Battery,Harvest Operations Corp.,,Alberta,T4H 5R6
16078,Caribou Comp Stn D-062-C,Canadian Natural Resources Limited,,British Columbia,
22094,Prespatou Comp Stn C-059-B (2),Canadian Natural Resources Limited,Ryan Tulloch,British Columbia,
28451,Princess Multi-Well Oil Battery 13-33,Prairie Provident Resources,Calgary,Alberta,T2P3G4
24321,Colin Swan H Inverness 10-17,Acquisition Oil Corp,Alberta,Alberta,
7779,Haida Forest Products Ltd.,Haida Forest Products Ltd.,Burnaby,British Columbia,V3C2N7
30692,7g 5-01-064-06w6,Seven Generations Energy Ltd.,Kakwa,Alberta,
17701,Martin Creek Sour Gas Plant B-002-E/094-H-06,Chinook Energy (2010) Inc.,,British Columbia,
22907,13-27-31-25-W4m Keivers Lake Twining Gas Battery,Ember Resources Inc.,,Alberta,
24004,Handsworth Oil Mwb 01-32 (Tank),Crescent Point Energy Corp.,,Saskatchewan,
19778,Rozsa Long Coulee 04-09,Sanling Energy Ltd.,,Alberta,T4H 5R6
18408,Babcock Comp Stn D-099-E,Canadian Natural Resources Limited,,British Columbia,T4H 5R6
30925,7g 16-06-063-04w6,Seven Generations Energy Ltd.,Kakwa,Alberta,
15289,Belloy Battery,Paramount Resources Ltd.,Swan Hills,Alberta,
29404,Kingsmere 13-15-048-27w4,Inplay Oil Corp.,Kingsmere,Alberta,
19051,Rigel 13-15-088-18w6,Pengrowth Energy Corporation,,British Columbia,
17983,Josephine Compressor Station 08-21-082-10w6,Canadian Natural Resources Limited,,Alberta,
22579,Alexis 03-36-055-05w5,Guide Exploration Ltd.,,Alberta,
29636,Rapdan Sour Gas Plant 13-01,Crescent Point Energy Corp.,,Saskatchewan,
28951,Fox Creek (Treestone) 14-29-058-19w5,Paramount Resources Ltd.,Fox Creek,Alberta,
28898,Goodfish Compressor Station 13-24-092-10w5,Canadian Natural Resources Limited,,Alberta,
22142,Westpem Comp Stn 05-28,Cenovus Energy Inc.,,Alberta,
672,Zellstoff Celgar Limited Partnership,Zellstoff Celgar Limited Partnership,Castlegar,British Columbia,V1N3H9
6013,Cfb Halifax - Canadian Forces Ammunition Depot Bedford,Department of National Defence (Use This One),Bedford,Nova Scotia,B3K5X5
17837,Big Bend 13-36-66-27w4m Compressor Station,Sabre Energy Ltd.,Flatbush,Alberta,T0G0Z0
15220,Progress Compressor Station 06-35-077-11w6,Canadian Natural Resources Limited,,Alberta,
24154,Discovery Consort Multi-Well Oil Battery 09-16,Prairie Provident Resources,Calgary,Alberta,T2P3G4
16306,Ferrybank Compressor Station 03-31-044-27w4,Canadian Natural Resources Limited,,Alberta,
29891,Edam Single Well Oil Battery 07-24-049-20w3,Husky Oil Operations Limited,Turtle River,Saskatchewan,
15364,Hamilton Lake - 2,Karve Energy Inc.,Castor,Alberta,
30345,Hoffer Oil Swb 15-26-001-16w2,TORC Oil & Gas Ltd.,,Saskatchewan,
16980,Wayne Rosedale Gas Plant 12-04-028-20w4,Husky Oil Operations Limited,Drumheller,Alberta,T0J0Y0
30162,Rockyford 05-17 Booster,Lynx Energy Ulc,,Alberta,
17247,Nal Sturgeon Lake Gas Plant 13-07-069-24-W5,NAL Resources Management,Sturgeon Lake,Alberta,
21442,Pesh Comp Stn A-009-L,Canadian Natural Resources Limited,Ryan Tulloch,British Columbia,
6626,Viking Sweet Gas Plant,PineÂ CliffÂ EnergyÂ Ltd.,,Alberta,
29685,Torc Torquay Oil Battery 02-20-002-11w2,TORC Oil & Gas Ltd.,,Saskatchewan,
30115,Peoc Mannville 11-33-50-9 Proration,Perpetual Energy Inc.,,Alberta,T4H 5R6
22005,Gadsby Sales Compressor 16-18,Ember Resources Inc.,Stettler,Alberta,
21215,Willmar Oil Mwb 08-33 (Tank),Crescent Point Energy Corp.,,Saskatchewan,
3414,Hbms Metallurgical Complex,"Hudson Bay Mining and Smelting Co., Limited",Flin Flon,Manitoba,R8A1N9
24544,Calahoo Haro #3,Sanling Energy Ltd.,,Alberta,T4H 5R6
16328,Bilbo Compressor Station 06-34-065-08w6,Canadian Natural Resources Limited,,Alberta,
639,"Hanson Brick, St Lawrence Plant",Hanson Brick,La Prairie,Quebec,J5R3Y1
8706,Usine Dubuc,Rio Tinto Alcan,Saguenay,Quebec,G7J0E1
17353,Souris Oil Mwb 13-25,Crescent Point Energy Corp.,,Saskatchewan,
28940,Les Planchers Mercier (Drummondville) Inc.,Les Planchers Mercier (Drummondville) Inc.,Drummondville,Quebec,J2C 6L8
26020,Seal Bitumen Battery 13-05,Obsidian Energy Ltd.,,Alberta,
29690,Torc Torquay Oil Battery 03-34-001-11w2,TORC Oil & Gas Ltd.,,Saskatchewan,
30873,3 Pouce Coupe 16-27,Insignia Energy Ltd.,Pouce Coupe,Alberta,
28724,Jedney A-065-I/094-G-01,Petronas Energy Canada Ltd.,Jedney (Montney),British Columbia,
28601,Husky Ansell Gs 02-20-050-18w5,Husky Oil Operations Limited,Yellowhead County,Alberta,T0E1W0
11900,Stittsville Asphalt Plant,R.W. Tomlinson Limited,Ottawa,Ontario,K0A1B0
26403,Fort Hills Oil Sands,Fort Hills Energy Limited Partnership,Fort McMurray,Alberta,T9H 4V9
15907,South Thornbury Compressor Station 09-03-077-13w4,Canadian Natural Resources Limited,,Alberta,
30946,Rife Battle 16-12,Rife Resources Ltd.,Calgary,Saskatchewan,T2P3N4
30909,Centre Hospitalier de l'UniversitÃ© de MontrÃ©al,HÃ´pital Notre-Dame du Chum,MontrÃ©al,Quebec,H2X 0C1
30366,Martenh Bitumen Swb 15-09-076-02w5,Cenovus Energy Inc.,,Alberta,
30200,Alderson Oil Battery 08-22-015-13w4,Torxen Energy Ltd.,,Alberta,
21579,Viewfield Oil Mwb 05-23,Crescent Point Energy Corp.,,Saskatchewan,
26204,Dodsland 5-26,Teine Energy Ltd.,Netherhill,Saskatchewan,
16436,Schuler 13-07,Canlin Energy Corporation,,Alberta,T4H 5R6
22722,Ojay Comp Stn A-011-L,Canadian Natural Resources Limited,,British Columbia,T4H 5R6
29635,Rapdan Oil Swb 16-01,Crescent Point Energy Corp.,,Saskatchewan,
30850,Husky Bt 01-36-047-01w4,Husky Oil Operations Limited,County of Vermilion River,Alberta,
17235,Torc Steelman Unit #3 Oil Battery 06-27-004-06w2,TORC Oil & Gas Ltd.,,Saskatchewan,
26152,Proex Bernadet 3-29-87-24w6,Progress Energy Canada Ltd.,Fort St John,British Columbia,
30588,06-16-080-17w6 (Well Pad),Encana Corporation,,British Columbia,
19469,Redsprings Gas Mwb 04-34,Crescent Point Energy Corp.,,Saskatchewan,
18401,Viewfield Oil Battery 15-28-007-08w2,Canadian Natural Resources Limited,,Saskatchewan,
24377,Lloyd Creek Compressor Station 06-02-045-02w5,Canadian Natural Resources Limited,,Alberta,
18999,Cpc Trochu 16-32 Ggs,PineÂ CliffÂ EnergyÂ Ltd.,,Alberta,
6640,Cactus Lake Facility,Cona Resources Ltd.,Cactus Lake,Saskatchewan,
5013,Carol Project,Iron Ore Company of Canada,Labrador City,Newfoundland and Labrador,A2V2Y6
20203,Green B-025-I/094-G-7,Progress Energy Canada Ltd.,Fort St. John,British Columbia,
15200,Sylvan Lake Sweet Gas Plant 05-01,Tidewater Midstream and Infrastructure Ltd.,,Alberta,
26211,Gundy C-86-J/94-B-9,Petronas Energy Canada Ltd.,Gundy Creek,British Columbia,
30754,Ferrier Gas Swb 01-14,Bellatrix Exploration Ltd.,,Alberta,
21541,Joffre North Sweet Gas Plant 06-17-040-27w4,Vesta Energy Ltd.,,Alberta,
22311,Hythe Comp Stn A-029-H,Encana Corporation,,British Columbia,
7371,Keele Valley Landfill,City of Toronto,Maple,Ontario,L6A1S5
28034,Shaunavon 01-15,Surge Energy Inc.,Calgary,Saskatchewan,T2P 0M5
4330,Fonderie Bibby Ste-Croix,Canada Pipe Co Ltd,Sainte-Croix,Quebec,G0S2H0
19342,Minehead Comp Stn 05-20,ARC Resources,,Alberta,
6303,Usine Abitibi-O (La Sarre) et Bois-JointÃ©,Rayonier A.M. Canada G.P.,La Sarre,Quebec,J9Z2X1
27953,Germain Sagd Plant,Laricina Energy Ltd.,Municipal District of Opportun,Alberta,
26194,Huron 15-34-079-17-W6,Tourmaline Oil Corp,Taylor,British Columbia,V0C2K0
23789,Trilogy Deep Valley 01-15-063-25w5,Paramount Resources Ltd.,,Alberta,
28978,Golden Lake	13-11-048-24w3,Baytex Energy Ltd,Golden Lake,Saskatchewan,
22965,Overlea Compressor Station 11-32-072-03w5,Husky Oil Operations Limited,Overlea,Alberta,
16787,Willesden Green Gas Battery 16-12-042-08w5,Enerplus Corporation,,Alberta,
16799,Joarcam Sweet Gas Plant 06-29,Enerplus Corporation,,Alberta,
15887,Brintnell North Bitumen Battery 07-27-082-21w4,Canadian Natural Resources Limited,,Alberta,
18709,Elmworth Comp Stn 05-09,Sinopec Canada,,Alberta,
23293,Clive Booster 10-08,Ember Resources Inc.,Stettler,Alberta,
29849,7gen Pad 19 14-19-064-05w6,Seven Generations Energy Ltd.,Kakwa,Alberta,
15634,Minnehik-Buck Lake Comp Stn 02-27,Cenovus Energy Inc.,,Alberta,
29738,Lloyd 13-36-48-6w4 Mw Pad,Devon Canada Corporation,,Alberta,T4H 5R6
10492,Closed Die Plant,Canada Forgings Inc.,Welland,Ontario,
169,Bunge Canada - Wainwright Plant,Bunge Canada Holdings I ULC,Wainwright,Alberta,T9W1S8
4846,Truro Plant,Stanfields Limited,Truro,Nova Scotia,B2N5C2
22189,Red Rock Comp Stn 10-33,Cenovus Energy Inc.,,Alberta,
16234,Stanmore Sweet Gas Plant 07-09-030-11w4,Canadian Natural Resources Limited,,Alberta,
29777,Westbrick 01-34,Westbrick Energy Ltd.,Clearwater County,Alberta,
15609,Bilbo Compressor Station 06-08-065-09w6,Canadian Natural Resources Limited,,Alberta,
1788,Moore Site,Nova Chemicals (Canada) Ltd.,Mooretown,Ontario,N0N1M0
17116,Everdell Gas Plant 14-20,Whitecap Resources Inc.,,Alberta,T4H 5R6
15431,Youngstown Oil Battery 06-25,ARC Resources,,Alberta,
28010,Msn 16-23 Pad 16-23-084-15w5,Baytex Energy Ltd,Seal Lake Field,Alberta,
22887,Hythe Comp Stn A-005-G,Encana Corporation,,British Columbia,
23481,Karr Comp Stn 16-21,Sinopec Canada,,Alberta,
2230,Suncor Energy Inc. Oil Sands,Suncor Energy Oil Sands Limited Partnership,Fort McMurray,Alberta,T9H3E3
19475,Edson 16-10,Perpetual Energy Inc.,,Alberta,T4H 5R6
29630,Judy Creek Gas Plant 08-24,Crescent Point Energy Corp.,,Alberta,
806,Morrisburg Plant,Evonik Oil Additives Canada Inc.,Morrisburg,Ontario,K0C1X0
5564,Hydro Technologies (Canada) Inc.,Hydro Technologies (Canada) Inc.,QuÃ©bec,Quebec,G1P 3S2
29396,Penny 16-35-006-22 W4m,Tamarack Acquisition Corp.,Lethbridge,Alberta,
30687,NW Wapiti 12-26,Semcams ULC,Woodlands County,Alberta,
23762,Placid Comp Station 11-15,Repsol Oil & Gas Canada Inc.,,Alberta,
7341,Metasheen,BASF Metasheen,Smiths Falls,Ontario,K7A5C7
16502,Hussar Crowfoot Compressor Station 06-05,Lynx Energy Ulc,,Alberta,
29674,Odi Steelman Oil Battery 08-15-004-06w2,TORC Oil & Gas Ltd.,,Saskatchewan,
19600,Bantry Compressor Station 02-23-019-14w4,Canadian Natural Resources Limited,,Alberta,
16883,Cessford Compressor Station 04-14-024-14w4,Canadian Natural Resources Limited,,Alberta,
30019,102/14-33-066-08w6/0 (03-05) Swb,Whitecap Resources Inc.,,Alberta,T4H 5R6
15216,Enchant Oil Battery 05-27-014-16w4,Canadian Natural Resources Limited,,Alberta,
5012,Goldboro Gas Plant,ExxonMobil Canada Properties,Goldboro,Nova Scotia,B0H1L0
28904,Karr Creek Oil Battery 15-36-065-04w6,Canadian Natural Resources Limited,,Alberta,
10058,Thorold Asphalt,Rankin Construction Inc.,Thorold,Ontario,L2V 3Y5
30988,Ferrier 07-13 Compressor,Vermilion Energy Inc.,Township 043,Alberta,
17752,Reno 10-22-079-20w5,Baytex Energy Ltd,Reno,Alberta,
28843,Narraway Gas Battery 02-24-062-11w6,Canadian Natural Resources Limited,,Alberta,
28895,Calling Lake Gas Battery 12-14-073-22w4,Canadian Natural Resources Limited,,Alberta,
29842,Reno 16-31-079-20w5,Baytex Energy Ltd,Reno,Alberta,
30014,100/16-07-067-08w6/0 (16-06) Swb,Whitecap Resources Inc.,,Alberta,T4H 5R6
29556,Pinto 11-15,Tourmaline Oil Corp,Calgary,Alberta,
29740,Discovery Provost 07-30 Multi-Well Oil Battery,Prairie Provident Resources,,Alberta,
30418,Pouce Coupe Oil Mwb 13-06-078-11w6,Kelt Exploration,,Alberta,
18644,Goodfare Comp Station 06-21,Cenovus Energy Inc.,,Alberta,
23453,Forget Oil Mwb 09-32,Crescent Point Energy Corp.,,Saskatchewan,
18567,High Prairie,Tervita Corp.,High Prairie,Alberta,
29267,Nixon Compressor Station 10-34-070-16w4,Canadian Natural Resources Limited,,Alberta,
1753,Minnehik Buck Lake Gas Plant,Keyera Corp.,Buck Lake,Alberta,
27466,Craigmyle East Compressor Station 13-28,Lone Pine Resources Canada Ltd.,Craigmyle,Alberta,T0J 0T0
5211,Coleman Sour Gas Plant,Devon Canada Corporation,,Alberta,
21548,Tucker Thermal,Husky Oil Operations Limited,Bonneville,Alberta,T9N2G7
2740,Evraz Inc Na Canada - Regina Facilities,Evraz Inc Na Canada,Regina,Saskatchewan,S4P3C7
21383,7-19-66-26w4,Sabre Energy Ltd.,Flatbush,Alberta,T0G0Z0
21682,Asphalt Plant,Park Paving Ltd.,Edmonton,Alberta,T6E0A4
4039,Mansonville,Nexkemia PÃ©trochimie Inc.,Mansonville,Quebec,J0E1X0
29340,Skwi042600520w3,Crescent Point Energy Corp.,,Saskatchewan,
30416,Gf 13-16 Booster,Kelt Exploration,,British Columbia,
30629,Lre - Amelia 05-04,Guide Exploration Ltd.,,Alberta,
15714,Noel Sweet Gas Plant,Cenovus Energy Inc.,,British Columbia,
27463,Willesden Green Compressor Station 10-15,Obsidian Energy Ltd.,,Alberta,
23502,Iron River 08-31-063-07w4 Pad,Devon Canada Corporation,Iron River Op,Alberta,
29299,Leitchville Oil Swb 13-24,Crescent Point Energy Corp.,,Saskatchewan,
4317,Brookfield Cement Plant,Lafarge Canada Inc.,Brookfield,Nova Scotia,B0N1C0
15343,14-22-037-19w4 Gadsby,Ember Resources Inc.,Stettler,Alberta,
24106,Cypress Thorsby 7-14-49-1w5,Petrus Resources Ltd.,,Alberta,T4H 5R6
22130,Wapiti Comp Stn 03-33,Cenovus Energy Inc.,,Alberta,
18800,Elleh Sweet Gas Plant,Shanghai Energy Corporation,,British Columbia,
19057,Teine Fusilier 9-2,Teine Energy Ltd.,Fusilier,Saskatchewan,
28981,Tangent	08-20-080-21w5,Baytex Energy Ltd,Tangent,Alberta,
18619,Garrington Gas Battery 11-31,Cenovus Energy Inc.,,Alberta,
16302,Leismer 03-07,Devon Canada Corporation,Leismer,Alberta,
24584,Gulf Meekwap Oil Battery 15-18,Penn West Petroleum Ltd.,,Alberta,
15371,14-34-040-22w4 Nevis,Ember Resources Inc.,Mirror,Alberta,
21806,Twining Battery 09-33,Lynx Energy Ulc,Twining,Alberta,
16483,Tooga Gas Plant B-031-I,Canadian Natural Resources Limited,,British Columbia,
30861,Mannville Swb 10-29-052-07w4,Husky Oil Operations Limited,County of Vermillion River,Alberta,
18836,Torrington Comp Stn 08-31,Ember Resources Inc.,,Alberta,
16364,Ferrier Oil Battery 10-36-038-08w5 (Tank),Canadian Natural Resources Limited,,Alberta,
2674,Chemtrade - Prince George Acid,Chemtrade Logistics Inc.,Prince George,British Columbia,V2N5S6
30171,Pengrowth Draig Hanna,Alphabow Energy Ltd.,,Alberta,T4H 5R6
23964,Peco Gas Battery 14-07,Cenovus Energy Inc.,,Alberta,
22960,Petro Canada Stolberg 8-31,Canlin Energy Corporation,,Alberta,T4H 5R6
15792,Ansell Sweet Gas Plant 01-24-052-20w5,Canadian Natural Resources Limited,,Alberta,
27126,Waskada Sour Gas Plant 16-21,EOG Resources Canada Inc.,,Manitoba,
23324,Fbank Ggs 09-01-043-01w5,Bonavista Energy Corporation,Mornside,Alberta,
22826,Tatagwa Oil Mwb 12-30,Crescent Point Energy Corp.,,Saskatchewan,
29363,Compass 16-16,Whitecap Resources Inc.,,Saskatchewan,
821,Brandon Generating Station,Manitoba Hydro,Brandon,Manitoba,R7A7J8
16768,Wainwright 4-24-48-09w4,Cardinal Energy Ltd.,Mannville,Alberta,T2P3H5
30404,Eastend Oil Swb 14-34,Crescent Point Energy Corp.,,Saskatchewan,
30437,Ferrier 02-06 Gathering System,Canlin Energy Corporation,,Alberta,T4H 5R6
16704,Aec Panny River,Perpetual Energy Inc.,,Alberta,T4H 5R6
28788,Conoco Basing,Canlin Energy Corporation,,Alberta,T4H 5R6
29944,Simonette Wanyandie 4-27,Cequence Energy Ltd.,Grande Prairie,Alberta,
28630,Elmworth 10-01-069-13 W6m,Modern Resources Inc.,Elmworth,Alberta,
22000,Oak Waterflood,Quattro Exploration & Production Ltd.,Fort St. John,British Columbia,
28784,Torc Kaybob Oil Battery 05-08-060-20w5,TORC Oil & Gas Ltd.,,Alberta,
19838,Rat Creek Compressor Station 06-19,Obsidian Energy Ltd.,,Alberta,
15170,Holden Gas Battery 09-19,Tidewater Midstream and Infrastructure Ltd.,,Alberta,
16384,Horse Sweet Gas Plant 14-23-058-26w5,Canadian Natural Resources Limited,,Alberta,
18180,Alexis Oil Battery,Harvest Operations Corp.,,Alberta,T4H 5R6
17268,Rainbow Oil Battery 13-06,NuVista Energy Ltd.,,Alberta,
30263,Cliffdale Bitumen Battery 10-35-084-17w5,Canadian Natural Resources Limited,,Alberta,
19604,Strath Provost Multi-Well Oil Battery 11-27,Prairie Provident Resources,Calgary,Alberta,T2P3G4
20215,Noel Node 3 A-19,Apache Canada Ltd.,,British Columbia,
19339,Weir Hill 13-30-005-05 W1m,Spartan Energy Corp.,Weir Hill,Saskatchewan,
23872,Sunrise Comp Station 01-34,Encana Corporation,,British Columbia,
16833,Kingsford Oil Battery 10-22,Enerplus Corporation,,Saskatchewan,
17925,Pembina Lobstick 15-08,Signalta Resources Ltd.,Drayton Valley,Alberta,
19028,Winter Vapex 16-21,Northern Blizzard Resources Inc.,Winter,Saskatchewan,
28009,Peoc Mannville 9-35-50-9,Perpetual Energy Inc.,,Alberta,T4H 5R6
18101,Dollard Oil Mwb 02-22,Crescent Point Energy Corp.,,Saskatchewan,
22557,Slave Lake Sour Gas Plant 09-15,Tidewater Midstream and Infrastructure Ltd.,,Alberta,
29521,Kidney 8-24-90-6w5,Coastal Resources Ltd.,Peerless Lake,Alberta,T0G 2W0
29430,12-10-046-23w3,Baytex Energy Ltd,,Saskatchewan,
30413,Wapella Oil Mwb 01-04 (Tank),Crescent Point Energy Corp.,,Saskatchewan,
7041,Bruce Power,Bruce Power LP,Tiverton,Ontario,N0G2T0
15378,Horsham Compressor Station 04-36-016-29w3,Canadian Natural Resources Limited,,Saskatchewan,
18097,Tristar Freestone 4-18-9-6w2 Mwb,Ridgeback Resources Inc.,,Saskatchewan,T4H 5R6
30630,Lre - Bashaw Gas Plant 12-32,Guide Exploration Ltd.,,Alberta,
27377,Lts Morrisview Mwob 16-8-7-7-W2,Ridgeback Resources Inc.,,Saskatchewan,T4H 5R6
22293,Severn 08-05 Booster,Lynx Energy Ulc,,Alberta,
18241,Diavik Diamond Mines Inc - Lac de Gras,Diavik Diamond Mines Inc.,Yellowknife,Northwest Territories,X1A2P8
3140,Usine de la Tuque,Compagnie Rocktenn Canada Inc.,La Tuque,Quebec,G9X3P8
30041,15-03 Kimberley-Leedale Ggs,Bonavista Energy Corporation,Wilsoncr,Alberta,
24265,Dalmer,Karve Energy Inc.,Consort,Alberta,
26251,Town B-70-C/94-G-1,Petronas Energy Canada Ltd.,Town North,British Columbia,
10383,Kasabonika Diesel Generating Station,Hydro One Remote Communities Inc.,Kasabonika Lake,Ontario,P0V1Y0
23272,Morinville 2-20-55-25 W4m,Zargon Oil and Gas Ltd.,Sturgeon County,Alberta,
23827,Turner Valley Battery 6-16,Canlin Energy Corporation,,Alberta,T4H 5R6
30669,Marquee Multi-Well Oil Battery 15-24,Lone Pine Resources Canada Ltd.,Drumheller,Alberta,T0J0Y0
29494,Kaybob 1-31-062-20w5,Chevron Canada Resources,Fox Creek,Alberta,
6306,Les Industries Flexipak Inc.,Les Industries Flexipak Inc.,Montreal,Quebec,H4R2B2
28920,Sifton Modeste Oil Battery 16-18,ARC Resources,,Alberta,
15596,Marten Hills Sour Gas Plant 12-18-076-25w4,Canadian Natural Resources Limited,,Alberta,
24512,Rrx Whiteside 05-13,Baytex Energy Ltd,,Saskatchewan,
30859,Mannville Mwb 11-32-052-07w4,Husky Oil Operations Limited,County of Two Hills,Alberta,
24564,Seal Bitumen Battery 04-32,Obsidian Energy Ltd.,,Alberta,
6098,Elmsdale Asphalt Plant,Martells Contracting Ltd.,Elmsdale,Nova Scotia,B2S2B1
16301,Eaglesham Sweet Gas Plant 02-14-077-25w5,Canadian Natural Resources Limited,,Alberta,
6629,Senlac Thermal Oil Battery,Canadian Natural Resources Limited,Unity,Saskatchewan,
28186,Alameda Oil Mwb 11-28,Crescent Point Energy Corp.,,Saskatchewan,
22495,Tourmaline Chin/09-29 Ggs,Tourmaline Oil Corp,Calgary,Alberta,
22814,9-14 North Buffalo Compressor Station,Ember Resources Inc.,Panoka,Alberta,
15250,Knopcik Oil Battery 16-13-073-10w6,Canadian Natural Resources Limited,,Alberta,
22878,Dawson Creek Comp Stn 09-15,Encana Corporation,,British Columbia,
16880,Gleichen Compressor Station 04-01,Lynx Energy Ulc,,Alberta,
2986,Arcelormittal Contrecoeur Ouest,ArcelorMittal MontrÃ©al Inc.,Contrecoeur,Quebec,J0L1C0
23602,Tommy Lakes (Trutch) A-45-I/94-G-10,NAL Energy Ltd.,Tommy Lakes,British Columbia,
27700,Ferguson Oil Bty 1-21-3-17w4,Deethree Exploration Ltd.,Milk River,Alberta,
22112,Pembina Comp Stn 01-17,Cenovus Energy Inc.,,Alberta,
26535,Swan Hills Oil Mwb 14-09,Crescent Point Energy Corp.,,Alberta,
1372,Rimbey Gas Plant,Keyera Corp.,Rimbey,Alberta,
26454,Velvet Comp Stn 16-23-054-17w5,Velvet Energy Ltd.,,Alberta,
17897,Long Coulee 08-04-016-22 W4m,Surge Energy Inc.,Champion,Alberta,
24381,Botha Sour Gas Plant 07-16-098-05w6,Canadian Natural Resources Limited,,Alberta,
5214,Corman Park Plant,Cleartech Industries Inc.,Saskatoon,Saskatchewan,S7L5Z3
15229,Knopcik Sweet Gas Plant 09-10-074-11w6,Canadian Natural Resources Limited,,Alberta,
30025,Whiteside 03-35-030-25w3 Mwb,Whitecap Resources Inc.,,Saskatchewan,
18462,Grizzly North Comp Stn A-074-G,Canadian Natural Resources Limited,,British Columbia,
25186,Metiskow Battery,Apache Canada Ltd.,,Alberta,
23084,Canetic Hastings 2-27,Spartan Energy Corp.,,Saskatchewan,
29631,Pinto Oil Swb 16-31,Crescent Point Energy Corp.,,Saskatchewan,
27912,Weir R Wales Canada Inc,Weir Canada Inc.,Richmond,British Columbia,V6V 1J7
24530,Frys Oil Mwb 15-28,Crescent Point Energy Corp.,,Saskatchewan,
28796,Gardenhead Oil Mwb 01-28,Crescent Point Energy Corp.,,Saskatchewan,
21334,Pedigree Compressor Station 06-12-100-12w6,Canadian Natural Resources Limited,,Alberta,
27451,Seal Bitumen Battery 02-34,Obsidian Energy Ltd.,,Alberta,
29688,Torc Torquay Oil Battery 03-19-002-10w2,TORC Oil & Gas Ltd.,,Saskatchewan,
8732,Usine #02-1 Sept-Iles (Lac Daigle),Inter-CitÃ© Construction LtÃ©e.,Sept-Ãles,Quebec,
27478,Mountain Park Gs 10-12,Canlin Energy Corporation,,Alberta,T4H 5R6
26054,Lre - Westfire Redwater 07-21,Guide Exploration Ltd.,,Alberta,T4H 5R6
27372,Brazeau 14-30-45-11w5 Mwob,Ridgeback Resources Inc.,,Alberta,T4H 5R6
3163,Darlington Nuclear,Ontario Power Generation Inc.,Bowmanville,Ontario,L1C3Z8
3353,Mccain Foods (Canada) Grand Falls,"McCain Foods Canada, a Division of McCain Foods Limited",Grand Falls,New Brunswick,E3Y 4A5
15407,Brooks Compressor Station 08-18-018-14w4,Canadian Natural Resources Limited,,Alberta,
3916,Ccr Refinery,Glencore Canada Corporation,MontrÃ©al-Est,Quebec,H1B5H6
17484,Pembalta #7 Sour Gas Plant 04-34,Obsidian Energy Ltd.,,Alberta,
22582,Wolverine Battery C-052-A/093-P-03,Canlin Energy Corporation,Fsj - Wolverine,British Columbia,
30361,Torc Hastings Oil Battery 09-08-004-33w1,TORC Oil & Gas Ltd.,,Saskatchewan,
3893,Oshawa Car Assembly Plant,General Motors of Canada Limited,Oshawa,Ontario,L1J1N3
3470,Waterville Plant,Michelin North America (Canada),Waterville,Nova Scotia,B0P1V0
27992,Iron River 08-27-64-7w4 Pad,Devon Canada Corporation,Iron River Op,Alberta,
18636,Gilby Comp Station 11-12,Cenovus Energy Inc.,,Alberta,
16268,West Paddle River Comp Stn 11-10,Cenovus Energy Inc.,,Alberta,
21284,Connorsville Compressor Station 10-32-025-15w4,Canadian Natural Resources Limited,,Alberta,
16224,Enchant Compressor Station 11-09-024-11w4,Canadian Natural Resources Limited,,Alberta,
27825,Hi-Pro Feeds Ste. Anne,Hi-Pro Feeds,Ste. Anne,Manitoba,R5H 1R1
22110,Kakwa Comp Stn 01-06,Husky Oil Operations Limited,,Alberta,
24122,Prairie Creek Comp. Stn. 02-21,Crescent Point Energy Corp.,,Alberta,
6505,Whitecourt Solid Wood Division,Millar Western Forest Products Ltd.,Whitecourt,Alberta,T5N2J6
4157,Steelman Gas Plant,Steel Reef Infrastructure Corp.,Estevan,Saskatchewan,S4A2A6
21388,Obed 01-21,Tourmaline Oil Corp,Obed,Alberta,A9A9A9
16931,Rycroft 15-11 Cs,Winslow Resources Inc,Spirit River,Alberta,
28991,14-05-56-27 W3m,BlackPearl Resources Inc.,Onion Lake,Saskatchewan,S0M2E0
21341,Kahntah Comp Stn C-044-G,Canadian Natural Resources Limited,,British Columbia,
8030,Cape Breton University,Cape Breton University,Sydney,Nova Scotia,B1P6L2
30214,Alderson East Oil Battery 14-27-015-13w4,Torxen Energy Ltd.,,Alberta,
17054,Dodsland 13-11-32-20-3,NAL Resources Management,Dodsland,Saskatchewan,
28488,Harmon Valley 09-18-084-18w5,Baytex Energy Ltd,Harmon Valley,Alberta,
29061,Ppy West Blair D-086-E/094-B-16,Painted Pony Petroleum Ltd.,West Blair,British Columbia,
24562,Seal Bitumen Battery 04-29,Obsidian Energy Ltd.,,Alberta,
28853,Hatton Senate Compressor Station 04-28-014-29w3,Canadian Natural Resources Limited,,Saskatchewan,
15871,Endiang Sweet Gas Plant 06-28-034-15w4,Canadian Natural Resources Limited,,Alberta,
23439,Hastings Oil Battery 08-36,Crescent Point Resources Partnership,,Saskatchewan,
2377,Neucel Specialty Cellulose (Sfo),Neucel Specialty Cellulose,Port Alice,British Columbia,V0N2N0
29936,Rife Lashburn West Multiwell 13-04,Rife Resources Ltd.,Calgary,Saskatchewan,T2P 3N4
16023,Grand Forks Oil Battery 15-15-012-13w4,Canadian Natural Resources Limited,,Alberta,
16406,West Eagle Comp Stn 02-01,Canadian Natural Resources Limited,Mel Vollman,British Columbia,
5946,Woodstock Plant,Federal White Cement Ltd.,Woodstock,Ontario,N0J1J0
16121,Obed Battery,Semcams ULC,Edson,Alberta,
18067,Leedale Compressor Station 9-21-43-4w5m,OMERS Energy Inc.,Calgary,Alberta,T2P0R3
3899,Mississauga Lubricants Centre,Petro-Canada Lubricants Inc.,Mississauga,Ontario,L5J 2Y3
28871,Galloway Gas Battery 08-05-053-21w5,Canadian Natural Resources Limited,,Alberta,
27972,Oak 11-11-086-18,Pengrowth Energy Corporation,,British Columbia,
54,Brunswick Mine,Glencore Canada Corporation,Bathurst,New Brunswick,E8G2M1
15203,Pouce Coupe Sour Gas Plant 03-03,AltaGas Ltd.,,Alberta,
29856,Teine Dodsland 5-22,Teine Energy Ltd.,Dodsland,Saskatchewan,
11766,15600 Robin's Hill Road,La Cie McCormick Canada,London,Ontario,N5V0A4
31011,Glen Ewen (15-34) 12-2-3-1,Vermilion Energy Inc.,Township 002,Saskatchewan,
30023,Whitecap Boundarylake 05-17-084-13 002,Whitecap Resources Inc.,,British Columbia,
22296,Redland Compressor Station 08-33,Lynx Energy Ulc,,Alberta,
28209,Clintonville Oil Mwb 16-17,Crescent Point Energy Corp.,,Saskatchewan,
24427,Resthaven Gas Battery 02-16,Cenovus Energy Inc.,,Alberta,
30009,Soloman 08-28 Gas Battery,Petrus Resources Ltd.,,Alberta,T4H 5R6
7673,Kingsville Plant,Peterson Spring,Kingsville,Ontario,N9Y2J9
8714,Usine de Fabrication d'Asphalte,Les Entreprises P.E.B. LtÃ©e.,QuÃ©bec,Quebec,G3G0A1
29932,Pinto 14-18-001-04 W2m,Spartan Energy Corp.,Pinto,Saskatchewan,
280,Western Canada Operations,Dow Chemical Canada ULC,Fort Saskatchewan,Alberta,T8L2P4
29680,Torc Hoffer Oil Battery 14-25-001-16w2,TORC Oil & Gas Ltd.,,Saskatchewan,
19562,Hythe Gas Battery 15-31,Encana Corporation,,Alberta,
5126,Roxul - Grand Forks,Roxul Inc.,Grand Forks,British Columbia,V0H1H0
21110,Ardmore Compressor Station 03-01-063-03w4,Canadian Natural Resources Limited,,Alberta,
19733,Kobes B-24-A Comp Stn,Pacific Canbriam Energy Limited,,British Columbia,
18956,Rivercourse Cs 09-08-047-01w4,Husky Oil Operations Limited,Vermilion River,Alberta,
8037,Stilesville Asphalt Plant,Modern Construction (1983),Moncton,New Brunswick,E1G3E5
27512,Wapiti Comp Stn 15-09,Sinopec Canada,,Alberta,
28642,Plover Lake Facility,Cona Resources Ltd.,Plover Lake,Saskatchewan,
24086,Freda Lake Oil Battery 08-31,Enerplus Corporation,,Saskatchewan,
28314,Nevis Compressor Station 14-29-038-22w4,Canadian Natural Resources Limited,,Alberta,
29243,Msn 09-16-084-18w5 Pad,Baytex Energy Ltd,Seal Lake Field,Alberta,
18854,Bigstone Comp Station 16-13,Enerplus Corporation,,Alberta,
23316,Conroy D-48-C/94-H-12,Polar Star Canadian Oil and Gas Inc.,Calgary,British Columbia,T2P 3J4
23165,Crystal Hill Oil Battery 03-19,Crescent Point Energy Corp.,,Saskatchewan,
6622,Alder Flats Sweet Gas Plant,Cenovus Energy Inc.,,Alberta,
21715,Petro Canada Hanlan Robb 10-17,Canlin Energy Corporation,,Alberta,T4H 5R6
17995,Bellis Compressor Station 09-13-060-15w4,Canadian Natural Resources Limited,,Alberta,
24520,Nottingham Oil Battery 09-02,Legacy Oil + Gas Inc.,,Saskatchewan,
27701,Dowagroblenheim,Dow Agrosciences Canada Inc,Blenheim,Ontario,N0P1A0
11749,Ottawa Laboratory (Fallowfield),Canadian Food Inspection Agency,Ottawa,Ontario,K2H8P9
23276,Torc MacOun Oil Battery 06-24-004-09w2,TORC Oil & Gas Ltd.,,Saskatchewan,
31000,Xto 06-23 (06-35),XTO Energy Canada ULC,,Alberta,
28965,Harmon Valley	16-14-084-18w5,Baytex Energy Ltd,Harmon Valley,Alberta,
29863,Teine Kerrobert Bty 8-14,Teine Energy Ltd.,Coleville,Saskatchewan,
23471,Septimus Sweet Gas Plant 12-27,Crew Energy Inc.,,British Columbia,
28109,Lightning Oil Mwb 13-24,Crescent Point Energy Corp.,,Saskatchewan,
17699,Taqa North Chinchagariver C-032-H/094-H-08,Taqa North Ltd.,Chinchaga,British Columbia,
29168,Munson 01-33-029-20w4 Cbm Bty,Taqa North Ltd.,West Drumheller,Alberta,
8603,SociÃ©tÃ© de CogÃ©nÃ©ration de St-FÃ©licien,SociÃ©tÃ© de CogÃ©nÃ©ration de St-FÃ©licien,St-FÃ©licien,Quebec,G8K2P8
21802,Penhold Central Battery 15-29,Lynx Energy Ulc,Penhold C,Alberta,
3541,Picton Plant,Lehigh Hanson Materials Limited,Picton,Ontario,K0K2T0
5095,Mcadam Wallboard Plant,"Certainteed Gypsum Canada, Inc.",Mcadam,New Brunswick,E6J1B1
29182,Lre - Czar Drumheller 16-09,Guide Exploration Ltd.,,Alberta,T4H 5R6
16834,Weyburn Oil Battery 01-22,Enerplus Corporation,,Saskatchewan,
28663,Panther 10-13 Battery,Canlin Energy Corporation,,Alberta,T4H 5R6
4306,Pine River Gas Plant,Spectra Energy Transmission,Peace River District,British Columbia,V0C 1J0
22731,Mast Comp Stn D-060-A,Canadian Natural Resources Limited,,British Columbia,
16469,Terra Wilder 10-34-082-20w6,Crew Energy Inc.,Fort St. John,British Columbia,V1J4H7
250,Gibbons Site,Evonik Degussa Canada Inc.,Gibbons,Alberta,T0A1N0
16958,Flinton/Moose Valley 03-17-011-06w2,Spartan Energy Corp.,Flinton/Moose Valley,Saskatchewan,
8721,Lebel VallÃ©e des Lacs,Groupe Lebel 2004 Inc.,Squatec,Quebec,G0L 4H0
16859,Carbon Sweet Gas Plant 08-34,Lynx Energy Ulc,,Alberta,
23950,Berland River West Comp Station 01-21,Cenovus Energy Inc.,,Alberta,
2227,Simonette Gas Plant,Keyera Corp.,Simonette,Alberta,
6045,Minas Basin Pulp and Power Company Limited,Minas Basin Pulp and Power Company Limited,Hantsport,Nova Scotia,B0P1P0
21746,8-11 Gas Injection Facility,Canlin Energy Corporation,,Alberta,T4H 5R6
4101,Irving Oil Refinery,Irving Oil Refining G.P.,Saint John,New Brunswick,E2L 4H6
23281,Glacier Sour Gas Plant 05-02,Advantage Oil & Gas Ltd.,,Alberta,
6517,Norbord High Level,Ainsworth Engineered Canada Lp,High Level,Alberta,T0H1Z0
26145,Dawson Gas Plant,Spectra Energy Transmission,Bessborough,British Columbia,V1G 4E7
30688,Meota West 06-24-046-18w3m,Serafina Energy Ltd.,Meota,Saskatchewan,
16494,Hcft 16-34 Booster,Lynx Energy Ulc,,Alberta,
29814,Sturgeon Refinery,North West Redwater Partnership,Gibbons,Alberta,
1033,Battle River Generating Station,Alberta Power (2000) Ltd.,Forestburg,Alberta,T2P 3E5
29940,Rife Soda Lake 16-17,Rife Resources Ltd.,Calgary,Saskatchewan,T2P 3N4
18580,North East Station 7-15,City of Medicine Hat,Medicine Hat,Alberta,T1A7H3
4449,Plant #34 Montreal,O-I Canada Corp.,Montreal,Quebec,H3K1X6
21181,Queensdale 6-27 Bty,Vermilion Energy Inc.,Township 006,Saskatchewan,
28253,East Coulee Compressor Station 04-01-028-18w4,Canadian Natural Resources Limited,,Alberta,
16412,Stoddart Comp Stn 14-34,Canadian Natural Resources Limited,Mel Vollman,British Columbia,
5526,Tafisa Canada,Tafisa Canada Inc.,Lac-MÃ©gantic,Quebec,G6B2C3
3824,"Gerdau Ameristeel Corporation, Whitby Mill",Gerdau Ameristeel Corporation,Whitby,Ontario,L1N5T1
29121,Sunrise 15-02,Tourmaline Oil Corp,Taylor,British Columbia,
15798,East Watts Sweet Gas Plant 02-04-031-15w4,Canadian Natural Resources Limited,,Alberta,
7719,Sikanni Gas Plant,Spectra Energy Transmission,Peace River District,British Columbia,V0C2K0
19313,Countess 10-09-020-16w4,Journey Energy Inc.,,Alberta,
30395,Joffre South Oil Mwb 10-36-039-28w4,Vesta Energy Ltd.,,Alberta,
19280,Pacific Elevators Limited Viterra,Viterra Inc.,Vancouver,British Columbia,V5L5G1
26540,Kisbey Oil Mwb 03-28,Crescent Point Energy Corp.,,Saskatchewan,
24585,Seal Bitumen Battery 15-22,Obsidian Energy Ltd.,,Alberta,
2077,Yara Belle Plaine Inc.,Yara Belle Plaine Inc.,Belle Plaine,Saskatchewan,S4P4B3
27624,Whitemud Oil Swb 15-19,Crescent Point Energy Corp.,,Saskatchewan,
1383,Harmac Pacific Operations,Nanaimo Forest Products Ltd.,Nanaimo,British Columbia,V9X1J2
18513,Peggo East Comp Stn A-072-C,Canadian Natural Resources Limited,,British Columbia,T4H 5R6
3707,Strathcona Refinery,Imperial Oil,Edmonton,Alberta,T6P1X7
2051,Manitoba Kraft Papers Division,Canadian Kraft Paper Industries Ltd.,The Pas,Manitoba,R9A1L4
29357,Torc et Al Weir Hill Oil Battery 11-25-005-06w2,TORC Oil & Gas Ltd.,,Saskatchewan,
29902,Husky Bt 05-08-049-02w4,Husky Oil Operations Limited,Vermilion River,Alberta,
6282,Bitumar,Bitumar Inc.,MontrÃ©al,Quebec,H1B5B4
24543,Nco Rainbow 7-14,Sanling Energy Ltd.,,Alberta,T4H 5R6
16346,Stettler Sweet Gas Plant 08-24-038-19w4,Canadian Natural Resources Limited,,Alberta,
16562,Countess Makepeace Sweet Gas Plant 12-33-022-18w4,Torxen Energy Ltd.,,Alberta,
1195,Domtar Usine de Windsor,Domtar Inc.,Windsor,Quebec,J1S2L9
28897,Hatton Senate Compressor Station 13-11-015-28w3,Canadian Natural Resources Limited,,Saskatchewan,
24142,Gas Test Bty 07-03-050-19w5,Husky Oil Operations Limited,Yellowhead County,Alberta,T0E1W0
22663,Pine Creek 12-26-057-19w5,Apache Canada Ltd.,Pine Creek/Edson,Alberta,
8025,North Triumph Platform,ExxonMobil Canada Properties,North Triumph Platform,Nova Scotia,
8783,Mine du Lac Bloom,Minerai de Fer QuÃ©bec Inc.,Fermont,Quebec,G0G1J0
22559,Cantal 14-20-005-33 W1m,Spartan Energy Corp.,Cantal,Saskatchewan,
29241,Green Electron Power Plant,Greenfield South Power Corporation,Courtright,Ontario,N0N 1H0
17014,Pikes Peak Gas Battery 01-06-050-23w3,Husky Oil Operations Limited,Lloydminster,Saskatchewan,S9V0Z1
17259,Alida 11-27-005-33-W1,NAL Resources Management,Alida,Saskatchewan,
17420,Bistcho Lake Plant,Steen River Oil & Gas Ltd.,,Alberta,
22752,Ochiese Comp Station 01-15,Cenovus Energy Inc.,,Alberta,
21172,Handsworth Oil Mwb 03-06 (Tank),Crescent Point Energy Corp.,,Saskatchewan,
16952,Czar Battery,Harvest Operations Corp.,,Alberta,
30018,102/06-10-067-08w6/0 (02-08) Swb,Whitecap Resources Inc.,,Alberta,T4H 5R6
16503,Hussar Crowfoot Compressor Station 06-15,Lynx Energy Ulc,,Alberta,
17487,Pembina Sweet Gas Plant 09-17,Obsidian Energy Ltd.,,Alberta,
23793,Sunchild Battery and Compressor,Vermilion Energy Inc.,Township 43,Alberta,
29561,Columbia 15-36,Tourmaline Oil Corp,Calgary,Alberta,T2P 3H7
19568,Wilson Creek Comp Stn 10-27,Bonavista Energy Corporation,Wilsoncr,Alberta,
22588,Surge Nevis 06-19-038-22w4,Surge Energy Inc.,Nevis,Alberta,T2P3E5
16435,Channel Lake 12-29,Canlin Energy Corporation,,Alberta,T4H 5R6
26501,Kaybob Gas Plant 05-31,Encana Corporation,,Alberta,
15716,Hiding Creek Comp Stn D-052-F,Canadian Natural Resources Limited,,British Columbia,
18103,Tristar Whitebear 15-9,Spartan Energy Corp.,,Saskatchewan,
21487,Kirkella Oil Battery 07-10,Enerplus Corporation,,Manitoba,
30362,Torc Hastings Oil Mwb 12-15-004-34w1,TORC Oil & Gas Ltd.,,Saskatchewan,
17112,Tilley North Gas Battery 12-18-018-12w4,Canadian Natural Resources Limited,,Alberta,
18139,Kelsey Gas Plant 06-13,Ember Resources Inc.,Rosalind,Alberta,
15401,Thunderhill Compressor Station 04-15-014-27w3,Canadian Natural Resources Limited,,Saskatchewan,
11661,Mylan Canada - 85 Advance Rd Location,Mylan Pharmaceuticals ULC,Etobicoke,Ontario,M8Z2S6
3941,Harmattan Gas Processing Plant,AltaGas Ltd.,Didsbury,Alberta,T0M0W0
22544,Whitesands Project,Grizzly Oil Sands Ulc,Conklin,Alberta,
16873,Liebenthal Compressor Station 13-22-019-25w3,Canadian Natural Resources Limited,,Saskatchewan,
21028,09-14-030-24w4 Lonepine South,Ember Resources Inc.,Red Deer,Alberta,T4N3T4
24341,Wilgrn 06-22-041-05w5 Ggs,Bonavista Energy Corporation,Wg 6-22,Alberta,
22762,Kaybob Gas Battery 4-31,Bonavista Energy Corporation,Kaybob,Alberta,
4048,Co-Op Refinery Complex,Consumers' Co-Operative Refineries Limited,Regina,Saskatchewan,S4P 3A1
21573,Griffin Oil Mwb 10-11,Crescent Point Energy Corp.,,Saskatchewan,
18874,Ghost Pine Sweet Gas Plant 04-18-032-22w4,Canadian Natural Resources Limited,,Alberta,
3071,Sarnia Refinery,Suncor Energy Products Partnership,Sarnia,Ontario,N7T7J3
17492,Flat Lake Oil Mwb 06-03 (Tank),Crescent Point Energy Corp.,,Saskatchewan,
10138,Northern Lime Limited,Carmeuse Lime Canada,Blind River,Ontario,P0R1B0
15342,12-15-037-19w4 Gadsby,Ember Resources Inc.,Stettler,Alberta,
5487,Laurenco,Rothsay A Division of Darling International Canada,Sainte-Catherine,Quebec,J0L1E0
502,Edmonton 142 Street Plant,Cleartech Industries Inc.,Edmonton,Alberta,T5L2G8
28967,Carruthers	15-18-047-24w3,Baytex Energy Ltd,Carruthers,Saskatchewan,
30809,Takumi Stamping St. Thomas,Â	Emboutissage Takumi Canada Inc./Takumi Stamping Canada Inc,St. Thomas,Ontario,N5P0B6
17525,Neptune 10-13 Compressor Station,Penn West Petroleum Ltd.,,Alberta,
19631,Chauvin 11-35-43-01w4,Cardinal Energy Ltd.,Chauvin,Alberta,T0B 0V0
26166,Seal 10-09-084-19w5,Baytex Energy Ltd,Seal,Alberta,
29696,Torc Weyburn Mwb 12-20-005-12w2,TORC Oil & Gas Ltd.,,Saskatchewan,
20181,Boundary Lake 10-19-086-11 W6m,Enercapita Energy Ltd.,Grande Prairie,Alberta,
18396,Wild River West Gas Battery 08-30-057-24w5,Canadian Natural Resources Limited,,Alberta,
18376,Elmworth Comp Stn 10-04,Cenovus Energy Inc.,,Alberta,
24401,Hamburg Compressor Station 12-29-096-11w6,Canadian Natural Resources Limited,,Alberta,
426,Quirk Creek Gas Plant,Caledonian Midstream,Millarville,Alberta,T0L1K0
18558,Worsley Sweet Gas Plant 14-28-087-07w6,Canadian Natural Resources Limited,,Alberta,
22947,Bivouac B-099-H/094-I-08,Husky Oil Operations Limited,Rainbow Lake,British Columbia,
31020,Wordsworth (4b10-5) 2-5-7-4w2,Vermilion Energy Inc.,Township 007,Saskatchewan,
17791,Pouce Oil Battery 08-33-080-12w6,Kelt Exploration,,Alberta,
28793,01-20-060-17 W5m,Tangle Creek Energy Ltd.,Whitecourt,Alberta,
29251,Chinchaga Compressor Station 02-20-096-03w6,Canadian Natural Resources Limited,,Alberta,
22750,Pod One,Connacher Oil and Gas Limited,Fort McMurray,Alberta,T9H3H5
27036,Devon  Monias 6-34-82-22,Devon Canada Corporation,,British Columbia,
18639,Gilby Gas Battery 07-23,Cenovus Energy Inc.,,Alberta,
22297,Leedale 100/09-05-043-04-W5 Gs,Bonavista Energy Corporation,Wilsoncr,Alberta,
30454,Hanlan Sour Inlet,Canlin Energy Corporation,,Alberta,T4H 5R6
16242,Hanna Sweet Gas Plant 08-25-031-14w4,Canadian Natural Resources Limited,,Alberta,
875,Meadow Lake Mechanical Pulp,Meadow Lake Mechanical Pulp,Meadow Lake,Saskatchewan,S9X1V7
24704,Well Abwi102061004909w500,Sinopec Daylight Energy Ltd.,,Alberta,
22358,Valley 05-13-009-06-W2,NAL Resources Management,Valley,Saskatchewan,N0T4V4
21031,08-28-032-26w4 Torrington,Ember Resources Inc.,Red Deer,Alberta,T4N3T4
1080,Boundary Gas Plant 14-24-084-15,Canlin Energy Corporation,Fsj - Boundary Lake Sour,British Columbia,
4875,Cavendish Farms,Cavendish Farms Corporation,New Annan,Prince Edward Island,C1N4J9
28584,Wildmere 16-07-048-04 W4m Pad,Gear Energy Ltd.,Wildmere,Alberta,
29378,Karr 1-7-66-3w6 Oil Battery,Mancal Energy Inc.,Karr,Alberta,T2P3S8
30773,Forestburg Ob 1-21-42-14w4,Cardinal Energy Ltd.,Sedgewick,Alberta,T0B 4C0
27288,Teepee Compressor Station 11-04-074-05w6,Canadian Natural Resources Limited,,Alberta,
24192,Blackstone Dehy 09-23-044-16w5,Tidewater Midstream and Infrastructure Ltd.,Yellowhead County,Alberta,T0E1W0
3802,Trail Operations,Teck Metals Ltd.,Trail,British Columbia,V1R 4L8
16445,Archer Mannville-Minburn,Perpetual Energy Inc.,,Alberta,T4H 5R6
27692,13-19-36-20 W4m,Bearspaw Petroleum Ltd.,Stettler,Alberta,
29580,Rrx Dodsland 1-28,Baytex Energy Ltd,Dodsland,Saskatchewan,
18079,Wainwright 13-36 Compressor,Repsol Oil & Gas Canada Inc.,,Alberta,
21346,13-03-043-22w4 Malmo,Ember Resources Inc.,Bashaw,Alberta,
18415,Birch Comp Stn A-089-E,Canadian Natural Resources Limited,,British Columbia,
24500,Norcen Golden 7-7-87-14,Harvest Operations Corp.,,Alberta,T4H 5R6
17562,Pembalta Gas Plant 09-25,ARC Resources,,Alberta,
30401,Bromhead Oil Mwb 05-31 (Tank),Crescent Point Energy Corp.,,Saskatchewan,
17352,Midale Oil Mwb 05-35,Crescent Point Energy Corp.,,Saskatchewan,
28947,Alumicast Technologies,Alumicast Technologies,Barrie,Ontario,L4N 9A5
18037,Encor Sundance 6-25-54-21,Repsol Oil & Gas Canada Inc.,,Alberta,
30834,Monitor 16-17-035-04w4 Compressor,High Ground Energy Inc.,,Alberta,
787,Napierville,Napierville Refineries Inc.,Napierville,Quebec,J0J 1L0
17067,Ansell Gas Plant 07-27-051-19w5,Husky Oil Operations Limited,Edson,Alberta,
24514,Pinto Oil Battery 04-10,Legacy Oil + Gas Inc.,,Saskatchewan,
29281,Umbach Comp Stn A-089-H,Canadian Natural Resources Limited,,British Columbia,
24397,Wembley Oil Battery 11-36-072-08w6,Canadian Natural Resources Limited,,Alberta,
1797,Northwood Pulp Mill,Canfor Pulp Limited Partnership,Prince George,British Columbia,V2L4W2
29488,7g 02-31-063-04w6,Seven Generations Energy Ltd.,Kakwa,Alberta,
17215,South Bodo 14-32,Caltex Resources Ltd.,,Alberta,T4H 5R6
16791,Cadogan Oil Battery 10-14,Enerplus Corporation,,Alberta,
209,Tiverton Plant,Greenfield Ethanol Inc.,Tiverton,Ontario,N0G2T0
28876,Elk Point Bitumen Battery 08-30-053-06w4,Canadian Natural Resources Limited,,Alberta,
15841,Newbrook Compressor Station 05-11-062-20w4,Canadian Natural Resources Limited,,Alberta,
17644,Pouce Coupe South Oil Swb 14-10-078-12w6,Kelt Exploration,,Alberta,
24506,Pancdn Badger,Harvest Operations Corp.,,Alberta,
5309,Fish Creek Wastewater Treatment Plant,City of Calgary,Calgary,Alberta,T2J 5Z1
23325,Ferrier Gas Gathering,Bonavista Energy Corporation,Ferrier,Alberta,
18098,Torc Huntoon Oil Battery 03-18-007-09w2,TORC Oil & Gas Ltd.,,Saskatchewan,
22312,Hythe Comp Stn D-019-H,Encana Corporation,,British Columbia,
6079,Grand Lake Timber,J.D. Irving Ltd.,Chipman,New Brunswick,E4A2M7
16076,Nig Creek Comp Stn D-041-J,Canadian Natural Resources Limited,,British Columbia,T4H 5R6
508,Delta Facility,Kemira Chemicals Canada Inc.,Delta,British Columbia,V3M5R4
29129,Campus Energy Center,University of British Columbia,Vancouver,British Columbia,V6T 1Z4
7629,Clarkson Wastewater Treatment Facility,Ontario Clean Water Agency,Mississauga,Ontario,L5J1J9
21120,Gold Creek South Karr Compressor Station 11-15-066-05w6,Canadian Natural Resources Limited,,Alberta,
28205,Huntoon Oil Mwb 01-04 (Tank),Crescent Point Energy Corp.,,Saskatchewan,
17367,Iqaluit,Qulliq Energy Corporation,Iqaluit,Nunavut,X0A 0H0
19717,Ansell Compressor Station 03-06-049-18w5,Husky Oil Operations Limited,Yellowhead County,Alberta,T0E1W0
21975,Cecil Sour Gas Plant 08-15-084-08w6,Canadian Natural Resources Limited,,Alberta,
28657,Sundown B-067-H/093-P-10,Tourmaline Oil Corp,Dawson Creek,British Columbia,
30446,Ferrier Oil Swb 16-14-039-09w5,Trioil Resources Ltd.,Calgary,Alberta,T2P 0R8
28832,C-62 Water Hub & Line,Pacific Canbriam Energy Limited,,British Columbia,
22326,Pcp Provost Bty 9-7,Harvest Operations Corp.,,Alberta,T4H 5R6
2776,Burnaby Refinery,Parkland Refining (B.C.) Ltd.,Burnaby,British Columbia,V5C1X4
29585,Ante Creek Multi-Well Gas Battery 04-36,Enerplus Corporation,Calgary,Alberta,T2P2Z1
23338,Narraway Gas Battery 08-33-063-13w6,Canadian Natural Resources Limited,,Alberta,
28005,Tupper West Field,Murphy Oil Company Ltd.,,British Columbia,T4H 5R6
4268,Charlottetown Thermal Generating Station,Maritime Electric Co. Ltd.,Charlottetown,Prince Edward Island,C1A5B9
28992,Peco 7-1 Cs,Boulder Energy Ltd.,Pembina Forks,Alberta,
18085,South Buick Comp Stn B-012-I,Canadian Natural Resources Limited,,British Columbia,
27010,Brazeau River Oil Battery 14-13,Cenovus Energy Inc.,,Alberta,
20162,Tower Compressor Station 09-28,Crew Energy Inc.,,British Columbia,
28128,Pinto Oil Mwb 16-21,Crescent Point Energy Corp.,,Saskatchewan,
24504,Newport Open Crk 11-1,Harvest Operations Corp.,,Alberta,T4H 5R6
20225,Cantung Mine,North American Tungsten Corporation Ltd,Tungsten,Northwest Territories,
23131,Innes 15-35-7-11w2,Penn West Petroleum Ltd.,,Saskatchewan,
29676,Torc Frys 01-25-007-31w1,TORC Oil & Gas Ltd.,,Saskatchewan,
18936,Burnt Timber Ggs 12-18-030-07w5,Ikkuma Resources Corp.,,Alberta,
21801,Huxley South 12-22,PineÂ CliffÂ EnergyÂ Ltd.,,Alberta,
21722,Olds 16-33-30-1w5,NAL Resources Management,Calgary,Alberta,T2P 0M5
18169,Eta Lake Gas Plant,Vermilion Energy Inc.,Township 051,Alberta,
30157,Hcft 13-25 Booster,Lynx Energy Ulc,,Alberta,
30044,Wilgrn 01-33-041-05w5 Ggs,Bonavista Energy Corporation,Wg 3-28,Alberta,
22728,Gundy Comp Stn D-024-B,Canadian Natural Resources Limited,,British Columbia,T4H 5R6
16552,Redland Compressor Station 08-23,Lynx Energy Ulc,,Alberta,
28927,Torc Souris Flat Oil Battery 02-33-001-34w1,TORC Oil & Gas Ltd.,,Saskatchewan,
5345,Niton Sweet Gas Plant,Cenovus Energy Inc.,,Alberta,
683,Kaybob South #3 Gas Plant,Semcams ULC,Fox Creek,Alberta,
29478,Seal 05-22-082-18w5,Baytex Energy Ltd,Seal,Alberta,
2567,Carpenter Canada Co. - Woodbridge,Carpenter Canada Co.,Woodbridge,Ontario,L4L3P6
30832,Hge 15-09-035-04w4 Battery,High Ground Energy Inc.,,Alberta,
26060,Fairborne Marlboro 05-29 Sweet Gp,Bonavista Energy Corporation,Marlboro,Alberta,
28244,South Rosevear 08-14-053-15w5,Bonavista Energy Corporation,Rosevear,Alberta,
26470,Torc Pearce Oil Battery 02-20-009-24w4,TORC Oil & Gas Ltd.,,Alberta,
18253,Sakwatamau 06-12-063-15w5,Enercapita Energy Ltd.,,Alberta,
6086,Acadia Campus,Acadia University,Wolfville,Nova Scotia,B4P2R6
18766,Domcan Warwick 10-18 Ggs,Warwick Gas Storage Lp,,Alberta,T4H 5R6
29811,Velvet Rat Creek Comp Stn 05-23-048-11w5,Velvet Energy Ltd.,,Alberta,
16861,Wapiti Compressor Station 07-24-068-07w6,Canadian Natural Resources Limited,,Alberta,
1303,Gibraltar Mine (Sfo),Gibraltar Mines Ltd.,Mcleese Lake,British Columbia,V0L1P0
25155,Hope Bay Site,Tmac Resources Inc.,Cambridge Bay,Nunavut,X0B 0C0
29364,Conwest Valhalla 3-27,Whitecap Resources Inc.,,Alberta,T4H 5R6
28592,Sandall Thermal 06-14-051-24w3,Husky Oil Operations Limited,Paradise Hill,Saskatchewan,S0M 2G0
25093,Saleski Sagd Pilot Project,Laricina Energy Ltd.,Municipal District of Opportun,Alberta,
29735,Iron River 16-18-62-5 Pad,Devon Canada Corporation,,Alberta,T4H 5R6
16075,Peejay Comp Stn D-039-E,Canadian Natural Resources Limited,,British Columbia,
6696,Calgary Plant,Canada Malting Co Ltd.,Calgary,Alberta,T2G4M9
19076,Talisman Lovett River 2-20,Canlin Energy Corporation,,Alberta,T4H 5R6
18455,Gold Creek 03-30,Canadian Natural Resources Limited,,Alberta,
30336,Openshaw Oil Swb 04-05-003-02w2,TORC Oil & Gas Ltd.,,Saskatchewan,
17755,Cypress Farrow,Taqa North Ltd.,Brantfarrow,Alberta,
1861,Nanticoke Generating Station,Ontario Power Generation Inc.,Nanticoke,Ontario,N0A1L0
24456,Killam Oil Mwb 14-14,Crescent Point Energy Corp.,,Alberta,
31015,North Portal 1-23 Bty,Vermilion Energy Inc.,Township 001,Saskatchewan,
16188,Worsley (Birchcliff) Sour Gas Plant,Enercapita Energy Ltd.,,Alberta,
25240,Pocketknife D-056-E/094-G-07 Wellsite (Current),Husky Oil Operations Limited,D-056-E/094-G-07,British Columbia,
29624,Trilogy Foxck 10-12-62-19,Paramount Resources Ltd.,,Alberta,
16590,Entice Creek Sweet Gas Plant 10-07,Ember Resources Inc.,,Alberta,
24143,Lre - Kakwa 07-14,Guide Exploration Ltd.,,Alberta,T4H 5R6
19490,Wapiti Comp Stn 07-22,Sinopec Canada,,Alberta,
29359,Torc Midale et Al Alameda Oil Battery 12-19-004-02w2,TORC Oil & Gas Ltd.,,Saskatchewan,
28935,Graham C-77-F,Petronas Energy Canada Ltd.,Graham,British Columbia,
17841,8-01 Booster Compressor,Sabre Energy Ltd.,Cynthia,Alberta,T0E0K0
16274,Peco Sweet Comp Station 11-12,Cenovus Energy Inc.,,Alberta,
29452,16-36-078-17w6 Water Hub,Encana Corporation,,British Columbia,
17297,Court Battery 06-25,Cona Resources Ltd.,Court,Saskatchewan,
2695,Ingredion Canada Incorporated - Port Colborne Plant,Ingredion Canada Incorporated,Port Colborne,Ontario,L3K5X7
16409,Attachie 07-20,Devon Canada Corporation,Attachie,British Columbia,
27731,Hoosier 02-16-031-26w3,Baytex Energy Ltd,Hoosier,Saskatchewan,
24606,Pben Mwb Heward 2-26-9-9w2,Ridgeback Resources Inc.,,Saskatchewan,T4H 5R6
29681,Torc Hoffer Oil Battery 16-33-001-15w2,TORC Oil & Gas Ltd.,,Saskatchewan,
19958,Grande Prairie Combined Heat and Power Plant,Canadian Forest Products Ltd.,Grande Prairie,Alberta,T8V4C5
16624,Countess Oil Battery 8 03-25-019-17w4,Torxen Energy Ltd.,,Alberta,
15639,Carnwood Comp Stn 16-35,Cenovus Energy Inc.,,Alberta,
6584,Vulcan Sour Gas Plant,ConocoPhillips Canada Resources Corp.,,Alberta,
23354,Enchant Oil Battery 02-06-013-15w4,Canadian Natural Resources Limited,,Alberta,
24169,Greenfield Multiwell Oil Battery 11-01,Prairie Provident Resources,Calgary,Alberta,T2P3G4
28909,Leland Compressor Station 16-27-058-26w5,Canadian Natural Resources Limited,,Alberta,
15885,Waskahigan Compressor Station 07-21-064-23w5,Canadian Natural Resources Limited,,Alberta,
6794,The Calgary Airport Authority - Calgary,The Calgary Airport Authority,Calgary,Alberta,T2E6W5
28974,Harmon Valley	15-33-083-19w5,Baytex Energy Ltd,Harmon Valley,Alberta,
30840,Altario 01-24-035-02w4 Compressor,High Ground Energy Inc.,,Alberta,
18844,Wild River 14-20-056-23 W5,Tourmaline Oil Corp,Hinton,Alberta,
30003,Sil Industrial Minerals Lamont Plant,543077 Alberta Ltd.,Bruderheim,Alberta,T0B 0S0
29628,Trilogy Foxck 11-23-62-19,Paramount Resources Ltd.,,Alberta,
8722,Usine de Traitement de la Brasque,Rio Tinto Alcan,JonquiÃ¨re,Quebec,G7S4L2
28316,Maple Glen Compressor Station 14-24-036-17w4,Canadian Natural Resources Limited,,Alberta,
27792,Conserve Taber 12-6-8-15-W4,Conserve Oil Corporation,Taber,Alberta,
15555,Brazeau Cs 6-27-47-14w5,Boulder Energy Ltd.,Cynthia,Alberta,T0E0K0
3057,Usine Shawinigan,Rio Tinto Alcan,Shawinigan,Quebec,G9N6W4
17282,Sousa Oil Battery 15-25,NuVista Energy Ltd.,,Alberta,
7832,Lakeland Mills Ltd.,Lakeland Mills Ltd.,Prince George,British Columbia,V2L4V4
28204,Hummingbird Oil Mwb 03-12 (Tank),Crescent Point Energy Corp.,,Saskatchewan,
18017,Mcleod River Sweet Gas Plant 16-36-055-15w5,Velvet Energy Ltd.,,Alberta,
4150,Kaybob Amalgamated Sour Gas Plant,Semcams ULC,Fox Creek,Alberta,
5190,Delta Plant,Lehigh Hanson Materials Ltd.,Delta,British Columbia,V4G1B8
4477,Nitta Gelatin,"Nitta Gelatin Canada, Inc.",Toronto,Ontario,M6H1R8
24107,Iron River 05-36-63-7w4 Pad,Devon Canada Corporation,Iron River Op,Alberta,
28774,Basing 06-27-049-21-W5,Tourmaline Oil Corp,Hinton,Alberta,
26652,Fenn Big Valley 10-36,Ember Resources Inc.,Fenn Big Valley,Alberta,
28977,Reno 9-21-79-20w5,Baytex Energy Ltd,Reno,Alberta,
8008,Upei Boiler,PEI Energy Systems,Charlottetown,Prince Edward Island,C1A 4P3
18799,Pipestone Comp Stn 10-10,Encana Corporation,,Alberta,
18093,West Doe Comp Stn 11-01,Canadian Natural Resources Limited,,British Columbia,
4803,Usine de Clermont,Produits Forestiers RÃ©solu,Clermont,Quebec,G4A1A7
2781,Shell Panther Battery,Canlin Energy Corporation,,Alberta,T4H 5R6
28750,Gundy Compressor,Tourmaline Oil Corp,Fort St John,British Columbia,V1J4M6
16465,Rigel 06-21,Bonavista Energy Corporation,Rigel,British Columbia,
6237,Usine de CogÃ©nÃ©ration de Chapais,Chapais Ãnergie,Chapais,Quebec,G0W1H0
16530,Wayne Dalum Sweet Gas Plant 05-17-027-19w4,Torxen Energy Ltd.,,Alberta,
22774,Peco Comp Station 06-23,Cenovus Energy Inc.,,Alberta,
30331,Steelman Oil Swb 16-27-004-06w2,TORC Oil & Gas Ltd.,,Saskatchewan,
15421,Dawson Comp Stn 01-34,ARC Resources,,British Columbia,
30631,Progress 01-03-078-10w6,Longshore Resources Ltd.,Saddle Hills,Alberta,
16984,Wayne Rosebud Gas Plant 02-01-027-21w4,Husky Oil Operations Limited,Drumheller,Alberta,T0J0Y0
16402,Tangent 16-20,Devon Canada Corporation,Tangent,Alberta,
19367,Imperial Cyn-Pem 14-30,Whitecap Resources Inc.,,Alberta,T4H 5R6
26202,Dodsland 13-12,Teine Energy Ltd.,Netherhill,Saskatchewan,
10153,"Xstrata Copper Canada Division, Kidd Mine Site",Glencore Canada Corporation,Timmins,Ontario,P4N7K1
28646,Wapiti Gas Battery 03-36,NuVista Energy Ltd.,Calgary,Alberta,
15826,Joffre Compressor Station 04-10-039-26w4,Canadian Natural Resources Limited,,Alberta,
5655,Amherstburg Plant,Honeywell ASCa Inc.,Amherstburg,Ontario,N9V2Z6
17319,HomesteadÂ HattonÂ 14-Â­2Â Battery,PineÂ CliffÂ EnergyÂ Ltd.,,Saskatchewan,
23465,Weyburn Oil Mwb 05-01,Crescent Point Energy Corp.,,Saskatchewan,
21424,Hcft 01-26 Booster,Lynx Energy Ulc,,Alberta,
5337,Nevis Gas Plant,Keyera Corp.,Stettler,Alberta,
4806,Qit Complexe MÃ©tallurgique de Sorel-Tracy,Qit-Fer et Titane Inc,Sorel-Tracy,Quebec,J3R1M6
28033,Jackfish 3 Sagd Plant,Devon Canada Corporation,Conklin,Alberta,
29429,Teine Dodsland 12-36,Teine Energy Ltd.,Dodsland,Saskatchewan,
24572,Penn West Oil Battery 09-11,Obsidian Energy Ltd.,,Alberta,
15973,North Thornbury Compresor Station 11-31-079-11w4,Canadian Natural Resources Limited,,Alberta,
19546,Bpco Edmonton,La Cie MatÃ©riaux de Construction BP Canada,Edmonton,Alberta,T6P 1X7
22172,Goodfare Comp Stn 09-05,Cenovus Energy Inc.,,Alberta,
22199,Wapiti Comp Stn 11-18-066-11w6,Cenovus Energy Inc.,,Alberta,
26143,Nova Chemicals Technical Centre,Nova Chemicals Corporation,Calgary,Alberta,T1Y6G7
16138,Thorsby Gas Plant 05-04,Petrus Resources Ltd.,,Alberta,T4H 5R6
19095,Kaybob Ob 02-09-62-20w5,Razor Energy Corp.,Fox Creek,Alberta,
28820,Virginia Hills Swb 13-20,Crescent Point Energy Corp.,,Alberta,
16871,Fox Valley Compressor Station 12-10-017-25w3,Canadian Natural Resources Limited,,Saskatchewan,
4882,Holyrood Thermal Generating Station,Newfoundland and Labrador Hydro,Holyrood,Newfoundland and Labrador,A0A2R0
16519,Alderson Comp Stn 02-12-015-15w4,Torxen Energy Ltd.,,Alberta,
18407,Rigel Oil Battery B-033-A/094-A-15,Canadian Natural Resources Limited,,British Columbia,
30093,Rbr Kayb 15-30-063-18w5 Mwob,Ridgeback Resources Inc.,,Alberta,T4H 5R6
29831,SÃ©choir Ã Bois de Chauffage,Charbon de Bois Feuille d'Ãrable,Sainte-Christine d'Auvergne,Quebec,G0A1A0
2229,Montreal Sulphur Plant,Suncor Energy Products Partnership,MontrÃ©al-Est,Quebec,H1B1A6
30011,100/04-36-015-29w4/02 (12-30) Swb,Whitecap Resources Inc.,,Alberta,T4H 5R6
23433,Astra Chauvin Oil Battery 10-35,Surge Energy Inc.,,Alberta,
16507,Redland Compressor Station 14-09,Lynx Energy Ulc,,Alberta,
8543,Montreal East,Nexeo Solutions Canada Corporation,MontrÃ©al,Quebec,H1B2V1
1236,Sudbury Nickel Smelter Complex,Glencore Canada Corporation,Falconbridge,Ontario,P0M1S0
29548,Rainy River Project,New Gold,Emo,Ontario,P0W 1E0
26331,Bfg Canada Ltd.,BFG Canada Ltd.,Georgetown,Ontario,L7G 4S3
30167,Ante Creek Oil Mwb 16-25-066-24w5,ARC Resources,,Alberta,
27678,Taqa North Proration 16-18-77-10w6,Taqa North Ltd.,,Alberta,
30851,Husky Bt 05-32-048-05w4,Husky Oil Operations Limited,County of Vermilion River,Alberta,
15284,Maple Creek Compressor Station 08-34-012-26w3,Canadian Natural Resources Limited,,Saskatchewan,
17689,Coleville 3-14-31-23w3,Teine Energy Ltd.,,Saskatchewan,
30414,Wildwood Oil Swb 14-35,Crescent Point Energy Corp.,,Alberta,
30781,Chevron 03-05-62-16 Multiwell Batt,Chevron Canada Resources,Fox Creek,Alberta,
30337,Torquay Oil Swb 04-14-003-11w2,TORC Oil & Gas Ltd.,,Saskatchewan,
5070,East River Mill,Louisiana Pacific Canada Ltd.,East River,Nova Scotia,B0J 1T0
1561,"Kronos Canada, Inc.","Kronos Canada, Inc.",Varennes,Quebec,J3X1T4
17516,Steen River Gas Plant,Steen River Oil & Gas Ltd.,Steen River,Alberta,
29627,Eastend Oil Swb 13-19,Crescent Point Energy Corp.,,Saskatchewan,
19266,East Castor Sweet Gas Plant 02-02,Obsidian Energy Ltd.,,Alberta,
30013,100/13-18-067-08w6/2 (13-07) Swb,Whitecap Resources Inc.,,Alberta,T4H 5R6
29247,Valhalla Oil Battery 01-18-076-08w6,Canadian Natural Resources Limited,,Alberta,
27015,Seal Main Sagd Bitumen Battery 09-06,Obsidian Energy Ltd.,,Alberta,
26149,Lochend 03-20-027-03w5,NAL Resources Management,Rocky View County,Alberta,
16427,Peggo Comp Stn D-083-C,Canadian Natural Resources Limited,Ryan Tulloch,British Columbia,
29194,Bubbles A-053-B/094-G-08,Petronas Energy Canada Ltd.,Jedney,British Columbia,
28703,Para 16-21-63-4w6 Gas Multiwell,Seven Generations Energy Ltd.,,Alberta,
30163,Severn 15-35 Booster,Lynx Energy Ulc,,Alberta,
1698,Belledune Generating Station,NB Power Nuclear Corporation,Belledune,New Brunswick,E8G2M3
24355,Blueberry D-50-C/94-A-13,ConocoPhillips Canada Resources Corp.,Fort St. John,British Columbia,V1J4H7
29560,Wild River 15-34,Tourmaline Oil Corp,Calgary,Alberta,
2537,"Clean Harbors Canada, Inc","Clean Harbors Canada, Inc.",Corunna,Ontario,N0N1G0
16925,Lone Pine 11-13-030-29w4,NAL Resources Management,Lone Pine,Alberta,
3855,Lake Erie Works,U.S. Steel Canada Inc.,Haldimand County,Ontario,N0A1L0
21972,Home Leismer Gas Gathering,Devon Canada Corporation,Leismer,Alberta,
28115,Woodsworth Oil Mwb 09-14,Crescent Point Energy Corp.,,Saskatchewan,
19102,Cressford 02-24,Sanling Energy Ltd.,,Alberta,T4H 5R6
28922,Seal Bitumen Battery 16-01,Obsidian Energy Ltd.,,Alberta,
16040,Clearhills Sour Gas Plant 16-11-088-13w6,Canadian Natural Resources Limited,,Alberta,
17343,02-26 Gas Plant,Tangle Creek Energy Ltd.,Niton Junction,Alberta,
23358,Hatton Senate Compressor Station 01-04-016-29w3,Canadian Natural Resources Limited,,Saskatchewan,
21381,Ferrier Sweet Gas Plant 07-18-040-09w5,Canadian Natural Resources Limited,,Alberta,
5548,Cimenterie de Saint-Basile,Ciment QuÃ©bec Inc.,Saint-Basile,Quebec,G0A3G0
28930,Torc Torquay Swb 15-01-002-12w2,TORC Oil & Gas Ltd.,,Saskatchewan,
18122,Teepee Oil Battery 14-21-072-03w6,Canadian Natural Resources Limited,,Alberta,
2038,Aluminerie de Baie-Comeau,Alcoa LimitÃ©e,Baie-Comeau,Quebec,G4Z2L6
17577,Petro-Can Med Hat #3,Canlin Energy Corporation,,Alberta,T4H 5R6
28139,Latornell 11-28,Strath Resources Ltd,,Alberta,
23747,100/8-4-67-26w4,Sabre Energy Ltd.,Flatbush,Alberta,T0G0Z0
29372,Morgan Eagle Lake Unit 11-9,Whitecap Resources Inc.,,Saskatchewan,
21196,Pheasant Oil Mwb 07-23 (Tank),Crescent Point Energy Corp.,,Saskatchewan,
27983,Green D-039-C/094-G-10,Petronas Energy Canada Ltd.,Green (Montney),British Columbia,
30695,7g 14-18-064-05w6,Seven Generations Energy Ltd.,Kakwa,Alberta,
31023,Northgate 4-14-1-2,Vermilion Energy Inc.,Township 001,Saskatchewan,
10403,Calstock Power Plant,Atlantic Power LP,Hearst,Ontario,P0L1N0
23116,Waskada Sweet Gas Plant 11-30,Penn West Petroleum Ltd.,,Manitoba,
27933,Torc Silverton Oil Battery 16-21-003-32w1,TORC Oil & Gas Ltd.,,Saskatchewan,
30874,4 Pouce Coupe 16-27,Insignia Energy Ltd.,Pouce Coupe,Alberta,
26432,Torc Hz Amelia Swb 01-29-010-27w4,TORC Oil & Gas Ltd.,,Alberta,
17056,Husky Webb 1-1,Whitecap Resources Inc.,,Saskatchewan,
30455,Pc Hanlan Robb 11-6,Canlin Energy Corporation,,Alberta,T4H 5R6
22876,Wolf Lake Compressor Station 08-13-068-04w4,Canadian Natural Resources Limited,,Alberta,
27822,Hi-Pro Feeds Olds,Hi-Pro Feeds,Olds,Alberta,T4H 1V1
17462,Weasel D-035-B/094-H-02,Pengrowth Energy Corporation,,British Columbia,
29819,Borden Generating Station,Maritime Electric Co. Ltd.,Borden-Carleton,Prince Edward Island,C0B 1X0
23567,West Pembina 13-22,Whitecap Resources Inc.,,Alberta,T4H 5R6
28604,Hussar Gas Stor 07-07-025-20w4,Husky Oil Operations Limited,Hussar,Alberta,T0J1S0
22117,Berland River West Comp Station 02-05,Cenovus Energy Inc.,,Alberta,
18820,Norfolk Gas Battery 13-13,Ember Resources Inc.,,Alberta,
30623,Saskatoon Lightweight,Lehigh Hanson Materials Ltd.,Saskatoon,Saskatchewan,S7K3S7
1106,Altasteel,AltaSteel Ltd.,Edmonton,Alberta,T6B2X6
23509,Iron River 7-6-64-7w4 Pad,Devon Canada Corporation,Iron River Op,Alberta,
26426,Kaybob West 07-14,Athabasca Oil Corporation,Fox Creek,Alberta,
25302,Cynthia Battery,Vermilion Energy Inc.,Township 051,Alberta,
5124,Highway Gas Plant,Spectra Energy Midstream Corporation,Peace River District,British Columbia,V1J4H7
30270,Marwayne Bitumen Swb 08-29-053-02w4,Canadian Natural Resources Limited,,Alberta,
99,Division Laronde,Les Mines Agnico-Eagle,Rouyn-Noranda,Quebec,J0Y1C0
2256,Tonolli Canada Limited,Tonolli Canada,Mississauga,Ontario,L4Y4C2
24145,Leismer Sagd Bitumen Battery,Athabasca Oil Corporation,,Alberta,
20043,Bubbles D-47-A,Petronas Energy Canada Ltd.,,British Columbia,
5459,Mines Wabush - Sept-Iles,"SociÃ©tÃ© Ferroviaire et Portuaire de Pointe-Noire, S.E.C.",Sept-Ãles,Quebec,G4R4L4
28858,Valhalla Compressor Station 05-28-073-09w6,Canadian Natural Resources Limited,,Alberta,
19306,07-07-032-27w4 Stewart,Ember Resources Inc.,Red Deer,Alberta,T4N3T4
19013,Nal Midale 09-33-05-10 W2,NAL Resources Management,Midale,Saskatchewan,
3704,Sarnia Refinery Plant,Imperial Oil,Sarnia,Ontario,N7T7M5
17538,Haig Sweet Gas Plant 11-33,Obsidian Energy Ltd.,,Alberta,
6669,Fording River Operations,Teck Coal Limited,Elkford,British Columbia,V0B1H0
30593,16-28-079-17w6 (Well Pad),Encana Corporation,,British Columbia,
30128,Lloyd 15-20-48-5 Mwcb,Devon Canada Corporation,,Alberta,T4H 5R6
26064,Suncor Pine Creek,Bonavista Energy Corporation,Pine Creek,Alberta,
24125,Birchcliff Pouce Coupe 03-22-078-12 W6m Gas Plant,Birchcliff Energy Ltd.,Pouce Coupe,Alberta,
21377,Rainbow 13-36 Ggs,Chinook Energy Inc.,Grande Prairie,Alberta,
16589,Gayford Sweet Gas Plant 10-31,Ember Resources Inc.,,Alberta,
29670,Nevis Compresor Station 06-30,Lynx Energy Ulc,,Alberta,T4H 5R6
2108,Waterton Complex,Shell Canada Limited,Pincher Creek,Alberta,T0K1W0
21077,Portable Plant 020009,Border Paving Ltd.,Bassano,Alberta,
28862,Progress Gas Battery 06-20-077-10w6,Canadian Natural Resources Limited,,Alberta,
19276,Nevis Oil Battery 12-36,Surge Energy Inc.,,Alberta,
18400,Frob Alida Oil Battery 07-04-010-08w2,Canadian Natural Resources Limited,,Saskatchewan,
10566,Penhorwood Mine and Concentrator Facility,Imerys Talc Canada Inc.,"Penhorwood & Reeves Township,",Ontario,P4N7J5
23874,Ojay Comp Stn A-065-A,Canadian Natural Resources Limited,Mel Vollman,British Columbia,
17628,Clarke Lake Battery D-83-I/94-J-10,Canlin Energy Corporation,Fn - Clarke Lk P144,British Columbia,
26318,Galahad Multi-Well Oil Battery 12-34,Prairie Provident Resources,,Alberta,
27079,Hoffer 04-05-02-15 W2m,NAL Resources Management,Hoffer,Saskatchewan,
28695,Skwi013500520w3,Crescent Point Energy Corp.,,Saskatchewan,
19836,Fort Saskatchewan 11-27,Signalta Resources Ltd.,Fort Saskatchewan,Alberta,T2P 3E5
21956,Cadomin Quarry,Lehigh Hanson Materials Ltd.,Cadomin,Alberta,T0E0E0
27146,Pace 04-09-013-17w4 Oil Battery,Sanling Energy Ltd.,,Alberta,T4H 5R6
24403,Wembley Oil Battery 14-03-073-08w6,Canadian Natural Resources Limited,,Alberta,
15906,Smith West Sweet Gas Plant 09-01-071-02w5,Canadian Natural Resources Limited,,Alberta,
26063,Pine Creek 12-2-56-19 Multiwell Gas,Bonavista Energy Corporation,Marlboro,Alberta,
30390,Abbt6850511,Sinopec Canada,,Alberta,
29861,Teine Dodsland Prp 8-36,Teine Energy Ltd.,Kindersley,Saskatchewan,
2128,Cnul Peace River Complex,Canadian Natural Upgrading Ltd,Peace River,Alberta,T8S 1V1
16687,Caribou North Comp Stn 11-08,Cenovus Energy Inc.,,Alberta,
26161,Tangleflags 08-24-050-25w3,Baytex Energy Ltd,Tangleflags,Saskatchewan,
15356,East Castor,Karve Energy Inc.,Castor,Alberta,
3185,Domtar Inc. - Espanola Mill,Domtar Inc.,Espanola,Ontario,P5E1R6
24130,Seal 04-33-082-15w5,Baytex Energy Ltd,Seal Lake,Alberta,A9A9A9
30046,Willgreen 102/10-10-041-05w5 Ggs,Bonavista Energy Corporation,Wg 3-28,Alberta,
17426,Clover A &Amp; B-Plant 09-34,Paramount Resources Ltd.,,Alberta,
18461,Storm Grimshaw 11-23-083-23w5,Canamax Energy Ltd,Grimshaw,Alberta,T2P 2Z2
30164,Severn 09-28 Booster,Lynx Energy Ulc,,Alberta,
29659,Sullivan Lake Oil Battery 08-18-034-13w4,Canadian Natural Resources Limited,,Alberta,
19984,Torc Froude Oil Battery 02-32-008-10w2,TORC Oil & Gas Ltd.,,Saskatchewan,
30181,Velvet Pembina Comp Stn 13-18-049-12w5,Velvet Energy Ltd.,,Saskatchewan,
22241,4-7 Leahurst,Ember Resources Inc.,Stettler,Alberta,
7095,Zochem,ZOCHEM Inc.,Brampton,Ontario,L6T3T4
16491,Pouce Coupe Gas Plant,Spectra Energy Midstream Corporation,Spirit River,Alberta,
28877,Jean Lake North Gas Battery 08-30-097-23w4,Canadian Natural Resources Limited,,Alberta,
27719,Beverley Unit No. 1,Whitecap Resources Inc.,,Saskatchewan,
11767,Drew Road,La Cie McCormick Canada,Mississauga,Ontario,L5S1S7
3828,Produits Forestiers RÃ©solu -Usine Amos,Produits Forestiers RÃ©solu,Amos,Quebec,J9T3X5
29026,Strachan Compressor Station 09-24-038-09w5,Husky Oil Operations Limited,Clearwater County,Alberta,
27003,Taqa North Boundarylake 15-26-085-14,Taqa North Ltd.,Boundary,British Columbia,
16508,Severn 06-14 Booster,Lynx Energy Ulc,,Alberta,
5515,Papiers de Publication Kruger Inc. Usine de Trois-RiviÃ¨res,Papiers de Publication Kruger Inc.,Trois-RiviÃ¨res,Quebec,G9A6B1
18448,Fireweed Comp Stn D-052-H,Canadian Natural Resources Limited,,British Columbia,
28215,Queensdale Oil Mwb 08-12 (Tank),Crescent Point Energy Corp.,,Saskatchewan,
19406,Steelman Oil Battery 03-29-003-04w2,Canadian Natural Resources Limited,,Saskatchewan,
5656,Musselwhite Mine,Goldcorp Canada Ltd,Kenora District,Ontario,P7B6S8
18318,Graham Comp Stn C-076-K,Canadian Natural Resources Limited,,British Columbia,T4H 5R6
24714,Mark et Al Grande Prairie 06-19,Taqa North Ltd.,Knopcik,Alberta,
11774,Innovation Drive Site,The Original Cakerie Ltd.,London,Ontario,N6M0B6
5096,Camp Hill Site Central Heating Plant,Capital Health,Halifax,Nova Scotia,B3H2E2
29137,Elcott East 91/03-11 Single Well Battery,Vermilion Energy Inc.,Township 002,Saskatchewan,
21492,Princess 11-20-019-12w4,Journey Energy Inc.,,Alberta,
15602,Wapiti Comp Station 03-29,Cenovus Energy Inc.,,Alberta,
6810,Inuvik Plant,NWT Power Corp,Inuvik,Northwest Territories,X0E0T0
26276,13-22-043-22w4 Malmo,Ember Resources Inc.,Malmo,Alberta,
19880,Clive 06-32,Ember Resources Inc.,Clive,Alberta,
8594,Sanimax Lom,SANIMAX lom,MontrÃ©al,Quebec,H1C1G2
27530,Iron River 02-04-063-06w4 Pad,Devon Canada Corporation,Iron River Op,Alberta,
28720,Caribou B-015-F/094-G-07,Petronas Energy Canada Ltd.,Caribou (Montney),British Columbia,
23987,Dollard Oil Mwb 16-27,Crescent Point Energy Corp.,,Saskatchewan,
22551,Cecilia Sweet Gas Plant 14-36-057-23w5,Canadian Natural Resources Limited,,Alberta,
17739,Morrison Grand Forks 08-23,Sanling Energy Ltd.,,Alberta,T4H 5R6
22258,Wimborne Gas Battery 02-16-034-26w4,Canadian Natural Resources Limited,,Alberta,
24508,Caroline 13-35,Harvest Operations Corp.,,Alberta,T4H 5R6
30837,Hge 08-09-036-02w4 Battery,High Ground Energy Inc.,,Alberta,
16380,John Lake 13-16,Devon Canada Corporation,John Lake,Alberta,
10217,Dartmouth Terminal,Imperial Oil,Dartmouth,Nova Scotia,B2Y3Z7
17797,Craigmyle Compressor Station 13-05,Lone Pine Resources Canada Ltd.,Delia,Alberta,T0J 0W0
30751,01-27-032-28w3,Baytex Energy Ltd,,Saskatchewan,
18920,Northstar Provost 06-22,Harvest Operations Corp.,,Alberta,
18156,07-26-031-23w3,Baytex Energy Ltd,Calgary,Saskatchewan,T2P0R3
18906,West Tommy Lakes Comp Station 3 A-029-I,Enerplus Corporation,,British Columbia,
5247,Gordondale East Gas Plant,Spectra Energy Midstream Corporation,Spirit River,Alberta,
15753,Norwich Princess 1-30,Taqa North Ltd.,Princess,Alberta,
16836,South Valhalla Battery 13-08,Longshore Resources Ltd.,,Alberta,
15656,Pengrowth Coaldale 8-2,Alphabow Energy Ltd.,,Alberta,T4H 5R6
10976,Glanbrook Landfill Site,City of Hamilton,Hamilton,Ontario,L8E3X8
28996,Patry 7772 (D-028-B/094-O-12),Chevron Canada Resources,Fort Nelson,British Columbia,
5688,111 Progress,Atlantic Packaging Products Ltd.,Scarborough,Ontario,M1P2Y9
30748,01-22-083-15w5,Baytex Energy Ltd,,Alberta,
15344,10-09-037-19w4 Gadsby,Ember Resources Inc.,Stettler,Alberta,
26431,Torc Amelia Hz Swb 04-22-010-26w4,TORC Oil & Gas Ltd.,,Alberta,
4152,West Pembina Gp,Keyera Corp.,Drayton Valley,Alberta,
22153,Wapiti Comp Stn 07-08,Cenovus Energy Inc.,,Alberta,
22225,Elmworth Oil Battery 14-32,Cenovus Energy Inc.,,Alberta,
19543,Spirit River 06-03-078-07 W6,Tourmaline Oil Corp,Grand Prairie,Alberta,
22609,14-12-038-23w4 Bashaw,Ember Resources Inc.,Mirror,Alberta,
15086,Torc Workman Oil Battery 02-30-001-31w1,TORC Oil & Gas Ltd.,,Saskatchewan,
22068,Mearon Gas Battery 10-19-094-12w6,Canadian Natural Resources Limited,,Alberta,
24353,Bonavista Cherhill 16-24,Bonavista Energy Corporation,,Alberta,
10377,Big Trout Diesel Generating Station,Hydro One Remote Communities Inc.,Big Trout Lake,Ontario,P0V1G0
6439,Entreposage et Transbordement de Produits Chimiques,Somavrac Inc.,Trois-RiviÃ¨res,Quebec,G8Z2Y3
17066,Kakwa Gas Plant 10-07-063-05w6,Husky Oil Operations Limited,Amundson,Alberta,
21076,Portable Plant 020008,Border Paving Ltd.,Moosleigh,Alberta,
18381,Gutah 3 Comp Stn A-054-K,Canadian Natural Resources Limited,,British Columbia,
29934,Pinto 14-30-001-04 W2m,Spartan Energy Corp.,Pinto,Saskatchewan,
3553,West Hill,Chemtura Canada Co. CIE.,Scarborough,Ontario,M1E 3X7
30022,Wcp Whiteside 16-28-29-25w3 Mwb,Whitecap Resources Inc.,,Saskatchewan,
26181,Seal	16-08-084-18w5,Baytex Energy Ltd,Seal,Alberta,
29353,Torc Torquay Hz Oil Battery 13-09-002-11w2,TORC Oil & Gas Ltd.,,Saskatchewan,
25050,Dawson/Doe 1-32-80-15 W6,Tourmaline Oil Corp,Dawson Creek,British Columbia,
28945,Glacier Comp Stn 15-15,Advantage Oil and Gas Ltd.,,Alberta,
26273,03-19-037-20w4 Ewing Lake,Ember Resources Inc.,Ewing Lake,Alberta,
16967,Fairview Compressor Station 07-36-081-04w6,Canadian Natural Resources Limited,,Alberta,
4857,Nova Research & Technology Center,Nova Chemicals Corporation,Calgary,Alberta,T2E7K7
19000,Fenn/Big Valley Compressor Station 02-14,Lynx Energy Ulc,Fenn/Big Valley,Alberta,
30812,Pc Louise 12-08,Enercapita Energy Ltd.,Two Creek,Alberta,T2P3A8
18694,Westerose Comp Station 01-33,Cenovus Energy Inc.,,Alberta,
22967,Bryant Oil Mwb 13-15 (Tank),Crescent Point Energy Corp.,,Saskatchewan,
24525,Taylorton Oil Mwb 13-15,Crescent Point Energy Corp.,,Saskatchewan,
15268,Birch Comp Stn C-018-I,Canadian Natural Resources Limited,,British Columbia,
25008,5-1-77-17w6,Spectra Energy Midstream Corporation,Sundown,British Columbia,V0C9A9
18585,Delta (Comp) 1-3-14,City of Medicine Hat,Medicine Hat,Alberta,T1A8E6
19014,Med River 10-29-39-4,NAL Resources Management,Med River,Alberta,
29066,Lindbergh Sagd 04-25,Pengrowth Energy Corporation,Lindbergh,Alberta,
15883,Athabasca Gas Battery 07-17-066-23w4,Canadian Natural Resources Limited,,Alberta,
28827,Wilrich 16-27 Compressor Station,Repsol Oil & Gas Canada Inc.,,Alberta,
17494,Fayban Compressor Station 6-8-45-7w4,Cleo Energy Corp.,,Alberta,
15257,Stoddart Comp Stn 11-30,Canadian Natural Resources Limited,,British Columbia,T4H 5R6
30792,Cleartech Inland Way,Cleartech Industries Inc.,Edmonton,Alberta,T5V1K2
18413,Beg Comp Stn C-004-I,Canadian Natural Resources Limited,Ryan Tulloch,British Columbia,
15565,11-10-62-19w5,Paramount Resources Ltd.,,Alberta,
25225,Knopcik 07-07,Cardinal Energy Ltd.,Hythe,Alberta,T0H 2C0
18608,Connorsville Compressor Station 11-27-025-15w4,Canadian Natural Resources Limited,,Alberta,
28140,Jayar 14-29,Strath Resources Ltd,,Alberta,
16942,Samson Innisfail,Penn West Petroleum Ltd.,,Alberta,
30764,Leddy 13-06-084-25w5m,Canamax Energy Ltd,Leddy,Alberta,
15339,Lanaway,Paramount Resources Ltd.,Rocky Mountain House,Alberta,
23645,Cecil Lake Comp Stn 06-06,Canadian Natural Resources Limited,,British Columbia,
16761,Suffield A2 Sour Gas Plant,Ipc Alberta Ltd.,,Alberta,
27782,5-22-72-8w5m Pad,BlackPearl Resources Inc.,Slave Lake,Alberta,T0G 2A0
11174,Sarnia Cogen Plant,Imperial Oil,Sarnia,Ontario,N7T 7M5
28189,Avon Hill Oil Mwb 03-16,Crescent Point Energy Corp.,,Saskatchewan,
21032,06-17-042-22 W4 Nevis,Ember Resources Inc.,Nevis,Alberta,T2P3E5
30578,"02-14-081-18w6, 07-14-081-18w6 (Well Pad)",Encana Corporation,,British Columbia,
5287,Redwater Fractionation and Storage Facility,Pembina Pipeline Corporation,Redwater,Alberta,
3107,La Brasserie Labatt,Labatt Breweries of Canada LP,Lasalle,Quebec,H8R3E7
21212,Homeglen West 07-22,NAL Resources Management,Homeglen,Alberta,
17782,Brazeau Office 01-01,Westbrick Energy Ltd.,Clearwater County,Alberta,
15931,Bellis Compressor Station 10-15-059-16w4,Canadian Natural Resources Limited,,Alberta,
18744,Abbt0048774 (Red Earth Oil Battery 16-10-087-07w5) (Tank),Canadian Natural Resources Limited,,Alberta,
23526,13-27-041-21 W4m Bashaw,Ember Resources Inc.,Bashaw,Alberta,
10218,Edmonton Terminal,Imperial Oil,Edmonton,Alberta,T6C4G3
5255,Midale Complex,Cardinal Energy Ltd.,Weyburn,Saskatchewan,S4H3M8
24563,Torrington Meekwap 4-32,Penn West Petroleum Ltd.,,Alberta,
16351,Ferrier Sweet Gas Plant 09-22-039-08w5,Canadian Natural Resources Limited,,Alberta,
17831,Church Hill-Zargon 10-7-11-13w4,Zargon Oil and Gas Ltd.,Purple Springs,Alberta,T0K1X0
30160,Hcft 16-10 Booster,Lynx Energy Ulc,,Alberta,
18549,Galloway Compressor Station 13-26-054-22w5,Canadian Natural Resources Limited,,Alberta,
29904,Husky Lloyd Bt 13-04-049-02w4,Husky Oil Operations Limited,Vermilion River,Alberta,
10274,Carden Quarry,Miller Paving,Brechin,Ontario,L0K1B0
15789,Tweedie Compressor Station 01-19-068-12w4,Canadian Natural Resources Limited,,Alberta,
15381,Big Stick Compressor Station 12-13-014-27w3,Canadian Natural Resources Limited,,Saskatchewan,
29489,7g Pad 4-14 - 04-14-064-05w6,Seven Generations Energy Ltd.,Kakwa,Alberta,
5841,Bowmanville Cement Plant,St. Marys Cement Inc.,Bowmanville,Ontario,L1C3K3
16831,Verger Compressor Station 04-02-023-15w4,Canadian Natural Resources Limited,,Alberta,
28116,Lightning Oil Mwb 14-08,Crescent Point Energy Corp.,,Saskatchewan,
16249,Westerose Oil Battery and Comp Station 12-02,Cenovus Energy Inc.,,Alberta,
17572,Mega Compressor Station 07-13,Obsidian Energy Ltd.,,Alberta,
7839,Line Creek Operations,Teck Coal Limited,Sparwood,British Columbia,V0B2G0
18939,Celtic Gas Plant 11-09-052-23w3,Husky Oil Operations Limited,Paradise Hill,Saskatchewan,S0M 2G0
22115,Willesden Green Oil Battery 01-31,Cenovus Energy Inc.,,Alberta,
29555,Basing 08-17,Tourmaline Oil Corp,Calgary,Alberta,
15994,Flat Lake Compressor Station 13-12-066-20w4,Canadian Natural Resources Limited,,Alberta,
5591,Usine de Bedford,Graymont (QC) Inc.,Bedford,Quebec,J0J1A0
29776,Willesden Green 08-10,Westbrick Energy Ltd.,Clearwater County,Alberta,
22822,Carnduff Oil Mwb 07-36 (Tank),Crescent Point Energy Corp.,,Saskatchewan,
2760,Drayton Valley Sawmill,Weyerhaeuser Company Limited,Drayton Valley,Alberta,T7A1S8
15402,Horsham Compressor Station 16-33-017-29w3,Canadian Natural Resources Limited,,Saskatchewan,
15127,Hoole South Sour Gas Plant 16-36,Tidewater Midstream and Infrastructure Ltd.,,Alberta,
29233,Xto 15-25-62-22-W5 Gas Multiwell Batt,XTO Energy Canada ULC,Calgary,Alberta,T2C5N1
30857,Karr Bt 05-36-065-03w6,Husky Oil Operations Limited,M.D. of Greenview No. 16,Alberta,
22889,Kelly Comp Stn C-027-B,Encana Corporation,,British Columbia,
23864,Torc Weirhill Oil Mwb 05-34-005-06w2,TORC Oil & Gas Ltd.,,Saskatchewan,
17872,Moose Mountain Compressor Station,Shell Canada Limited,Calgary,Alberta,T2P 0M5
27689,Ojay Comp Stn D-013-G,Canadian Natural Resources Limited,Mel Vollman,British Columbia,
29938,Rife Soda Lake 01-20,Rife Resources Ltd.,Calgary,Saskatchewan,T2P 3N4
22378,Long Lake Project,Nexen Inc.,Fort McMurray,Alberta,T9H3H5
21367,Wauchope Oil Mwb 16-27,Crescent Point Energy Corp.,,Saskatchewan,
21357,Glen Ewen Oil Battery 05-14,Crescent Point Resources Partnership,,Saskatchewan,
24354,North Rosevear Former Sour Gp,Bonavista Energy Corporation,Rosevear,Alberta,
23102,Melrose Oil Mwb 07-25,Crescent Point Energy Corp.,,Saskatchewan,
2539,Combermere Treating Plant,Pastway Planing Ltd.,Combermere,Ontario,K0J1L0
29626,Eastend Oil Swb 01-28,Crescent Point Energy Corp.,,Saskatchewan,
15242,Hays Oil Battery 12-18-013-14w4,Canadian Natural Resources Limited,,Alberta,
16008,Mills Compressor Station 14-06-071-11w4,Canadian Natural Resources Limited,,Alberta,
27359,Rigel B-48-J,Bonavista Energy Corporation,Rigel,British Columbia,
15542,12-18-036-08w5,Paramount Resources Ltd.,,Alberta,
15469,4-30-29-19 W4m,Bearspaw Petroleum Ltd.,Drumheller,Alberta,T0J0Y0
5449,"Clean Harbors Mercier, Inc.","Clean Harbors Canada, Inc.",Mercier,Quebec,J6R2L1
28906,Dunvegan Sat #2 Gas Battery 16-17-081-04w6,Canadian Natural Resources Limited,,Alberta,
27910,Willesden Green 14-05,Westbrick Energy Ltd.,Brazeau No. 77,Alberta,
18423,Cache North Comp Stn C-016-L,Canadian Natural Resources Limited,,British Columbia,T4H 5R6
18949,Edgerton Battery 01-24,Caltex Resources Ltd.,,Alberta,T4H 5R6
23427,Wapiti Comp Station 06-13,Cenovus Energy Inc.,,Alberta,
