NPRI ID,Facility name,Company name,Address,Province,Latitude,Longitude
28822,Peoc Mannv 14-25-50-9w4 Proration,Perpetual Energy Inc.,,Alberta,53.34861,-111.190373
17534,Bigoray Sour Gas Plant 06-28,Obsidian Energy Ltd.,,Alberta,53.4287,-115.1258
21320,Elmworth Comp Stn 06-23,Cenovus Energy Inc.,,Alberta,54.9869,-119.7196
18939,Celtic Gas Plant 11-09-052-23w3,Husky Oil Operations Limited,,Saskatchewan,53.4762,-109.3443
24464,Bilbo Compressor Station 04-23-066-08w6,Canadian Natural Resources Limited,,Alberta,54.723108,-119.104521
21186,Midale Oil Mwb 16-23,Crescent Point Energy Corp.,,Saskatchewan,49.4918,-103.3771
1106,Altasteel,AltaSteel Ltd.,9401 34th Street,Alberta,53.5291,-113.3875
3466,Pictou County Plant,Michelin North America (Canada),2863 Granton Road,Nova Scotia,45.6174,-62.737
28618,Laglace Oil Battery 14-29-074-08w6,Kelt Exploration,,Alberta,55.44636,-119.19392
22578,Donelly 06-01-077-21w5,Guide Exploration Ltd.,,Alberta,55.6405,-117.1193
24520,Nottingham Oil Battery 09-02,Legacy Oil + Gas Inc.,,Saskatchewan,49.452889,-101.689392
18448,Fireweed Comp Stn D-052-H,Canadian Natural Resources Limited,,British Columbia,56.8812,-121.5156
3163,Darlington Nuclear,Ontario Power Generation Inc.,1 Holt Road,Ontario,43.8681,-78.725
22087,Rigel Oil Battery A-014-A/094-A-15,Canadian Natural Resources Limited,,British Columbia,56.7604,-120.5406
30405,Oungre Oil Mwb 15-31,Crescent Point Energy Corp.,,Saskatchewan,49.08484,-103.59525
25405,Pouce Coupe 14-27,Insignia Energy Ltd.,14-27-77-11,Alberta,55.670280000000005,-119.51497
2991,Hinton Pulp,West Fraser Mills Ltd.,760 Switzer Drive,Alberta,53.4133,-117.5706
21997,06-04-040-21w4 Bashaw,Ember Resources Inc.,,Alberta,52.4101,-112.9697
31009,Vermilion 8-16-38-21,Vermilion Energy Inc.,,Alberta,52.26458,-112.93929
29697,15-21-004-08w2 Oil Battery,TORC Oil & Gas Ltd.,,Saskatchewan,49.317098,-103.023872
15998,Wild Hay Gas Battery 13-24-055-25w5,Canadian Natural Resources Limited,,Alberta,53.7706,-117.6014
16345,Goodfish South Sour Gas Plant 03-32-091-08w5,Canadian Natural Resources Limited,,Alberta,56.7315,-115.6115
29241,Green Electron Power Plant,Greenfield South Power Corporation,477 Oil Springs Line,Ontario,42.7849,-82.4276
27472,Basing Battery 16-33,Canlin Energy Corporation,,Alberta,53.103131000000005,-116.8566
29716,Husky Gull Lk N Unit #8 (Shaunavon),Whitecap Resources Inc.,,Saskatchewan,50.133267,-108.504532
22494,Jumping Pound 5-7 Well Site Compressor,Shell Canada Limited,,Alberta,51.1182,-114.5558
18581,Rattlesnake 13-9,City of Medicine Hat,,Alberta,49.9883,-110.914
23825,Iron River 09-26-64-8w4 Pad,Devon Canada Corporation,,Alberta,54.5679,-111.0928
18639,Gilby Gas Battery 07-23,Cenovus Energy Inc.,,Alberta,52.5412,-114.3227
16763,Alderson West Sour Gas Plant 06-02-016-15w4,Torxen Energy Ltd.,,Alberta,50.3147,-111.9684
4772,Oil Recovery Division,Safety-Kleen Canada Inc.,300 Woolwich Street South,Ontario,43.465,-80.4076
1698,Belledune Generating Station,NB Power Nuclear Corporation,1558 Main Street,New Brunswick,47.9058,-65.867
17983,Josephine Compressor Station 08-21-082-10w6,Canadian Natural Resources Limited,,Alberta,56.1203,-119.4975
17319,HomesteadÂ HattonÂ 14-Â­2Â Battery,PineÂ CliffÂ EnergyÂ Ltd.,,Saskatchewan,50.0604,-109.7331
5286,West Stoddart Gas Processing Plant,Canadian Natural Resources Limited,,British Columbia,56.5825,-121.254
15728,Cr3 Comp Stn D-021-L,Canadian Natural Resources Limited,,British Columbia,57.6891,-120.3815
25155,Hope Bay Site,Tmac Resources Inc.,,Nunavut,68.0399,-106.574464
22171,Berland River West Comp Stn 09-05,Cenovus Energy Inc.,,Alberta,54.0748,-117.5533
4890,Saint John Plant,Moosehead Breweries Ltd.,89 Main Street,New Brunswick,45.2577,-66.0974
21246,Free Fight 16-27-16-24w3,City of Medicine Hat,,Saskatchewan,50.3823,-109.2144
24534,Ojay Comp Stn D-055-A,Canadian Natural Resources Limited,,British Columbia,58.547917000000005,-120.05312
30323,Smith Compressor Station 11-34-071-02w5,Canadian Natural Resources Limited,,Alberta,55.1941,-114.223
22051,Chard Compressor Station 10-02-080-06w4,Canadian Natural Resources Limited,,Alberta,55.8446,-111.0914
29494,Kaybob 1-31-062-20w5,Chevron Canada Resources,,Alberta,54.40071,-116.97784
30329,Pinto Oil Swb 09-07-003-02w2,TORC Oil & Gas Ltd.,,Saskatchewan,49.19718,-102.2562
24217,Killam 06-30-041-14w4,Zargon Oil and Gas Ltd.,700 - Township Road 414,Alberta,52.55594,-112.0113
29243,Msn 09-16-084-18w5 Pad,Baytex Energy Ltd,,Alberta,56.284698,-116.772007
30230,Gilby Oil Swb 08-28-040-04w5,Repsol Oil & Gas Canada Inc.,,Alberta,52.47051999999999,-114.50858999999998
444,Copper Cliff Smelter,Vale Canada Limited,18 Rink Street,Ontario,46.4786,-81.0553
23502,Iron River 08-31-063-07w4 Pad,Devon Canada Corporation,,Alberta,54.4912,-111.0414
17845,Med River 6-29-43-01w5,NAL Resources Management,,Alberta,52.732586,-114.113545
4146,South Caroline Compressor Station,Paramount Resources Ltd.,,Alberta,51.9265,-114.5427
21538,Rose Creek 6-7-73-6w5 Ggs,Harvest Operations Corp.,,Alberta,52.6894,-114.8623
18478,Kimea Comp Stn D-031-D,Canadian Natural Resources Limited,,British Columbia,59.5312,-120.8781
30763,Grimshaw 03-29-083-23w5m,Canamax Energy Ltd,,Alberta,56.219362,-117.599369
28904,Karr Creek Oil Battery 15-36-065-04w6,Canadian Natural Resources Limited,,Alberta,54.674231000000006,-118.462871
8603,SociÃ©tÃ© de CogÃ©nÃ©ration de St-FÃ©licien,SociÃ©tÃ© de CogÃ©nÃ©ration de St-FÃ©licien,0 - 1250 de l'Ãnergie Rue,Quebec,48.6375,-72.4338
7243,Stoney Creek Plant,Lafarge Canada Inc. - East,360 Jones Road,Ontario,43.2234,-79.6875
28488,Harmon Valley 09-18-084-18w5,Baytex Energy Ltd,,Alberta,56.28451,-116.82315
2781,Shell Panther Battery,Canlin Energy Corporation,,Alberta,51.5708,-114.8517
15338,Bashaw D3 10-06,Quattro Exploration & Production Ltd.,,Alberta,52.5884,-113.1618
18344,Sedalia 16-27-031-06w4,Baytex Energy Ltd,,Alberta,51.6898,-110.7616
6516,Taber Plant,Conagra Limited,10 Km East Hwy 3 Highway,Alberta,49.6939,-112.0962
1147,Rabbit Lake Operation,Cameco,2121 11th Street West,Saskatchewan,58.1938,-103.7158
22491,Seal Lake 8-8,Baytex Energy Ltd,,Alberta,56.1731,-116.199
29582,Rrx Milton 1-21,Baytex Energy Ltd,,Alberta,51.49062,-110.07832
26188,Tangleflags 02-29-050-24w3,Baytex Energy Ltd,,Saskatchewan,53.33669,-109.4749
17933,Pembina 12-31,Signalta Resources Ltd.,,Alberta,53.3595,-114.878
17124,Arrowood 01-07-020-25 W4,Houston Oil & Gas Ltd.,,Alberta,50.675,-113.4522
17484,Pembalta #7 Sour Gas Plant 04-34,Obsidian Energy Ltd.,,Alberta,53.0904,-115.245
15855,Hillsdown Compressor Station 06-04-038-24w4,Canadian Natural Resources Limited,,Alberta,52.2358,-113.3777
26431,Torc Amelia Hz Swb 04-22-010-26w4,TORC Oil & Gas Ltd.,,Alberta,49.84349,-113.45275
18926,Karr Gold Creek 15-19-066-04w6,Paramount Resources Ltd.,,Alberta,54.7308,-118.5922
17297,Court Battery 06-25,Cona Resources Ltd.,,Saskatchewan,51.8574,-109.8527
27792,Conserve Taber 12-6-8-15-W4,Conserve Oil Corporation,,Alberta,49.62026,-112.03401
16028,Knappen Compressor Station 16-01-002-12w4,Canadian Natural Resources Limited,,Alberta,49.0986,-111.4764
28415,Hatton Battery 7-23,Canlin Energy Corporation,,Saskatchewan,50.009568,-109.585698
28996,Patry 7772 (D-028-B/094-O-12),Chevron Canada Resources,,British Columbia,59.52291,-123.71562
16135,16-18-26-26-W4m Lyalta Comp Stn,Ember Resources Inc.,,Alberta,51.2252,-113.6126
6055,"Norampac Moncton Division, A Division of Cascades Canada Ulc",Cascades Canada ULC.,232 Baig Boulevard,New Brunswick,46.074,-64.8254
30630,Lre - Bashaw Gas Plant 12-32,Guide Exploration Ltd.,,Alberta,52.5746,-112.8551
7738,Feed Mill,Otter Farm & Home Co-Operative,3548 248th Street,British Columbia,49.0664,-122.5363
1979,Papeterie de Dolbeau,Produits Forestiers RÃ©solu,1 4iÃ¨me Avenue,Quebec,48.8791,-72.2189
21370,Weyburn Oil Mwb 13-02,Crescent Point Energy Corp.,,Saskatchewan,49.5347,-103.794
17536,Sousa Sweet Gas Plant 11-31,Obsidian Energy Ltd.,,Alberta,58.6833,-118.67
19313,Countess 10-09-020-16w4,Journey Energy Inc.,,Alberta,50.683,-112.16
11866,Peterborough County/City Waste Management Facility,City of Peterborough,1260 Bensfort Road,Ontario,44.2227,-78.2821
22282,Wilson Ck 03-13-042-04 W5 Gs,Bonavista Energy Corporation,,Alberta,52.6136,-114.4511
19604,Strath Provost Multi-Well Oil Battery 11-27,Prairie Provident Resources,1100 - 640 5 Avenue Southwest,Alberta,52.2103,-110.496
30390,Abbt6850511,Sinopec Canada,,Alberta,53.13964,-114.38248
29121,Sunrise 15-02,Tourmaline Oil Corp,,British Columbia,55.91072,-120.385347
27944,Torc Pembina Compressor Station 01-36-050-13w5,TORC Oil & Gas Ltd.,,Alberta,53.354296,-115.760089
29377,Nce Kerrobert 3-27 Bty,Whitecap Resources Inc.,,Saskatchewan,51.767037,-109.184871
6270,Groupe Lebel(2004)inc.,Groupe Lebel (2004) Inc.,1 Mitis,Quebec,48.5958,-68.122
22319,Crawling Valley Comp Stn 06-33-023-18w4,Torxen Energy Ltd.,,Saskatchewan,51.007,-108.4489
17831,Church Hill-Zargon 10-7-11-13w4,Zargon Oil and Gas Ltd.,Township Road 112,Alberta,49.8964,-111.7656
21571,Huntoon Oil Mwb 02-18 (Tank),Crescent Point Energy Corp.,,Saskatchewan,49.5537,-103.2118
18901,Sylvan 07-13-37-03-5,NAL Resources Management,,Alberta,52.1773,-114.2963
20103,Windermere Mining Operation,"Certainteed Gypsum Canada, Inc.",1564 Windermere Loop Road,British Columbia,50.4828,-115.946
15225,Progress Compressor Station 08-04-077-11w6,Canadian Natural Resources Limited,,Alberta,55.6417,-119.635
28835,Tommy Lakes Comp Stn A-043-I,Canadian Natural Resources Limited,,British Columbia,57.702083,-122.028125
27496,St. Anne 13-26-054-05 W5m,Guide Exploration Ltd.,,Alberta,53.694115,-114.62815
29270,Richmound Compressor Station 13-32-017-28w3,Canadian Natural Resources Limited,,Saskatchewan,50.479033,-109.828953
1486,Mackenzie Pulp Mill,Mackenzie Pulp Mill Corporation,1000 Coquawaldi Road,British Columbia,55.2914,-123.1592
20016,Nechako Lumber Company Ltd.,Nechako Lumber Company Ltd.,1241 Highway West,British Columbia,54.014177,-124.05468700000002
3754,Kaybob Gas Plant,Paramount Resources Ltd.,,Alberta,54.5247,-116.7943
28998,La Jolie B-003-K/094-O-12,Chevron Canada Resources,,British Columbia,59.66875,-123.78438
6559,Sylvan Lake Gas Plant 14-32-037-03w5m,NAL Resources Management,,Alberta,52.2284,-114.3977
17586,Boundary Battery 7-32-84-14,Canlin Energy Corporation,,British Columbia,56.3298,-120.1734
6394,Bromont,Unifix Inc.,35 Unifix Rue,Quebec,45.3018,-72.72399999999999
28863,Progress Oil Battery 06-29-077-11w6,Canadian Natural Resources Limited,,Alberta,55.699601,-119.671219
27940,Torc Alameda Oil Battery 07-22-003-03w2,TORC Oil & Gas Ltd.,,Saskatchewan,49.222643,-102.328931
18123,Enchant Sour Gas Plant,AltaGas Ltd.,,Alberta,50.1683,-112.2998
30838,Hge 15-10-035-05w4 Compressor,High Ground Energy Inc.,,Alberta,51.99382,-110.6303
23468,Richland Weyburn Oil Battery 10-22,Crescent Point Resources Partnership,,Saskatchewan,49.488,-103.8087
16511,Cavalier Sweet Gas Plant 16-32,Lynx Energy Ulc,,Alberta,51.0062,-113.176
16049,Osprey Comp Stn A-003-J,Canadian Natural Resources Limited,,British Columbia,56.9185,-120.6549
28716,Gold Creek Compressor Station 05-11-068-06w6,Canadian Natural Resources Limited,,Alberta,54.87039,-118.8102
16426,Wargen Comp Stn D-056-C,Canadian Natural Resources Limited,,British Columbia,57.0478,-121.3175
29094,Solumet Metal and Powder Inc,Solumet Metal and Powder Inc.,3654 Chemin de la Cote Bissonnette,Quebec,45.716893,-73.427604
24523,Crystal Hills Oil Mwb 13-02 (Tank),Crescent Point Energy Corp.,,Saskatchewan,49.79742,-102.048556
16149,Mitsue Sour Gp 10-30-72-4w5,Cardinal Energy Ltd.,,Alberta,55.2656,-114.6014
1070,Essar Steel Algoma Inc,Essar Steel Algoma Inc.,105 West Street North,Ontario,46.5208,-84.3697
27129,Queensdale 02-15-006-01 W2m,Spartan Energy Corp.,,Saskatchewan,49.466644,-102.059705
6473,Ottawa,Kemira Water Solutions Canada Inc.,2810 Sheffield Road,Ontario,45.3976,-75.6036
26187,Greencourt 01-29-059-06w5,Baytex Energy Ltd,,Alberta,54.119632,-114.853941
15425,Glen Ewen Oil Battery 02-10,ARC Resources,,Saskatchewan,49.1909,-102.0534
25212,2-36-76-18w4m,BlackPearl Resources Inc.,,Alberta,55.622580000000006,-112.65492
21548,Tucker Thermal,Husky Oil Operations Limited,0,Alberta,54.3427,-110.3287
5255,Midale Complex,Cardinal Energy Ltd.,,Saskatchewan,49.4583,-103.4732
4142,Fort Saskatchewan Storage and Fractionation,Plains Midstream Canada,11010 125 Street,Alberta,53.7575,-113.1499
30689,7g 9-28-064-04w6,Seven Generations Energy Ltd.,,Alberta,54.573525,-118.541641
15770,Cdn Forest Penhold,Taqa North Ltd.,,Alberta,52.1229,-113.847
28243,Morningside 11-35 Comp,Bonavista Energy Corporation,,Alberta,52.663175,-114.040656
27983,Green D-039-C/094-G-10,Petronas Energy Canada Ltd.,,British Columbia,57.53106,-122.85463
28424,Tqn Herron 100/12-26-019-24w4/0 Mwb,Taqa North Ltd.,,Alberta,50.63873,-113.234656
16502,Hussar Crowfoot Compressor Station 06-05,Lynx Energy Ulc,,Alberta,51.0134,-112.9076
5095,Mcadam Wallboard Plant,"Certainteed Gypsum Canada, Inc.",57 Quality Way,New Brunswick,45.586864,-67.313001
6696,Calgary Plant,Canada Malting Co Ltd.,3316 Bonnybrook Road,Alberta,51.0245,-114.025
21387,Horse 05-29 -058-22-W5,Tourmaline Oil Corp,,Alberta,54.0557,-117.2439
28,Cornwall Site,BASF Canada Inc.,501 Wallrich Avenue,Ontario,45.0189,-74.7551
15449,Baytex Darwin Gas Plant 16-28-094-18w5,Baytex Energy Ltd,,Alberta,57.1897,-119.0548
30268,Kaybob Oil Mwb 04-16-060-20w5,Canadian Natural Resources Limited,,Alberta,54.18309,-116.94837
28228,Whitemud Oil Swb 15-33,Crescent Point Energy Corp.,,Saskatchewan,49.434532,-108.637592
16057,Bulrush Comp Stn B-038-K,Canadian Natural Resources Limited,,British Columbia,56.9441,-120.3458
17921,Berrymoor Sour Gas Plant 11-31,ARC Resources,,Alberta,53.2723,-114.7253
17340,Encal Grande Prairie 14-19-72-6,Taqa North Ltd.,,Alberta,55.2547,-118.9178
15922,Dunvegan Sweet Gas Plant 10-04-066-23w5,Canadian Natural Resources Limited,,Alberta,54.6856,-117.4144
16491,Pouce Coupe Gas Plant,Spectra Energy Midstream Corporation,,Alberta,55.9439,-119.9231
29619,Montney Comp Station 04-17,ConocoPhillips Canada Resources Corp.,,British Columbia,56.626514,-121.800358
28137,Seal 09-09-084-18w5,Baytex Energy Ltd,,Alberta,56.270078000000005,-116.772031
30364,Torc Pinto Oil Mwb 14-13-002-02w2,TORC Oil & Gas Ltd.,,Saskatchewan,49.12979,-102.15472
16007,Brightview Hoadley Compressor Station 14-02-046-01w5,Canadian Natural Resources Limited,,Alberta,52.9419,-114.0434
29459,Blv Aggregate,Burnco Rock Products Ltd,12411 85 Street Northwest,Alberta,51.1648,-114.21755
29939,Rife Soda Lake 08-20,Rife Resources Ltd.,400 - 144 4th Avenue Avenue Southwest,Saskatchewan,53.065002,-109.470243
29493,Chevron 06-25-059-20w5 Multiwell Bat,Chevron Canada Resources,,Alberta,54.129540000000006,-116.86783
23770,Cascade Valhalla,Taqa North Ltd.,,Alberta,55.6048,-119.3411
4063,Prince George Pulp and Paper and Intercontinental Pulp Mills,Canfor Pulp Limited Partnership,2789 Prince George Pulp Mill Road,British Columbia,53.925,-122.6944
30752,13-19-032-02w4,Baytex Energy Ltd,,Alberta,51.762368,-110.283082
28623,Bonnie Glen Battery 12-8,Petrus Resources Ltd.,,Alberta,53.041369,-113.923896
16787,Willesden Green Gas Battery 16-12-042-08w5,Enerplus Corporation,,Alberta,52.6065,-115.0144
28696,Eastend Oil Swb 14-08,Crescent Point Energy Corp.,,Saskatchewan,49.463649,-108.531049
23973,Wapiti Comp Stn 11-20,Cenovus Energy Inc.,,Alberta,54.72886999999999,-119.6277
26618,Para 08-13-063-05w6 Musreau Gas Plant,Pembina Pipeline Corporation,,Alberta,54.448884,-118.594666
18010,Tourmaline Musreau 02/08-13-062-06-W6 Ggs,Tourmaline Oil Corp,,Alberta,54.3597,-118.7563
7349,Leysons Chemical Products,597401 Ontario Ltd.,1366 Sandhill Drive,Ontario,43.1913,-80.0276
21422,Ghost Hills Comp Stn 05-19,Ember Resources Inc.,0,Alberta,51.669,-113.1199
11734,Bfg Canada Inc.,BFG Canada Inc.,1760 Strasburg Road,Ontario,43.3944,-80.4692
16052,Fireweed Comp Stn A-048-A,Canadian Natural Resources Limited,,British Columbia,56.7858,-121.5931
5000,Mccain Foods (Canada) - Pei,McCain Foods Canada Ltd.,23266 Tch Highway,Prince Edward Island,46.2626,-63.6486
17573,Petro-Can Med Hat #1,Canlin Energy Corporation,,Alberta,50.2712,-110.3769
16237,Huxley Sweet Gas Plant 6-17,PineÂ CliffÂ EnergyÂ Ltd.,,Alberta,51.9151,-113.3737
17796,Turin K-19,Sanling Energy Ltd.,,Alberta,50.0131,-112.3931
16233,Cessford Sweet Gas Plant 02-08-024-12w4,Canadian Natural Resources Limited,,Alberta,51.0245,-111.6428
16306,Ferrybank Compressor Station 03-31-044-27w4,Canadian Natural Resources Limited,,Alberta,52.8296,-113.9109
5575,Lvl Global Inc,LVL Global Inc,48 Boivin Rue,Quebec,47.3283,-79.4294
30455,Pc Hanlan Robb 11-6,Canlin Energy Corporation,,Alberta,52.85232,-116.45818
29776,Willesden Green 08-10,Westbrick Energy Ltd.,,Alberta,52.776095,-115.213564
22313,Hythe Comp Stn D-033-I,Encana Corporation,,British Columbia,55.4488,-120.034
16563,Cassils Comp Stn 13-24-019-15w4,Torxen Energy Ltd.,,Alberta,50.6279,-111.9656
6224,Eacom Timber Corp - Scierie de Matagami,EACOM Timber Corporation,Usine Eacom Timber Matagami - 2000 Parc Indus,Quebec,49.7287,-77.6978
27932,Flagstone MacOun Oil Battery 16-30-004-08w2,TORC Oil & Gas Ltd.,,Saskatchewan,49.322678,-103.077008
15930,Minehead Compressor Station 10-12-049-18w5,Canadian Natural Resources Limited,,Alberta,53.2159,-116.497
28915,Wilder Sweet Gas Plant 10-14,Crew Energy Inc.,,British Columbia,56.11009,-121.02236
485,Ingredion Canada Incorporated - London Plant,Ingredion Canada Incorporated,1100 Green Valley Road,Ontario,42.9217,-81.1942
31017,Weir Hill 1-1 Bty,Vermilion Energy Inc.,,Saskatchewan,49.43703,-102.68239
16864,Swalwell Sweet Gas Plant 14-35,Ember Resources Inc.,0,Alberta,51.5313,-113.2763
21024,01-29-043-21w4 Lamerton,Ember Resources Inc.,434 Township Road Road,Alberta,52.7287,-113.0065
22878,Dawson Creek Comp Stn 09-15,Encana Corporation,,British Columbia,55.6741,-120.2275
22550,Godin Compressor Station 15-19-081-01w5,Canadian Natural Resources Limited,,Alberta,56.0391,-114.1392
21216,Workman 11-25,Spartan Energy Corp.,,Saskatchewan,49.0676,-101.6447
16083,Buick South Comp Stn D-078-I,Canadian Natural Resources Limited,,British Columbia,56.7315,-121.0901
23325,Ferrier Gas Gathering,Bonavista Energy Corporation,,Alberta,52.5631,-115.0772
21578,Viewfield Oil Mwb 03-20,Crescent Point Energy Corp.,,Saskatchewan,49.5711,-103.0517
5463,Centre de Finition MontrÃ©al,Bombardier Inc.,200 CÃ´te Vertu,Quebec,45.4787,-73.7228
30860,Mannville Swb 04-15-052-07w4,Husky Oil Operations Limited,,Alberta,53.4836,-110.962827
15336,10-22-042-21w4 Lamerton,Ember Resources Inc.,,Alberta,52.632,-112.9454
28885,Duncan Compressor Station 09-33-076-14w4,Canadian Natural Resources Limited,,Alberta,55.629906000000005,-112.105065
17996,Petromet Wild River 10-20 Plant,Repsol Oil & Gas Canada Inc.,,Alberta,53.8543,-117.3912
28323,Karr Creek Compressor Station 12-35-063-02w6,Canadian Natural Resources Limited,,Alberta,54.496033,-118.198402
21677,Mistahae Compressor Station 06-07-078-01w5,Canadian Natural Resources Limited,,Alberta,55.743,-114.1474
29584,Rrx Sedalia 4-9,Baytex Energy Ltd,,Alberta,51.810798,-110.6633
5344,Manning,Manning Diversified Forest Products Ltd.,SE 26 93 23 W5,Alberta,57.094098,-117.580416
27866,Hangingstone Expansion Project,Japan Canada Oil Sands Limited,,Alberta,56.27721,-111.62239
18067,Leedale Compressor Station 9-21-43-4w5m,OMERS Energy Inc.,3000 - 520 3rd Avenue Southwest,Alberta,52.9582,-114.6799
1776,Corunna Site,Nova Chemicals (Canada) Ltd.,0 - 785 Petrolia Line,Ontario,42.8825,-82.4044
28710,Peyto Brazeau 06-12-044-13 W5m,Peyto Exploration and Development Corporation,1500 - 250 2 Street Southwest,Alberta,52.77745,-115.75684
27479,Shaw Gathering System,Canlin Energy Corporation,,Alberta,53.217954000000006,-116.786577
17282,Sousa Oil Battery 15-25,NuVista Energy Ltd.,,Alberta,58.7615,-118.6904
29478,Seal 05-22-082-18w5,Baytex Energy Ltd,,Alberta,56.121616,-116.73816200000002
23805,Torc Willmar Oil Battery 11-02-005-04w2,TORC Oil & Gas Ltd.,,Saskatchewan,49.3577,-102.4452
5477,Mont-Laurier,Saputo Produits Laitiers Canada S.E.N.C.,1485 Paquette,Quebec,46.553002,-75.46837099999999
30581,03-31-080-17w6 (Well Pad),Encana Corporation,,British Columbia,55.97254,-120.65755
2221,Port Hawkesbury Paper,NewPage,120 Pulp Mill Road,Nova Scotia,45.5982,-61.3601
30579,02-22-080-17w6 (Well Pad),Encana Corporation,,British Columbia,55.943026,-120.568933
3928,Raffinerie Jean-Gaulin,Ultramar LimitÃ©e,165 Chemin des Iles,Quebec,46.7592,-71.1914
29014,13-15-36-24-W4m Ghost Pine Comp Stn,Ember Resources Inc.,,Alberta,52.098528,-113.360509
24456,Killam Oil Mwb 14-14,Crescent Point Energy Corp.,,Alberta,52.621511,-111.915255
27939,Torc MacOun Oil Battery 14-25-003-09w2,TORC Oil & Gas Ltd.,,Saskatchewan,49.244352,-103.096635
15371,14-34-040-22w4 Nevis,Ember Resources Inc.,,Alberta,49.8711,-112.9137
28783,Torc Wordsworth Oil Battery 09-27-006-05w2,TORC Oil & Gas Ltd.,,Saskatchewan,49.5029,-102.59264
3394,Irving Paper,Irving Paper Limited,435 Bayside Drive,New Brunswick,45.2788,-66.0249
22551,Cecilia Sweet Gas Plant 14-36-057-23w5,Canadian Natural Resources Limited,,Alberta,53.9757,-117.2875
16043,Ashmont Compressor Station 16-20-061-09w4,Canadian Natural Resources Limited,,Alberta,54.2944,-111.3067
18109,Arcola 9-27 Bty,Vermilion Energy Inc.,,Saskatchewan,49.6783,-102.3203
17897,Long Coulee 08-04-016-22 W4m,Surge Energy Inc.,,Alberta,50.3147,-112.9678
29070,Bowser Mineral Property,Pretium Resources Inc.,37 Highway,British Columbia,56.39246,-129.95158999999998
18542,Thunder Comp Stn D-031-H,Canadian Natural Resources Limited,,British Columbia,54.8646,-120.5031
24239,Provost 13-10-40-2w4,Zargon Oil and Gas Ltd.,Range Road 23,Alberta,52.4321,-110.2179
16591,Entice System 2 Sweet Gas Plant 01-24,Ember Resources Inc.,0,Alberta,51.4026,-113.2474
21212,Homeglen West 07-22,NAL Resources Management,,Alberta,52.6304,-114.3456
21380,12-30-66-26w4 Compressor,Sabre Energy Ltd.,,Alberta,54.7406,-113.9316
30857,Karr Bt 05-36-065-03w6,Husky Oil Operations Limited,,Alberta,54.666974,-118.324264
18139,Kelsey Gas Plant 06-13,Ember Resources Inc.,,Alberta,52.7884,-112.4898
24558,Virginia Hills Ob 04-07-65-12w5,Razor Energy Corp.,,Alberta,54.604544,-115.81301100000002
17205,Princess #2 (08-16-20-10 W4),Imaginea Energy,,Alberta,50.6931,-111.3222
10153,"Xstrata Copper Canada Division, Kidd Mine Site",Glencore Canada Corporation,11335 Highway 655 North Highway North,Ontario,48.687,-81.3701
30023,Whitecap Boundarylake 05-17-084-13 002,Whitecap Resources Inc.,,British Columbia,56.28183000000001,-120.02414
3935,Ikkuma Sierra C-091-D/094-I-14,Ikkuma Resources Corp.,,British Columbia,58.8311,-121.3859
16880,Gleichen Compressor Station 04-01,Lynx Energy Ulc,,Alberta,50.8351,-112.799
29799,C-041-G/093-P-09 Sclh,Encana Corporation,,British Columbia,55.62291999999999,-120.13437
29906,Husky Lloyd Bt 15-04-049-02w4,Husky Oil Operations Limited,,Alberta,53.203442,-110.233992
22559,Cantal 14-20-005-33 W1m,Spartan Energy Corp.,,Saskatchewan,49.4107,-101.9038
29932,Pinto 14-18-001-04 W2m,Spartan Energy Corp.,,Saskatchewan,49.041313,-102.535221
6836,Central Energy Plant (Powerhouse),University of Manitoba,33 MacLean Crescent,Manitoba,49.8071,-97.1324
24324,Arc Weyburn Oil Battery 15-33,ARC Resources,,Saskatchewan,49.520874,-103.831053
1033,Battle River Generating Station,Alberta Power (2000) Ltd.,,Alberta,52.5647,-112.1414
30755,11-02-047-15w5,Boulder Energy Ltd.,,Alberta,53.029192,-116.086355
24435,Berland Gas Battery 16-28,Cenovus Energy Inc.,,Alberta,54.134553,-117.53191
30875,Pouce Coupe 02-27,Insignia Energy Ltd.,,Alberta,55.705485,-119.6207
21492,Princess 11-20-019-12w4,Journey Energy Inc.,,Alberta,50.626000000000005,-111.6269
29869,Freeman 1-11,Coastal Resources Ltd.,1400 - 520 5th Avenue Southwest,Alberta,54.6934,-115.84641
29533,Aiken Creek Sour Gas Plant C-038-C,Black Swan Energy,,British Columbia,57.03125,-121.84687
19958,Grande Prairie Combined Heat and Power Plant,Canadian Forest Products Ltd.,8701 108 Street,Alberta,55.1602,-118.8184
1996,New Brunswick Division,Potash Corp,9 McCully Station Road,New Brunswick,45.7553,-65.4205
30002,Mica,Crocotta Energy Inc.,,British Columbia,56.03431,-120.09166
29933,Pinto 14-26-002-04 W2m,Spartan Energy Corp.,,Alberta,49.157368,-110.443042
29299,Leitchville Oil Swb 13-24,Crescent Point Energy Corp.,,Saskatchewan,49.754658,-108.46363999999998
29831,SÃ©choir Ã Bois de Chauffage,Charbon de Bois Feuille d'Ãrable,Rang Sainte-Anne Nord,Quebec,46.8323,-71.9214
27099,Pikes Peak South Thermal 05-07-049-23w3,Husky Oil Operations Limited,,Saskatchewan,53.209387,-109.367502
2198,Surrey,National Silicates Partnership,8160 130th Street,British Columbia,49.1518,-122.8609
29963,Winmore 15-26-001-31 W1m,Spartan Energy Corp.,,Saskatchewan,49.07144,-101.52737
15349,Apache North Bingley Battery,Paramount Resources Ltd.,,Alberta,52.4809,-114.8702
23546,Judy Creek Oil Mwb 12-03,Crescent Point Energy Corp.,,Alberta,54.426080000000006,-115.28528
27456,Seal Bitumen Battery 15-01,Obsidian Energy Ltd.,,Alberta,56.171937,-116.69947
24057,Whitemud Oil Swb 16-21,Crescent Point Energy Corp.,,Saskatchewan,49.407704,-108.633825
21477,Portage la Prairie,Simplot Canada (II) Ltd.,Highway #1 and Simplot Road Highway West,Manitoba,49.9721,-98.3943
30019,102/14-33-066-08w6/0 (03-05) Swb,Whitecap Resources Inc.,,Alberta,54.761604000000005,-119.148899
1443,Centrale de Tracy,Hydro-QuÃ©bec,12125 Boulevard Marie-Victorin,Quebec,45.9972,-73.1722
22576,Eaglesham 01-25-076-01w6,Guide Exploration Ltd.,,Alberta,55.6088,-118.0036
22802,Wolf Lake Comp Station 14-32,Cenovus Energy Inc.,,Alberta,53.4501,-116.0336
29361,East Cantuar 11-17,Whitecap Resources Inc.,,Saskatchewan,50.348276,-108.172965
24466,Devon Iron River 8-12-64-7 Pad,Devon Canada Corporation,,Alberta,54.520552,-110.916413
22326,Pcp Provost Bty 9-7,Harvest Operations Corp.,,Alberta,51.9919,-110.8413
7989,Columbia Kitchen Cabinets - Abbotsford,Columbia Kitchen Cabinets Ltd.,2221 Townline Road,British Columbia,49.0425,-122.3601
28215,Queensdale Oil Mwb 08-12 (Tank),Crescent Point Energy Corp.,,Saskatchewan,49.455594,-102.009286
6838,Head Office / Main Plant,Doepker Industries Ltd.,300 Doepker Avenue,Saskatchewan,52.3209,-104.8186
3803,G.E. Booth (Lakeview) Wastewater Treatment Facility,Ontario Clean Water Agency,1300 Lakeshore Road East,Ontario,43.5784,-79.5476
19543,Spirit River 06-03-078-07 W6,Tourmaline Oil Corp,,Alberta,55.7332,-118.9989
28308,Wolf McLeod Gas Battery 14-34-055-16w5,Canadian Natural Resources Limited,,Alberta,53.801048,-116.29607
21456,Three Hills Comp Stn 05-12,Ember Resources Inc.,0,Alberta,51.9891,-113.4523
28293,Gulf Oil Battery 09-11-010-08w2,Canadian Natural Resources Limited,,Saskatchewan,50.557069,-109.373937
27484,Laprise Main Battery,Canlin Energy Corporation,,British Columbia,57.35625,-121.990625
16038,Viking Kinsella Compressor Station 16-09-046-09w4,Canadian Natural Resources Limited,,Alberta,52.9583,-111.2384
18413,Beg Comp Stn C-004-I,Canadian Natural Resources Limited,,British Columbia,56.9229,-122.0469
30261,Chambers Gas Mwb 01-16-041-11w5,Canadian Natural Resources Limited,,Alberta,52.525018,-115.515607
16784,Chigwell Sweet Gas Plant 11-20,Ember Resources Inc.,,Alberta,52.4576,-113.5768
11852,Rubicon Minerals - Phoenix Project,Rubicon Minerals Corporation,103 East Bay Access Road,Ontario,51.1248,-93.7411
3553,West Hill,Chemtura Canada Co. CIE.,10 Chemical Court,Ontario,43.763000000000005,-79.1635
24497,Harvest Crossfield 4-1-28-28w4,Harvest Operations Corp.,,Alberta,51.358561,-113.823515
27532,Iron River 07-35-64-7w4 Pad,Devon Canada Corporation,,Alberta,54.578757,-110.947833
16122,Pine Creek Dehydrator Battery 11-14,Semcams ULC,,Alberta,53.9284,-116.7172
6015,Cfb Halifax - Windsor Park,Department of National Defence (Use This One),3110 Windsor Street,Nova Scotia,44.6586,-63.6082
5841,Bowmanville Cement Plant,St. Marys Cement Inc.,400 Waverley Road South,Ontario,43.8806,-78.7005
18162,Calcrude Cherhill 04-24-056-05 W5,Journey Energy Inc.,,Alberta,53.847,-114.6194
1362,Brazeau River Gas Plant,Keyera Corp.,,Alberta,52.94707,-115.9026
27691,12-30-37-20 W4m,Bearspaw Petroleum Ltd.,,Alberta,52.21056,-112.86002
28908,Knopcik Compressor Station 16-21-073-10w6,Canadian Natural Resources Limited,,Alberta,55.343203,-119.464912
26481,Countess Sour Gas Plant 10-20-018-15w4,Torxen Energy Ltd.,,Alberta,50.53745,-112.02938
17247,Nal Sturgeon Lake Gas Plant 13-07-069-24-W5,NAL Resources Management,,Alberta,54.9636,-117.6707
22172,Goodfare Comp Stn 09-05,Cenovus Energy Inc.,,Alberta,55.2946,-119.8
29194,Bubbles A-053-B/094-G-08,Petronas Energy Canada Ltd.,,British Columbia,57.29375,-122.153125
24583,Seal Bitumen Battery 14-25,Obsidian Energy Ltd.,,Alberta,56.143464,-116.67946200000002
17113,Rainbow Battery 12-23-110-07w6,Husky Oil Operations Limited,,Alberta,58.5687,-119.0615
22261,Iron River 05-06-064-07w4 Pad,Devon Canada Corporation,,Alberta,54.5061,-111.058
19717,Ansell Compressor Station 03-06-049-18w5,Husky Oil Operations Limited,,Alberta,53.1942,-116.6249
17067,Ansell Gas Plant 07-27-051-19w5,Husky Oil Operations Limited,,Alberta,53.4287,-116.7222
17645,Pouce Coupe Oil Swb 16-09-078-12w6,Kelt Exploration,,Alberta,55.7504,-119.7876
5126,Roxul - Grand Forks,Roxul Inc.,6526 Industrial Park Way,British Columbia,49.0269,-118.4305
30578,"02-14-081-18w6, 07-14-081-18w6 (Well Pad)",Encana Corporation,,British Columbia,56.016701,-120.698459
28035,Golden Lake Oil Multi Well Battery 14-13-047-23w3,Husky Oil Operations Limited,,Saskatchewan,53.05437,-109.239128
29604,Amoco Pine Creek 10-10 Bty,Bonavista Energy Corporation,,Alberta,53.91383,-116.73573
26053,Lre - Roxanna 11-20,Guide Exploration Ltd.,,Alberta,55.775877,-117.069848
30158,Hcft 15-15 Booster,Lynx Energy Ulc,,Alberta,50.87601,-112.69034
22965,Overlea Compressor Station 11-32-072-03w5,Husky Oil Operations Limited,,Alberta,55.2813,-114.4255
18732,Green Oil Battery 07-06-039-05w5,Canadian Natural Resources Limited,,Alberta,52.3229,-114.7077
27954,Syrota,Lehigh Hanson Materials Ltd.,Rm Edenwold,Saskatchewan,50.50947,-104.35759
21045,Parkman 02-14-010-01 W2m,Spartan Energy Corp.,,Saskatchewan,49.8257,-102.0289
16700,Primrose Comp Stn 12-01,Cenovus Energy Inc.,,Alberta,55.2948,-110.7951
27115,Inga Gas Battery 15-03-088-23w6,Kelt Exploration,,British Columbia,56.610224,-121.576681
28963,Aoc Hangingstone Sagd,Athabasca Oil Corporation,,Alberta,52.283,-111.2521
26086,Bigstick Compressor Station 15-23-015-25w3,Canadian Natural Resources Limited,,Saskatchewan,50.27975,-109.33768
22114,Wapiti Comp Stn 01-29,Cenovus Energy Inc.,,Alberta,54.7363,-119.0105
10298,City of Cornwall Landfill Site,Corporation of the City of Cornwall,2590 Cornwall Centre Road,Ontario,45.0343,-74.8071
26616,Ansell Comp 1-34-51-18w5,Tourmaline Oil Corp,,Alberta,53.44643000000001,-116.545029
16478,Umback D-36-L,Bonavista Energy Corporation,,British Columbia,56.9466,-121.44
27693,6-21-38-20w4m,Bearspaw Petroleum Ltd.,,Alberta,52.2795,-112.80565
6006,Ckf - Hantsport,CKF Inc.,48 Prince Street,Nova Scotia,45.0647,-64.1719
29404,Kingsmere 13-15-048-27w4,Inplay Oil Corp.,,Alberta,53.1469,-113.87546
3824,"Gerdau Ameristeel Corporation, Whitby Mill",Gerdau Ameristeel Corporation,1801 Hopkins Street South,Ontario,43.8578,-78.9097
30327,Wildhay Gas Mwb 07-13-055-25w5,Canadian Natural Resources Limited,,Alberta,53.75011,-117.57846
26451,Velvet Pine Creek Comp Stn 09-04-056-17w5,Velvet Energy Ltd.,,Alberta,53.81207,-116.45727
15555,Brazeau Cs 6-27-47-14w5,Boulder Energy Ltd.,,Alberta,53.0794,-115.9725
15974,Jenner Compressor Station 11-32-018-09w4,Canadian Natural Resources Limited,,Alberta,50.5673,-111.2135
17357,Hummingbird Oil Mwb 11-26,Crescent Point Energy Corp.,,Saskatchewan,49.1546,-104.4479
54,Brunswick Mine,Glencore Canada Corporation,Highway 430 Highway West,New Brunswick,47.4717,-65.8897
8566,Electrolux Canada Corporation,Electrolux Canada Corp.,802 l'Ange-Gardien Boulevard,Quebec,45.8171,-73.43264
22952,Cypress Sour Gas Plant 04-29-014-10w4,Canadian Natural Resources Limited,,Alberta,50.1966,-111.3436
28024,Wild River 08-14-057-23w5m,Tourmaline Oil Corp,,Alberta,53.9248,-117.2996
15386,East Provost Sweet Gas,Karve Energy Inc.,,Alberta,52.0282,-110.5647
24465,Jackfish 2 Sagd Plant,Devon Canada Corporation,,Alberta,55.524545,-110.998753
15250,Knopcik Oil Battery 16-13-073-10w6,Canadian Natural Resources Limited,,Alberta,55.3287,-119.388
28937,Town Comp Stn. B-8-I,Petronas Energy Canada Ltd.,,British Columbia,56.91875,-122.096875
30346,Hoffer Oil Swb 15-35-001-16w2,TORC Oil & Gas Ltd.,,Saskatchewan,49.08557,-104.04042
27985,Lily B-038-J/094-G-02,Petronas Energy Canada Ltd.,,British Columbia,57.19281,-122.72111
24341,Wilgrn 06-22-041-05w5 Ggs,Bonavista Energy Corporation,,Alberta,52.546452,-114.643702
27723,Seal 01-04-084-19w5,Baytex Energy Ltd,SEal 01-04-084-19w5,Alberta,56.24838,-116.92976000000002
15408,Cessford Compressor Station 06-06-022-11w4,Canadian Natural Resources Limited,,Alberta,50.8387,-111.5201
27003,Taqa North Boundarylake 15-26-085-14,Taqa North Ltd.,,British Columbia,56.405989,-120.094621
787,Napierville,Napierville Refineries Inc.,175 de l'Ãglise,Quebec,45.25,-73.4167
25220,Resthaven 02-10,XTO Energy Canada ULC,,Alberta,54.16866,-118.05972
29257,Wilde Hills Compressor Station 04-09-016-27w3,Canadian Natural Resources Limited,,Saskatchewan,50.326223,-109.668498
29452,16-36-078-17w6 Water Hub,Encana Corporation,,British Columbia,55.80866999999999,-120.48651
23275,Horizon Oil Sands Processing Plant and Mine,Canadian Natural Resources Limited,0,Alberta,57.3354,-111.7556
18360,Valhalla Oil Battery 13-08,Surge Energy Inc.,,Alberta,55.5758,-119.5224
2223,South Rosevear Gas Plant,Bonavista Energy Corporation,,Alberta,53.652,-116.0992
15023,Tangent Sour Gas Plant 13-29,Obsidian Energy Ltd.,,Alberta,55.9694,-117.5756
22429,Utikuma Oil Battery 10-23-078-08w6,Kelt Exploration,,Alberta,55.7758,-119.122
28825,Seal 05-02-083-14w5,Baytex Energy Ltd,,Alberta,56.166,-116.1092
27453,Seal Bitumen Battery 13-13,Obsidian Energy Ltd.,,Alberta,56.288299,-116.87046
29186,Sexton Lumber Co Limited,Sexton Lumber Co Limited,35 Forest Drive,Newfoundland and Labrador,48.35288,-53.885948
3147,Chalk River Laboratories,Atomic Energy of Canada Limited,1 Plant Road,Ontario,46.0554,-77.3628
5548,Cimenterie de Saint-Basile,Ciment QuÃ©bec Inc.,145 du Centenaire Boulevard,Quebec,46.7447,-71.8126
26501,Kaybob Gas Plant 05-31,Encana Corporation,,Alberta,54.4029,-117.5948
5390,Gold Bar Wastewater Treatment Plant,EPCOR Water Services Inc.,10977 50 Street Northwest,Alberta,53.5608,-113.4153
22822,Carnduff Oil Mwb 07-36 (Tank),Crescent Point Energy Corp.,,Saskatchewan,49.0784,-101.9081
18388,Resthaven Sweet Gas Plant,Cenovus Energy Inc.,,Alberta,54.2253,-118.3052
26533,Vulcan Ob 01-35-12-24w4,Signalta Resources Ltd.,,Alberta,50.035244,-113.168918
25295,B-003-I/094-B-16,Progress Energy Resources Corp.,1200 - 205 5 Avenue Southwest,British Columbia,56.91893,-122.03629
29663,Sle 16-35-79-10w6,Sanling Energy Ltd.,,Alberta,55.896149,-119.439213
18587,Fox Valley 16-31-16-26w3,City of Medicine Hat,,Saskatchewan,50.3953,-109.5598
28140,Jayar 14-29,Strath Resources Ltd,,Alberta,54.309734,-118.417199
16834,Weyburn Oil Battery 01-22,Enerplus Corporation,,Saskatchewan,49.4819,-103.802
29892,Elmworth 2-23 Bty,Semcams ULC,NEar Forestry Trunk Road,Alberta,54.89606,-118.34038
21028,09-14-030-24w4 Lonepine South,Ember Resources Inc.,,Alberta,51.5706,-113.6882
18024,Tlm Hinton 10-33,Tourmaline Oil Corp,3700 - 250 6th Avenue Southwest,Alberta,53.7119,-117.0525
1861,Nanticoke Generating Station,Ontario Power Generation Inc.,34 Haldimand Rd 55 Road South,Ontario,42.7961,-80.05
18230,Ingoldsby Oil Mwb 04-10,Crescent Point Energy Corp.,,Saskatchewan,49.2782,-102.1123
15739,Foothills Medical Centre,Calgary Health Region,1403 29th Street Northwest,Alberta,51.0651,-114.1305
26160,Seal 08-16-084-19w5,Baytex Energy Ltd,,Alberta,56.279790000000006,-116.92768
17081,Gamet Netook Gp 16-21,Gamet Resources Ltd.,,Alberta,51.8501,-114.0749
28893,Duncan Compressor Station 11-23-076-15w4,Canadian Natural Resources Limited,,Alberta,55.600829,-112.22135
21442,Pesh Comp Stn A-009-L,Canadian Natural Resources Limited,,British Columbia,59.1722,-120.4944
29938,Rife Soda Lake 01-20,Rife Resources Ltd.,400 - 144 4th Avenue Southwest,Saskatchewan,53.061384,-109.47024
19221,Utikuma Oil Battery,Vermilion Energy Inc.,,Alberta,56.0551,-115.3665
5688,111 Progress,Atlantic Packaging Products Ltd.,111 Progress Avenue,Ontario,43.7718,-79.2735
16765,Sierra Sour Gas Plant,Shanghai Energy Corporation,,British Columbia,58.6856,-121.3178
29378,Karr 1-7-66-3w6 Oil Battery,Mancal Energy Inc.,,Alberta,54.69257,-118.43036
17434,Tatagwa Oil Mwb 07-24,Crescent Point Energy Corp.,,Saskatchewan,49.4856,-103.8971
19206,Wild River 2-2 Compressor,Repsol Oil & Gas Canada Inc.,,Alberta,53.8907,-117.4659
17455,Montney 10-03-087-18w6,Pengrowth Energy Corporation,10-03-087-18w6,British Columbia,56.5188,-120.7631
29376,Home Quarter 1-5-30-25w3 Ggs,Whitecap Resources Inc.,,Saskatchewan,51.534934,-109.475949
18412,Beg Comp Stn B-090-I,Canadian Natural Resources Limited,,British Columbia,56.9854,-122.1219
30687,NW Wapiti 12-26,Semcams ULC,*Near* Range Road 43,Alberta,54.83059,-114.65945
281,Varennes Facility,3313045 Nova Scotia Company,4445 Boul. Marie Victorin,Quebec,45.7317,-73.4033
30170,Husky Shorncliffe 7-21,Alphabow Energy Ltd.,,Alberta,52.45381,-110.94882
5125,Jedney I Gas Plant,Spectra Energy Midstream Corporation,0 - 126 Alaska Hwy. Turn @ Petrocan Jedney Si,British Columbia,57.1733,-122.175
22461,Seal Bitumen Battery 13-08,Obsidian Energy Ltd.,,Alberta,56.0993,-116.3208
27530,Iron River 02-04-063-06w4 Pad,Devon Canada Corporation,,Alberta,54.417954,-118.847931
29764,Wescam - 649,Wescam Inc,649 North Service Road West,Ontario,43.33124,-79.84265
18180,Alexis Oil Battery,Harvest Operations Corp.,,Alberta,53.7923,-114.613
30361,Torc Hastings Oil Battery 09-08-004-33w1,TORC Oil & Gas Ltd.,,Saskatchewan,49.28927,-101.89238
30214,Alderson East Oil Battery 14-27-015-13w4,Torxen Energy Ltd.,,Alberta,50.2938,-111.714341
23174,Ingoldsby Oil Mwb 16-13,Crescent Point Energy Corp.,,Saskatchewan,49.3084,-101.6675
3238,Atikokan Generating Station,Ontario Power Generation Inc.,15202 622 Highway,Ontario,48.8361,-91.5656
16060,Drake Comp Stn B-074-E,Canadian Natural Resources Limited,,British Columbia,57.1438,-120.4235
24512,Rrx Whiteside 05-13,Baytex Energy Ltd,,Saskatchewan,51.56767,-109.54012
21678,Devon Muskwa,Perpetual Energy Inc.,,Alberta,56.5282,-114.0716
27700,Ferguson Oil Bty 1-21-3-17w4,Deethree Exploration Ltd.,,Alberta,49.2191,-112.22813
28501,Harmon Valley 09-26-083-19w5,Baytex Energy Ltd,,Alberta,56.22583,-116.87535
30988,Ferrier 07-13 Compressor,Vermilion Energy Inc.,,Alberta,52.7021,-115.46396
30836,Monitor 02-03-035-05w4 Compressor Station,High Ground Energy Inc.,,Alberta,51.97002,-110.63021
28460,Harmon Valley 01-02-084-19w5,Baytex Energy Ltd,2800 - 520 3rd Street Southwest,Alberta,56.24834,-116.87518
22774,Peco Comp Station 06-23,Cenovus Energy Inc.,,Alberta,53.2398,-116.5305
29453,Kaybob Gas Plant 10-29-063,Encana Corporation,12002 97 Avenue,Alberta,54.481564,-117.439112
30165,Ante Creek Oil Mwb 02-02-066-25w5,ARC Resources,,Alberta,54.677988,-117.66602
17193,Gayford Compressor Station 14-10,Lynx Energy Ulc,,Alberta,51.2098,-113.141
17211,Apl Niton 14-05,Journey Energy Inc.,,Alberta,53.728379,-115.602469
29851,Teine Whiteside 14-24,Teine Energy Ltd.,,Saskatchewan,51.50208,-109.39381000000002
15096,Mundare Sweet Gas Plant 09-28,Tidewater Midstream and Infrastructure Ltd.,,Alberta,53.607,-112.5927
30259,Beartrap Oil Swb 12-14-059-03w4,Canadian Natural Resources Limited,,Alberta,54.1024,-110.352
24603,Pben Mwb Corning 1-32-10-7,Ridgeback Resources Inc.,,Saskatchewan,49.856876,-102.914611
15602,Wapiti Comp Station 03-29,Cenovus Energy Inc.,,Alberta,54.6472,-119.332
17782,Brazeau Office 01-01,Westbrick Energy Ltd.,,Alberta,52.8431,-115.6047
3140,Usine de la Tuque,Compagnie Rocktenn Canada Inc.,1000 Chemin de l'Usine,Quebec,47.45,-72.7917
19415,Alameda East Oil Battery 05-13-003-02w2,Canadian Natural Resources Limited,,Saskatchewan,49.2082,-102.1605
8504,Ccum,Climatisation et Chauffage Urbains de MontrÃ©al Sec,120 Nazareth,Quebec,45.4959,-73.5564
16520,Alderson East 13-3-16-13w4,Cardinal Energy Ltd.,,Alberta,50.3223,-111.7212
5124,Highway Gas Plant,Spectra Energy Midstream Corporation,0 - 121 Mile Alaska Highway,British Columbia,56.2278,-120.819
27587,Cpec Dollard Swb 03-02,Crescent Point Energy Corp.,,Saskatchewan,49.525506,-108.616195
16799,Joarcam Sweet Gas Plant 06-29,Enerplus Corporation,,Alberta,53.254,-113.0482
15928,Karr Sweet Gas Plant 10-10-065-02w6,Canadian Natural Resources Limited,,Alberta,54.6125,-118.2143
29560,Wild River 15-34,Tourmaline Oil Corp,3700 - 250 6th Avenue Southwest,Alberta,53.80103,-117.47922
20210,Sunset Gas Processing and Production If-A,Shell Canada Limited,,British Columbia,55.928,-120.778
21801,Huxley South 12-22,PineÂ CliffÂ EnergyÂ Ltd.,,Alberta,51.8782,-113.3593
28897,Hatton Senate Compressor Station 13-11-015-28w3,Canadian Natural Resources Limited,,Saskatchewan,50.249985,-109.76015
28031,Cameron Hills,Steen River Oil & Gas Ltd.,,Northwest Territories,60.03746,-117.50316399999998
6827,Pavilion Plant,Graymont Western Canada Inc.,0 - 1306 Highway 99 Highway South,British Columbia,50.8145,-121.6492
15603,Bilbo Compressor Station 04-34-067-08w6,Canadian Natural Resources Limited,,Alberta,54.8364,-119.1458
30795,Freeman 10-19-65-12w5,Coastal Resources Ltd.,520 5 Avenue Southwest,Alberta,54.65475,-115.79993
15943,Homestead Compressor Station 10-31-021-13w4,Canadian Natural Resources Limited,,Alberta,50.8287,-111.7914
24242,P-11,South Rock Ltd.,,Alberta,50.72333,-114.19306
17033,Fawcett River North Compressor Station 10-23-078-25w4,Husky Oil Operations Limited,,Alberta,55.7748,-113.7747
18854,Bigstone Comp Station 16-13,Enerplus Corporation,,Alberta,54.2798,-117.0126
23833,South Wapiti Compressor Station 10-29-066-10w6,Canadian Natural Resources Limited,,Alberta,54.7458,-119.46789
15238,Pass Creek Sweet Gas Plant 11-19-060-19w5,Canadian Natural Resources Limited,,Alberta,54.2033,-116.8483
384,Toronto Plant,Emery Oleochemicals Canada Ltd.,425 Kipling Avenue,Ontario,43.605,-79.52
17644,Pouce Coupe South Oil Swb 14-10-078-12w6,Kelt Exploration,,Alberta,55.7504,-119.7745
23720,Tristar Viewfield 9-36-7-8,Ridgeback Resources Inc.,,Saskatchewan,49.6045,-102.9578
16932,Fairborne Clive 04-15-040-24w4m,Ember Resources Inc.,0,Alberta,52.4357,-113.3904
3962,Sarnia Manufacturing Centre,Shell Canada Products,150 St. Clair Parkway,Ontario,42.9025,-82.4511
21226,Roy Lloyd Mine,Golden Band Resources Inc.,400 - 789 Pender Street West,Saskatchewan,52.1594,-106.6762
29816,Gordondale 14-36,Insignia Energy Ltd.,,Alberta,55.896111,-119.582712
5190,Delta Plant,Lehigh Hanson Materials Ltd.,7777 Ross Road,British Columbia,49.1436,-123.023
2134,Redwater Fertilizer Operations,Agrium Inc.,56225 Sh643,Alberta,53.8416,-113.0979
17112,Tilley North Gas Battery 12-18-018-12w4,Canadian Natural Resources Limited,,Alberta,50.5223,-111.6523
426,Quirk Creek Gas Plant,Caledonian Midstream,,Alberta,50.7477,-114.4947
20061,Caribou Sour Gas Plant C-004-G,Keyera Corp,,British Columbia,57.3382,-122.6722
18411,Mink Comp Stn D-071-C,Canadian Natural Resources Limited,,British Columbia,56.8146,-120.7531
30723,Court 1-19-33-27w3,Teine Energy Ltd.,*Near* Hwy 51,Saskatchewan,51.841196,-109.818585
29791,Brazeau Cs 12-19-047-15w5,Boulder Energy Ltd.,,Alberta,53.070479000000006,-116.192299
29997,01-34-032-02w4,Baytex Energy Ltd,,Alberta,51.78167,-110.19698
7212,Brock West Landfill Gas Power Plant,Eastern Power Ltd.,1380 3rd. Concession Road,Ontario,43.8656,-79.1006
15840,Edwand Compressor Station 05-08-061-16w4,Canadian Natural Resources Limited,,Alberta,54.2572,-112.3736
29904,Husky Lloyd Bt 13-04-049-02w4,Husky Oil Operations Limited,,Alberta,53.20341,-110.246047
5211,Coleman Sour Gas Plant,Devon Canada Corporation,,Alberta,49.6281,-114.5719
30929,Kaybob 04-22-060-20 Pad Mwb,Bonavista Energy Corporation,,Alberta,54.197704,-116.923035
29485,7gen Pad 23 - 16-23-063-05 W6m,Seven Generations Energy Ltd.,,Alberta,54.47063000000001,-118.63286
15798,East Watts Sweet Gas Plant 02-04-031-15w4,Canadian Natural Resources Limited,,Alberta,51.6208,-112.0694
16592,Strathmore Phase 2 Gas Battery 06-28,Ember Resources Inc.,0,Alberta,50.9843,-113.4443
26098,Progress Oil Battery 06-22-078-10w6,Canadian Natural Resources Limited,,Alberta,55.770654,-119.468184
16633,Whitecap Valhalla North 03-27-075-09w6,Whitecap Resources Inc.,,Alberta,55.5203,-119.3153
24513,Creelman Oil Mwb 04-05 (Tank),Crescent Point Energy Corp.,,Saskatchewan,49.786581,-103.200225
30345,Hoffer Oil Swb 15-26-001-16w2,TORC Oil & Gas Ltd.,,Saskatchewan,49.07125,-104.04077
18733,Hangingstone Compressor Station 11-10-084-10w4,Canadian Natural Resources Limited,,Alberta,56.271846,-111.49889
20201,Brassey Gas Processing and Production If-A,Shell Canada Limited,,British Columbia,55.715,-120.853
29635,Rapdan Oil Swb 16-01,Crescent Point Energy Corp.,,Saskatchewan,49.361859,-108.564841
23542,Pouce Coupe 13-13-078-11w6,Longshore Resources Ltd.,,Alberta,55.765,-119.5742
23843,Iron River 06-27-64-7w4 Pad,Devon Canada Corporation,,Alberta,54.5639,-110.9781
15220,Progress Compressor Station 06-35-077-11w6,Canadian Natural Resources Limited,,Alberta,55.7131,-119.6008
17049,Suffield #18,Whitecap Resources Inc.,,Saskatchewan,50.1767,-108.5811
23422,Placid Gas Battery 06-31,Cenovus Energy Inc.,,Alberta,54.2294,-117.5892
31011,Glen Ewen (15-34) 12-2-3-1,Vermilion Energy Inc.,,Saskatchewan,49.17402,-102.0614
16044,Alderson #1 Compressor Station 16-21-014-10w4,Canadian Natural Resources Limited,,Alberta,50.1919,-111.3018
16509,Redland Compressor Station 06-17,Lynx Energy Ulc,,Alberta,51.217,-113.9777
10229,Sarnia Terminal,Imperial Oil,PO Box 427 675 Vidal Street South,Ontario,42.9528,-82.4113
6168,Usine de RÃ©duction - Arcelormittal Contrecoeur,ArcelorMittal MontrÃ©al Inc.,0 - 3900 Route des AciÃ©ries,Quebec,45.8363,-73.252
28451,Princess Multi-Well Oil Battery 13-33,Prairie Provident Resources,1100 - 640 5 Avenue Southwest,Alberta,50.65763,-111.34006
24584,Gulf Meekwap Oil Battery 15-18,Penn West Petroleum Ltd.,,Alberta,54.715833,-116.254234
29258,Lanaway Oil Battery 04-23-036-03w5 (Tank),Canadian Natural Resources Limited,,Alberta,52.102543,-114.331816
22658,Willesden Gn 16-12-42-6w5,Bonavista Energy Corporation,,Alberta,52.6086,-114.7242
18558,Worsley Sweet Gas Plant 14-28-087-07w6,Canadian Natural Resources Limited,,Alberta,56.5786,-119.0583
28539,Disco Organics Processing Facility,City of Toronto,120 Disco Road,Ontario,43.70061,-79.60379
1185,Tembec Skookumchuck Operation,Skookumchuck Pulp Inc.,4501 Farstad Way,British Columbia,49.9151,-115.7579
29863,Teine Kerrobert Bty 8-14,Teine Energy Ltd.,,Saskatchewan,51.741455,-109.149509
17628,Clarke Lake Battery D-83-I/94-J-10,Canlin Energy Corporation,,British Columbia,58.7393,-122.5306
22297,Leedale 100/09-05-043-04-W5 Gs,Bonavista Energy Corporation,,Alberta,52.6787,-114.5368
18169,Eta Lake Gas Plant,Vermilion Energy Inc.,,Alberta,53.3851,-115.6128
29641,Swan Hills Oil Mwb 13-23,Crescent Point Energy Corp.,,Alberta,54.557680000000005,-115.409351
6627,Foster Creek Sagd Bitumen Battery (With Cogen),"Cenovus Fccl Ltd., as Operator for FCCL Partnership",0,Alberta,55.06952,-110.53643999999998
16234,Stanmore Sweet Gas Plant 07-09-030-11w4,Canadian Natural Resources Limited,,Alberta,51.5525,-111.4906
821,Brandon Generating Station,Manitoba Hydro,3305 Victoria Avenue East,Manitoba,49.8449,-99.8901
18799,Pipestone Comp Stn 10-10,Encana Corporation,,Alberta,55.1347,-119.1431
23506,Devon Iron River 04-06-64-6w4 Pad,Devon Canada Corporation,,Alberta,54.5029,-110.9097
4790,F.F.Soucy - RiviÃ¨re-du-Loup,F.F. Soucy Inc.,191 Delage,Quebec,47.8186,-69.52
17444,Pengrowth McLeod 16-12,PineÂ CliffÂ EnergyÂ Ltd.,,Alberta,53.8287,-115.9433
19743,Peyto Cutbank 04-06-063-09 W6m,Peyto Exploration and Development Corporation,,Alberta,54.4237,-119.3497
3903,Edmonton Refinery,Suncor Energy Products Partnership,801 Petroleum Way,Alberta,53.5505,-113.3589
24119,Nal Bienfait 02-09-03-06 W2,NAL Resources Management,,Saskatchewan,49.189168,-102.756238
2256,Tonolli Canada Limited,Tonolli Canada,1333 Tonolli Road,Ontario,43.6022,-79.5811
29026,Strachan Compressor Station 09-24-038-09w5,Husky Oil Operations Limited,,Alberta,52.284936,-115.147817
16358,Narraway Sweet Gas Plant 10-08-062-10w6,Canadian Natural Resources Limited,,Alberta,54.3489,-119.4633
30162,Rockyford 05-17 Booster,Lynx Energy Ulc,,Alberta,51.13051,-113.04879
855,Chemtrade - Niagara Falls Csc,Chemtrade Logistics Inc.,6300 Oldfield Road,Ontario,43.0633,-79.1003
15404,Crane West Gas Battery 01-16-013-24w3,Canadian Natural Resources Limited,,Saskatchewan,50.0785,-109.2198
17228,Ladyfern Comp Stn B-088-H,Canadian Natural Resources Limited,,British Columbia,57.1521,-120.0963
29670,Nevis Compresor Station 06-30,Lynx Energy Ulc,,Alberta,52.381458,-113.01866499999998
30692,7g 5-01-064-06w6,Seven Generations Energy Ltd.,,Alberta,54.5054,-118.7796
5656,Musselwhite Mine,Goldcorp Canada Ltd,N/A Concession,Ontario,52.6039,-90.3682
27692,13-19-36-20 W4m,Bearspaw Petroleum Ltd.,,Alberta,52.11194,-112.85907
18085,South Buick Comp Stn B-012-I,Canadian Natural Resources Limited,,British Columbia,56.6787,-121.024
440,Judy Creek Gas Conservation Plant,Accel Energy Canada Limited,0 -,Alberta,54.5723,-115.5229
16240,Fbv Central 5-14,Pengrowth Energy Corporation,,Alberta,52.091,-112.7615
1156,Elmira Plant,Sulco Chemicals,60 First Street,Ontario,43.5917,-80.5539
19631,Chauvin 11-35-43-01w4,Cardinal Energy Ltd.,,Alberta,52.7504,-110.0422
16260,Homeglen Rimbey Comp Station 11-18,Cenovus Energy Inc.,,Alberta,52.707,-114.1375
22903,Wapiti Comp Station 10-30,Cenovus Energy Inc.,,Alberta,54.8306,-119.6626
23007,Garrington 3-3 Bty,NAL Resources Management,,Alberta,51.9716,-114.4925
29671,03-30-004-08w2 Oil Battery,TORC Oil & Gas Ltd.,,Saskatchewan,49.320865000000005,-103.074257
26470,Torc Pearce Oil Battery 02-20-009-24w4,TORC Oil & Gas Ltd.,,Alberta,49.74372,-113.21781
15086,Torc Workman Oil Battery 02-30-001-31w1,TORC Oil & Gas Ltd.,,Saskatchewan,49.06,-102.1391
30728,Acheson Sour Gas Plant 05-02-053-26w4,Tidewater Midstream and Infrastructure Ltd.,,Alberta,53.5468,-113.7348
29847,7gen Pad 17 16-17-064-04w6,Seven Generations Energy Ltd.,,Alberta,54.54346999999999,-118.70836
27549,Canbriam Farrell Creek,Pacific Canbriam Energy Limited,,British Columbia,56.17708,-122.08438
27752,Installations Portuaires de Port-Cartier,ArcelorMittal Infrastructure Canada,"24 Boul. des Ãles, Bureau 201 Boulevard",Quebec,50.0334,-66.791
27631,Westerose Oil Battery 12-29,Surge Energy Inc.,,Alberta,52.911711,-114.262379
17931,Fairydell-Bon Accord 5-35,Signalta Resources Ltd.,,Alberta,53.8798,-113.6274
26429,Trt Etgo du QuÃ©bec Inc.,Viterra Inc.,555 Alphonse-Deshaies Boulevard,Quebec,46.38806,-72.37666999999999
29523,Tower Comp Stn 10-28,Crew Energy Inc.,,British Columbia,56.5689,-121.79415
6546,Scotford Upgrader and Upgrader Cogeneration,Shell Canada Energy Limited,55522 Range 214 Road,Alberta,53.798367000000006,-113.094411
17877,Ram Compressor,Shell Canada Limited,Bag 500 Caroline,Alberta,52.0882,-115.6894
21457,Tide Lake Comp Stn 01-04-018-11w4,Torxen Energy Ltd.,,Alberta,50.4853,-111.4497
22009,South Kaybob 06-19,Tangle Creek Energy Ltd.,,Alberta,54.1976,-116.6855
4782,Usine de Deschambault,Alcoa Aluminereie de Deschambault LtÃ©e,1 des Sources Boulevard,Quebec,46.693171,-71.94488
6293,Division Amos,MatÃ©riaux Blanchet Inc.,2771 de l'AÃ©roport Route,Quebec,48.5641,-78.169
27146,Pace 04-09-013-17w4 Oil Battery,Sanling Energy Ltd.,,Alberta,50.063486,-112.276017
15693,Elmworth Comp Stn 01-35,Cenovus Energy Inc.,,Alberta,55.0108,-119.865
6640,Cactus Lake Facility,Cona Resources Ltd.,,Saskatchewan,52.0392,-109.9178
8783,Mine du Lac Bloom,Minerai de Fer QuÃ©bec Inc.,880 389 Route,Quebec,52.8383,-67.2761
4435,Highland Creek Treatment Plant,City of Toronto,51 Beechgrove Drive,Ontario,43.7667,-79.15
30408,Pembina Oil Swb 16-15,Crescent Point Energy Corp.,,Alberta,53.146840000000005,-114.20005
19475,Edson 16-10,Perpetual Energy Inc.,,Alberta,53.4779,-116.124
28916,Wapiti Gas Battery 08-10,NuVista Energy Ltd.,700 2 Street,Alberta,54.87059,-119.12257
5008,Av Cell Inc.,AV Cell Inc.,175 Mill Road,New Brunswick,47.9924,-66.7234
4449,Plant #34 Montreal,O-I Canada Corp.,2376 Wellington Street,Quebec,45.473587,-73.56071800000001
28894,Chard Compressor Station 11-28-079-06w4,Canadian Natural Resources Limited,,Alberta,55.877174,-110.883156
30407,Oungre Oil Swb 03-30,Crescent Point Energy Corp.,,Saskatchewan,49.05943,-103.60087
11766,15600 Robin's Hill Road,La Cie McCormick Canada,15600 Robin's Hill Road,Ontario,43.0329,-81.1712
24084,Twining Gas Battery 03-22,Ember Resources Inc.,0,Alberta,51.84063,-113.4686
28332,Tarragon Twinning North Sweet Gas Plant 04-31-032-24w4,Canadian Natural Resources Limited,,Alberta,51.78176,-113.400561
15230,Enchant Oil Battery 09-21-013-15w4,Canadian Natural Resources Limited,,Alberta,50.1003,-111.9881
29687,Torc Torquay Oil Battery 03-16-002-11w2,TORC Oil & Gas Ltd.,,Saskatchewan,49.117815,-103.422834
2161,Hamilton Specialty Bar,Hamilton Specialty Bar Corporation,319 Sherman Avenue North,Ontario,43.2619,-79.8356
18741,Monias 14-14,Crew Energy Inc.,,British Columbia,56.1114,-120.9991
28472,Northgate Midale 16-03 Battery and Compressor,Vermilion Energy Inc.,,Saskatchewan,49.01319,-102.33639
15694,Elmworth Comp Stn 09-22,Cenovus Energy Inc.,,Alberta,54.9019,-119.8917
19395,Station A Comp Stn 02-02,Cenovus Energy Inc.,,Alberta,55.2015,-119.8814
21372,Worsley Oil Battery 09-11,Enercapita Energy Ltd.,,Alberta,56.6208,-119.4636
15931,Bellis Compressor Station 10-15-059-16w4,Canadian Natural Resources Limited,,Alberta,54.1025,-112.3102
635,Hanson Brick - Burlington,Hanson Brick,0 - 5155 Dundas Street,Ontario,43.4153,-79.8081
26143,Nova Chemicals Technical Centre,Nova Chemicals Corporation,N/A - 3620 32 Street Northeast,Alberta,51.086252,-113.98773
21802,Penhold Central Battery 15-29,Lynx Energy Ulc,,Alberta,52.1247,-113.6772
1779,Nova Chemicals Corporation (Joffre),Nova Chemicals Corporation,,Alberta,52.3083,-113.55
1902,Balzac Gas Plant,Nexen Inc.,RR3 Site 17 Comp 16,Alberta,51.1913,-113.9409
21943,Chigwell Compressor Station 02-03,Lynx Energy Ulc,,Alberta,52.5793,-113.5135
22930,Lre - Dreau 14-11,Guide Exploration Ltd.,,Alberta,55.7511,-117.1457
27902,Fir 01-32,XTO Energy Canada ULC,,Alberta,54.13815,-117.25256
21754,Peyto Nosehill 11-21-055-20 W5m,Peyto Exploration and Development Corporation,,Alberta,53.7683,-116.9154
19085,Peyto Kakwa 02-11-060-04 W6m,Peyto Exploration and Development Corporation,,Alberta,54.1669,-118.4869
27701,Dowagroblenheim,Dow Agrosciences Canada Inc,145 Marlborough Street North,Ontario,42.333808000000005,-82.005729
16119,Fox Creek Gas Plant,Semcams ULC,,Alberta,54.2067,-116.7667
16016,Charron Lake Compressor Station 15-01-069-16w4,Canadian Natural Resources Limited,,Alberta,54.9492,-112.3047
30155,Hcft 07-32 Booster,Lynx Energy Ulc,,Alberta,50.9124,-112.73683
15564,5-12-62-20w5,Paramount Resources Ltd.,,Alberta,54.3453,-116.8809
5515,Papiers de Publication Kruger Inc. Usine de Trois-RiviÃ¨res,Papiers de Publication Kruger Inc.,3735 Gene-H-Kruger Boulevard,Quebec,46.3278,-72.558
16531,Redland South Compressor Station 06-04,Lynx Energy Ulc,,Alberta,51.2754,-112.9065
28000,Msn 15-24 Pad 15-24-084-15w5,Baytex Energy Ltd,,Alberta,56.301594,-116.22601
18905,West Tommy Lakes Booster Station 2 C-030-J,Enerplus Corporation,,British Columbia,57.6896,-122.2469
105,Aldex Chemical,Aldex Chemical Co. Ltd.,630 Laurent Rue,Quebec,45.3907,-72.7547
27744,Seal 09-04-084-19w5,Baytex Energy Ltd,,Alberta,56.25561,-116.92977
17498,Progress Oil Battery 06-19-077-09w6,Kelt Exploration,,Alberta,55.6839,-119.3933
29561,Columbia 15-36,Tourmaline Oil Corp,3700 250 6th Avenue Southwest,Alberta,52.84154,-116.04149
23972,Wapiti Comp Station 15-34,Cenovus Energy Inc.,,Alberta,54.676526,-119.574341
21097,Elk Point Custom Treating Facility,Canadian Natural Resources Limited,,Alberta,53.7861,-110.8373
29690,Torc Torquay Oil Battery 03-34-001-11w2,TORC Oil & Gas Ltd.,,Saskatchewan,49.074056,-103.400564
1755,Progress Gas Plant,Canadian Natural Resources Limited,,Alberta,55.7251,-119.3999
18093,West Doe Comp Stn 11-01,Canadian Natural Resources Limited,,British Columbia,55.9951,-120.1927
21388,Obed 01-21,Tourmaline Oil Corp,,Alberta,53.761093,-117.349179
15723,BC5 Comp Stn D-007-G,Canadian Natural Resources Limited,,British Columbia,58.3392,-121.2053
24563,Torrington Meekwap 4-32,Penn West Petroleum Ltd.,,Alberta,54.74914,-116.244004
24143,Lre - Kakwa 07-14,Guide Exploration Ltd.,,Alberta,54.536253,-118.790037
15470,Marlowe Gas Plant,Steen River Oil & Gas Ltd.,,Alberta,59.6234,-117.7272
28703,Para 16-21-63-4w6 Gas Multiwell,Seven Generations Energy Ltd.,,Alberta,54.47059,-118.53223
24141,Hinton 06-32-51-25 W5,Tourmaline Oil Corp,,Alberta,53.443180000000005,-117.6554
29363,Compass 16-16,Whitecap Resources Inc.,,Saskatchewan,51.574907,-109.311852
15427,Lougheed Sour Gas Plant 11-12,ARC Resources,,Saskatchewan,49.4601,-103.9032
17947,Ksitvan East Sour Gas Plant 07-22-078-09w6,Canadian Natural Resources Limited,,Alberta,55.7711,-119.3089
10383,Kasabonika Diesel Generating Station,Hydro One Remote Communities Inc.,General Delivery,Ontario,53.52,-88.63
21163,Ferrybank 2-1 Cs,NAL Resources Management,,Alberta,52.7579,-113.7861
23189,5-14-67-25w4 Booster Compressor,Sabre Energy Ltd.,,Alberta,54.7968,-113.714
29191,Mount Milligan Mine,Terrane Metals Corp.,26 - 123456 Rainbow Road,British Columbia,55.12046,-124.00305
28720,Caribou B-015-F/094-G-07,Petronas Energy Canada Ltd.,,British Columbia,57.34346,-122.81078
28236,Ansell Ggs 12-31,Bonavista Energy Corporation,,Alberta,53.361436,-116.484688
30781,Chevron 03-05-62-16 Multiwell Batt,Chevron Canada Resources,,Alberta,54.329530000000005,-116.3687
31042,Three Hills Creek 3-30/10-26,PineÂ CliffÂ EnergyÂ Ltd.,,Alberta,53.93568199999999,-116.042319
10138,Northern Lime Limited,Carmeuse Lime Canada,17 17 Highway Highway East,Ontario,46.1982,-82.6989
23512,Devon Iron River 3-32-63-7w4 Pad,Devon Canada Corporation,,Alberta,54.4876,-111.0286
18339,Sedalia 07-01-032-07w4,Baytex Energy Ltd,,Alberta,51.7118,-110.8622
2119,Jumping Pound Complex,Shell Canada Limited,400 - 4 Avenue Southwest,Alberta,51.0396,-114.559
6316,Fonderie Cormier - Saint-Thomas,Fonderie Cormier Inc.,621 Rang Saint-Charles,Quebec,45.9712,-73.3704
25214,1-22-72-8w5m,BlackPearl Resources Inc.,,Alberta,55.24507,-115.13323
30834,Monitor 16-17-035-04w4 Compressor,High Ground Energy Inc.,,Alberta,52.008582,-110.54185
18949,Edgerton Battery 01-24,Caltex Resources Ltd.,,Alberta,52.8868,-110.4402
30632,Valhalla Comp Station 16-29,Longshore Resources Ltd.,,Alberta,55.621287,-119.504051
17995,Bellis Compressor Station 09-13-060-15w4,Canadian Natural Resources Limited,,Alberta,54.18899999999999,-112.1098
29492,Lochend Oil Battery 15-19-026-03w5,Trioil Resources Ltd.,400 - 850 2 Street Southwest,Alberta,51.239427,-114.40568600000002
24554,Swan Hills Ob 03-19-65-10w5,Razor Energy Corp.,,Alberta,54.632605000000005,-115.501306
17875,Waterton Complex - Compressor Station X,Shell Canada Limited,400 4th Avenue South,Alberta,49.2292,-114.0291
16810,Carson Creek Sour Gas Plant,Enerplus Corporation,,Alberta,54.24299,-115.55891
24348,Willesden Green 10-34-40-06w5 Ggs,Bonavista Energy Corporation,,Alberta,52.488579,-114.778143
16980,Wayne Rosedale Gas Plant 12-04-028-20w4,Husky Oil Operations Limited,,Alberta,51.3662,-112.7712
3996,Trenton Generating Station,Nova Scotia Power Incorporated,1 Power Plant Road,Nova Scotia,45.6202,-62.6498
28604,Hussar Gas Stor 07-07-025-20w4,Husky Oil Operations Limited,,Alberta,51.11602,-112.78125
6080,Scierie Grande Riviere,J.D. Irving Ltd.,48 Grande Riviere,New Brunswick,47.1912,-67.92875
16022,Kettle River Sour Gas Plant 15-14-083-05w4,Canadian Natural Resources Limited,,Alberta,56.199,-110.6751
27955,Torc Torquay Swb 14-34-001-12w2,TORC Oil & Gas Ltd.,,Saskatchewan,49.070486,-103.534146
27924,Brdf,University of British Columbia,2337 Lower Mall Road South,British Columbia,49.26027,-123.25438
22770,Pembina Comp Stn 06-09,Cenovus Energy Inc.,,Alberta,52.9509,-115.1044
28399,Renaissance Sloat Creek Compressor Station 10-18,Obsidian Energy Ltd.,,Alberta,57.680029000000005,-119.294247
30819,06-35-068-07 W6m,OMERS Energy Inc.,,Alberta,54.927614,-118.95975
28951,Fox Creek (Treestone) 14-29-058-19w5,Paramount Resources Ltd.,,Alberta,54.04836,-116.79145
250,Gibbons Site,Evonik Degussa Canada Inc.,643 Highway East,Alberta,53.8331,-113.1089
28884,Progress Compressor Station 09-22-077-11w6,Canadian Natural Resources Limited,,Alberta,55.688590000000005,-119.606758
24515,Frys Oil Battery 04-26,Legacy Oil + Gas Inc.,,Saskatchewan,49.593879,-101.596607
22947,Bivouac B-099-H/094-I-08,Husky Oil Operations Limited,,British Columbia,58.41089,-120.11237
16766,Abbt0051889,Ipc Alberta Ltd.,,Alberta,50.6315,-111.0222
18582,Seven Persons 7-27,City of Medicine Hat,,Alberta,50.0224,-110.743
16489,Fourth Creek Gas Plant,Spectra Energy Midstream Corporation,,Alberta,56.0986,-119.2881
20208,Sundown Gas Processing and Production If-A,Shell Canada Upstream,,British Columbia,55.526,-120.713
30454,Hanlan Sour Inlet,Canlin Energy Corporation,,Alberta,53.20485,-116.81346
24397,Wembley Oil Battery 11-36-072-08w6,Canadian Natural Resources Limited,,Alberta,55.282727,-119.096271
18766,Domcan Warwick 10-18 Ggs,Warwick Gas Storage Lp,,Alberta,53.5802,-112.0487
30172,Rowley 13-20 Ggs,Alphabow Energy Ltd.,,Alberta,51.58862,-112.5089
18098,Torc Huntoon Oil Battery 03-18-007-09w2,TORC Oil & Gas Ltd.,,Saskatchewan,49.5547,-103.2148
30411,Skwi080800918w3,Crescent Point Energy Corp.,,Saskatchewan,49.7184,-108.42446
26432,Torc Hz Amelia Swb 01-29-010-27w4,TORC Oil & Gas Ltd.,,Alberta,49.85905,-113.62698
29844,7gen Pad 12 12-12-064-04w6,Seven Generations Energy Ltd.,,Alberta,54.525180000000006,-118.47521
25171,Pembina 16-15-048-08w5,Baytex Energy Ltd,,Alberta,53.14525,-115.07908
23408,Gilby Gas Battery 08-16,Cenovus Energy Inc.,,Alberta,52.5301,-114.5111
30363,Torc Torquay Oil Mwb 14-09-002-11w2,TORC Oil & Gas Ltd.,,Saskatchewan,49.11387,-103.42303
28246,Wilson Creek 15-03-043-04w5 Ggs,Bonavista Energy Corporation,,Alberta,52.680336,-114.49183899999998
29286,Bnnyvlle 16-14-063-07w4 Pad,Devon Canada Corporation,,Alberta,54.455144,-110.941612
19856,Turner Valley Unit #5 Oil Battery 01-25,Crescent Point Energy Corp.,,Alberta,50.6406,-114.2932
22722,Ojay Comp Stn A-011-L,Canadian Natural Resources Limited,,British Columbia,54.6749,-120.3806
928,Dryden Mill,Domtar Inc.,1 Duke Street,Ontario,49.7831,-92.8472
29575,Redwater Fractionation Site Facility Ii (Rfs Ii),Pembina Pipeline Corporation,Range Rd 220,Alberta,53.81251,-113.12762
27512,Wapiti Comp Stn 15-09,Sinopec Canada,,Alberta,54.96508299999999,-119.306767
19339,Weir Hill 13-30-005-05 W1m,Spartan Energy Corp.,,Saskatchewan,49.4192,-102.6763
18318,Graham Comp Stn C-076-K,Canadian Natural Resources Limited,,British Columbia,56.4812,-122.3219
23967,Pine Creek 11-03,Bonavista Energy Corporation,,Alberta,53.90065,-116.7444
6537,Paddle River Sour Gas Processing Plant,Tidewater Midstream and Infrastructure Ltd.,,Alberta,53.9023,-115.1893
17562,Pembalta Gas Plant 09-25,ARC Resources,,Alberta,53.1739,-114.8846
28476,Portal 13-19 Battery and Compressor,Vermilion Energy Inc.,,Saskatchewan,49.05622,-102.40378
30410,Plato Oil Mwb 01-33 (Tank),Crescent Point Energy Corp.,,Saskatchewan,51.17075,-108.44886
18111,Evesham Oil Battery 16-35-039-27w3,Prairie Thunder Resources Ltd.,,Saskatchewan,52.403,-109.7813
30589,09-06-081-17w6 (Well Pad),Encana Corporation,,British Columbia,55.99441,-120.63826
28771,Spirit River Gp 03-10-077-07-W6,Tourmaline Oil Corp,,Alberta,55.652284,-118.999001
19299,Norcen Progress,Canadian Natural Resources Limited,,Alberta,55.7251,-119.3995
28017,Torc Willmar Oil Battery 11-30-005-03w2,TORC Oil & Gas Ltd.,,Saskatchewan,49.41529,-102.40103
23191,Lator 01-21-063-02w6,Seven Generations Energy Ltd.,,Alberta,54.4394,-118.2504
24501,Open Creek 7-34-42-5w5,Harvest Operations Corp.,,Alberta,52.662147,-114.634438
728,Niagara Falls,Mancuso Chemicals Limited,5725 Progress Street,Ontario,43.0552,-79.08800000000001
18867,Swalwell 06-03 Booster,Lynx Energy Ulc,,Alberta,51.4498,-113.1649
22117,Berland River West Comp Station 02-05,Cenovus Energy Inc.,,Alberta,54.1542,-117.5604
26020,Seal Bitumen Battery 13-05,Obsidian Energy Ltd.,,Alberta,56.171945,-116.659717
1473,Thompson Operations,Vale Canada Limited,1 Inco Road,Manitoba,55.7138,-97.8561
16832,Heward Oil Battery 13-14,Enerplus Corporation,,Saskatchewan,49.7392,-103.1326
18006,Sexsmith Compressor Station 10-17-074-06w6,Canadian Natural Resources Limited,,Alberta,55.4111,-118.8856
15372,16-36-040-22w4 Nevis,Ember Resources Inc.,,Alberta,52.49,-113.0344
27901,South Kaybob 02-20,XTO Energy Canada ULC,,Alberta,54.19755,-116.80826
6562,01-29-43-04 W5 Plant,Tamarack Acquisition Corp.,,Alberta,52.7661,-114.2856
28005,Tupper West Field,Murphy Oil Company Ltd.,,British Columbia,55.641403,-120.505399
1467,Copper Cliff Nickel Refinery,Vale Canada Limited,175 Industrial Road,Ontario,46.4452,-81.0846
24606,Pben Mwb Heward 2-26-9-9w2,Ridgeback Resources Inc.,,Saskatchewan,49.760986,-103.123215
29689,Torc Torquay Oil Battery 03-27-002-11w2,TORC Oil & Gas Ltd.,,Saskatchewan,49.146952,-103.400568
28207,Kingsford North Oil Mwb 08-14,Crescent Point Energy Corp.,,Saskatchewan,49.295425,-102.844535
4896,Bunge Canada - Harrowby Plant,Bunge Canada Holdings I ULC,16 Highway West,Manitoba,50.759805,-101.458402
15772,Copton Compressor Station 11-25-059-09w6,Kelt Exploration,,Alberta,54.1306,-119.2189
24415,Flat Rock Comp Stn 15-20,Canadian Natural Resources Limited,,British Columbia,56.38839599999999,-120.644474
17510,Loverna 1 Battery 08-14-031-27w3,Teine Energy Ltd.,*Near* 317 Hwy,Saskatchewan,51.6537,-109.7223
23453,Forget Oil Mwb 09-32,Crescent Point Energy Corp.,,Saskatchewan,49.6045,-102.9125
5389,Peco Sweet Gas Plant,Cenovus Energy Inc.,,Alberta,55.1994,-116.2219
27676,Velvet Comp Stn 08-33-054-17w5,Velvet Energy Ltd.,,Alberta,53.70713000000001,-116.437086
29009,01-11-37-21-W4m Ewing Lake,Ember Resources Inc.,,Alberta,52.1601,-112.89043
19266,East Castor Sweet Gas Plant 02-02,Obsidian Energy Ltd.,,Alberta,52.1449,-111.752
28869,Algar Compressor Station 07-32-082-15w4,Canadian Natural Resources Limited,,Alberta,56.149833,-112.312339
22389,Peyto Galloway 09-34-053-20w5m,Peyto Exploration and Development Corporation,,Alberta,53.6234,-116.8586
29521,Kidney 8-24-90-6w5,Coastal Resources Ltd.,686 686 Highway and Opportunity 17,Alberta,56.81906,-114.80281
23533,Severn 15-27 Booster,Lynx Energy Ulc,,Alberta,51.2541,-112.9884
29659,Sullivan Lake Oil Battery 08-18-034-13w4,Canadian Natural Resources Limited,,Alberta,51.916408,-111.827142
15357,Castor Plant,Karve Energy Inc.,,Alberta,52.2209,-111.9373
27483,Laprise C-14-J/94-G-8,Canlin Energy Corporation,,British Columbia,57.43125,-122.171875
30130,Wildmere 6-36-48-6 Swb,Devon Canada Corporation,,Alberta,53.18131,-110.75127
27268,Pouce Coupe Gas Battery 05-20-079-12w6,Canadian Natural Resources Limited,,Alberta,55.858099,-119.850689
3992,Lingan Generating Station,Nova Scotia Power Incorporated,0 - 2599 Hinchey Avenue,Nova Scotia,46.2358,-60.0386
22792,Wapiti Comp Station 11-07,Cenovus Energy Inc.,,Alberta,54.6998,-119.0481
19367,Imperial Cyn-Pem 14-30,Whitecap Resources Inc.,,Alberta,53.4375,-115.4662
4802,Usine de Candiac,Ruetgers PolymÃ¨res LtÃ©e,120 de l'Industrie,Quebec,45.401042,-73.511365
24232,Portable Plant 020010,Border Paving Ltd.,,Alberta,52.36549,-113.79861
17630,"Mackay River, In-Situ Oil Sands Plant",Suncor Energy Oil Sands Limited Partnership,,Alberta,57.0425,-111.905
17051,Gull Lake West 5-9-14-19w3 Gp,Whitecap Resources Inc.,,Saskatchewan,50.1549,-108.5526
17703,Black Conroy Comp Stn B-094-J/094-H-06,Chinook Energy (2010) Inc.,,British Columbia,57.4936,-121.6733
30017,101/09-05-033-22w3/0 (6d9-6) Swb,Whitecap Resources Inc.,,Saskatchewan,51.803362,-109.078604
21123,Nevis Compressor Station 06-12-039-22w4,Canadian Natural Resources Limited,,Alberta,52.3375,-113.0425
16825,Tatagwa Oil Battery 15-29,Enerplus Corporation,,Saskatchewan,49.4198,-103.9875
15134,Manola Sweet Gas Plant 11-18,Tidewater Midstream and Infrastructure Ltd.,,Alberta,54.1018,-114.2925
5459,Mines Wabush - Sept-Iles,"SociÃ©tÃ© Ferroviaire et Portuaire de Pointe-Noire, S.E.C.",1505 de la Pointe Noire Chemin,Quebec,50.1616,-66.4838
30588,06-16-080-17w6 (Well Pad),Encana Corporation,,British Columbia,55.93263,-120.59893
6079,Grand Lake Timber,J.D. Irving Ltd.,290 Main Street,New Brunswick,46.1728,-65.8852
26005,Rosemary Sour Gp 3-18-22-16w4,Cardinal Energy Ltd.,,Alberta,50.86544,-112.21353
21871,10-11-060-11w6 Dehy,Ikkuma Resources Corp.,,Alberta,54.1757,-119.5344
19013,Nal Midale 09-33-05-10 W2,NAL Resources Management,,Saskatchewan,49.4311,-103.2849
4831,Strathcona Paper Lp,Strathcona Paper Gp Inc.,77 County Road 16 Road,Ontario,44.3062,-76.9003
22826,Tatagwa Oil Mwb 12-30,Crescent Point Energy Corp.,,Saskatchewan,49.5018,-104.0221
17766,Kaybob Ob 03-24-62-20w5,Razor Energy Corp.,,Alberta,54.3708,-116.8748
6439,Entreposage et Transbordement de Produits Chimiques,Somavrac Inc.,4600 St-Joseph,Quebec,46.3396,-72.5788
25221,13-11-062-27 W5m Simonette,Kanata Energy Group Ltd.,1900 - 112 4 Avenue Southwest,Alberta,54.350029000000006,-117.942696
19490,Wapiti Comp Stn 07-22,Sinopec Canada,,Alberta,54.8981,-119.1261
16828,Provost Compressor Station 04-29-032-14w4,Canadian Natural Resources Limited,,Alberta,51.7662,-111.9637
23560,Grande Cache Coal Corporation,Grande Cache Coal Corporation,Highway 40,Alberta,54.0066,-119.1055
28471,Openshaw 01-10 Battery and Compressor,Vermilion Energy Inc.,,Saskatchewan,49.10407,-102.32274
21289,Buster Creek 13-1-40-8w5 Compressor,Bonavista Energy Corporation,,Alberta,52.4194,-115.0298
24504,Newport Open Crk 11-1,Harvest Operations Corp.,,Alberta,52.589271,-114.590331
29873,Alameda 05-28-003-03 W2m,Spartan Energy Corp.,,Saskatchewan,49.237265,-102.362429
27699,Ferguson Cs 3-25-3-17w4,Deethree Exploration Ltd.,,Alberta,49.23378,-112.17199
18241,Diavik Diamond Mines Inc - Lac de Gras,Diavik Diamond Mines Inc.,300 - 5201 50th Avenue,Northwest Territories,64.4951,-110.2832
22094,Prespatou Comp Stn C-059-B (2),Canadian Natural Resources Limited,,British Columbia,57.0479,-121.2344
17553,Misty Lake Compressor Station 14-25,Obsidian Energy Ltd.,,Alberta,51.8654,-110.5856
30362,Torc Hastings Oil Mwb 12-15-004-34w1,TORC Oil & Gas Ltd.,,Saskatchewan,49.30245,-101.99947
22731,Mast Comp Stn D-060-A,Canadian Natural Resources Limited,,British Columbia,55.0479,-121.1156
2963,Scotford Chemical Plant,Shell Chemicals Canada Ltd,55520 Range 214 Road,Alberta,53.8042,-113.0824
17259,Alida 11-27-005-33-W1,NAL Resources Management,,Saskatchewan,49.4165,-102.3764
22540,Vero Edson Sweet Gas Plant 12-15-053-15w5,Velvet Energy Ltd.,,Alberta,53.5795,-116.138
30861,Mannville Swb 10-29-052-07w4,Husky Oil Operations Limited,,Alberta,53.520438,-110.99953
6626,Viking Sweet Gas Plant,PineÂ CliffÂ EnergyÂ Ltd.,,Alberta,53.0911,-111.7686
17234,Torc Steelman Unit # 2 Oil Battery 03-15-004-06w2,TORC Oil & Gas Ltd.,,Saskatchewan,49.2928,-102.734
4316,North Atlantic Refinery,North Atlantic Refining LP,1 Refinery Road,Newfoundland and Labrador,47.798,-53.9938
18918,Evi 3,Harvest Operations Corp.,,Alberta,56.517,-116.0455
17143,Boundary Lake 08-12-088-15w6,Chinook Energy (2010) Inc.,,British Columbia,56.6207,-120.2465
23411,Homeglen Comp Stn 06-02,Cenovus Energy Inc.,,Alberta,52.6743,-114.1859
28200,Skwi141800619w3,Crescent Point Energy Corp.,,Saskatchewan,49.478291,-108.553462
7629,Clarkson Wastewater Treatment Facility,Ontario Clean Water Agency,2307 Lakeshore Road,Ontario,43.4926,-79.6181
29182,Lre - Czar Drumheller 16-09,Guide Exploration Ltd.,,Alberta,51.559704,-112.609845
30580,03-21-080-17w6 (Well Pad),Encana Corporation,,British Columbia,55.94347,-120.59893
19028,Winter Vapex 16-21,Northern Blizzard Resources Inc.,,Saskatchewan,52.63701,-109.534
8596,Sanimax Aci,SANIMAX aci,2001 de la Rotonde,Quebec,46.7044,-71.2722
16268,West Paddle River Comp Stn 11-10,Cenovus Energy Inc.,,Alberta,53.825,-115.5567
508,Delta Facility,Kemira Chemicals Canada Inc.,1035 Derwent Way,British Columbia,49.1706,-122.9372
16724,Westerose Comp Stn 11-09,Bonavista Energy Corporation,,Alberta,52.7776,-114.2343
15609,Bilbo Compressor Station 06-08-065-09w6,Canadian Natural Resources Limited,,Alberta,54.6072,-119.332
6629,Senlac Thermal Oil Battery,Canadian Natural Resources Limited,,Saskatchewan,52.433,-109.5976
28898,Goodfish Compressor Station 13-24-092-10w5,Canadian Natural Resources Limited,,Alberta,57.001056000000005,-115.47436299999998
28991,14-05-56-27 W3m,BlackPearl Resources Inc.,,Saskatchewan,53.81495,-109.9864
2181,Av Nackawic,AV Nackawic Inc.,103 Pinder Road,New Brunswick,46.0111,-67.2265
28855,Elk Point Oil Battery 04-32-053-06w4,Canadian Natural Resources Limited,,Alberta,53.615309,-110.863207
19722,Centrica Compressor Station 08-08,Canlin Energy Corporation,,Alberta,53.125,-116.881
29031,Baytex Westerose 13-17,Journey Energy Inc.,,Alberta,53.728379,-115.602469
17872,Moose Mountain Compressor Station,Shell Canada Limited,,Alberta,50.8894,-114.7618
362,Metro Vancouver Waste-To-Energy Facility,Greater Vancouver Sewerage and Drainage District,5150 Riverbend Drive,British Columbia,49.1866,-122.9785
22064,Steelman Oil Battery 09-28-003-04w2,Canadian Natural Resources Limited,,Saskatchewan,49.2409,-102.4797
16412,Stoddart Comp Stn 14-34,Canadian Natural Resources Limited,,British Columbia,56.419,-121.0744
24049,Rigel Arena Oil Swb 14-08,Crescent Point Energy Corp.,,Saskatchewan,49.028186,-109.44502
18373,Berland Sweet Plant 14-15-059-24-W5,Tourmaline Oil Corp,,Alberta,54.106806000000006,-117.516746
11895,Dufferin Organics Processing Facility,City of Toronto,35 Vanley Crescent,Ontario,43.7621,-79.4715
4330,Fonderie Bibby Ste-Croix,Canada Pipe Co Ltd,6200 Principale Street,Quebec,46.6236,-71.7361
21367,Wauchope Oil Mwb 16-27,Crescent Point Energy Corp.,,Saskatchewan,49.6035,-101.8753
3994,Point Tupper Generating Station,Nova Scotia Power Incorporated,4137 Port Malcolm Road,Nova Scotia,45.5872,-61.3489
4908,Duffin Creek Water Pollution Control Plant,Regional Municipality of Durham,901 McKay Road,Ontario,43.8182,-79.0513
5084,Bayside Power,Bayside Power L.P.,0 - 509 Bayside Drive,New Brunswick,45.2753,-66.0269
18941,Grennan 11-12-26-16w3,Teine Energy Ltd.,,Saskatchewan,51.2061,-108.1146
24517,Weyburn Oil Mwb 04-35 (Tank),Crescent Point Energy Corp.,,Saskatchewan,49.422716,-103.7974
17456,Oak 606 & 2365,Pengrowth Energy Corporation,,British Columbia,56.4462,-120.71
28992,Peco 7-1 Cs,Boulder Energy Ltd.,,Alberta,53.02324,-116.20476
19307,07-33-039-22w4 Nevis,Ember Resources Inc.,,Alberta,52.4012,-113.1007
22198,Wapiti Comp Stn 11-18-066-10w6,Cenovus Energy Inc.,,Alberta,54.7153,-119.5051
30852,Husky Silverdale 07-12-048-28w3,Husky Oil Operations Limited,,Saskatchewan,53.123355,-109.963906
3959,Slave Lake Pulp - Slave Lake,Slave Lake Pulp - a division of West Fraser Mills,,Alberta,55.2481,-114.514
18401,Viewfield Oil Battery 15-28-007-08w2,Canadian Natural Resources Limited,,Saskatchewan,49.5947,-103.028
6822,Jackfish Plant,NWT Power Corp,0 - 4 Na Highway,Northwest Territories,62.46895799999999,-114.38085
23793,Sunchild Battery and Compressor,Vermilion Energy Inc.,,Alberta,52.7232,-115.493
16830,Leo Sweet Gas Plant 11-20-035-17w4,Canadian Natural Resources Limited,,Alberta,52.0209,-112.4028
19101,Atlee 15-35,Sanling Energy Ltd.,,Alberta,50.8314,-110.865
23433,Astra Chauvin Oil Battery 10-35,Surge Energy Inc.,,Alberta,52.6623,-110.1819
5472,Emballages Krupack Place Turcot,Kruger Inc,5845 Place Turcot,Quebec,45.462539,-73.605491
6187,Usine de Marbleton,Graymont (QC) Inc.,303 Principale Street West,Quebec,45.6207,-71.6049
11774,Innovation Drive Site,The Original Cakerie Ltd.,2825 Innovation Drive,Ontario,42.9641,-81.1303
28830,Sunrise Gas Plant 13-36,ARC Resources,,British Columbia,55.80853199999999,-120.66064
23494,Iron River 1-10-64-6w4 Pad,Devon Canada Corporation,,Alberta,54.5178,-110.8179
502,Edmonton 142 Street Plant,Cleartech Industries Inc.,12020 142nd Street,Alberta,53.5726,-113.566
1303,Gibraltar Mine (Sfo),Gibraltar Mines Ltd.,0 - 10251 Gibraltar Mine Rd. Road,British Columbia,52.5299,-122.2851
30108,Murphy Kaybob W 16-18 Pad Group Bty,Murphy Oil Company Ltd.,,Alberta,54.63027,-117.00345
28625,Usine de St-JÃ©rÃ´me,Les Entreprises Rolland Inc Usine de St-JÃ©rÃ´me,256 Jb Rolland Boulevard Ouest,Quebec,45.759939,-74.003731
5017,Cfb Halifax - Stadacona/Dockyard,Department of National Defence (Use This One),2601 Barrington - 2785 Gottingen Street,Nova Scotia,44.6584,-63.5841
29556,Pinto 11-15,Tourmaline Oil Corp,3700 - 250 6th Avenue Southwest,Alberta,53.84123,-117.9313
30263,Cliffdale Bitumen Battery 10-35-084-17w5,Canadian Natural Resources Limited,,Alberta,56.3282,-116.567
18023,Petromet Bigstone West Fir 14-28-59-22,Repsol Oil & Gas Canada Inc.,,Alberta,54.1787,-117.3284
18585,Delta (Comp) 1-3-14,City of Medicine Hat,,Alberta,50.1367,-110.7328
23829,Medallion 16-24,Canlin Energy Corporation,,Alberta,50.6275,-113.6102
15864,Verger Compressor Station 06-18-022-13w4,Canadian Natural Resources Limited,,Alberta,50.8678,-111.7969
28936,Lily Comp. Stn. A-46-G,Petronas Energy Canada Ltd.,,British Columbia,57.11875,-122.690625
6625,Christina Lake Sagd Bitumen Battery,"Cenovus Fccl Ltd., as Operator for FCCL Partnership",0,Alberta,55.5827,-110.8888
30413,Wapella Oil Mwb 01-04 (Tank),Crescent Point Energy Corp.,,Saskatchewan,50.22276,-102.07562
16513,Alderson Gas Plant 13-21-015-11w4,Torxen Energy Ltd.,,Alberta,50.2783,-111.4684
1651,"Gerdau Ameristeel Corporation, Manitoba Mill",Gerdau Ameristeel Corporation,27 Main Street,Manitoba,50.1302,-96.9013
3753,Gold Creek Gas Plant,Canadian Natural Resources Limited,,Alberta,54.8333,-118.6467
22130,Wapiti Comp Stn 03-33,Cenovus Energy Inc.,,Alberta,54.7521,-119.6022
21319,Elmworth Comp Stn 04-12,Cenovus Energy Inc.,,Alberta,55.1287,-119.7146
26212,P-07,South Rock Ltd.,,Alberta,50.03,-110.4
18103,Tristar Whitebear 15-9,Spartan Energy Corp.,,Saskatchewan,49.813,-102.2128
15421,Dawson Comp Stn 01-34,ARC Resources,,British Columbia,55.8851,-120.09
31015,North Portal 1-23 Bty,Vermilion Energy Inc.,,Saskatchewan,49.044616,-102.435412
19328,Benson 11-31-006-08 W2m,Spartan Energy Corp.,,Saskatchewan,49.517298,-103.074254
27466,Craigmyle East Compressor Station 13-28,Lone Pine Resources Canada Ltd.,Range Road 164 Road,Alberta,51.69124,-112.22338
22544,Whitesands Project,Grizzly Oil Sands Ulc,,Alberta,55.6626,-111.2577
30330,Pinto Oil Swb 01-18-003-02w2,TORC Oil & Gas Ltd.,,Saskatchewan,49.20455,-102.256098
29486,7g Pad 6 - 08-06-064-04 W6m,Seven Generations Energy Ltd.,,Alberta,54.50704,-118.58254
24001,Forget Oil Mwb 13-29 (Tank),Crescent Point Energy Corp.,,Saskatchewan,49.680939,-102.52278
16929,Mobil Garth 12-06,Devon Canada Corporation,,Alberta,54.5097,-110.9099
163,Bunge Canada - Nipawin Plant,Bunge Canada Holdings I ULC,35 Highway,Saskatchewan,53.3252,-104.027
29385,Edam East Thermal 05-08-048-19w3,Husky Oil Operations Limited,4335 - 44 Street,Saskatchewan,53.12337,-108.75624
30959,15-16-056-20 W4m,Tamarack Acquisition Corp.,,Alberta,53.845288,-112.910792
21029,02-29-031-28w4 Lonepine West,Ember Resources Inc.,,Alberta,51.6801,-113.9351
23762,Placid Comp Station 11-15,Repsol Oil & Gas Canada Inc.,,Alberta,54.1894,-117.3673
22609,14-12-038-23w4 Bashaw,Ember Resources Inc.,,Alberta,52.2575,-113.1626
26649,Tourmaline Musreau 02/09-13-062-06-W6,Tourmaline Oil Corp,,Alberta,54.36235799999999,-118.75371
16590,Entice Creek Sweet Gas Plant 10-07,Ember Resources Inc.,0,Alberta,51.3807,-113.2296
17058,Wapiti Oil Battery 10-14-067-08w6,Husky Oil Operations Limited,,Alberta,54.8,-119.1061
15319,Zama Battery - 2,Paramount Resources Ltd.,,Alberta,59.2307,-119.2759
5098,Victoria General Hospital Central Heating Plant,Capital Health,1278 Tower Road,Nova Scotia,44.6375,-63.5817
2372,Myra Falls Operations,NVI Mining Ltd.,1 Westmin Road Highway,British Columbia,49.5772,-125.602
22293,Severn 08-05 Booster,Lynx Energy Ulc,,Alberta,51.1889,-113.0312
22479,Bearberry 07-09 Ggs,Taqa North Ltd.,,Alberta,51.815,-114.9317
16791,Cadogan Oil Battery 10-14,Enerplus Corporation,,Alberta,52.3557,-110.3225
4152,West Pembina Gp,Keyera Corp.,,Alberta,53.039632,-115.957159
21021,06-16-039-19w4 Gadsby,Ember Resources Inc.,,Alberta,52.3521,-112.683
24121,02-15-040-24w4 Clive,Ember Resources Inc.,,Alberta,52.4361,-113.3783
21148,Wordsworth Oil Mwb 15-09,Crescent Point Energy Corp.,,Saskatchewan,49.4,-102.25
22358,Valley 05-13-009-06-W2,NAL Resources Management,,Saskatchewan,49.730647,-102.6894
28601,Husky Ansell Gs 02-20-050-18w5,Husky Oil Operations Limited,,Alberta,53.32499,-116.59486
15861,Waskahigan Compressor Station 06-14-063-24w5,Canadian Natural Resources Limited,,Alberta,54.4474,-117.5237
18950,Moose Moutain Oil Battery 02-23-023-07w5,Husky Oil Operations Limited,,Alberta,50.9658,-114.8727
20181,Boundary Lake 10-19-086-11 W6m,Enercapita Energy Ltd.,,Alberta,56.4739,-119.7222
5214,Corman Park Plant,Cleartech Industries Inc.,19 - Peters Avenue,Saskatchewan,52.1617,-106.6788
11586,Thunder Bay Shop (Kingston Street),Enerdry Constructors Ltd.,274 Kingston Street,Ontario,48.3619,-89.2871
17538,Haig Sweet Gas Plant 11-33,Obsidian Energy Ltd.,,Alberta,58.0732,-118.762
17240,Med River 06-18-39-03-5,NAL Resources Management,,Alberta,52.352,-114.4249
5247,Gordondale East Gas Plant,Spectra Energy Midstream Corporation,,Alberta,55.8767,-119.3011
16859,Carbon Sweet Gas Plant 08-34,Lynx Energy Ulc,,Alberta,51.5226,-113.0182
28010,Msn 16-23 Pad 16-23-084-15w5,Baytex Energy Ltd,,Alberta,56.30367,-116.24318
30773,Forestburg Ob 1-21-42-14w4,Cardinal Energy Ltd.,,Alberta,52.624826,-111.949827
16656,Lre - Paddle North 01-06,Guide Exploration Ltd.,,Alberta,58.0812,-117.6356
27782,5-22-72-8w5m Pad,BlackPearl Resources Inc.,,Alberta,55.24871,-115.15239
28900,Progress Gas Battery 14-06-077-10w6,Canadian Natural Resources Limited,,Alberta,55.648642,-119.541969
15255,Stoddart Comp Stn 10-35,Canadian Natural Resources Limited,,British Columbia,56.5024,-121.2023
18553,Willmar Frobisher Oil Battery 02-02-006-03w2,Canadian Natural Resources Limited,,Saskatchewan,49.4383,-102.3013
1872,Norampac Cabano Une Division de Cascades Canada Inc,Cascades Canada ULC.,520 Commerciale Nord,Quebec,47.67,-68.8625
16802,Wildmere Sweet Gas Plant 05-24,Enerplus Corporation,,Alberta,53.0648,-110.6089
29646,Cadotte Bitumen Battery 06-31-085-18w5,Canadian Natural Resources Limited,,Alberta,56.411871,-116.837697
22843,Lre - Gentry Mulligan 16-29,Guide Exploration Ltd.,,Alberta,56.1434,-119.3609
29960,Wildmere Pad 16-02-048-07 W4m,Gear Energy Ltd.,,Alberta,53.11587,-110.910117
30342,Steelman Oil Swb 14-07-005-05w2,TORC Oil & Gas Ltd.,,Saskatchewan,49.375397,-102.670743
1372,Rimbey Gas Plant,Keyera Corp.,,Alberta,52.7581,-114.1116
3752,Empress Straddle Gas Plant,Plains Midstream Canada,,Alberta,50.677832,-110.052695
16497,Hcft 11-33 Booster,Lynx Energy Ulc,,Alberta,51.0023,-112.8842
29504,Tamarack 09-24-045-06 W5m Oil Multiwell Proration Battery,Tamarack Acquisition Corp.,,Alberta,52.89676,-114.72865
27014,Leitchville Sour Gas Plant 04-16,Crescent Point Energy Corp.,,Saskatchewan,49.728439,-108.52928
16990,Husky Galahad 1-14,Alphabow Energy Ltd.,,Alberta,52.5228,-116.38
24169,Greenfield Multiwell Oil Battery 11-01,Prairie Provident Resources,1100 - 640 5 Avenue Southwest,Alberta,56.516487,-115.935907
22667,Ojay Comp Stn A-065-E,Canadian Natural Resources Limited,,British Columbia,54.6354,-120.4281
29903,Husky Lloyd Bt 16-06-049-02w4,Husky Oil Operations Limited,,Alberta,53.20351,-110.276673
27372,Brazeau 14-30-45-11w5 Mwob,Ridgeback Resources Inc.,,Alberta,52.9117,-115.588028
22823,Battrum Oil Mwb 10-21,Crescent Point Energy Corp.,,Saskatchewan,50.5362,-108.2826
29891,Edam Single Well Oil Battery 07-24-049-20w3,Husky Oil Operations Limited,,Saskatchewan,53.239833,-108.79272
1419,Howe Sound Pulp and Paper Mill,Howe Sound Pulp & Paper Corporation,3838 Port Mellon Highway,British Columbia,49.5237,-123.4837
18107,Benson Oil Mwb 01-26 (Tank),Crescent Point Energy Corp.,,Saskatchewan,49.4965,-103.105
26436,Torc Kaybob Oil Battery 04-01-060-20w5,TORC Oil & Gas Ltd.,,Alberta,54.15695,-116.86879
22876,Wolf Lake Compressor Station 08-13-068-04w4,Canadian Natural Resources Limited,,Alberta,54.886,-110.4662
16499,Husar Crowfoot Compressor Station 04-21,Lynx Energy Ulc,,Alberta,50.9659,-113.0302
30127,Lloyd 01-32-48-05 W4m Pad,Devon Canada Corporation,,Alberta,53.183231000000006,-110.699965
