NPRI ID,Facility name,Company name,Address,Province,Latitude,Longitude
21802,Penhold Central Battery 15-29,Lynx Energy Ulc,,Alberta,52.1247,-113.6772
16162,Trilogy Fox Creek 11-10 Ggs,Paramount Resources Ltd.,,Alberta,54.3505,-116.7668
30406,Oungre Oil Swb 02-17,Crescent Point Energy Corp.,,Saskatchewan,49.20413,-103.71858
15195,Louis Bull Sweet Gas Plant 03-18,Tidewater Midstream and Infrastructure Ltd.,,Alberta,52.872,-113.6299
29639,Skwi163000419w3,Crescent Point Energy Corp.,,Saskatchewan,49.332708,-108.542446
19543,Spirit River 06-03-078-07 W6,Tourmaline Oil Corp,,Alberta,55.7332,-118.9989
17494,Fayban Compressor Station 6-8-45-7w4,Cleo Energy Corp.,,Alberta,53.0359,-110.9941
19276,Nevis Oil Battery 12-36,Surge Energy Inc.,,Alberta,52.2248,-113.0257
5375,Fox Creek Division,Millar Western Forest Products Ltd.,Off Hwy 43,Alberta,54.362114,-116.692896
23950,Berland River West Comp Station 01-21,Cenovus Energy Inc.,,Alberta,54.11041,-117.5293
28804,Rapdan Oil Swb 13-29,Crescent Point Energy Corp.,,Saskatchewan,49.245322,-108.671076
27099,Pikes Peak South Thermal 05-07-049-23w3,Husky Oil Operations Limited,,Saskatchewan,53.209387,-109.367502
27631,Westerose Oil Battery 12-29,Surge Energy Inc.,,Alberta,52.911711,-114.262379
15836,Clyde Lake Compressor Station 04-35-071-10w4,Canadian Natural Resources Limited,,Alberta,55.1864,-111.4391
21954,Spyhill,Lehigh Hanson Materials Ltd.,7555 112th Avenue Northwest,Alberta,51.1576,-114.1916
15385,Consort Sweet Gas Plant,Karve Energy Inc.,,Alberta,52.1044,-110.695
18552,Wildmint Comp Stn D-035-A,Canadian Natural Resources Limited,,British Columbia,57.0312,-120.5531
17516,Steen River Gas Plant,Steen River Oil & Gas Ltd.,1100 - 645 7th Avenue Southwest,Alberta,59.6018,-117.4097
29268,Pouce Coupe Compressor Station 11-19-079-11w6,Canadian Natural Resources Limited,,Alberta,55.863377,-119.713142
1753,Minnehik Buck Lake Gas Plant,Keyera Corp.,,Alberta,52.9404,-114.8323
4305,Mcmahon Gas Plant,Spectra Energy Transmission,35 Autoroute Mile Alaska,British Columbia,56.1508,-120.6679
3414,Hbms Metallurgical Complex,"Hudson Bay Mining and Smelting Co., Limited",1 Company Road,Manitoba,54.771,-101.884
29654,Rivercourse Oil Battery 02-36-047-01w4,Canadian Natural Resources Limited,,Alberta,53.09059,-110.014671
4778,Aluminerie Alouette Inc.,Aluminerie Alouette Inc.,400 Chemin de De la Pointe-Noire,Quebec,50.1583,-66.4416
30182,Zeta Creek Comp Stn 04-07-049-12w5,Velvet Energy Ltd.,,Alberta,53.208752,-115.753692
30603,16-27-072-09w6 (Well Pad),Encana Corporation,,Alberta,55.2706,-119.28405
5014,Brooklyn Energy Centre,Brooklyn Power Corporation,65 Wood Hauling Road,Nova Scotia,44.051547,-64.695611
28775,Harley 08-10-057-27-W5,Tourmaline Oil Corp,3700 - 250 6 Avenue Southwest,Alberta,53.9101,-117.9189
28601,Husky Ansell Gs 02-20-050-18w5,Husky Oil Operations Limited,,Alberta,53.32499,-116.59486
19903,Willisden Green Comp Station 08-04,Bellatrix Exploration Ltd.,,Alberta,52.7649,-114.9575
15335,Hamburg Compressor Station 10-10-096-12w6,Canadian Natural Resources Limited,,Alberta,57.3181,-119.8601
28860,Erskine Compressor Station 06-07-039-20w4,Canadian Natural Resources Limited,,Alberta,52.337535,-112.874707
26549,Melrose Oil Mwb 09-14,Crescent Point Energy Corp.,,Saskatchewan,49.735601,-102.980343
30769,Mitsue Wplant 02/10-30-72-4w5,Cardinal Energy Ltd.,,Alberta,55.26684,-114.60134
19631,Chauvin 11-35-43-01w4,Cardinal Energy Ltd.,,Alberta,52.7504,-110.0422
23818,Bonavista Pine Creek 12-19-57-18,Bonavista Energy Corporation,,Alberta,53.9446,-116.6746
24008,Innes Oil Mwb 08-25,Crescent Point Energy Corp.,,Saskatchewan,49.581804,-103.367428
22148,Pembina Comp Stn 06-27,Cenovus Energy Inc.,,Alberta,52.9082,-115.08
24501,Open Creek 7-34-42-5w5,Harvest Operations Corp.,,Alberta,52.662147,-114.634438
10971,Open Die Plant,Canada Forgings Inc.,17 Welland Avenue,Ontario,42.9888,-79.2408
18638,Gilby Comp Station 07-08,Cenovus Energy Inc.,,Alberta,52.512,-114.3949
1990,Prospec Chemicals - Sturgeon County,Prospec Chemicals Co.,55202 Hs 825 - 176 Sturgeon Drive,Alberta,53.7332,-113.4862
16928,Battrum Oil Mwb 09-26,Crescent Point Energy Corp.,,Saskatchewan,50.5521,-108.2304
15343,14-22-037-19w4 Gadsby,Ember Resources Inc.,,Alberta,52.1985,-112.638
24083,Saturn Comp Stn 09-27,Encana Corporation,,British Columbia,55.88043,-120.562723
15337,07-03-043-21w4 Lamerton,Ember Resources Inc.,,Alberta,52.7468,-112.988
29690,Torc Torquay Oil Battery 03-34-001-11w2,TORC Oil & Gas Ltd.,,Saskatchewan,49.074056,-103.400564
2128,Cnul Peace River Complex,Canadian Natural Upgrading Ltd,05-21-085-18 W5m,Alberta,56.3806,-116.795
28310,Moose Hills Bitumen Battery 10-03-057-06w4,Canadian Natural Resources Limited,,Alberta,53.89723000000001,-110.808054
19838,Rat Creek Compressor Station 06-19,Obsidian Energy Ltd.,,Alberta,53.2451,-111.5967
28205,Huntoon Oil Mwb 01-04 (Tank),Crescent Point Energy Corp.,,Saskatchewan,49.52456,-103.160999
29162,Pouce Coupe Oil Battery 06-33-077-11w6,Kelt Exploration,,Alberta,55.714066,-119.645364
4496,"Belleville, Ontario",Durabla Canada Ltd.,293 - University Avenue,Ontario,44.195,-77.3751
1236,Sudbury Nickel Smelter Complex,Glencore Canada Corporation,1 Longyear Drive,Ontario,46.5775,-80.8042
28831,Altares Gas Plant B-72-A,Pacific Canbriam Energy Limited,,British Columbia,56.31041999999999,-122.02187
3057,Usine Shawinigan,Rio Tinto Alcan,Rio Tinto Alcan Usine Shawinigan - 1100 St-Sa,Quebec,46.56100000000001,-72.7351
29694,Torc Torquay Oil Battery 14-27-001-11w2,TORC Oil & Gas Ltd.,,Saskatchewan,49.070439,-103.400563
31022,Elcott (3d15-31) 13-05-003-02,Vermilion Energy Inc.,,Saskatchewan,49.174119,-102.276632
16942,Samson Innisfail,Penn West Petroleum Ltd.,,Alberta,51.971,-114.0527
17854,Samson Rainbow Gas Plant,Sanling Energy Ltd.,,Alberta,58.3683,-118.99
7941,Armstrong Division,Tolko Industries Ltd.,844 Otter Lake Cross Road,British Columbia,50.3873,-119.2263
23493,Cecil Comp Stn 15-24,Canadian Natural Resources Limited,,British Columbia,56.3033,-120.6994
6306,Les Industries Flexipak Inc.,Les Industries Flexipak Inc.,5020 Thimens Boulevard,Quebec,45.496,-73.7285
16924,Harmelk 6-32,ExxonMobil Canada Ltd,,Alberta,51.6973,-114.5368
16410,Muskrat Comp Stn 14-12,Canadian Natural Resources Limited,,British Columbia,56.5361,-120.7289
17352,Midale Oil Mwb 05-35,Crescent Point Energy Corp.,,Saskatchewan,49.5147,-102.0426
30781,Chevron 03-05-62-16 Multiwell Batt,Chevron Canada Resources,,Alberta,54.329530000000005,-116.3687
27481,Centrica Compressor Station 13-18,Canlin Energy Corporation,,Alberta,53.147666,-116.925791
27937,Torc Willmar Oil Battery 05-07-005-03w2,TORC Oil & Gas Ltd.,,Saskatchewan,49.368162,-102.407266
15643,Pembina Comp Stn 11-26,Cenovus Energy Inc.,,Alberta,53.2576,-115.5078
19342,Minehead Comp Stn 05-20,ARC Resources,,Alberta,53.1541,-116.4603
30750,Rrx Pembina 05-09-046-02w5,Baytex Energy Ltd,3r,Alberta,52.948974,-114.24898
23494,Iron River 1-10-64-6w4 Pad,Devon Canada Corporation,,Alberta,54.5178,-110.8179
24231,Glacier Quarry,Lehigh Hanson Materials Ltd.,,Manitoba,50.24426,-96.31588
18935,Bolney Thermal,Husky Oil Operations Limited,2944 - 44 Avenue,Saskatchewan,53.52845,-109.352055
27146,Pace 04-09-013-17w4 Oil Battery,Sanling Energy Ltd.,,Alberta,50.063486,-112.276017
21284,Connorsville Compressor Station 10-32-025-15w4,Canadian Natural Resources Limited,,Alberta,51.1778,-112.0603
19964,04-30-032-026w3,Baytex Energy Ltd,,Saskatchewan,51.7658,-109.6865
26188,Tangleflags 02-29-050-24w3,Baytex Energy Ltd,,Saskatchewan,53.33669,-109.4749
28308,Wolf McLeod Gas Battery 14-34-055-16w5,Canadian Natural Resources Limited,,Alberta,53.801048,-116.29607
30333,Alameda Oil Swb 01-10-003-02w2,TORC Oil & Gas Ltd.,,Saskatchewan,49.189890000000005,-102.18887
30876,Pouce Coupe 15-34,Insignia Energy Ltd.,,Alberta,55.72059399999999,-119.616581
17215,South Bodo 14-32,Caltex Resources Ltd.,,Alberta,52.1301,-110.1169
917,Fort Frances Division,Produits Forestiers RÃ©solu,427 Mowat Avenue,Ontario,48.6111,-93.4034
4150,Kaybob Amalgamated Sour Gas Plant,Semcams ULC,,Alberta,54.4272,-116.8843
28274,Wapiti Compressor Station 10-07-068-07w6,Canadian Natural Resources Limited,,Alberta,54.874939000000005,-119.050399
27548,Altares Gas Plant,Pacific Canbriam Energy Limited,,British Columbia,56.35208000000001,-122.04688
29722,Whiteside 15-32-29-25w3,Whitecap Resources Inc.,,Saskatchewan,51.531135,-109.481737
15991,St. Lina South Compressor Station 13-09-062-08w4,Canadian Natural Resources Limited,,Alberta,54.3525,-111.15
18344,Sedalia 16-27-031-06w4,Baytex Energy Ltd,,Alberta,51.6898,-110.7616
29429,Teine Dodsland 12-36,Teine Energy Ltd.,,Saskatchewan,51.70134,-108.71806
17583,Petro-Can Alderson,Canlin Energy Corporation,,Alberta,50.2676,-111.3306
29488,7g 02-31-063-04w6,Seven Generations Energy Ltd.,,Alberta,54.48876,-118.58881
21786,Taqa North Laprisecreek B-040-E/094-H-05,Taqa North Ltd.,,British Columbia,57.3604,-121.9969
15684,Elmworth Comp Stn 10-13,Cenovus Energy Inc.,,Alberta,55.0619,-119.3881
16049,Osprey Comp Stn A-003-J,Canadian Natural Resources Limited,,British Columbia,56.9185,-120.6549
22552,Foisy Compressor Station 04-30-056-11w4,Canadian Natural Resources Limited,,Alberta,53.8622,-111.6371
6055,"Norampac Moncton Division, A Division of Cascades Canada Ulc",Cascades Canada ULC.,232 Baig Boulevard,New Brunswick,46.074,-64.8254
20201,Brassey Gas Processing and Production If-A,Shell Canada Limited,,British Columbia,55.715,-120.853
28838,Pouce Coupe South Compressor Station 01-09-076-11w6,Canadian Natural Resources Limited,,Alberta,55.565001,-119.632598
22146,Cessford Compressor Station 06-13-024-11w4,Canadian Natural Resources Limited,,Alberta,51.0433,-111.4148
28695,Skwi013500520w3,Crescent Point Energy Corp.,,Saskatchewan,49.423672,-108.587224
19028,Winter Vapex 16-21,Northern Blizzard Resources Inc.,,Saskatchewan,52.63701,-109.534
18732,Green Oil Battery 07-06-039-05w5,Canadian Natural Resources Limited,,Alberta,52.3229,-114.7077
28803,Halkirk Oil Mwb 09-12,Karve Energy Inc.,,Alberta,52.428474,-111.735315
15256,Siphon Comp Stn 11-27,Canadian Natural Resources Limited,,British Columbia,56.4882,-120.4422
18608,Connorsville Compressor Station 11-27-025-15w4,Canadian Natural Resources Limited,,Alberta,51.1626,-112.0212
15777,Narraway Compressor Station 01-22-063-12w6,Canadian Natural Resources Limited,,Alberta,54.4599,-119.717
16344,Cecil Royce 08-15,Devon Canada Corporation,,Alberta,56.2818,-119.1668
28537,15-18-071-10w6,Cardinal Energy Ltd.,,Alberta,55.15421,-119.52259
19238,Trilogy Kaybob 6-3 Gas Grp,Paramount Resources Ltd.,,Alberta,54.5068,-116.7891
22530,Tristar Carnduff 4-11-3-34,Lightstream Resources Ltd.,,Saskatchewan,49.1924,-101.9768
10654,Stresscrete,The StressCrete Group,840 Walkers Line,Ontario,43.3616,-79.7838
22190,Cutbank Comp Stn 10-36,Cenovus Energy Inc.,,Alberta,54.6707,-119.2183
24180,Gold Creek Compressor Station 13-11-068-07w6,Canadian Natural Resources Limited,,Alberta,54.87914,-118.9662
30363,Torc Torquay Oil Mwb 14-09-002-11w2,TORC Oil & Gas Ltd.,,Saskatchewan,49.11387,-103.42303
28878,Dunvegan Gas Battery 08-36-080-04w6,Canadian Natural Resources Limited,,Alberta,55.976191,-118.47363
17105,Willesden Green 1-17 Gathering System,Bonavista Energy Corporation,,Alberta,52.6104,-114.8218
4317,Brookfield Cement Plant,Lafarge Canada Inc.,87 Cement Plant Road,Nova Scotia,45.2393,-63.3347
23527,Ewing Lake Comp Stn 15-33,Ember Resources Inc.,0,Alberta,52.1393,-112.9417
22130,Wapiti Comp Stn 03-33,Cenovus Energy Inc.,,Alberta,54.7521,-119.6022
3802,Trail Operations,Teck Metals Ltd.,25 Aldridge Avenue,British Columbia,49.0999,-117.7178
28145,Lre - Baytex 05-10,Guide Exploration Ltd.,,Alberta,51.8145,-113.615962
21226,Roy Lloyd Mine,Golden Band Resources Inc.,400 - 789 Pender Street West,Saskatchewan,52.1594,-106.6762
3994,Point Tupper Generating Station,Nova Scotia Power Incorporated,4137 Port Malcolm Road,Nova Scotia,45.5872,-61.3489
28487,Seal 02-34-083-19w5,Baytex Energy Ltd,,Alberta,56.23371,-116.91012
16997,Gambler Gas Plant 08-28-070-21w4,Husky Oil Operations Limited,,Alberta,55.0873,-113.141
27098,Paradise Hill Thermal 08-27-053-24w3,Husky Oil Operations Limited,,Saskatchewan,53.602622,-109.450604
10229,Sarnia Terminal,Imperial Oil,PO Box 427 675 Vidal Street South,Ontario,42.9528,-82.4113
30156,Hcft 08-20 Booster,Lynx Energy Ulc,,Alberta,51.05787,-113.0313
27430,Cdn Oxy Pembina Compressor Station 16-03,Obsidian Energy Ltd.,,Alberta,53.292433,-115.077306
16268,West Paddle River Comp Stn 11-10,Cenovus Energy Inc.,,Alberta,53.825,-115.5567
4743,Greenway Pollution Control Centre,Corporation of the City of London,109 Greenside Avenue,Ontario,42.9744,-81.2821
24004,Handsworth Oil Mwb 01-32 (Tank),Crescent Point Energy Corp.,,Saskatchewan,49.859194,-102.775137
28830,Sunrise Gas Plant 13-36,ARC Resources,,British Columbia,55.80853199999999,-120.66064
26425,Kaybob East 16-03,Athabasca Oil Corporation,16 -03-065-18w5,Alberta,54.6016,-116.62573
21972,Home Leismer Gas Gathering,Devon Canada Corporation,,Alberta,55.6845,-111.0115
21801,Huxley South 12-22,PineÂ CliffÂ EnergyÂ Ltd.,,Alberta,51.8782,-113.3593
22556,Brintnell South Compressor Station 13-01-081-23w4,Canadian Natural Resources Limited,,Alberta,55.9971,-113.4737
27952,Skaro 09-29,Kootenay Energy Inc.,,Alberta,53.9587,-112.77922
22843,Lre - Gentry Mulligan 16-29,Guide Exploration Ltd.,,Alberta,56.1434,-119.3609
1036,Sheerness Generating Station,Alberta Power (2000) Ltd.,,Alberta,51.5317,-111.7861
17933,Pembina 12-31,Signalta Resources Ltd.,,Alberta,53.3595,-114.878
855,Chemtrade - Niagara Falls Csc,Chemtrade Logistics Inc.,6300 Oldfield Road,Ontario,43.0633,-79.1003
30326,Wembley Compressor Station 06-15-073-09w6,Canadian Natural Resources Limited,,Alberta,55.32141,-119.29828
29372,Morgan Eagle Lake Unit 11-9,Whitecap Resources Inc.,,Saskatchewan,51.643182,-108.924916
22241,4-7 Leahurst,Ember Resources Inc.,,Alberta,52.3422,-112.7648
27994,Amax Matziwin 06-13,Sanling Energy Ltd.,,Alberta,50.955997,-111.833483
16328,Bilbo Compressor Station 06-34-065-08w6,Canadian Natural Resources Limited,,Alberta,54.6653,-119.1297
30720,Plato Bty 5-33-25-17w3,Teine Energy Ltd.,*Near* 44 Hwy,Saskatchewan,51.181506,-108.311946
28840,Hatton Senate Compressor Station 01-18-016-29w3,Canadian Natural Resources Limited,,Saskatchewan,50.340869,-109.972407
24605,Pbn Hz 02-02-046-12w5 Mwb,Ridgeback Resources Inc.,,Alberta,52.928991,-115.628051
29888,Doe 02-11-080-16w6 Gpp,Tourmaline Oil Corp,3700 - 250 6th Avenue Southwest,British Columbia,55.91376999999999,-120.38232
15860,Matziwin Sweet Gas Plant 06-10-023-14w4,Canadian Natural Resources Limited,,Alberta,50.9406,-111.8806
22579,Alexis 03-36-055-05w5,Guide Exploration Ltd.,,Alberta,53.7912,-114.6129
28717,Gundy D-004-H/094-B-16,Petronas Energy Canada Ltd.,,British Columbia,56.83933,-122.04238
21366,Tatagwa Oil Mwb 09-34,Crescent Point Energy Corp.,,Saskatchewan,49.43,-103.9375
25225,Knopcik 07-07,Cardinal Energy Ltd.,,Alberta,55.30681,-119.52263
17195,Joffre Compressor Station 04-22,Lynx Energy Ulc,,Alberta,52.3629,-113.5349
28495,Harmon Valley 01-26-083-19w5,Baytex Energy Ltd,,Alberta,56.21882,-116.87519
28999,Liard 7850 (C-086-F/094-O-12),Chevron Canada Resources,,British Columbia,59.654665,-123.82187
17534,Bigoray Sour Gas Plant 06-28,Obsidian Energy Ltd.,,Alberta,53.4287,-115.1258
29909,Lashburn Eor Central Facility 12-01-049-24w3,Husky Oil Operations Limited,,Saskatchewan,53.199851,-109.390887
18170,West Pembina Battery and Compressor,Vermilion Energy Inc.,,Alberta,53.2904,-115.8319
27933,Torc Silverton Oil Battery 16-21-003-32w1,TORC Oil & Gas Ltd.,,Saskatchewan,49.235106,-101.734187
23509,Iron River 7-6-64-7w4 Pad,Devon Canada Corporation,,Alberta,54.5058,-111.0579
18336,Garden Plains 05-15-033-13w4,Baytex Energy Ltd,,Alberta,51.8282,-111.7742
22578,Donelly 06-01-077-21w5,Guide Exploration Ltd.,,Alberta,55.6405,-117.1193
28657,Sundown B-067-H/093-P-10,Tourmaline Oil Corp,,British Columbia,55.63536,-120.58595
28331,Progress Compressor Station 06-15-077-11w6,Canadian Natural Resources Limited,,Alberta,55.67051899999999,-119.619517
23354,Enchant Oil Battery 02-06-013-15w4,Canadian Natural Resources Limited,,Alberta,50.0488,-112.0352
29913,Mannville Mwb 10-16-052-07w4,Husky Oil Operations Limited,,Alberta,53.491674,-110.974074
21485,Momentive Sturgeon,Momentive Specialty Chemicals Canada Inc.,305 - 55202 Sh 825,Alberta,53.7451,-113.2356
16787,Willesden Green Gas Battery 16-12-042-08w5,Enerplus Corporation,,Alberta,52.6065,-115.0144
29524,Med River 10-35-39-04-5,NAL Resources Management,,Alberta,52.4011,-114.46642
27140,Choice 4-5-41-9w4 Ggs,Sanling Energy Ltd.,,Alberta,52.493052,-111.274766
18836,Torrington Comp Stn 08-31,Ember Resources Inc.,0,Alberta,51.7845,-113.5329
19206,Wild River 2-2 Compressor,Repsol Oil & Gas Canada Inc.,,Alberta,53.8907,-117.4659
24544,Calahoo Haro #3,Sanling Energy Ltd.,,Alberta,58.233454,-118.781691
22429,Utikuma Oil Battery 10-23-078-08w6,Kelt Exploration,,Alberta,55.7758,-119.122
16436,Schuler 13-07,Canlin Energy Corporation,,Alberta,50.3367,-110.135
17572,Mega Compressor Station 07-13,Obsidian Energy Ltd.,,Alberta,57.8516,-119.1581
23789,Trilogy Deep Valley 01-15-063-25w5,Paramount Resources Ltd.,,Alberta,54.4457,-117.6884
30685,Economy Creek 11-05,Semcams ULC,Off the Forestry Truck Road,Alberta,54.971755,-114.291868
10388,Sandy Lake Diesel Generating Station,Hydro One Remote Communities Inc.,General Delivery,Ontario,53.063008,-93.356944
22667,Ojay Comp Stn A-065-E,Canadian Natural Resources Limited,,British Columbia,54.6354,-120.4281
18118,Boundary Lake South Sour Gas Plant 01-14-085-13w6,Canadian Natural Resources Limited,,Alberta,56.3642,-119.9343
23501,Iron River 5-5-64-7w4 Pad,Devon Canada Corporation,,Alberta,54.5058,-111.0348
28940,Les Planchers Mercier (Drummondville) Inc.,Les Planchers Mercier (Drummondville) Inc.,1125 - Rocheleau Rue Nord-Ouest,Quebec,45.869119,-72.53077900000001
19051,Rigel 13-15-088-18w6,Pengrowth Energy Corporation,,British Columbia,56.6352,-120.7631
5370,Sturgeon Lake South Sour Gas Plant 02-02-069-22w5,Canadian Natural Resources Limited,,Alberta,55.0742,-117.2742
1147,Rabbit Lake Operation,Cameco,2121 11th Street West,Saskatchewan,58.1938,-103.7158
28244,South Rosevear 08-14-053-15w5,Bonavista Energy Corporation,,Alberta,53.575741,-116.093104
26054,Lre - Westfire Redwater 07-21,Guide Exploration Ltd.,,Alberta,53.939894,-113.208105
29254,Edson Sweet Gas Plant 03-29-054-19w5,Canadian Natural Resources Limited,,Alberta,53.688525,-116.768329
28843,Narraway Gas Battery 02-24-062-11w6,Canadian Natural Resources Limited,,Alberta,54.372172,-119.509296
3269,Carseland Nitrogen Operations,Agrium Inc.,26501 221 Township Road,Alberta,50.8458,-113.5867
20175,Willow Creek Mine,Conuma Coal Resources Ltd.,11657 Willow Creek Forest Service Road Road,British Columbia,55.6044,-122.2007
22876,Wolf Lake Compressor Station 08-13-068-04w4,Canadian Natural Resources Limited,,Alberta,54.886,-110.4662
21724,Olds 6-9,NAL Resources Management,,Alberta,51.7277,-114.0873
16250,Cessford Oil Battery 14-14-025-12w4 (Tank),Canadian Natural Resources Limited,,Alberta,51.1379,-111.5776
23257,Central Heating and Cooling Plant,University of Calgary,3550 24th Ave Nw Avenue Northwest,Alberta,51.0749,-114.1387
16878,Gleichen Comp Stn 13-26,Encana Corporation,,Alberta,50.817,-113.1002
21997,06-04-040-21w4 Bashaw,Ember Resources Inc.,,Alberta,52.4101,-112.9697
29685,Torc Torquay Oil Battery 02-20-002-11w2,TORC Oil & Gas Ltd.,,Saskatchewan,49.146924,-103.439607
29555,Basing 08-17,Tourmaline Oil Corp,3700 - 250 6th Avenue Southwest,Alberta,53.1396,-116.88102
209,Tiverton Plant,Greenfield Ethanol Inc.,4th Concession Road,Ontario,44.3193,-81.5657
28036,Delta Unit 1,Whitecap Resources Inc.,,Saskatchewan,50.264628,-108.562413
2537,"Clean Harbors Canada, Inc","Clean Harbors Canada, Inc.",4090 Telfer Road North,Ontario,42.8804,-82.2971
2638,Wastewater Facility,City of Regina,12100 Dewdney Avenue West,Saskatchewan,50.47,-104.744
30261,Chambers Gas Mwb 01-16-041-11w5,Canadian Natural Resources Limited,,Alberta,52.525018,-115.515607
15282,Sandhills Compressor Station 04-35-013-25w3,Canadian Natural Resources Limited,,Saskatchewan,50.1227,-109.3261
30009,Soloman 08-28 Gas Battery,Petrus Resources Ltd.,,Alberta,53.51008,-118.08186
23422,Placid Gas Battery 06-31,Cenovus Energy Inc.,,Alberta,54.2294,-117.5892
16119,Fox Creek Gas Plant,Semcams ULC,,Alberta,54.2067,-116.7667
2875,Grande Prairie Operations,International Paper Company,10 Km Se on Resources Road,Alberta,55.0712,-118.6912
30160,Hcft 16-10 Booster,Lynx Energy Ulc,,Alberta,50.9487,-112.98477
22159,Brazeau 7-24-47-15w5,Boulder Energy Ltd.,,Alberta,53.0668,-116.0583
19193,Pembina Sweet Gas Plant 06-15,Sinopec Canada,,Alberta,53.1376,-114.3585
29630,Judy Creek Gas Plant 08-24,Crescent Point Energy Corp.,,Alberta,54.463153000000005,-115.365582
30361,Torc Hastings Oil Battery 09-08-004-33w1,TORC Oil & Gas Ltd.,,Saskatchewan,49.28927,-101.89238
28043,Dawson 13-25-080-16-W6,Tourmaline Oil Corp,,British Columbia,55.97091999999999,-120.368337
30834,Monitor 16-17-035-04w4 Compressor,High Ground Energy Inc.,,Alberta,52.008582,-110.54185
1561,"Kronos Canada, Inc.","Kronos Canada, Inc.",3390 Marie-Victorin Route,Quebec,45.7125,-73.425
17234,Torc Steelman Unit # 2 Oil Battery 03-15-004-06w2,TORC Oil & Gas Ltd.,,Saskatchewan,49.2928,-102.734
1797,Northwood Pulp Mill,Canfor Pulp Limited Partnership,5353 Northwood Pulp Mill Road,British Columbia,53.9779,-122.695
26019,Seal Bitumen Battery 12-30,Obsidian Energy Ltd.,,Alberta,56.313763,-116.84421
30859,Mannville Mwb 11-32-052-07w4,Husky Oil Operations Limited,,Alberta,53.5352,-111.00472
15617,Ojay Comp Stn B-057-G,Canadian Natural Resources Limited,,British Columbia,54.6269,-120.2103
29228,Kakwa Gas Plant 07-09-062-08 W6m,Modern Resources Inc.,,Alberta,54.346751,-119.134195
24232,Portable Plant 020010,Border Paving Ltd.,,Alberta,52.36549,-113.79861
3998,Tufts Cove Generating Station,Nova Scotia Power Incorporated,315 Windmill Road,Nova Scotia,44.6764,-63.5961
929,Usine de Gatineau,Produits Forestiers RÃ©solu,79 Main,Quebec,45.4808,-75.6556
26457,Fanshawe College of Applied Arts and Technology,Fanshawe College of Applied Arts and Technology,1001 Fanshawe College Boulevard,Ontario,43.013461,-81.199259
25270,Haynes Compressor Station 14-25,Lynx Energy Ulc,,Alberta,52.21294,-113.44786
23123,Seal Bitumen Battery 14-13,Obsidian Energy Ltd.,,Alberta,56.2883,-116.864
30043,Ferrybank Ggs 01-01-042-28w4,Bonavista Energy Corporation,,Alberta,52.58664399999999,-113.902604
16233,Cessford Sweet Gas Plant 02-08-024-12w4,Canadian Natural Resources Limited,,Alberta,51.0245,-111.6428
3754,Kaybob Gas Plant,Paramount Resources Ltd.,,Alberta,54.5247,-116.7943
25149,Macklin Cleaning 05-24-039-28w3,Prairie Thunder Resources Ltd.,,Saskatchewan,52.36753,-109.90896
19328,Benson 11-31-006-08 W2m,Spartan Energy Corp.,,Saskatchewan,49.517298,-103.074254
2322,Elmira,Chemtura Canada Co. CIE.,25 Erb Street,Ontario,43.5964,-80.5525
22117,Berland River West Comp Station 02-05,Cenovus Energy Inc.,,Alberta,54.1542,-117.5604
24348,Willesden Green 10-34-40-06w5 Ggs,Bonavista Energy Corporation,,Alberta,52.488579,-114.778143
22068,Mearon Gas Battery 10-19-094-12w6,Canadian Natural Resources Limited,,Alberta,57.1719,-119.9145
26060,Fairborne Marlboro 05-29 Sweet Gp,Bonavista Energy Corporation,,Alberta,53.782230000000006,-116.79573
18372,Berland Gas Battery 14-36,Repsol Oil & Gas Canada Inc.,,Alberta,54.0618,-117.4473
23281,Glacier Sour Gas Plant 05-02,Advantage Oil & Gas Ltd.,,Alberta,55.5541,-119.7554
29604,Amoco Pine Creek 10-10 Bty,Bonavista Energy Corporation,,Alberta,53.91383,-116.73573
18045,Rimbey Compressor Station 5-32-43-1w5,OMERS Energy Inc.,3000 - 520 3rd Avenue Southwest,Alberta,52.9893,-114.1579
24428,Brazeau Oil Battery 06-05,Cenovus Energy Inc.,,Alberta,53.110624,-116.015732
28716,Gold Creek Compressor Station 05-11-068-06w6,Canadian Natural Resources Limited,,Alberta,54.87039,-118.8102
28471,Openshaw 01-10 Battery and Compressor,Vermilion Energy Inc.,,Saskatchewan,49.10407,-102.32274
29191,Mount Milligan Mine,Terrane Metals Corp.,26 - 123456 Rainbow Road,British Columbia,55.12046,-124.00305
29359,Torc Midale et Al Alameda Oil Battery 12-19-004-02w2,TORC Oil & Gas Ltd.,,Saskatchewan,49.313611,-102.272728
28582,Wildmere 09-07-048-04 W4m Pad,Gear Energy Ltd.,,Alberta,53.12686,-110.55682
22795,Berland River West Comp Station 11-23,Cenovus Energy Inc.,,Alberta,54.033,-117.7581
30590,10-14-081-18w6 (Well Pad),Encana Corporation,,British Columbia,56.0235,-120.69687
19415,Alameda East Oil Battery 05-13-003-02w2,Canadian Natural Resources Limited,,Saskatchewan,49.2082,-102.1605
16427,Peggo Comp Stn D-083-C,Canadian Natural Resources Limited,,British Columbia,59.3222,-120.2806
17015,Eagle Creek Oil Battery 15-13-039-25w3,Prairie Thunder Resources Ltd.,,Saskatchewan,52.3594,-109.4744
6625,Christina Lake Sagd Bitumen Battery,"Cenovus Fccl Ltd., as Operator for FCCL Partnership",0,Alberta,55.5827,-110.8888
16380,John Lake 13-16,Devon Canada Corporation,,Alberta,53.7568,-110.1013
30793,Cleo Provost 14-14-039-10w4,Cleo Energy Corp.,,Alberta,52.35844,-111.3377
16483,Tooga Gas Plant B-031-I,Canadian Natural Resources Limited,,British Columbia,59.1936,-120.5111
21025,09-06-042-20w4 Lamerton,Ember Resources Inc.,,Alberta,52.589,-112.8627
22296,Redland Compressor Station 08-33,Lynx Energy Ulc,,Alberta,51.3487,-113.0319
30954,04-34-031-23 W3m,Tamarack Acquisition Corp.,,Saskatchewan,51.694124,-109.190666
4435,Highland Creek Treatment Plant,City of Toronto,51 Beechgrove Drive,Ontario,43.7667,-79.15
17312,Rosebank Oil Mwb 10-33 (Tank),Crescent Point Energy Corp.,,Saskatchewan,49.3437,-102.2585
26616,Ansell Comp 1-34-51-18w5,Tourmaline Oil Corp,,Alberta,53.44643000000001,-116.545029
15693,Elmworth Comp Stn 01-35,Cenovus Energy Inc.,,Alberta,55.0108,-119.865
2938,SociÃ©tÃ© en Commandite Revenu Noranda - Valleyfield,SociÃ©tÃ© en Commandite Revenu Noranda,860 GÃ©rard Cadieux Boulevard,Quebec,45.2283,-74.0981
18918,Evi 3,Harvest Operations Corp.,,Alberta,56.517,-116.0455
22106,Marten Creek Sour Gas Plant 10-02,Tidewater Midstream and Infrastructure Ltd.,,Alberta,55.644884,-114.657841
19468,Edenvale Oil Battery 04-18,Crescent Point Resources Partnership,,Saskatchewan,49.475,-101.7967
18017,Mcleod River Sweet Gas Plant 16-36-055-15w5,Velvet Energy Ltd.,,Alberta,53.801024,-116.085979
22460,Sawn Lake Battery 12-29-091-12w5,Surge Energy Inc.,,Alberta,56.925,-115.9026
30146,Harvest 14-34-36-02w5 Gas Battery,Harvest Operations Corp.,,Alberta,52.14257,-114.207028
30413,Wapella Oil Mwb 01-04 (Tank),Crescent Point Energy Corp.,,Saskatchewan,50.22276,-102.07562
27972,Oak 11-11-086-18,Pengrowth Energy Corporation,,British Columbia,56.44497,-120.73555
24254,06-20-061-18 W5m,Paramount Resources Ltd.,,Alberta,54.28855,-116.6671
19339,Weir Hill 13-30-005-05 W1m,Spartan Energy Corp.,,Saskatchewan,49.4192,-102.6763
15866,Borraidale Compressor Station 06-20-051-06w4,Canadian Natural Resources Limited,,Alberta,53.4152,-110.8571
29247,Valhalla Oil Battery 01-18-076-08w6,Canadian Natural Resources Limited,,Alberta,55.579631000000006,-119.218887
30446,Ferrier Oil Swb 16-14-039-09w5,Trioil Resources Ltd.,400 - 850 2 Street Southwest,Alberta,52.363293,-115.181253
26203,Dodsland 5-25,Teine Energy Ltd.,,Saskatchewan,51.77051,-108.71819
18655,Hoadley Comp Station 08-06,Cenovus Energy Inc.,,Alberta,52.7593,-114.1252
4857,Nova Research & Technology Center,Nova Chemicals Corporation,2928 16th Street,Alberta,51.07865,-114.01766
5308,Bonnybrook Wastewater Treatment Plant,City of Calgary,4302 15 Street Southeast,Alberta,51.0128,-114.022
23508,Iron River 06-07-64-07w4 Pad,Devon Canada Corporation,,Alberta,54.5203,-111.0538
22267,Jackfish 1 Sagd Plant,Devon Canada Corporation,,Alberta,55.5279,-110.8738
30955,13-13-031-26 W3m,Tamarack Acquisition Corp.,,Saskatchewan,51.66148,-109.568841
17445,South Swan Hills,Accel Energy Canada Limited,,Alberta,54.6473,-115.4958
15131,Ante Creek North Sour Gas Plant 02-26,ARC Resources,,Alberta,54.8972,-117.7088
31011,Glen Ewen (15-34) 12-2-3-1,Vermilion Energy Inc.,,Saskatchewan,49.17402,-102.0614
28808,Rapdan Oil Mwb 15-11-004,Crescent Point Energy Corp.,,Saskatchewan,49.288917,-108.592755
3899,Mississauga Lubricants Centre,Petro-Canada Lubricants Inc.,385 Southdown Road,Ontario,43.5012,-79.6101
30152,Cavalier 05-11 Booster,Lynx Energy Ulc,,Alberta,50.94143,-113.11853
17014,Pikes Peak Gas Battery 01-06-050-23w3,Husky Oil Operations Limited,2944 - 44 Avenue,Saskatchewan,53.27974,-109.36676
30840,Altario 01-24-035-02w4 Compressor,High Ground Energy Inc.,,Alberta,52.0143,-110.14897
24053,Sounding Lake Sour Gas Plant,Surge Energy Inc.,,Alberta,52.108364,-110.549451
17124,Arrowood 01-07-020-25 W4,Houston Oil & Gas Ltd.,,Alberta,50.675,-113.4522
30421,Wembley Gas Swb 10-28-073-07w6,Kelt Exploration,,Alberta,55.354244,-119.009752
19013,Nal Midale 09-33-05-10 W2,NAL Resources Management,,Saskatchewan,49.4311,-103.2849
23693,Petrobakken Freestone 3-33,Ridgeback Resources Inc.,,Saskatchewan,49.6859,-102.7643
1776,Corunna Site,Nova Chemicals (Canada) Ltd.,0 - 785 Petrolia Line,Ontario,42.8825,-82.4044
21367,Wauchope Oil Mwb 16-27,Crescent Point Energy Corp.,,Saskatchewan,49.6035,-101.8753
22930,Lre - Dreau 14-11,Guide Exploration Ltd.,,Alberta,55.7511,-117.1457
17805,Richland Kingsford Oil Mwb 01-14,Crescent Point Energy Corp.,,Saskatchewan,49.2928,-102.8352
28845,Wapiti Compressor Station 03-14-069-10w6,Canadian Natural Resources Limited,,Alberta,54.968876,-119.414716
20057,Tumbler Ridge Gas Plant,Pacific Northern Gas Ltd.,119 Commercial Parkway,British Columbia,54.89366,-120.670869
15425,Glen Ewen Oil Battery 02-10,ARC Resources,,Saskatchewan,49.1909,-102.0534
30722,Dodsland 13-29-31-19 W3,Teine Energy Ltd.,*Near* 31 Hwy,Saskatchewan,51.686876,-108.672566
23409,Goodwin Gas Battery 10-29,Cenovus Energy Inc.,,Alberta,54.1339,-115.7595
15653,Wolf South Comp Stn 06-20,Cenovus Energy Inc.,,Alberta,53.3268,-116.168
22822,Carnduff Oil Mwb 07-36 (Tank),Crescent Point Energy Corp.,,Saskatchewan,49.0784,-101.9081
23138,Umc et Al Elcott 16-19,Spartan Energy Corp.,,Saskatchewan,49.0566,-102.1204
22322,Lator 02-06-063-02w6,Strath Resources Ltd,,Alberta,54.4161,-118.2866
2984,Hamilton Works,U.S. Steel Canada Inc.,386 Wilcox Street,Ontario,43.26438,-79.82723
5070,East River Mill,Louisiana Pacific Canada Ltd.,2005 #3 Highway,Nova Scotia,44.584286,-64.162999
15819,Duhamel Oil Battery 03-32-045-21w4,Canadian Natural Resources Limited,,Alberta,52.9158,-113.0225
4268,Charlottetown Thermal Generating Station,Maritime Electric Co. Ltd.,50 Cumberland Street,Prince Edward Island,46.2383,-63.1182
22903,Wapiti Comp Station 10-30,Cenovus Energy Inc.,,Alberta,54.8306,-119.6626
21580,Viewfield Oil Mwb 05-05,Crescent Point Energy Corp.,,Saskatchewan,49.6159,-103.2018
23089,Torc Ingoldsby Oil Battery 04-17-004-31w1,TORC Oil & Gas Ltd.,,Saskatchewan,49.2976,-101.6384
5946,Woodstock Plant,Federal White Cement Ltd.,3551551 35th Line,Ontario,43.0989,-80.8943
15535,Stettler 02-17,Wolf Coulee Resources,,Alberta,52.2609,-112.8266
3406,Usine Arvida,Rio Tinto Alcan,1955 Mellon Boulevard,Quebec,48.4274,-71.1599
29363,Compass 16-16,Whitecap Resources Inc.,,Saskatchewan,51.574907,-109.311852
28399,Renaissance Sloat Creek Compressor Station 10-18,Obsidian Energy Ltd.,,Alberta,57.680029000000005,-119.294247
17341,Northrock Red Rock 16-14,Taqa North Ltd.,,Alberta,54.4544,-119.0917
30389,Bigoray Oil Swb 11-12-050-10w5,Obsidian Energy Ltd.,,Alberta,53.30331,-115.33329
5871,St. Marys Cement Plant,St. Marys Cement Inc.,585 Water Street South,Ontario,43.2426,-81.1478
17236,Midale South Vol Unit # 2 11-25-005-12-W2,NAL Resources Management,,Saskatchewan,49.4165,-103.4985
28979,Seal	03-16-082-18w5,Baytex Energy Ltd,,Alberta,56.10354,-116.75779
28451,Princess Multi-Well Oil Battery 13-33,Prairie Provident Resources,1100 - 640 5 Avenue Southwest,Alberta,50.65763,-111.34006
29102,Provost Oil Battery 13-11,Surge Energy Inc.,,Alberta,52.17022,-110.335172
22461,Seal Bitumen Battery 13-08,Obsidian Energy Ltd.,,Alberta,56.0993,-116.3208
3107,La Brasserie Labatt,Labatt Breweries of Canada LP,50 Labatt,Quebec,45.425474,-73.643342
17841,8-01 Booster Compressor,Sabre Energy Ltd.,,Alberta,53.2832,-115.3244
22225,Elmworth Oil Battery 14-32,Cenovus Energy Inc.,,Alberta,55.1105,-119.1859
27956,Port Hawkesbury Biomass Cogeneration Power Plant,Nova Scotia Power Incorporated,120 Pulp Mill Road,Nova Scotia,45.5982,-61.3601
16151,Pine Ck 04-25-058-19 W5 Comp,Bonavista Energy Corporation,,Alberta,54.0376,-116.6985
8075,Nadeau Poultry Farm Ltd.,Maple Lodge Farms Ltd.,2222 Commerciale Street,New Brunswick,47.2651,-68.6172
23638,Queensdale 10-23 Bty,Vermilion Energy Inc.,,Saskatchewan,49.4881,-102.0368
2173,Kapuskasing Operations,Rayonier A.M. Canada G.P.,1 Government Road,Ontario,49.41,-82.4239
635,Hanson Brick - Burlington,Hanson Brick,0 - 5155 Dundas Street,Ontario,43.4153,-79.8081
26322,Horizon Furniture Distributors,Horizon Furniture Distributors Inc.,840 Trillium Drive,Ontario,43.39953,-80.483
27623,Whitemud Oil Mwb 09-15,Crescent Point Energy Corp.,,Saskatchewan,49.473357,-108.608991
30016,101/04-12-030-27w3/0 (4b4-7) Swb,Whitecap Resources Inc.,,Saskatchewan,51.549364,-109.680847
8506,HÃ´tel-Dieu,HÃ´pital Notre-Dame du Chum,3840 Saint-Urbain Rue,Quebec,45.5136,-73.5779
27126,Waskada Sour Gas Plant 16-21,EOG Resources Canada Inc.,,Manitoba,49.0567,-100.76543
6187,Usine de Marbleton,Graymont (QC) Inc.,303 Principale Street West,Quebec,45.6207,-71.6049
16240,Fbv Central 5-14,Pengrowth Energy Corporation,,Alberta,52.091,-112.7615
15289,Belloy Battery,Paramount Resources Ltd.,,Alberta,54.4944,-115.9576
30773,Forestburg Ob 1-21-42-14w4,Cardinal Energy Ltd.,,Alberta,52.624826,-111.949827
7432,"Canada Malting, Thunder Bay",Canada Malting Co Ltd.,579 Maureen Street,Ontario,48.4168,-89.2267
30447,Orlen Kakwa Cs 12-13,Trioil Resources Ltd.,400 - 850 2 Street Southwest,Alberta,54.452823,-118.780544
28780,Torc Workman Oil Battery 15-31-001-31w1,TORC Oil & Gas Ltd.,,Saskatchewan,49.087116,-101.616607
28677,Lts Viewfld 2d16-15/2d16-22-6-8w2,Ridgeback Resources Inc.,,Saskatchewan,49.477236,-102.996011
10367,Saskatoon,Ardent Mills Ulc,95 33rd Street,Saskatchewan,52.1435,-106.6611
29361,East Cantuar 11-17,Whitecap Resources Inc.,,Saskatchewan,50.348276,-108.172965
15372,16-36-040-22w4 Nevis,Ember Resources Inc.,,Alberta,52.49,-113.0344
16519,Alderson Comp Stn 02-12-015-15w4,Torxen Energy Ltd.,,Alberta,50.2383,-111.9395
30329,Pinto Oil Swb 09-07-003-02w2,TORC Oil & Gas Ltd.,,Saskatchewan,49.19718,-102.2562
17721,Taqa North Boundarylake 16-12-085-14,Taqa North Ltd.,,British Columbia,56.3608,-120.0604
16666,Maxhamish Oil Mwb A-018-J,Crescent Point Energy Corp.,,British Columbia,59.7106,-123.1178
29008,10-30-41-23-W4m Nevis North,Ember Resources Inc.,,Alberta,52.55801999999999,-113.30137
22414,Pembina Sweet Gas Plant 04-02,Obsidian Energy Ltd.,,Alberta,53.2803,-114.7738
7304,Unilever Ice Cream,"Good Humor-Breyers, Division of Unilever Canada Inc.",175 Union Street,Ontario,42.8389,-80.3108
7738,Feed Mill,Otter Farm & Home Co-Operative,3548 248th Street,British Columbia,49.0664,-122.5363
16899,Kaybob 06-22,Husky Oil Operations Limited,,Alberta,53.9379,-116.9004
21943,Chigwell Compressor Station 02-03,Lynx Energy Ulc,,Alberta,52.5793,-113.5135
16854,Neptune Oil Battery 05-31,Enerplus Corporation,,Saskatchewan,49.2528,-104.1562
6838,Head Office / Main Plant,Doepker Industries Ltd.,300 Doepker Avenue,Saskatchewan,52.3209,-104.8186
27014,Leitchville Sour Gas Plant 04-16,Crescent Point Energy Corp.,,Saskatchewan,49.728439,-108.52928
30324,Taber Oil Mwb 02-16-009-17w4,Canadian Natural Resources Limited,,Alberta,49.72944,-112.24853
17755,Cypress Farrow,Taqa North Ltd.,,Alberta,50.7368,-113.3257
22540,Vero Edson Sweet Gas Plant 12-15-053-15w5,Velvet Energy Ltd.,,Alberta,53.5795,-116.138
6810,Inuvik Plant,NWT Power Corp,0 - 41 Water Street,Northwest Territories,68.355391,-133.727067
30265,Cliffdale Compressor Station 04-10-084-17w5,Canadian Natural Resources Limited,,Alberta,56.26285,-116.60722
30331,Steelman Oil Swb 16-27-004-06w2,TORC Oil & Gas Ltd.,,Saskatchewan,49.331809,-102.72692
16770,Wainwright East Ob 11-12-48-08w4,Cardinal Energy Ltd.,,Alberta,53.1267,-111.04412
24585,Seal Bitumen Battery 15-22,Obsidian Energy Ltd.,,Alberta,56.302783,-116.277596
28322,Progress Oil Battery 07-01-077-11w6,Canadian Natural Resources Limited,,Alberta,55.641051,-119.56438500000002
2070,Ruetgers Canada Inc,Ruetgers Canada Inc.,725 Strathearne Avenue North,Ontario,43.262326,-79.791103
31014,Carlyle 8-2 Bty,Vermilion Energy Inc.,,Saskatchewan,49.61517,-102.30427
18181,Gooseberry Oil Battery,Harvest Operations Corp.,,Alberta,52.0973,-114.7557
4306,Pine River Gas Plant,Spectra Energy Transmission,0 - Highway 97 South Sud,British Columbia,55.5719,-121.9416
26618,Para 08-13-063-05w6 Musreau Gas Plant,Pembina Pipeline Corporation,,Alberta,54.448884,-118.594666
28887,Gold Creek Gas Battery 10-05-068-04w6,Canadian Natural Resources Limited,,Alberta,54.859734,-118.569254
5243,Edmonton Plant,Lehigh Hanson Materials Ltd.,12640 Inland Way,Alberta,53.5816,-113.5991
21708,Gannon Ewing Lk 10-24,Pengrowth Energy Corporation,,Alberta,52.196969,-112.86974
28186,Alameda Oil Mwb 11-28,Crescent Point Energy Corp.,,Saskatchewan,49.240915,-102.222304
15435,Kaybob Comp Stn 10-22,Sinopec Canada,,Alberta,54.2908,-116.9187
16422,Birley Creek Comp Stn B-099-G,Canadian Natural Resources Limited,,British Columbia,57.1606,-121.2354
23244,Petrobakken Mwb Kisbey 13-5-8-6,Ridgeback Resources Inc.,,Saskatchewan,49.6227,-102.7938
21457,Tide Lake Comp Stn 01-04-018-11w4,Torxen Energy Ltd.,,Alberta,50.4853,-111.4497
22313,Hythe Comp Stn D-033-I,Encana Corporation,,British Columbia,55.4488,-120.034
24130,Seal 04-33-082-15w5,Baytex Energy Ltd,,Alberta,56.14711,-116.294328
8608,Petit Paris,Produits Forestiers Petit Paris,75 Chutes des Passes,Quebec,48.8984,-71.77199999999999
18462,Grizzly North Comp Stn A-074-G,Canadian Natural Resources Limited,,British Columbia,54.8938,-120.6656
29386,Edam West Thermal 11-19-048-20w3,Husky Oil Operations Limited,4335 - 44 Street,Saskatchewan,53.15615,-108.92082
23272,Morinville 2-20-55-25 W4m,Zargon Oil and Gas Ltd.,,Alberta,53.7617,-113.6791
21032,06-17-042-22 W4 Nevis,Ember Resources Inc.,,Alberta,52.6136,-113.1389
30940,Nottingham 4-14 Bty,Vermilion Energy Inc.,,Saskatchewan,49.38593,-101.84151
5477,Mont-Laurier,Saputo Produits Laitiers Canada S.E.N.C.,1485 Paquette,Quebec,46.553002,-75.46837099999999
5284,Edson Gas Plant,Talisman Energy,,Alberta,53.5575,-116.5472
4146,South Caroline Compressor Station,Paramount Resources Ltd.,,Alberta,51.9265,-114.5427
6224,Eacom Timber Corp - Scierie de Matagami,EACOM Timber Corporation,Usine Eacom Timber Matagami - 2000 Parc Indus,Quebec,49.7287,-77.6978
16823,Colgate Oil Battery 04-24,Enerplus Corporation,,Saskatchewan,49.3936,-103.9093
6013,Cfb Halifax - Canadian Forces Ammunition Depot Bedford,Department of National Defence (Use This One),335 Dartmouth Road,Nova Scotia,44.7092,-63.6314
17620,Parkland Gas Plant 6-29-81-15,Canlin Energy Corporation,,British Columbia,56.0533,-120.3098
27861,Seal Bitumen Battery 04-30,Obsidian Energy Ltd.,,Alberta,56.306537,-116.84421
723,Powell River Division,Catalyst Paper Corporation,5775 Ash Avenue,British Columbia,49.8727,-124.5516
21076,Portable Plant 020008,Border Paving Ltd.,,Alberta,52.5492,-113.8408
22009,South Kaybob 06-19,Tangle Creek Energy Ltd.,,Alberta,54.1976,-116.6855
5615,Belleville,The Procter & Gamble Company,355 University Avenue,Ontario,44.1988,-77.3636
17005,Renaissance Provost 1-30,Alphabow Energy Ltd.,,Alberta,52.1157,-110.9831
16958,Flinton/Moose Valley 03-17-011-06w2,Spartan Energy Corp.,,Saskatchewan,49.9039,-102.9696
6624,Sand Creek Sour Gas Plant,Cenovus Energy Inc.,,Alberta,52.9047,-115.3247
26251,Town B-70-C/94-G-1,Petronas Energy Canada Ltd.,,British Columbia,57.05208,-122.37187
23560,Grande Cache Coal Corporation,Grande Cache Coal Corporation,Highway 40,Alberta,54.0066,-119.1055
2120,Caroline Complex,Shell Canada Limited,Bag 500 Caroline,Alberta,51.9655,-114.7536
29070,Bowser Mineral Property,Pretium Resources Inc.,37 Highway,British Columbia,56.39246,-129.95158999999998
26199,Wild River 12-36-055-23-W5,Tourmaline Oil Corp,,Alberta,53.7974,-117.2934
24603,Pben Mwb Corning 1-32-10-7,Ridgeback Resources Inc.,,Saskatchewan,49.856876,-102.914611
6439,Entreposage et Transbordement de Produits Chimiques,Somavrac Inc.,4600 St-Joseph,Quebec,46.3396,-72.5788
16508,Severn 06-14 Booster,Lynx Energy Ulc,,Alberta,51.217,-112.9776
27837,Nal Dodsland 08-04-33-20-3,NAL Resources Management,,Saskatchewan,51.799749,-108.771417
6006,Ckf - Hantsport,CKF Inc.,48 Prince Street,Nova Scotia,45.0647,-64.1719
20162,Tower Compressor Station 09-28,Crew Energy Inc.,,British Columbia,56.05156,-120.59168
2134,Redwater Fertilizer Operations,Agrium Inc.,56225 Sh643,Alberta,53.8416,-113.0979
22094,Prespatou Comp Stn C-059-B (2),Canadian Natural Resources Limited,,British Columbia,57.0479,-121.2344
2081,Boundary Dam Power Station,Saskatchewan Power Corporation,,Saskatchewan,49.09606,-103.0305
28333,Viking Kinsella Oil Battery 09-10-048-08w4,Canadian Natural Resources Limited,,Alberta,53.126653000000005,-111.080846
17782,Brazeau Office 01-01,Westbrick Energy Ltd.,,Alberta,52.8431,-115.6047
27939,Torc MacOun Oil Battery 14-25-003-09w2,TORC Oil & Gas Ltd.,,Saskatchewan,49.244352,-103.096635
21111,Crooked Lake Gas Battery 10-22-062-22w5,Canadian Natural Resources Limited,,Alberta,54.3795,-117.2107
15250,Knopcik Oil Battery 16-13-073-10w6,Canadian Natural Resources Limited,,Alberta,55.3287,-119.388
23467,Parkman Oil Mwb 16-08,Crescent Point Energy Corp.,,Saskatchewan,49.6472,-101.9194
30159,Hcft 16-20 Booster,Lynx Energy Ulc,,Alberta,50.97779,-112.75204
22172,Goodfare Comp Stn 09-05,Cenovus Energy Inc.,,Alberta,55.2946,-119.8
17437,Cameron Hills,Paramount Resources Ltd.,,Northwest Territories,60.0376,-117.491
18373,Berland Sweet Plant 14-15-059-24-W5,Tourmaline Oil Corp,,Alberta,54.106806000000006,-117.516746
22455,Genesee 05-30-049-03 W5,Journey Energy Inc.,,Alberta,53.2561,-114.4372
23084,Canetic Hastings 2-27,Spartan Energy Corp.,,Saskatchewan,49.3269,-101.8529
29432,03-04-40-24-W4m Clive,Ember Resources Inc.,,Alberta,52.40796,-113.40019
17546,Esther Sweet Gas Plant 13-19,Obsidian Energy Ltd.,,Alberta,51.7626,-110.1397
17538,Haig Sweet Gas Plant 11-33,Obsidian Energy Ltd.,,Alberta,58.0732,-118.762
19095,Kaybob Ob 02-09-62-20w5,Razor Energy Corp.,,Alberta,54.34316,-116.93577
15390,Hansman Lake Battery,Karve Energy Inc.,,Alberta,52.4212,-110.3886
15856,Crooked Lake Sweet Gas Plant 06-05-063-22w5,Canadian Natural Resources Limited,,Alberta,54.4196,-117.2931
21426,Irricana Compressor Station 10-22,Ember Resources Inc.,0,Alberta,51.3196,-113.7176
1266,Crofton Division,Catalyst Paper Corporation,0 - 8541 Hay Road,British Columbia,48.875,-123.645
29972,10-27-034-08 W4m Crude Oil Multiwell Battery,Tamarack Acquisition Corp.,,Alberta,51.94968,-111.05416
28459,Harmon Valley 01-35-083-19w5,Baytex Energy Ltd,,Alberta,56.23374,-116.87716
5389,Peco Sweet Gas Plant,Cenovus Energy Inc.,,Alberta,55.1994,-116.2219
653,Mazeppa Sour Gas Plant,Mfc Energy Corporation,,Alberta,50.6475,-113.772
6680,Ladyfern Comp Stn B-017-I,Canadian Natural Resources Limited,,British Columbia,57.1775,-120.0853
22786,Pembina Gas Battery 10-24,Cenovus Energy Inc.,,Alberta,52.9839,-115.0257
30642,Wapiti 13-15-067-08w6m Mwb,Modern Resources Inc.,200 - 110 8 Avenue Southwest,Alberta,54.80565,-119.14339
18410,Beaverdam Comp Stn D-033-I,Canadian Natural Resources Limited,,British Columbia,56.9479,-120.5281
19219,Mackay River Power Plant,TransCanada Energy Ltd.,,Alberta,57.039778000000005,-111.908748
29260,Brintnell Bitumen Satellite 09-13-080-21w4,Canadian Natural Resources Limited,,Alberta,55.935332,-113.14115
18097,Tristar Freestone 4-18-9-6w2 Mwb,Ridgeback Resources Inc.,,Saskatchewan,49.7292,-102.8129
19164,Chauvin 13-14-43-02w4,Cardinal Energy Ltd.,,Alberta,52.7084,-110.1916
15675,Wainwright East Ob 01-30-47-09w4,Cardinal Energy Ltd.,,Alberta,53.076102,-111.300215
21722,Olds 16-33-30-1w5,NAL Resources Management,,Alberta,51.6183,-114.075
30795,Freeman 10-19-65-12w5,Coastal Resources Ltd.,520 5 Avenue Southwest,Alberta,54.65475,-115.79993
17019,Muskwa River Gas Plant 02-33-083-25w4,Husky Oil Operations Limited,,Alberta,56.2332,-113.8964
26115,Tony Creek Gas Battery 07-16-064-21w5,Canadian Natural Resources Limited,,Alberta,54.53625,-117.1136
6394,Bromont,Unifix Inc.,35 Unifix Rue,Quebec,45.3018,-72.72399999999999
1080,Boundary Gas Plant 14-24-084-15,Canlin Energy Corporation,,British Columbia,56.3009,-120.231
17979,Cutbank Gas Plant,Pembina Pipeline Corporation,Unnamed Rd Road,Alberta,54.3597,-119.1389
19972,Maxhamish Comp Stn D-036-I,EOG Resources Canada Inc.,,British Columbia,59.8326,-123.245
28184,Pipestone Comp Stn 16-34,Encana Corporation,,Alberta,55.11053199999999,-119.275062
5247,Gordondale East Gas Plant,Spectra Energy Midstream Corporation,,Alberta,55.8767,-119.3011
27740,Seal 04-20-084-18w5,Baytex Energy Ltd,,Alberta,56.29193000000001,-116.81779
1156,Elmira Plant,Sulco Chemicals,60 First Street,Ontario,43.5917,-80.5539
28320,Gordondale Oil Battery 08-30-078-09w6,Canadian Natural Resources Limited,,Alberta,55.78689,-119.376596
28623,Bonnie Glen Battery 12-8,Petrus Resources Ltd.,,Alberta,53.041369,-113.923896
8008,Upei Boiler,PEI Energy Systems,550 University Avenue,Prince Edward Island,46.2575,-63.1375
2986,Arcelormittal Contrecoeur Ouest,ArcelorMittal MontrÃ©al Inc.,2050 Route des AciÃ©ries,Quebec,45.8206,-73.2661
16552,Redland Compressor Station 08-23,Lynx Energy Ulc,,Alberta,51.4062,-112.3476
28224,Silverton Oil Mwb 01-31,Crescent Point Energy Corp.,,Saskatchewan,49.253516,-101.779358
27303,Peoc Mannville 15-26-50-9w4,Perpetual Energy Inc.,,Alberta,53.348617,-111.20872
16865,Twining Sweet Gas Plant 12-10,Ember Resources Inc.,0,Alberta,51.6426,-113.3377
3071,Sarnia Refinery,Suncor Energy Products Partnership,1900 River Road,Ontario,42.9306,-82.4433
29404,Kingsmere 13-15-048-27w4,Inplay Oil Corp.,,Alberta,53.1469,-113.87546
27129,Queensdale 02-15-006-01 W2m,Spartan Energy Corp.,,Saskatchewan,49.466644,-102.059705
15242,Hays Oil Battery 12-18-013-14w4,Canadian Natural Resources Limited,,Alberta,50.0856,-111.914
15906,Smith West Sweet Gas Plant 09-01-071-02w5,Canadian Natural Resources Limited,,Alberta,55.1214,-114.1591
3517,Canexus Chemicals Lp Brandon,Canexus Corporation - Brandon,8080 Richmond Street East,Manitoba,49.8265,-99.8293
17282,Sousa Oil Battery 15-25,NuVista Energy Ltd.,,Alberta,58.7615,-118.6904
30704,Provost Oil Battery 09-22,Surge Energy Inc.,,Alberta,52.369178000000005,-110.198057
702,Richmond Cement Plant,Lafarge Canada Inc.,7611 No 9 Road,British Columbia,49.1591,-123.0032
6232,"Cascades Groupe Papiers Fins, Div. Rolland",Cascades Groupe Papiers Fins Inc.,455 Rolland Avenue,Quebec,45.760053000000006,-74.003606
16127,Shaman Gadsby 1-29,Canlin Energy Corporation,,Alberta,52.2029,-112.6773
10153,"Xstrata Copper Canada Division, Kidd Mine Site",Glencore Canada Corporation,11335 Highway 655 North Highway North,Ontario,48.687,-81.3701
8642,Centrale de CogÃ©nÃ©ration Ã la Biomasse,Kruger Ãnergie Bromptonville S.E.C.,220 de Windsor Route,Quebec,45.4808,-71.9519
28965,Harmon Valley	16-14-084-18w5,Baytex Energy Ltd,,Alberta,56.28832,-116.71933
16766,Abbt0051889,Ipc Alberta Ltd.,,Alberta,50.6315,-111.0222
24141,Hinton 06-32-51-25 W5,Tourmaline Oil Corp,,Alberta,53.443180000000005,-117.6554
6076,Mount Allison University,Mount Allison University,155 Main Street,New Brunswick,45.9014,-64.3722
17340,Encal Grande Prairie 14-19-72-6,Taqa North Ltd.,,Alberta,55.2547,-118.9178
30454,Hanlan Sour Inlet,Canlin Energy Corporation,,Alberta,53.20485,-116.81346
26481,Countess Sour Gas Plant 10-20-018-15w4,Torxen Energy Ltd.,,Alberta,50.53745,-112.02938
17644,Pouce Coupe South Oil Swb 14-10-078-12w6,Kelt Exploration,,Alberta,55.7504,-119.7745
28525,Chauvin 01-10-43-02w4,Cardinal Energy Ltd.,,Alberta,52.68487,-110.20037
27451,Seal Bitumen Battery 02-34,Obsidian Energy Ltd.,,Alberta,56.147090000000006,-116.72523
2256,Tonolli Canada Limited,Tonolli Canada,1333 Tonolli Road,Ontario,43.6022,-79.5811
6523,Hi-Pro Feeds Chilliwack,Hi-Pro Feeds,46255 Chilliwack Central Road Road,British Columbia,49.163678,-121.945043
19823,Obed 03-31-054-22w5,Tourmaline Oil Corp,,Alberta,53.703,-117.2349
16052,Fireweed Comp Stn A-048-A,Canadian Natural Resources Limited,,British Columbia,56.7858,-121.5931
30751,01-27-032-28w3,Baytex Energy Ltd,,Saskatchewan,51.776284,-109.904615
29012,16-07-29-26-W4m Acme,Ember Resources Inc.,,Alberta,51.47269,-113.64239
15609,Bilbo Compressor Station 06-08-065-09w6,Canadian Natural Resources Limited,,Alberta,54.6072,-119.332
16592,Strathmore Phase 2 Gas Battery 06-28,Ember Resources Inc.,0,Alberta,50.9843,-113.4443
16274,Peco Sweet Comp Station 11-12,Cenovus Energy Inc.,,Alberta,53.2169,-116.3587
28998,La Jolie B-003-K/094-O-12,Chevron Canada Resources,,British Columbia,59.66875,-123.78438
29355,Torc Torquay Oil Battery 15-01-002-12w2,TORC Oil & Gas Ltd.,,Saskatchewan,49.0995,-103.484125
30155,Hcft 07-32 Booster,Lynx Energy Ulc,,Alberta,50.9124,-112.73683
23602,Tommy Lakes (Trutch) A-45-I/94-G-10,NAL Energy Ltd.,,British Columbia,57.7007,-122.5531
23935,Tristar N Handsworth 5-5-11-7,Lightstream Resources Ltd.,,Saskatchewan,49.8782,-102.9376
28809,Rapdan Oil Swb 16-09,Crescent Point Energy Corp.,,Saskatchewan,49.201555,-108.632053
21424,Hcft 01-26 Booster,Lynx Energy Ulc,,Alberta,51.0688,-112.9615
23083,West Gull Lake Oil Mwb 2-20 (Tank),Crescent Point Energy Corp.,,Saskatchewan,50.0928,-108.5601
29548,Rainy River Project,New Gold,5967 Highway 11/71 Highway,Ontario,48.848,-94.003
22020,07-04-034-05 W5m Battery,Sitka Exploration Ltd.,,Alberta,51.8878,-114.6473
16435,Channel Lake 12-29,Canlin Energy Corporation,,Alberta,50.2027,-110.6613
30343,Torquay Oil Swb 14-21-001-12w2,TORC Oil & Gas Ltd.,,Saskatchewan,49.055739,-103.556306
30017,101/09-05-033-22w3/0 (6d9-6) Swb,Whitecap Resources Inc.,,Saskatchewan,51.803362,-109.078604
18840,Helmet Comp Stn D-004-J,Canadian Natural Resources Limited,,British Columbia,59.4229,-120.6671
16503,Hussar Crowfoot Compressor Station 06-15,Lynx Energy Ulc,,Alberta,51.0423,-113.001
16925,Lone Pine 11-13-030-29w4,NAL Resources Management,,Alberta,51.5698,-113.9641
4591,Adm Agri-Industries - Adm Lloydminster,ADM Agri-Industries Company,4805-62 Ave.,Alberta,53.2838,-110.0319
29816,Gordondale 14-36,Insignia Energy Ltd.,,Alberta,55.896111,-119.582712
16531,Redland South Compressor Station 06-04,Lynx Energy Ulc,,Alberta,51.2754,-112.9065
27806,Seal 12-29-084-18w5,Baytex Energy Ltd,,Alberta,56.31379,-116.8178
15369,12-07-041-22w4 Nevis,Ember Resources Inc.,,Alberta,52.5157,-113.1738
17948,Simonette Compressor Station 11-06-063-25w5,OMERS Energy Inc.,,Alberta,54.4217,-117.7843
4806,Qit Complexe MÃ©tallurgique de Sorel-Tracy,Qit-Fer et Titane Inc,1625 Marie-Victorin,Quebec,46.0447,-73.1392
17109,Verger Gas Battery 08-26-022-13w4,Canadian Natural Resources Limited,,Alberta,50.897,-111.6937
29851,Teine Whiteside 14-24,Teine Energy Ltd.,,Saskatchewan,51.50208,-109.39381000000002
24471,Amoco Leismer,Devon Canada Corporation,,Alberta,55.691822,-111.279327
18841,Surge Valhalla 06-18,Surge Energy Inc.,,Alberta,55.4075,-119.2267
28234,Elkton Harmattan,ExxonMobil Canada Ltd,,Alberta,51.691271,-114.477378
17845,Med River 6-29-43-01w5,NAL Resources Management,,Alberta,52.732586,-114.113545
3974,Alberta Envirofuels,Keyera Corp.,9511 17th Street,Alberta,53.53199300000001,-113.364925
7095,Zochem,ZOCHEM Inc.,1 Tilbury Court,Ontario,43.6988,-79.725
29633,Rapdan Oil Swb 04-07,Crescent Point Energy Corp.,,Saskatchewan,49.36548,-108.55903
6688,Williams Lake Power Plant,Atlantic Power (Williams Lake) Limited Partnership,4455 MacKenzie Avenue North,British Columbia,52.1608,-122.1724
19014,Med River 10-29-39-4,NAL Resources Management,,Alberta,52.3848,-114.5393
15024,Gilby Gas Plant 05-05-040-03w5,Penn West Petroleum Ltd.,,Alberta,52.4129,-114.4076
2991,Hinton Pulp,West Fraser Mills Ltd.,760 Switzer Drive,Alberta,53.4133,-117.5706
30092,Rbr Kayb 14-31-063-18w5 Mwob,Ridgeback Resources Inc.,,Alberta,54.49971,-116.713781
26143,Nova Chemicals Technical Centre,Nova Chemicals Corporation,N/A - 3620 32 Street Northeast,Alberta,51.086252,-113.98773
24370,Teepee Compressor Station 03-14-075-07w6,Canadian Natural Resources Limited,,Alberta,55.493589,-118.975282
4842,Flakeboard,Flakeboard Company Limited,151 Church Street,New Brunswick,45.1864,-67.3096
21254,Hamburg Gas Battery 04-19-096-10w6,Canadian Natural Resources Limited,,Alberta,57.3405,-119.6216
15556,10-10-57-19w5,Paramount Resources Ltd.,,Alberta,53.9126,-116.7451
15290,Hope Creek,Apache Canada Ltd.,,Alberta,54.5381,-115.9323
16491,Pouce Coupe Gas Plant,Spectra Energy Midstream Corporation,,Alberta,55.9439,-119.9231
21914,Trilogy Presley 03-29 100%,Paramount Resources Ltd.,,Alberta,54.1251,-116.8167
28854,Goodfish Compressor Station 04-30-094-10w5,Canadian Natural Resources Limited,,Alberta,57.179378,-115.608487
20208,Sundown Gas Processing and Production If-A,Shell Canada Upstream,,British Columbia,55.526,-120.713
18368,Ojay Comp Stn D-041-E,Canadian Natural Resources Limited,,British Columbia,54.6229,-120.3781
21456,Three Hills Comp Stn 05-12,Ember Resources Inc.,0,Alberta,51.9891,-113.4523
30269,Kitscoty Compressor Station 04-06-051-02w4,Canadian Natural Resources Limited,,Alberta,53.3681,-110.297
16056,Helmet Comp Stn A-084-J,Canadian Natural Resources Limited,,British Columbia,59.4858,-120.6672
18443,Abbt3430001 (Erskine Oil Battery 05-07-039-20w4) (Tank),Canadian Natural Resources Limited,,Alberta,52.3373,-112.8852
8706,Usine Dubuc,Rio Tinto Alcan,2040 de la RÃ©serve,Quebec,48.4095,-71.1301
28896,Dunvegan Compressor Station 13-04-080-03w6,Canadian Natural Resources Limited,,Alberta,55.910856,-118.414574
28811,Viewfield Oil Mwb 03-24 (Tank),Crescent Point Energy Corp.,,Saskatchewan,49.655499,-103.239921
3935,Ikkuma Sierra C-091-D/094-I-14,Ikkuma Resources Corp.,,British Columbia,58.8311,-121.3859
22457,Provost 05-34-039-04w4,Penn West Petroleum Ltd.,,Alberta,52.3958,-110.5049
22682,Progress Compressor Station 06-03-078-12w6,Canadian Natural Resources Limited,,Alberta,55.7282,-119.7748
27079,Hoffer 04-05-02-15 W2m,NAL Resources Management,,Saskatchewan,49.08933,-103.98464
29934,Pinto 14-30-001-04 W2m,Spartan Energy Corp.,,Saskatchewan,49.07081,-102.535284
21024,01-29-043-21w4 Lamerton,Ember Resources Inc.,434 Township Road Road,Alberta,52.7287,-113.0065
30707,Surge Betty Lake Hz 03-04-045-07w4,Surge Energy Inc.,,Alberta,52.850709,-110.959301
4048,Co-Op Refinery Complex,Consumers' Co-Operative Refineries Limited,550 9th Avenue North,Saskatchewan,50.4843,-104.5794
28489,Harmon Valley 02-15-084-19w5,Baytex Energy Ltd,,Alberta,56.278,-116.90907
3707,Strathcona Refinery,Imperial Oil,Highway 16a & 34 Street,Alberta,53.5417,-113.3917
5309,Fish Creek Wastewater Treatment Plant,City of Calgary,1905 153 Avenue Southeast,Alberta,50.9127,-114.0118
30046,Willgreen 102/10-10-041-05w5 Ggs,Bonavista Energy Corporation,,Alberta,52.517678,-114.634219
1861,Nanticoke Generating Station,Ontario Power Generation Inc.,34 Haldimand Rd 55 Road South,Ontario,42.7961,-80.05
22307,Elnora Gas Battery 15-32,Ember Resources Inc.,0,Alberta,52.0538,-113.2519
29929,Paramount Kaybob South 01-01-060-20 W5m,Paramount Resources Ltd.,,Alberta,54.154198,-116.854611
17434,Tatagwa Oil Mwb 07-24,Crescent Point Energy Corp.,,Saskatchewan,49.4856,-103.8971
23973,Wapiti Comp Stn 11-20,Cenovus Energy Inc.,,Alberta,54.72886999999999,-119.6277
31019,1-6-3-2 Multiwell,Vermilion Energy Inc.,,Saskatchewan,49.180299,-102.266047
29550,Leland 01-12,Tourmaline Oil Corp,3700 - 250 6th Avenue Southwest,Alberta,54.0813,-117.75433
18800,Elleh Sweet Gas Plant,Shanghai Energy Corporation,,British Columbia,58.5938,-121.8531
30792,Cleartech Inland Way,Cleartech Industries Inc.,12720 Inland Way,Alberta,53.582659,-113.595228
23526,13-27-041-21 W4m Bashaw,Ember Resources Inc.,,Alberta,52.563,-112.9527
24543,Nco Rainbow 7-14,Sanling Energy Ltd.,,Alberta,58.37466800000001,-119.03958
20212,Sunrise 3-18-80-17 W6,Tourmaline Oil Corp,,British Columbia,55.9285,-120.6423
24001,Forget Oil Mwb 13-29 (Tank),Crescent Point Energy Corp.,,Saskatchewan,49.680939,-102.52278
29461,Indus Aggregate,Burnco Rock Products Ltd,283129 Twp Rd 222,Alberta,50.8527,-113.8417
5134,Eskay Creek Mine,Barrick Gold Inc.,Airport Road,British Columbia,56.6532,-130.4299
30816,02-33-067-08 W6m - Battery,OMERS Energy Inc.,,Alberta,54.869114,-119.119036
17553,Misty Lake Compressor Station 14-25,Obsidian Energy Ltd.,,Alberta,51.8654,-110.5856
15602,Wapiti Comp Station 03-29,Cenovus Energy Inc.,,Alberta,54.6472,-119.332
15638,Ferrier Comp Stn 13-17,Cenovus Energy Inc.,,Alberta,52.7084,-115.4289
17600,Petro-Can Gilby,Canlin Energy Corporation,,Alberta,52.4614,-114.3469
22500,06-34-035-19w4 Fenn Big Valley,Ember Resources Inc.,,Alberta,52.0477,-112.6382
26123,Liebenthal Gas Battery 16-28-018-25w3,Canadian Natural Resources Limited,,Saskatchewan,50.55717,-109.373921
15907,South Thornbury Compressor Station 09-03-077-13w4,Canadian Natural Resources Limited,,Alberta,55.6439,-111.9242
17418,Trilogy Two Creeks 03-31-63-17w5 Bty,Paramount Resources Ltd.,,Alberta,54.4872,-116.5706
2284,Sundance Thermal Electric Power Generating Plant,TransAlta Generation Partnership,"Site 4, Box 1, RR1",Alberta,53.5085,-114.5571
15841,Newbrook Compressor Station 05-11-062-20w4,Canadian Natural Resources Limited,,Alberta,54.3453,-112.905
26086,Bigstick Compressor Station 15-23-015-25w3,Canadian Natural Resources Limited,,Saskatchewan,50.27975,-109.33768
30754,Ferrier Gas Swb 01-14,Bellatrix Exploration Ltd.,,Alberta,52.78691,-115.328357
16659,Lre - Keg River 06-33,Guide Exploration Ltd.,,Alberta,57.8084,-118.0939
22253,Iron River 01-01-064-08w4 Pad,Devon Canada Corporation,,Alberta,54.5014,-111.0702
16952,Czar Battery,Harvest Operations Corp.,,Alberta,52.4504,-110.8519
24120,Cutpick Red Rock Comp. Stn. 02-12,Crescent Point Energy Corp.,,Alberta,54.43073199999999,-119.218246
1,Alberta-Pacific Forest Industries Inc.,Alberta-Pacific Forest Industries Inc.,,Alberta,54.923116,-112.861867
658,Belle Plaine Facility,K + S Windsor Salt Ltd.,522 Kalium Road,Saskatchewan,50.3954,-105.1562
15464,Baytex Tangleflags Compressor Station A06-30-050-24w3,Baytex Energy Ltd,,Saskatchewan,53.3415,-109.5127
15357,Castor Plant,Karve Energy Inc.,,Alberta,52.2209,-111.9373
6584,Vulcan Sour Gas Plant,ConocoPhillips Canada Resources Corp.,,Alberta,50.2696,-112.8938
16656,Lre - Paddle North 01-06,Guide Exploration Ltd.,,Alberta,58.0812,-117.6356
29930,Paramount Kaybobs 06-35-058-18 W5m,Paramount Resources Ltd.,,Alberta,54.055708,-116.568478
21938,Cmi 500 Mobile Plant,Wapiti Gravel Suppliers Ltd.,County Industrial Park,Alberta,56.364823,-117.431892
22493,Orion Facilities,Osum Production Corp.,,Alberta,54.323,-110.25
23833,South Wapiti Compressor Station 10-29-066-10w6,Canadian Natural Resources Limited,,Alberta,54.7458,-119.46789
3163,Darlington Nuclear,Ontario Power Generation Inc.,1 Holt Road,Ontario,43.8681,-78.725
29838,Seal 01-05-083-14w5,Baytex Energy Ltd,,Alberta,56.161409,-116.165715
23762,Placid Comp Station 11-15,Repsol Oil & Gas Canada Inc.,,Alberta,54.1894,-117.3673
24155,Wilson Creek Compressor Station 09-19-043-03w5,OMERS Energy Inc.,3000 - 520 3rd Avenue Southwest,Alberta,52.726153,-114.417716
25163,Superb,Superb Operating Company Ltd.,,Saskatchewan,51.83246,-109.29718
28509,Kerrobert Gas Plant,Whitecap Resources Inc.,,Saskatchewan,51.766238,-109.185169
16324,Victor Sweet Gas Plant 06-17-071-01w5,Canadian Natural Resources Limited,,Alberta,55.1456,-114.1189
16258,Sylvan Lake Oil Battery 10-21,Cenovus Energy Inc.,,Alberta,52.1971,-114.3677
6629,Senlac Thermal Oil Battery,Canadian Natural Resources Limited,,Saskatchewan,52.433,-109.5976
17367,Iqaluit,Qulliq Energy Corporation,243 Umiaq Crescent,Nunavut,63.753748,-68.507081
15417,Gilby Oil Battery 10-19-40-03w5m,OMERS Energy Inc.,3000 - 520 3rd Avenue Southwest,Alberta,52.4576,-114.4191
18363,Chickadee 16-30,Outlier Resources Ltd.,,Alberta,54.1454,-115.8155
22311,Hythe Comp Stn A-029-H,Encana Corporation,,British Columbia,55.6011,-120.1077
17875,Waterton Complex - Compressor Station X,Shell Canada Limited,400 4th Avenue South,Alberta,49.2292,-114.0291
21634,Warwick East 7-34-52-14 W4,Alphabow Energy Ltd.,,Alberta,53.5288,-111.9649
15124,Sedgewick Sour Gas Plant 06-27,AltaGas Ltd.,,Alberta,52.5557,-111.8053
30631,Progress 01-03-078-10w6,Longshore Resources Ltd.,,Alberta,55.723657,-119.449239
24417,Lagarde Comp Stn 01-21,Canadian Natural Resources Limited,,British Columbia,56.5548,-120.319626
15770,Cdn Forest Penhold,Taqa North Ltd.,,Alberta,52.1229,-113.847
16497,Hcft 11-33 Booster,Lynx Energy Ulc,,Alberta,51.0023,-112.8842
19233,Jarrow 06-17-045-10w4,Guide Exploration Ltd.,Range Road 105,Alberta,52.8757,-111.4225
17268,Rainbow Oil Battery 13-06,NuVista Energy Ltd.,,Alberta,58.6159,-119.0157
29377,Nce Kerrobert 3-27 Bty,Whitecap Resources Inc.,,Saskatchewan,51.767037,-109.184871
22087,Rigel Oil Battery A-014-A/094-A-15,Canadian Natural Resources Limited,,British Columbia,56.7604,-120.5406
16740,Suffield A1 Comp Stn 04-03,Ipc Alberta Ltd.,,Alberta,50.5731,-111.1775
15202,Rainbow Lake,AltaGas Ltd.,,Alberta,58.5687,-119.2015
15916,Greencourt Sour Gas Plant 09-26-059-09w5,Canadian Natural Resources Limited,,Alberta,54.1306,-115.2314
19531,Gunderson Gas Battery 10-12-063-12w6,Canadian Natural Resources Limited,,Alberta,54.4382,-119.6761
27145,Northstar Long Coulee 14-12,Sanling Energy Ltd.,,Alberta,50.33804,-112.90466
5564,Hydro Technologies (Canada) Inc.,Hydro Technologies (Canada) Inc.,2324 Einstein Street,Quebec,46.7958,-71.2912
29778,04-27 Compressor Station,XTO Energy Canada ULC,,Alberta,54.29969499999999,-118.371709
18341,Sedalia 09-29-031-05w4,Baytex Energy Ltd,,Alberta,51.6862,-110.6669
18596,Rosevear 7-20,Bonavista Energy Corporation,,Alberta,53.59048000000001,-116.17268
6517,Norbord High Level,Ainsworth Engineered Canada Lp,"Highway 35, 10 Km South of High Level",Alberta,58.443472,-117.21108999999998
15670,Claresholm Sweet Gas Plant 13-31-011-26w4,Canadian Natural Resources Limited,,Alberta,49.9583,-113.5566
30925,7g 16-06-063-04w6,Seven Generations Energy Ltd.,,Alberta,54.425881,-118.573255
6504,Tolko High Level Lumber Division,Tolko Industries Ltd.,11401 92 Street Street,Alberta,58.500325,-117.136628
29874,Alameda 09-08-004-03 W2m,Spartan Energy Corp.,,Saskatchewan,49.284475,-102.368204
29946,Sour Battery 09-35-022-26 W4m,Cuda Energy Inc.,,Alberta,50.916117,-113.493556
28771,Spirit River Gp 03-10-077-07-W6,Tourmaline Oil Corp,,Alberta,55.652284,-118.999001
21848,Ascentex Joffre 11-29,Signalta Resources Ltd.,,Alberta,52.3848,-113.7132
29402,Birley Umbach A-072-F/094-H-03,Chinook Energy (2010) Inc.,,British Columbia,57.49334,-121.67716
22440,Countess 11-32-020-16 W4,Journey Energy Inc.,,Alberta,50.7412,-112.189
30607,Lre - Redwater 02-12,Guide Exploration Ltd.,,Alberta,53.994367,-113.280393
11394,Royal Windsor Drive,Royal Ready Mix Inc.,2465 Royal Windsor Drive,Ontario,43.4931,-79.6493
5591,Usine de Bedford,Graymont (QC) Inc.,1015 de la Carriere Chemin,Quebec,45.1123,-73.0129
8721,Lebel VallÃ©e des Lacs,Groupe Lebel 2004 Inc.,4 Saint-Marc,Quebec,47.8808,-68.7243
30831,Hge 13-34-034-04w4 Battery,High Ground Energy Inc.,,Alberta,51.96604,-110.4958
23156,Caribou B-086-G/094-G-07,Progress Energy Canada Ltd.,,British Columbia,57.4033,-122.6967
22952,Cypress Sour Gas Plant 04-29-014-10w4,Canadian Natural Resources Limited,,Alberta,50.1966,-111.3436
23974,Willesden Gas Battery 06-12,Cenovus Energy Inc.,,Alberta,52.689440000000005,-115.0303
23504,Iron River 07-15-64-8w4 Pad,Devon Canada Corporation,,Alberta,54.5343,-111.1217
28418,Ferrier Swb 16-3-44-10w5,Taqa North Ltd.,,Alberta,52.767225,-115.361717
5459,Mines Wabush - Sept-Iles,"SociÃ©tÃ© Ferroviaire et Portuaire de Pointe-Noire, S.E.C.",1505 de la Pointe Noire Chemin,Quebec,50.1616,-66.4838
28906,Dunvegan Sat #2 Gas Battery 16-17-081-04w6,Canadian Natural Resources Limited,,Alberta,56.027134,-118.578075
18834,Rumsey Sweet Gas Plant,Ember Resources Inc.,0,Alberta,51.879,-112.7926
1872,Norampac Cabano Une Division de Cascades Canada Inc,Cascades Canada ULC.,520 Commerciale Nord,Quebec,47.67,-68.8625
15555,Brazeau Cs 6-27-47-14w5,Boulder Energy Ltd.,,Alberta,53.0794,-115.9725
29460,Burma Road Aggregate,Burnco Rock Products Ltd,8502 114 Avenue Northwest,Alberta,51.185538,-114.221268
15402,Horsham Compressor Station 16-33-017-29w3,Canadian Natural Resources Limited,,Saskatchewan,50.4823,-109.933
3704,Sarnia Refinery Plant,Imperial Oil,602 Christina Street South,Ontario,42.9542,-82.4158
24321,Colin Swan H Inverness 10-17,Acquisition Oil Corp,,Alberta,54.888743000000005,-115.485435
7673,Kingsville Plant,Peterson Spring,208 Wigle Avenue,Ontario,42.0328,-82.7285
19853,Handsworth Oil Mwb 01-22 (Tank),Crescent Point Energy Corp.,,Saskatchewan,49.8302,-102.8674
17490,Journey 06-01-046-02 W5,Journey Energy Inc.,,Alberta,52.9362,-114.1609
30356,Abbt0148366,TORC Oil & Gas Ltd.,,Alberta,54.077740000000006,-116.80466
3060,Usine LaterriÃ¨re,Rio Tinto Alcan,6301 Talbot Boulevard,Quebec,48.3007,-71.1289
23628,Jcwp 7-6,Accel Energy Canada Limited,,Alberta,54.5037,-115.4878
5548,Cimenterie de Saint-Basile,Ciment QuÃ©bec Inc.,145 du Centenaire Boulevard,Quebec,46.7447,-71.8126
15229,Knopcik Sweet Gas Plant 09-10-074-11w6,Canadian Natural Resources Limited,,Alberta,55.3964,-119.5997
21571,Huntoon Oil Mwb 02-18 (Tank),Crescent Point Energy Corp.,,Saskatchewan,49.5537,-103.2118
17463,Paddle Prairie Compressor Station 03-01,Obsidian Energy Ltd.,,Alberta,58.0812,-117.8288
16260,Homeglen Rimbey Comp Station 11-18,Cenovus Energy Inc.,,Alberta,52.707,-114.1375
17089,Queenstown Sweet Gas Plant 04-22-019-21w4,Canadian Natural Resources Limited,,Alberta,50.6168,-112.8453
23534,Severn 16-33 Booster,Lynx Energy Ulc,,Alberta,51.1815,-113.008
27934,Lucky Hills,Teine Energy Ltd.,,Saskatchewan,51.55666,-109.22982
15911,Princess Compressor Station 09-16-020-11w4,Canadian Natural Resources Limited,,Alberta,50.6988,-111.458
26451,Velvet Pine Creek Comp Stn 09-04-056-17w5,Velvet Energy Ltd.,,Alberta,53.81207,-116.45727
16445,Archer Mannville-Minburn,Perpetual Energy Inc.,,Alberta,53.3378,-111.2439
29129,Campus Energy Center,University of British Columbia,2260 West Mall Street East,British Columbia,49.261962,-123.253171
21029,02-29-031-28w4 Lonepine West,Ember Resources Inc.,,Alberta,51.6801,-113.9351
28750,Gundy Compressor,Tourmaline Oil Corp,6814 Airport Road,British Columbia,56.68541999999999,-122.00312
23558,Berwyn 08-36-082-26 W5m,Guide Exploration Ltd.,,Alberta,56.1516,-117.9195
18115,Handsworth Oil Mwb 13-18,Crescent Point Energy Corp.,,Saskatchewan,49.8274,-102.8129
16135,16-18-26-26-W4m Lyalta Comp Stn,Ember Resources Inc.,,Alberta,51.2252,-113.6126
24500,Norcen Golden 7-7-87-14,Harvest Operations Corp.,,Alberta,56.526927,-116.214967
28792,11-29-060-18 W5m,Tangle Creek Energy Ltd.,,Alberta,54.221199,-116.668317
26652,Fenn Big Valley 10-36,Ember Resources Inc.,Fenn Big Valley,Alberta,51.962779,-112.567417
16700,Primrose Comp Stn 12-01,Cenovus Energy Inc.,,Alberta,55.2948,-110.7951
8807,Quebec Silicon Lp,Silicium QuÃ©bec Sec,6500 Yvon-Trudeau,Quebec,46.3712,-72.3881
29179,Lre - Pine Creek 13-09,Guide Exploration Ltd.,,Alberta,53.742857,-116.624206
28832,C-62 Water Hub & Line,Pacific Canbriam Energy Limited,,British Columbia,56.30625,-122.02187
16423,Tommy Lakes Comp Stn C-019-I,Canadian Natural Resources Limited,,British Columbia,57.6808,-122.1106
2316,Prentiss Manufacturing Facility,Dow Chemical Canada ULC,Hwy 597 and Prentiss Road,Alberta,52.3858,-113.595
29113,Dodsland 2-34,Teine Energy Ltd.,,Saskatchewan,51.781461,-108.611846
5214,Corman Park Plant,Cleartech Industries Inc.,19 - Peters Avenue,Saskatchewan,52.1617,-106.6788
25300,Banshee 15-12,Tourmaline Oil Corp,Mitchell Creek Road,Alberta,53.306830000000005,-116.93588
29715,Esso Pembina 15-6,Whitecap Resources Inc.,,Alberta,53.292394,-115.595153
28022,Wildriver 09-15-057-23 W5m,Tourmaline Oil Corp,,Alberta,53.92848000000001,-117.32711
21383,7-19-66-26w4,Sabre Energy Ltd.,,Alberta,54.7235,-113.9219
27324,North Portal Oil Mwb 15-04,Crescent Point Energy Corp.,,Saskatchewan,49.012711,-102.48376
15319,Zama Battery - 2,Paramount Resources Ltd.,,Alberta,59.2307,-119.2759
21996,Gadsby Sales Compressor 05-03,Ember Resources Inc.,,Alberta,52.1482,-112.7863
24427,Resthaven Gas Battery 02-16,Cenovus Energy Inc.,,Alberta,54.184783,-118.080993
16547,Wayne Dalum Comp Stn 10-14-027-20w4,Torxen Energy Ltd.,,Alberta,51.3079,-112.7126
19880,Clive 06-32,Ember Resources Inc.,,Alberta,52.4815,-113.419
1383,Harmac Pacific Operations,Nanaimo Forest Products Ltd.,1000 Wave Place,British Columbia,49.1369,-123.8564
5236,Ekati Diamond Mine,Dominion Diamond Ekati Corporation,1102 - 4920 52nd Street,Northwest Territories,64.7195,-110.6201
1443,Centrale de Tracy,Hydro-QuÃ©bec,12125 Boulevard Marie-Victorin,Quebec,45.9972,-73.1722
15739,Foothills Medical Centre,Calgary Health Region,1403 29th Street Northwest,Alberta,51.0651,-114.1305
18089,Sukunka Comp Stn B-065-B,Canadian Natural Resources Limited,,British Columbia,55.3019,-121.6853
24049,Rigel Arena Oil Swb 14-08,Crescent Point Energy Corp.,,Saskatchewan,49.028186,-109.44502
29292,Sugden 10-05-064-08w4,Devon Canada Corporation,,Alberta,54.509705,-111.174642
26149,Lochend 03-20-027-03w5,NAL Resources Management,,Alberta,51.31643,-114.39142
4782,Usine de Deschambault,Alcoa Aluminereie de Deschambault LtÃ©e,1 des Sources Boulevard,Quebec,46.693171,-71.94488
30422,Wembley Gas Swb 11-31-073-08w6,Kelt Exploration,,Alberta,55.368673,-119.221196
30865,Wainwright 02-17-046-06w4,Husky Oil Operations Limited,,Alberta,52.96143000000001,-110.83526
23645,Cecil Lake Comp Stn 06-06,Canadian Natural Resources Limited,,British Columbia,56.3392,-120.6793
19730,Red Cap Compressor Station 15-06-046-19w5,Canadian Natural Resources Limited,,Alberta,52.9434,-116.7426
23438,Hartaven Oil Battery 05-01,Crescent Point Resources Partnership,,Saskatchewan,49.7902,-103.1101
4823,Sexsmith Sour Gas Plant,Encana Corporation,,Alberta,55.4819,-119.0592
30666,Drumheller Compressor Station 04-08,Lone Pine Resources Canada Ltd.,,Alberta,51.462022,-112.648902
30115,Peoc Mannville 11-33-50-9 Proration,Perpetual Energy Inc.,,Alberta,53.357592,-111.260276
19475,Edson 16-10,Perpetual Energy Inc.,,Alberta,53.4779,-116.124
19667,Browning 05-10-006-05-W2,NAL Resources Management,,Saskatchewan,49.4555,-102.609
24444,Redvers Oil Battery 02-20,Crescent Point Energy Corp.,,Saskatchewan,49.489922,-101.76309
25242,Federal D-030-E/094-B-08 Compressor Station,Husky Oil Operations Limited,,British Columbia,56.354623,-122.49022
16931,Rycroft 15-11 Cs,Winslow Resources Inc,,Alberta,55.5747,-118.8158
26302,Wapiti 13-16-66-08w6m,OMERS Energy Inc.,,Alberta,54.71657,-119.15135
22776,Wapiti Comp Station 06-28,Cenovus Energy Inc.,,Alberta,54.6526,-119.4513
21215,Willmar Oil Mwb 08-33 (Tank),Crescent Point Energy Corp.,,Saskatchewan,49.4265,-102.3458
25005,Pouce Coupe 1-19,Insignia Energy Ltd.,1-19-77-10 W6,Alberta,55.670280000000005,-119.51497
28406,Bigoray Compressor Station 06-10,Obsidian Energy Ltd.,,Alberta,53.474188,-115.097652
18844,Wild River 14-20-056-23 W5,Tourmaline Oil Corp,,Alberta,53.8579,-117.3846
689,Pembina North Gas Plant,Keyera Corp.,,Alberta,53.245,-115.6743
4808,Usine de Beauharnois,Rio Tinto Alcan,40 de l'Industrie Rue,Quebec,45.308622,-73.892269
30130,Wildmere 6-36-48-6 Swb,Devon Canada Corporation,,Alberta,53.18131,-110.75127
30423,Wembley Gas Swb 12-03-073-08w6,Kelt Exploration,,Alberta,55.296055,-119.150612
17959,Progress Blueberry C-29-K/94-A-12,Petronas Energy Canada Ltd.,,British Columbia,56.6857,-121.8557
16890,Wes Hilda Compressor Station 04-26-017-02w4,Canadian Natural Resources Limited,,Alberta,50.4568,-110.1816
18230,Ingoldsby Oil Mwb 04-10,Crescent Point Energy Corp.,,Saskatchewan,49.2782,-102.1123
27273,Venturion Retlaw Oil Battery 01-32-012-19w4,Canadian Natural Resources Limited,,Alberta,50.035191,-112.555341
30424,Wembley Gas Swb 12-05-073-06w6,Kelt Exploration,,Alberta,55.296055,-118.894192
21387,Horse 05-29 -058-22-W5,Tourmaline Oil Corp,,Alberta,54.0557,-117.2439
28937,Town Comp Stn. B-8-I,Petronas Energy Canada Ltd.,,British Columbia,56.91875,-122.096875
26212,P-07,South Rock Ltd.,,Alberta,50.03,-110.4
16234,Stanmore Sweet Gas Plant 07-09-030-11w4,Canadian Natural Resources Limited,,Alberta,51.5525,-111.4906
26063,Pine Creek 12-2-56-19 Multiwell Gas,Bonavista Energy Corporation,,Alberta,53.812059,-116.723263
29464,Rapdan Oil Battery 15-32,Surge Energy Inc.,,Saskatchewan,49.347212,-108.52553600000002
17107,Boundary 08-02,Whitecap Resources Inc.,,British Columbia,56.3385,-120.0929
3751,Wildcat Hills Gas Plant,Canlin Energy Corporation,262130 Range Rd. 54,Alberta,51.2195,-114.6454
15694,Elmworth Comp Stn 09-22,Cenovus Energy Inc.,,Alberta,54.9019,-119.8917
21541,Joffre North Sweet Gas Plant 06-17-040-27w4,Vesta Energy Ltd.,,Alberta,52.4379,-113.8585
6794,The Calgary Airport Authority - Calgary,The Calgary Airport Authority,2000 Airport Road,Alberta,51.1307,-114.009
15414,Ante Creek North Oil Battery 07-18,ARC Resources,,Alberta,54.7964,-117.658
27372,Brazeau 14-30-45-11w5 Mwob,Ridgeback Resources Inc.,,Alberta,52.9117,-115.588028
5241,Hi-Pro Feeds Lethbridge,Hi-Pro Feeds,1810 39th Street North,Alberta,49.723497,-112.785116
30632,Valhalla Comp Station 16-29,Longshore Resources Ltd.,,Alberta,55.621287,-119.504051
29040,Jamieson Quarry,Mainland Sand & Gravel,37120 Keeping Road,British Columbia,49.07673,-122.19134
21706,Carson Creek Gp 4-23,Accel Canada Holdings Limited,04-23-061-12w5,Alberta,54.285,-115.6982
30693,7g 08-22-063-05w6,Seven Generations Energy Ltd.,,Alberta,54.4616,-118.6541
17240,Med River 06-18-39-03-5,NAL Resources Management,,Alberta,52.352,-114.4249
24255,06-02-061-20 W5m,Paramount Resources Ltd.,,Alberta,54.24623,-116.892311
29738,Lloyd 13-36-48-6w4 Mw Pad,Devon Canada Corporation,,Alberta,53.188626,-110.757731
28802,Plato Oil Mwb 01-14 (Tank),Crescent Point Energy Corp.,,Saskatchewan,51.214563,-108.547624
17525,Neptune 10-13 Compressor Station,Penn West Petroleum Ltd.,,Alberta,56.4586,-119.9143
15401,Thunderhill Compressor Station 04-15-014-27w3,Canadian Natural Resources Limited,,Saskatchewan,50.1658,-109.6249
21097,Elk Point Custom Treating Facility,Canadian Natural Resources Limited,,Alberta,53.7861,-110.8373
17241,Elswick 11-2-5-12-W2,NAL Resources Management,,Saskatchewan,49.3583,-103.5209
18448,Fireweed Comp Stn D-052-H,Canadian Natural Resources Limited,,British Columbia,56.8812,-121.5156
30853,Husky Silverdale B4 194-4-14-48-28w3,Husky Oil Operations Limited,,Saskatchewan,53.134362,-110.000322
23162,Green B-6-G/94-G-10,Progress Energy Canada Ltd.,,British Columbia,57.5855,-122.6969
30262,Cliffdale Bitumen Battery 04-23-084-17w5,Canadian Natural Resources Limited,,Alberta,56.2919,-116.58
728,Niagara Falls,Mancuso Chemicals Limited,5725 Progress Street,Ontario,43.0552,-79.08800000000001
28031,Cameron Hills,Steen River Oil & Gas Ltd.,,Northwest Territories,60.03746,-117.50316399999998
3810,Brigus Black Fox Mine,Brigus Gold,2839 Hwy 101 Highway East,Ontario,48.5344,-80.3416
27822,Hi-Pro Feeds Olds,Hi-Pro Feeds,5902 48th Avenue,Alberta,51.781386,-114.10339
16022,Kettle River Sour Gas Plant 15-14-083-05w4,Canadian Natural Resources Limited,,Alberta,56.199,-110.6751
