NPRI ID,Facility name,Company name,City,Province,PostalCode
15786,Sunnynook Sweet Gas Plant 01-17-026-10w4,Canadian Natural Resources Limited,,Alberta,
28109,Lightning Oil Mwb 13-24,Crescent Point Energy Corp.,,Saskatchewan,
22326,Pcp Provost Bty 9-7,Harvest Operations Corp.,,Alberta,T4H 5R6
30334,Torquay Oil Swb 02-11-002-12w2,TORC Oil & Gas Ltd.,,Saskatchewan,
4778,Aluminerie Alouette Inc.,Aluminerie Alouette Inc.,Sept-Ãles,Quebec,G4R5M9
22663,Pine Creek 12-26-057-19w5,Apache Canada Ltd.,Pine Creek/Edson,Alberta,
15372,16-36-040-22w4 Nevis,Ember Resources Inc.,Mirror,Alberta,
28316,Maple Glen Compressor Station 14-24-036-17w4,Canadian Natural Resources Limited,,Alberta,
15922,Dunvegan Sweet Gas Plant 10-04-066-23w5,Canadian Natural Resources Limited,,Alberta,
22610,14-26-038-22w4 Alix,Ember Resources Inc.,Stettler,Alberta,
23358,Hatton Senate Compressor Station 01-04-016-29w3,Canadian Natural Resources Limited,,Saskatchewan,
30411,Skwi080800918w3,Crescent Point Energy Corp.,,Saskatchewan,
21754,Peyto Nosehill 11-21-055-20 W5m,Peyto Exploration and Development Corporation,Edson,Alberta,
28717,Gundy D-004-H/094-B-16,Petronas Energy Canada Ltd.,Gundy (Montney),British Columbia,
23468,Richland Weyburn Oil Battery 10-22,Crescent Point Resources Partnership,,Saskatchewan,
15724,BC6 Comp Stn C-041-F,Canadian Natural Resources Limited,,British Columbia,
26107,Redcliff Gas Battery 08-23-012-07w4,Canadian Natural Resources Limited,,Alberta,
15282,Sandhills Compressor Station 04-35-013-25w3,Canadian Natural Resources Limited,,Saskatchewan,
2537,"Clean Harbors Canada, Inc","Clean Harbors Canada, Inc.",Corunna,Ontario,N0N1G0
27268,Pouce Coupe Gas Battery 05-20-079-12w6,Canadian Natural Resources Limited,,Alberta,
18407,Rigel Oil Battery B-033-A/094-A-15,Canadian Natural Resources Limited,,British Columbia,
18920,Northstar Provost 06-22,Harvest Operations Corp.,,Alberta,
29364,Conwest Valhalla 3-27,Whitecap Resources Inc.,,Alberta,T4H 5R6
30669,Marquee Multi-Well Oil Battery 15-24,Lone Pine Resources Canada Ltd.,Drumheller,Alberta,T0J0Y0
23810,Pancdn Ferrybank,Bonavista Energy Corporation,Ferrybank,Alberta,
29533,Aiken Creek Sour Gas Plant C-038-C,Black Swan Energy,,British Columbia,
732,Metalex Products - Richmond,Metalex Products Ltd.,Richmond,British Columbia,V6X2S8
250,Gibbons Site,Evonik Degussa Canada Inc.,Gibbons,Alberta,T0A1N0
28855,Elk Point Oil Battery 04-32-053-06w4,Canadian Natural Resources Limited,,Alberta,
2173,Kapuskasing Operations,Rayonier A.M. Canada G.P.,Kapuskasing,Ontario,P5N 2Y2
30839,Wainwright 04-24-035-05w4 Battery,High Ground Energy Inc.,,Alberta,
26549,Melrose Oil Mwb 09-14,Crescent Point Energy Corp.,,Saskatchewan,
27992,Iron River 08-27-64-7w4 Pad,Devon Canada Corporation,Iron River Op,Alberta,
407,Ram River,Tidewater Midstream and Infrastructure Ltd.,Rocky Mountain House,Alberta,
17721,Taqa North Boundarylake 16-12-085-14,Taqa North Ltd.,Boundary,British Columbia,
22068,Mearon Gas Battery 10-19-094-12w6,Canadian Natural Resources Limited,,Alberta,
508,Delta Facility,Kemira Chemicals Canada Inc.,Delta,British Columbia,V3M5R4
24141,Hinton 06-32-51-25 W5,Tourmaline Oil Corp,Hinton,Alberta,
24279,Seal Bitumen Battery 09-25,Obsidian Energy Ltd.,,Alberta,
15890,Kehewin Compressor Station 07-30-059-06w4,Canadian Natural Resources Limited,,Alberta,
16511,Cavalier Sweet Gas Plant 16-32,Lynx Energy Ulc,,Alberta,
19843,Parkland Comp Stn 08-13,ARC Resources,,British Columbia,
28489,Harmon Valley 02-15-084-19w5,Baytex Energy Ltd,Harmon Valley,Alberta,
30407,Oungre Oil Swb 03-30,Crescent Point Energy Corp.,,Saskatchewan,
15337,07-03-043-21w4 Lamerton,Ember Resources Inc.,Stettler,Alberta,
639,"Hanson Brick, St Lawrence Plant",Hanson Brick,La Prairie,Quebec,J5R3Y1
15459,Baytex Leahurst Gas Plant 06-19-039-19w4,Baytex Energy Ltd,Leahurst,Alberta,
721,Usine de Valleyfield,Macco Organiques Inc.,Valleyfield,Quebec,J6S4M5
16019,Waskahigan Sweet Gas Plant 15-07-064-23w5,Canadian Natural Resources Limited,,Alberta,
21570,Battle Creek Oil Mwb 15-33 (Tank),Crescent Point Energy Corp.,,Saskatchewan,
15127,Hoole South Sour Gas Plant 16-36,Tidewater Midstream and Infrastructure Ltd.,,Alberta,
22253,Iron River 01-01-064-08w4 Pad,Devon Canada Corporation,Iron River Op,Alberta,
29736,Kirby B North 12-08-074-05 Ggs,Devon Canada Corporation,Kirby South,Alberta,
23818,Bonavista Pine Creek 12-19-57-18,Bonavista Energy Corporation,Pine Creek,Alberta,
10566,Penhorwood Mine and Concentrator Facility,Imerys Talc Canada Inc.,"Penhorwood & Reeves Township,",Ontario,P4N7J5
30792,Cleartech Inland Way,Cleartech Industries Inc.,Edmonton,Alberta,T5V1K2
30025,Whiteside 03-35-030-25w3 Mwb,Whitecap Resources Inc.,,Saskatchewan,
2638,Wastewater Facility,City of Regina,Regina,Saskatchewan,S4P3C8
17805,Richland Kingsford Oil Mwb 01-14,Crescent Point Energy Corp.,,Saskatchewan,
21339,Wauchope Oil Mwb 04-05,Crescent Point Energy Corp.,,Saskatchewan,
28516,Jedney Comp Stn C-007-H,Black Swan Energy,,British Columbia,
1149,Mcarthur River,Cameco,Saskatoon,Saskatchewan,S7M1J3
4908,Duffin Creek Water Pollution Control Plant,Regional Municipality of Durham,Pickering,Ontario,L1W3A3
4700,St. Clair River Site,Nova Chemicals Corporation,Corunna,Ontario,N0N1G0
28471,Openshaw 01-10 Battery and Compressor,Vermilion Energy Inc.,Township 002,Saskatchewan,
18462,Grizzly North Comp Stn A-074-G,Canadian Natural Resources Limited,,British Columbia,
18368,Ojay Comp Stn D-041-E,Canadian Natural Resources Limited,Mel Vollman,British Columbia,
4912,Dresden Division,Martinrea International Inc.,Dresden,Ontario,N0P1M0
16763,Alderson West Sour Gas Plant 06-02-016-15w4,Torxen Energy Ltd.,,Alberta,
25287,Chime 08-13,Pembina Pipeline Corporation,Greenview No. 16,Alberta,
16054,July Lake Comp Stn A-071-G,Canadian Natural Resources Limited,,British Columbia,T4H 5R6
29585,Ante Creek Multi-Well Gas Battery 04-36,Enerplus Corporation,Calgary,Alberta,T2P2Z1
27741,Seal 05-32-084-18w5,Baytex Energy Ltd,Seal,Alberta,
30155,Hcft 07-32 Booster,Lynx Energy Ulc,,Alberta,
7041,Bruce Power,Bruce Power LP,Tiverton,Ontario,N0G2T0
17316,Winter Facility,Cona Resources Ltd.,Winter,Saskatchewan,
28525,Chauvin 01-10-43-02w4,Cardinal Energy Ltd.,Chauvin,Alberta,T0B 0V0
24440,Gardenhead Oil Mwb 01-20,Crescent Point Energy Corp.,,Saskatchewan,
16547,Wayne Dalum Comp Stn 10-14-027-20w4,Torxen Energy Ltd.,,Alberta,
24119,Nal Bienfait 02-09-03-06 W2,NAL Resources Management,Bienfait,Saskatchewan,
29636,Rapdan Sour Gas Plant 13-01,Crescent Point Energy Corp.,,Saskatchewan,
28780,Torc Workman Oil Battery 15-31-001-31w1,TORC Oil & Gas Ltd.,,Saskatchewan,
30689,7g 9-28-064-04w6,Seven Generations Energy Ltd.,Kakwa,Alberta,
29502,Lre - Killam 09-09,Guide Exploration Ltd.,,Alberta,T4H 5R6
28,Cornwall Site,BASF Canada Inc.,Cornwall,Ontario,K6J2B5
16212,Jenner Sour Gas Plant,Imaginea Energy,Jenner,Alberta,
21227,Bashaw 9-15,Ember Resources Inc.,Bashaw,Alberta,T2P 3E5
5808,Cabot Canada Limited,Cabot Canada Limited,Sarnia,Ontario,N7T7N4
28224,Silverton Oil Mwb 01-31,Crescent Point Energy Corp.,,Saskatchewan,
442,Cold Lake,Imperial Oil Resources Limited,Grande Centre,Alberta,T0A1T0
18452,Fox Comp Stn D-047-D,Canadian Natural Resources Limited,,British Columbia,T4H 5R6
2978,Usine Vaudreuil,Rio Tinto Alcan,Jonquiere,Quebec,G7S4L2
15520,Travers Gas Plant,Zargon Oil and Gas Ltd.,Enchant,Alberta,T0K 0V0
2229,Montreal Sulphur Plant,Suncor Energy Products Partnership,MontrÃ©al-Est,Quebec,H1B1A6
17931,Fairydell-Bon Accord 5-35,Signalta Resources Ltd.,Fort Saskatchewan,Alberta,T2P 3E5
29632,Queensdale Oil Mwb 02-24,Crescent Point Energy Corp.,,Saskatchewan,
15713,Brassey Comp Station D-013-F,Cenovus Energy Inc.,,British Columbia,
11766,15600 Robin's Hill Road,La Cie McCormick Canada,London,Ontario,N5V0A4
17033,Fawcett River North Compressor Station 10-23-078-25w4,Husky Oil Operations Limited,Wabasca-Desmarais,Alberta,
4857,Nova Research & Technology Center,Nova Chemicals Corporation,Calgary,Alberta,T2E7K7
1372,Rimbey Gas Plant,Keyera Corp.,Rimbey,Alberta,
19984,Torc Froude Oil Battery 02-32-008-10w2,TORC Oil & Gas Ltd.,,Saskatchewan,
15625,Garrington Sweet Gas Plant,Cenovus Energy Inc.,,Alberta,
15321,Zama Battery - 4,Paramount Resources Ltd.,Zama City,Alberta,
6810,Inuvik Plant,NWT Power Corp,Inuvik,Northwest Territories,X0E0T0
16367,Bellis Compressor Station 12-04-060-15w4,Canadian Natural Resources Limited,,Alberta,
5850,Bath Cement Plant,Lafarge Canada Inc.,Bath,Ontario,K0H1G0
22419,Pembalta #8 Sour Gas Plant 05-05,Obsidian Energy Ltd.,,Alberta,
20213,Boundary 06-06,Whitecap Resources Inc.,,British Columbia,
30328,Kaybob Oil Swb 02-08-059-19w5,TORC Oil & Gas Ltd.,,Alberta,
17352,Midale Oil Mwb 05-35,Crescent Point Energy Corp.,,Saskatchewan,
6504,Tolko High Level Lumber Division,Tolko Industries Ltd.,High Level,Alberta,T0H1Z0
11867,Detour Lake Project,Detour Gold Corporation,Cochrane,Ontario,
15187,Alder Flats Sweet Gas Plant 11-33,Tidewater Midstream and Infrastructure Ltd.,,Alberta,
15717,South Hiding Creek Comp Stn B-053-A,Canadian Natural Resources Limited,,British Columbia,
17736,Morrison Grand Forks 7-28,Sanling Energy Ltd.,,Alberta,T4H 5R6
26520,Ferrier (Comp) 9-3,Bellatrix Exploration Ltd.,Cheddarville,Alberta,T2P2Z2
5472,Emballages Krupack Place Turcot,Kruger Inc,MontrÃ©al,Quebec,H4C1V9
29626,Eastend Oil Swb 01-28,Crescent Point Energy Corp.,,Saskatchewan,
17536,Sousa Sweet Gas Plant 11-31,Obsidian Energy Ltd.,,Alberta,
17354,Hardy Oil Mwb 08-08 (Tank),Crescent Point Energy Corp.,,Saskatchewan,
23247,Tilston Oil Mwb 16-10 (Tank),Crescent Point Energy Corp.,,Saskatchewan,
5070,East River Mill,Louisiana Pacific Canada Ltd.,East River,Nova Scotia,B0J 1T0
3356,Teck Highland Valley Copper Partnership,Teck Highland Valley Copper Partnership,Logan Lake,British Columbia,V0K 1W0
31017,Weir Hill 1-1 Bty,Vermilion Energy Inc.,Township 006,Saskatchewan,
22243,Glen Ewen Sour Gas Plant 05-14,Crescent Point Energy Corp.,,Saskatchewan,
16957,Hazelwood 16-18-011-04w2,Spartan Energy Corp.,Hazelwood,Saskatchewan,
3043,Lantic Inc. - Raffinerie MontrÃ©al,Lantic Inc. - Raffinerie MontrÃ©al,MontrÃ©al,Quebec,H1W2K3
18005,Knopcik Compressor Station 02-27-074-11w6,Canadian Natural Resources Limited,,Alberta,
21602,Benson Oil Mwb 15-23,Crescent Point Energy Corp.,,Saskatchewan,
27496,St. Anne 13-26-054-05 W5m,Guide Exploration Ltd.,,Alberta,
26545,Hoffer Oil Mwb 01-21,Crescent Point Energy Corp.,,Saskatchewan,
28033,Jackfish 3 Sagd Plant,Devon Canada Corporation,Conklin,Alberta,
23534,Severn 16-33 Booster,Lynx Energy Ulc,,Alberta,
16666,Maxhamish Oil Mwb A-018-J,Crescent Point Energy Corp.,,British Columbia,
30165,Ante Creek Oil Mwb 02-02-066-25w5,ARC Resources,,Alberta,
21181,Queensdale 6-27 Bty,Vermilion Energy Inc.,Township 006,Saskatchewan,
6562,01-29-43-04 W5 Plant,Tamarack Acquisition Corp.,Bluffton,Alberta,T0C0M0
24340,Wilson Ck 100/06-21-042-04w5 Ggs,Bonavista Energy Corporation,Wilsoncr,Alberta,
1681,Arclin Canada LtÃ©e - Ste Therese,Arclin Canada Ltd.,Sainte-ThÃ©rÃ¨se,Quebec,J7E4R9
1185,Tembec Skookumchuck Operation,Skookumchuck Pulp Inc.,Skookumchuck,British Columbia,V0B2E0
29377,Nce Kerrobert 3-27 Bty,Whitecap Resources Inc.,,Saskatchewan,
15675,Wainwright East Ob 01-30-47-09w4,Cardinal Energy Ltd.,Wainwright,Alberta,
15935,Alderson Compressor Station 10-21-013-10w4,Canadian Natural Resources Limited,,Alberta,
29850,7gen Pad 3 13-03-064-05w6,Seven Generations Energy Ltd.,Kakwa,Alberta,
7958,Booster Station 3 - Kobes Creek,Spectra Energy Transmission,Peace River District,British Columbia,V1J 4H7
6626,Viking Sweet Gas Plant,PineÂ CliffÂ EnergyÂ Ltd.,,Alberta,
27940,Torc Alameda Oil Battery 07-22-003-03w2,TORC Oil & Gas Ltd.,,Saskatchewan,
24125,Birchcliff Pouce Coupe 03-22-078-12 W6m Gas Plant,Birchcliff Energy Ltd.,Pouce Coupe,Alberta,
24484,Linden Gas Bettery 12-23,Ember Resources Inc.,,Alberta,
16793,Canor Neston 16-26-060-24 W4,Houston Oil & Gas Ltd.,,Alberta,
24514,Pinto Oil Battery 04-10,Legacy Oil + Gas Inc.,,Saskatchewan,
3916,Ccr Refinery,Glencore Canada Corporation,MontrÃ©al-Est,Quebec,H1B5H6
28189,Avon Hill Oil Mwb 03-16,Crescent Point Energy Corp.,,Saskatchewan,
23972,Wapiti Comp Station 15-34,Cenovus Energy Inc.,,Alberta,
21284,Connorsville Compressor Station 10-32-025-15w4,Canadian Natural Resources Limited,,Alberta,
23967,Pine Creek 11-03,Bonavista Energy Corporation,Pine Creek,Alberta,
19880,Clive 06-32,Ember Resources Inc.,Clive,Alberta,
16412,Stoddart Comp Stn 14-34,Canadian Natural Resources Limited,Mel Vollman,British Columbia,
18010,Tourmaline Musreau 02/08-13-062-06-W6 Ggs,Tourmaline Oil Corp,Grande Cache,Alberta,
22769,Three Hills Creek Gas Battery 05-36,Lynx Energy Ulc,,Alberta,
17028,Pelican Compressor Station 05-25-078-20w4,Husky Oil Operations Limited,Md 17,Alberta,
30852,Husky Silverdale 07-12-048-28w3,Husky Oil Operations Limited,Wilton,Saskatchewan,
21954,Spyhill,Lehigh Hanson Materials Ltd.,Spyhill,Alberta,A9A9A9
21130,Tlm 04-17-052-20w5,Repsol Oil & Gas Canada Inc.,,Alberta,
16056,Helmet Comp Stn A-084-J,Canadian Natural Resources Limited,,British Columbia,T4H 5R6
22298,Redland South 09-30 Booster,Lynx Energy Ulc,,Alberta,
30692,7g 5-01-064-06w6,Seven Generations Energy Ltd.,Kakwa,Alberta,
5561,Installations Portuaires et Services Ferroviaires,Rio Tinto Alcan,La Baie,Quebec,G7B3R1
5309,Fish Creek Wastewater Treatment Plant,City of Calgary,Calgary,Alberta,T2J 5Z1
30918,Ns Technical Centre,National Silicates Partnership,Toronto,Ontario,M8Z 2L8
19296,Progress Oil Battery 14-17-077-09w6,Canadian Natural Resources Limited,,Alberta,
23281,Glacier Sour Gas Plant 05-02,Advantage Oil & Gas Ltd.,,Alberta,
16246,Homeglen Rimbey Oil Battery 03-32,Cenovus Energy Inc.,,Alberta,
18089,Sukunka Comp Stn B-065-B,Canadian Natural Resources Limited,,British Columbia,
18363,Chickadee 16-30,Outlier Resources Ltd.,Woodlands County,Alberta,
6826,Exshaw Plant,Graymont Western Canada Inc.,Exshaw,Alberta,T0L2C0
28750,Gundy Compressor,Tourmaline Oil Corp,Fort St John,British Columbia,V1J4M6
15792,Ansell Sweet Gas Plant 01-24-052-20w5,Canadian Natural Resources Limited,,Alberta,
24503,Gilby Gas Plant 10-34,Harvest Operations Corp.,,Alberta,T4H 5R6
21032,06-17-042-22 W4 Nevis,Ember Resources Inc.,Nevis,Alberta,T2P3E5
29340,Skwi042600520w3,Crescent Point Energy Corp.,,Saskatchewan,
30834,Monitor 16-17-035-04w4 Compressor,High Ground Energy Inc.,,Alberta,
21735,Cdn 88 Twining,Alphabow Energy Ltd.,,Alberta,T4H 5R6
16611,AltanaÂ PendantÂ D'OreilleÂ 01Â­17,PineÂ CliffÂ EnergyÂ Ltd.,,Alberta,
2132,Fort Saskatchewan,Sherritt International Corporation,Fort Saskatchewan,Alberta,T8L4G6
15401,Thunderhill Compressor Station 04-15-014-27w3,Canadian Natural Resources Limited,,Saskatchewan,
26081,Chinchaga Compressor Station 03-25-095-05w6,Canadian Natural Resources Limited,,Alberta,
29605,South Wapiti Compressor Station 10-30-067-11w6,Canadian Natural Resources Limited,,Alberta,
24506,Pancdn Badger,Harvest Operations Corp.,,Alberta,
2963,Scotford Chemical Plant,Shell Chemicals Canada Ltd,Fort Saskatchewan,Alberta,T8L3T2
6130,Centrale de Cap-aux Meules,Hydro-QuÃ©bec,"Cap-aux-Meules, Ãles-de-la-Mad",Quebec,G4T1R3
26195,Anderson 01-09-051-24-W5,Tourmaline Oil Corp,Hinton,Alberta,
15900,Clyden Compressor Station 08-22-076-12w4,Canadian Natural Resources Limited,,Alberta,
1464,Sarnia Chemical Plant,Imperial Oil,Sarnia,Ontario,N7T7M5
11661,Mylan Canada - 85 Advance Rd Location,Mylan Pharmaceuticals ULC,Etobicoke,Ontario,M8Z2S6
17463,Paddle Prairie Compressor Station 03-01,Obsidian Energy Ltd.,,Alberta,
28116,Lightning Oil Mwb 14-08,Crescent Point Energy Corp.,,Saskatchewan,
30750,Rrx Pembina 05-09-046-02w5,Baytex Energy Ltd,Duvernay Rrx,Alberta,T2P0R3
3147,Chalk River Laboratories,Atomic Energy of Canada Limited,Chalk River,Ontario,K0J1J0
26076,Steelman Oil Mwb 04-15,Crescent Point Energy Corp.,,Saskatchewan,
3802,Trail Operations,Teck Metals Ltd.,Trail,British Columbia,V1R 4L8
15828,Verger Compressor Station 04-14-022-14w4,Canadian Natural Resources Limited,,Alberta,
18448,Fireweed Comp Stn D-052-H,Canadian Natural Resources Limited,,British Columbia,
27550,Deep Panuke,Encana Corporation,,Nova Scotia,
4142,Fort Saskatchewan Storage and Fractionation,Plains Midstream Canada,Fort Saskatchewan,Alberta,T8L2T2
27368,Norcen Hoadley 02-05,Bonavista Energy Corporation,Ferrybank,Alberta,
23531,Rich Gas Battery 04-24,Ember Resources Inc.,,Alberta,
28963,Aoc Hangingstone Sagd,Athabasca Oil Corporation,Fort McMurray,Alberta,
26272,12-11-041-24w4 Clive Compressor Stn,Ember Resources Inc.,Clive,Alberta,
28325,Seibert Lake Bitumen Battery 01-23-063-09w4,Canadian Natural Resources Limited,,Alberta,
3903,Edmonton Refinery,Suncor Energy Products Partnership,Edmonton,Alberta,T8H2G2
16364,Ferrier Oil Battery 10-36-038-08w5 (Tank),Canadian Natural Resources Limited,,Alberta,
15698,Ante Creek Compressor Station 13-01-101-13w6,Canadian Natural Resources Limited,,Alberta,
4790,F.F.Soucy - RiviÃ¨re-du-Loup,F.F. Soucy Inc.,RiviÃ¨re-du-Loup,Quebec,G5R3Z1
28808,Rapdan Oil Mwb 15-11-004,Crescent Point Energy Corp.,,Saskatchewan,
30042,Fairborne Hz Pine Ck 16-3-56-19,Bonavista Energy Corporation,Marlboro,Alberta,
24433,Westerose South Gas Battery 11-02,Cenovus Energy Inc.,,Alberta,
30859,Mannville Mwb 11-32-052-07w4,Husky Oil Operations Limited,County of Two Hills,Alberta,
30337,Torquay Oil Swb 04-14-003-11w2,TORC Oil & Gas Ltd.,,Saskatchewan,
10298,City of Cornwall Landfill Site,Corporation of the City of Cornwall,Cornwall,Ontario,K6K1M2
28835,Tommy Lakes Comp Stn A-043-I,Canadian Natural Resources Limited,,British Columbia,
16991,Thompson Lake Gas Plant 13-30-040-10w4,Husky Oil Operations Limited,Battle Bend,Alberta,
30752,13-19-032-02w4,Baytex Energy Ltd,,Alberta,
17487,Pembina Sweet Gas Plant 09-17,Obsidian Energy Ltd.,,Alberta,
22129,Elmworth Comp Stn 03-25,Cenovus Energy Inc.,,Alberta,
28890,Mistahae Compressor Station 10-32-077-02w5,Canadian Natural Resources Limited,,Alberta,
30271,Queenstown Compressor Station 03-28-079-12w6,Canadian Natural Resources Limited,,Alberta,
7819,Creative Energy Vancouver Platforms Corp.,Creative Energy Vancouver Platforms Corp.,Vancouver,British Columbia,V6B2M1
16865,Twining Sweet Gas Plant 12-10,Ember Resources Inc.,,Alberta,
30270,Marwayne Bitumen Swb 08-29-053-02w4,Canadian Natural Resources Limited,,Alberta,
22776,Wapiti Comp Station 06-28,Cenovus Energy Inc.,,Alberta,
23493,Cecil Comp Stn 15-24,Canadian Natural Resources Limited,Mel Vollman,British Columbia,
19445,Magrath Cecil 14-31,Harvest Operations Corp.,,Alberta,T4H 5R6
6852,Stony Plain Batch Plant,Border Paving Ltd.,Stony Plain,Alberta,T7Z 1X7
21806,Twining Battery 09-33,Lynx Energy Ulc,Twining,Alberta,
28037,Cantuar Oil Mwb 15-15 (Tank),Crescent Point Energy Corp.,,Saskatchewan,
22117,Berland River West Comp Station 02-05,Cenovus Energy Inc.,,Alberta,
25005,Pouce Coupe 1-19,Insignia Energy Ltd.,Pouce Coupe,Alberta,T2P2V6
17056,Husky Webb 1-1,Whitecap Resources Inc.,,Saskatchewan,
18154,Spirit River Oil Battery 14-06-078-07w6,Kelt Exploration,,Alberta,
6671,Greenhills Operations,Teck Coal Limited,Elkford,British Columbia,V0B1H0
23558,Berwyn 08-36-082-26 W5m,Guide Exploration Ltd.,,Alberta,
29638,Shaunavon Oil Swb 15-21,Crescent Point Energy Corp.,,Saskatchewan,
16519,Alderson Comp Stn 02-12-015-15w4,Torxen Energy Ltd.,,Alberta,
18336,Garden Plains 05-15-033-13w4,Baytex Energy Ltd,Garden Plains,Alberta,
7777,Cascadia Terminal Facility Viterra,Viterra Inc.,Vancouver,British Columbia,V5K5J7
18903,East Tommy Lakes Comp Station D-037-I,Enerplus Corporation,,British Columbia,
28979,Seal	03-16-082-18w5,Baytex Energy Ltd,Seal,Alberta,
30723,Court 1-19-33-27w3,Teine Energy Ltd.,Antelope Park,Saskatchewan,
30629,Lre - Amelia 05-04,Guide Exploration Ltd.,,Alberta,
16752,Pcr Ferrier 7-16 Comp.,Taqa North Ltd.,Ferrier - West,Alberta,
6316,Fonderie Cormier - Saint-Thomas,Fonderie Cormier Inc.,Saint-Thomas,Quebec,J0K3L0
7779,Haida Forest Products Ltd.,Haida Forest Products Ltd.,Burnaby,British Columbia,V3C2N7
30850,Husky Bt 01-36-047-01w4,Husky Oil Operations Limited,County of Vermilion River,Alberta,
25163,Superb,Superb Operating Company Ltd.,Coleville,Saskatchewan,
19221,Utikuma Oil Battery,Vermilion Energy Inc.,Township 081,Alberta,
16711,Redland Compressor Station 11-19,Lynx Energy Ulc,,Alberta,
25016,Gwillim B-93-L/93-P-3,Canlin Energy Corporation,Fsj - Gwillim,British Columbia,
30041,15-03 Kimberley-Leedale Ggs,Bonavista Energy Corporation,Wilsoncr,Alberta,
18443,Abbt3430001 (Erskine Oil Battery 05-07-039-20w4) (Tank),Canadian Natural Resources Limited,,Alberta,
29179,Lre - Pine Creek 13-09,Guide Exploration Ltd.,,Alberta,T4H 5R6
15338,Bashaw D3 10-06,Quattro Exploration & Production Ltd.,Bashaw,Alberta,
19264,Bryant Oil Mwb 12-30,Crescent Point Energy Corp.,,Saskatchewan,
21172,Handsworth Oil Mwb 03-06 (Tank),Crescent Point Energy Corp.,,Saskatchewan,
19631,Chauvin 11-35-43-01w4,Cardinal Energy Ltd.,Chauvin,Alberta,T0B 0V0
29286,Bnnyvlle 16-14-063-07w4 Pad,Devon Canada Corporation,,Alberta,T4H 5R6
18799,Pipestone Comp Stn 10-10,Encana Corporation,,Alberta,
28657,Sundown B-067-H/093-P-10,Tourmaline Oil Corp,Dawson Creek,British Columbia,
2960,Shell Scotford Refinery,Shell Canada Products,Fort Saskatchewan,Alberta,T2P 3E5
16043,Ashmont Compressor Station 16-20-061-09w4,Canadian Natural Resources Limited,,Alberta,
16830,Leo Sweet Gas Plant 11-20-035-17w4,Canadian Natural Resources Limited,,Alberta,
28916,Wapiti Gas Battery 08-10,NuVista Energy Ltd.,Calgary,Alberta,T2P 2W1
27424,Trilogy Karr 13-25-065-02w6 Swb,Paramount Resources Ltd.,,Alberta,
28893,Duncan Compressor Station 11-23-076-15w4,Canadian Natural Resources Limited,,Alberta,
23433,Astra Chauvin Oil Battery 10-35,Surge Energy Inc.,,Alberta,
1236,Sudbury Nickel Smelter Complex,Glencore Canada Corporation,Falconbridge,Ontario,P0M1S0
29522,Wayne Rosedale 10-3-27-20w4,Coastal Resources Ltd.,Wayne Rosedale,Alberta,T0J 2V0
21104,Beavertail Oil Battery D-065-H,Canadian Natural Resources Limited,Mel Vollman,British Columbia,
30749,Pembina 05-25-046-02w5 Battery,Baytex Energy Ltd,Duvernay,Alberta,
5389,Peco Sweet Gas Plant,Cenovus Energy Inc.,,Alberta,
29685,Torc Torquay Oil Battery 02-20-002-11w2,TORC Oil & Gas Ltd.,,Saskatchewan,
855,Chemtrade - Niagara Falls Csc,Chemtrade Logistics Inc.,Niagara Falls,Ontario,L2G3J8
18579,Dauntless 16-4,City of Medicine Hat,Medicine Hat,Alberta,T1A7H3
29901,Husky Bt 04-08-049-02w4,Husky Oil Operations Limited,Vermilion River,Alberta,
18030,Northrock 04-18-062-07w6m Satellite,Taqa North Ltd.,Chicken,Alberta,
18413,Beg Comp Stn C-004-I,Canadian Natural Resources Limited,Ryan Tulloch,British Columbia,
16380,John Lake 13-16,Devon Canada Corporation,John Lake,Alberta,
31020,Wordsworth (4b10-5) 2-5-7-4w2,Vermilion Energy Inc.,Township 007,Saskatchewan,
24121,02-15-040-24w4 Clive,Ember Resources Inc.,Clive,Alberta,
31001,Xto 100/04-08 (09-18),XTO Energy Canada ULC,,Alberta,T4H 5R6
15375,12-11-041-24w4 Chigwell Gas Plant,Ember Resources Inc.,Mirror,Alberta,
15973,North Thornbury Compresor Station 11-31-079-11w4,Canadian Natural Resources Limited,,Alberta,
28592,Sandall Thermal 06-14-051-24w3,Husky Oil Operations Limited,Paradise Hill,Saskatchewan,S0M 2G0
15638,Ferrier Comp Stn 13-17,Cenovus Energy Inc.,,Alberta,
11749,Ottawa Laboratory (Fallowfield),Canadian Food Inspection Agency,Ottawa,Ontario,K2H8P9
281,Varennes Facility,3313045 Nova Scotia Company,Varennes,Quebec,J3X1T3
15714,Noel Sweet Gas Plant,Cenovus Energy Inc.,,British Columbia,
29686,Torc Torquay Oil Battery 02-24-002-12w2,TORC Oil & Gas Ltd.,,Saskatchewan,
26181,Seal	16-08-084-18w5,Baytex Energy Ltd,Seal,Alberta,
16127,Shaman Gadsby 1-29,Canlin Energy Corporation,,Alberta,T4H 5R6
17040,Warner Oil Battery 04-20-007-16w4,Canadian Natural Resources Limited,Wrentham,Alberta,
21103,Bashaw Compressor Station 01-28-042-22w4,Canadian Natural Resources Limited,,Alberta,
30162,Rockyford 05-17 Booster,Lynx Energy Ulc,,Alberta,
21186,Midale Oil Mwb 16-23,Crescent Point Energy Corp.,,Saskatchewan,
19058,Granada Compressor Station 02-18,Obsidian Energy Ltd.,,Alberta,
29451,02-12-081-18w6 (Well Pad),Encana Corporation,Dawson Creek,British Columbia,
29260,Brintnell Bitumen Satellite 09-13-080-21w4,Canadian Natural Resources Limited,,Alberta,
23950,Berland River West Comp Station 01-21,Cenovus Energy Inc.,,Alberta,
15564,5-12-62-20w5,Paramount Resources Ltd.,,Alberta,
19988,Torc Steelman Oil Battery 09-33-005-05w2,TORC Oil & Gas Ltd.,,Saskatchewan,
2781,Shell Panther Battery,Canlin Energy Corporation,,Alberta,T4H 5R6
27782,5-22-72-8w5m Pad,BlackPearl Resources Inc.,Slave Lake,Alberta,T0G 2A0
15998,Wild Hay Gas Battery 13-24-055-25w5,Canadian Natural Resources Limited,,Alberta,
5337,Nevis Gas Plant,Keyera Corp.,Stettler,Alberta,
29461,Indus Aggregate,Burnco Rock Products Ltd,Md of Rockyview,Alberta,T1X0M8
21249,Fairydell Battery 03-21-057-24w4,Coastal Resources Ltd.,Fairydell,Alberta,
18396,Wild River West Gas Battery 08-30-057-24w5,Canadian Natural Resources Limited,,Alberta,
10089,Highbury Canco Corporation,Highbury Canco Corporation,Leamington,Ontario,N8H 0C3
30769,Mitsue Wplant 02/10-30-72-4w5,Cardinal Energy Ltd.,Slave Lake,Alberta,T0G 2A0
3827,Lunenburg Division,High Liner Foods Inc.,Lunenburg,Nova Scotia,B0J2C0
24427,Resthaven Gas Battery 02-16,Cenovus Energy Inc.,,Alberta,
28827,Wilrich 16-27 Compressor Station,Repsol Oil & Gas Canada Inc.,,Alberta,
3928,Raffinerie Jean-Gaulin,Ultramar LimitÃ©e,LÃ©vis,Quebec,G6V 7N1
7341,Metasheen,BASF Metasheen,Smiths Falls,Ontario,K7A5C7
7371,Keele Valley Landfill,City of Toronto,Maple,Ontario,L6A1S5
29927,Pad 33 10-33-063-05w6,Seven Generations Energy Ltd.,Kakwa,Alberta,
2991,Hinton Pulp,West Fraser Mills Ltd.,Hinton,Alberta,T7V1V7
28866,Westlock West Sweet Gas Plant 07-15-060-02w5,Canadian Natural Resources Limited,,Alberta,
2788,Kitimat Works,Rio Tinto Alcan,Kitimat,British Columbia,V8C2H2
4449,Plant #34 Montreal,O-I Canada Corp.,Montreal,Quebec,H3K1X6
16499,Husar Crowfoot Compressor Station 04-21,Lynx Energy Ulc,,Alberta,
30988,Ferrier 07-13 Compressor,Vermilion Energy Inc.,Township 043,Alberta,
18164,Texaco Smiley 09-36-30-26,Teine Energy Ltd.,,Saskatchewan,
17089,Queenstown Sweet Gas Plant 04-22-019-21w4,Canadian Natural Resources Limited,,Alberta,
18542,Thunder Comp Stn D-031-H,Canadian Natural Resources Limited,,British Columbia,T4H 5R6
16345,Goodfish South Sour Gas Plant 03-32-091-08w5,Canadian Natural Resources Limited,,Alberta,
26259,Jansen Project,BHP Billiton Canada Inc.,Saskatoon,Saskatchewan,S7K 1L3
4806,Qit Complexe MÃ©tallurgique de Sorel-Tracy,Qit-Fer et Titane Inc,Sorel-Tracy,Quebec,J3R1M6
17791,Pouce Oil Battery 08-33-080-12w6,Kelt Exploration,,Alberta,
5564,Hydro Technologies (Canada) Inc.,Hydro Technologies (Canada) Inc.,QuÃ©bec,Quebec,G1P 3S2
16274,Peco Sweet Comp Station 11-12,Cenovus Energy Inc.,,Alberta,
928,Dryden Mill,Domtar Inc.,Dryden,Ontario,P8N2Z7
22148,Pembina Comp Stn 06-27,Cenovus Energy Inc.,,Alberta,
16258,Sylvan Lake Oil Battery 10-21,Cenovus Energy Inc.,,Alberta,
30584,04-14-080-17w6 (Well Pad),Encana Corporation,,British Columbia,
26544,Ferguson Oil Mwb 04-12 (Tank),Crescent Point Energy Corp.,,Alberta,
28539,Disco Organics Processing Facility,City of Toronto,Toronto,Ontario,M9W 1M4
22578,Donelly 06-01-077-21w5,Guide Exploration Ltd.,,Alberta,
22563,Lougheed 11-12-006-15 W2m,Spartan Energy Corp.,Lougheed,Saskatchewan,
28861,Dunvegan Gas Battery 06-19-081-04w6,Canadian Natural Resources Limited,,Alberta,
30688,Meota West 06-24-046-18w3m,Serafina Energy Ltd.,Meota,Saskatchewan,
17872,Moose Mountain Compressor Station,Shell Canada Limited,Calgary,Alberta,T2P 0M5
22754,Three Hills Creek Gas Battery 01-36,Lynx Energy Ulc,,Alberta,
29550,Leland 01-12,Tourmaline Oil Corp,Calgary,Alberta,
21485,Momentive Sturgeon,Momentive Specialty Chemicals Canada Inc.,Sturgeon County,Alberta,T8L5C1
8807,Quebec Silicon Lp,Silicium QuÃ©bec Sec,BÃ©cancour,Quebec,G9H2V8
23453,Forget Oil Mwb 09-32,Crescent Point Energy Corp.,,Saskatchewan,
4896,Bunge Canada - Harrowby Plant,Bunge Canada Holdings I ULC,Harrowby,Manitoba,R0J1W0
28655,Cessford Compressor Station 10-27-024-11w4,Canadian Natural Resources Limited,,Alberta,
18766,Domcan Warwick 10-18 Ggs,Warwick Gas Storage Lp,,Alberta,T4H 5R6
29560,Wild River 15-34,Tourmaline Oil Corp,Calgary,Alberta,
17986,George Gp 9-7,Cequence Energy Ltd.,Grande Prairie,Alberta,
3753,Gold Creek Gas Plant,Canadian Natural Resources Limited,Grande Prairie,Alberta,
18087,Talisman Bullmoose D-77-E/93-P-3,Talisman Energy,,British Columbia,
30666,Drumheller Compressor Station 04-08,Lone Pine Resources Canada Ltd.,Drumheller,Alberta,T0J0Y0
17471,Lake Alma Oil Mwb 02-29 (Tank),Crescent Point Energy Corp.,,Saskatchewan,
21046,Star Swan Hills 10-28 Battery,Acquisition Oil Corp,Alberta,Alberta,
11895,Dufferin Organics Processing Facility,City of Toronto,Toronto,Ontario,M3J2B7
5406,Usine de Matane,Compagnie Rocktenn du Canada Inc.,Matane,Quebec,G4W3M9
5487,Laurenco,Rothsay A Division of Darling International Canada,Sainte-Catherine,Quebec,J0L1E0
24278,Seal Bitumen Battery 16-13,Obsidian Energy Ltd.,,Alberta,
28694,Eastbrook Oil Swb 04-29,Crescent Point Energy Corp.,,Saskatchewan,
28977,Reno 9-21-79-20w5,Baytex Energy Ltd,Reno,Alberta,
22429,Utikuma Oil Battery 10-23-078-08w6,Kelt Exploration,,Alberta,
15450,Baytex Excelsior Battery 07-10-056-24w4,Baytex Energy Ltd,Excelsior,Alberta,
27015,Seal Main Sagd Bitumen Battery 09-06,Obsidian Energy Ltd.,,Alberta,
15431,Youngstown Oil Battery 06-25,ARC Resources,,Alberta,
10260,Brampton Facility,"Stericycle, ULC",Brampton,Ontario,L6T5R7
28418,Ferrier Swb 16-3-44-10w5,Taqa North Ltd.,,Alberta,
24405,Progress Gas Battery 14-34-077-11w6,Canadian Natural Resources Limited,,Alberta,
18423,Cache North Comp Stn C-016-L,Canadian Natural Resources Limited,,British Columbia,T4H 5R6
19313,Countess 10-09-020-16w4,Journey Energy Inc.,,Alberta,
30581,03-31-080-17w6 (Well Pad),Encana Corporation,,British Columbia,
27980,Altares C-65-G Gas Plant,Petronas Energy Canada Ltd.,Altares (Montney),British Columbia,
16899,Kaybob 06-22,Husky Oil Operations Limited,,Alberta,
28272,Wapiti Compressor Station 11-04-069-10w6,Canadian Natural Resources Limited,,Alberta,
24083,Saturn Comp Stn 09-27,Encana Corporation,,British Columbia,
18246,Bvi Bow Island 2-17,Alphabow Energy Ltd.,,Alberta,T4H 5R6
18006,Sexsmith Compressor Station 10-17-074-06w6,Canadian Natural Resources Limited,,Alberta,
22820,Heward Oil Mwb 04-29,Crescent Point Energy Corp.,,Saskatchewan,
2604,Irving Pulp & Paper,JD Irving,Saint John,New Brunswick,E2M3H1
29583,Rrx Plato 1-31,Baytex Energy Ltd,Richlea,Saskatchewan,S0L 2T0
16768,Wainwright 4-24-48-09w4,Cardinal Energy Ltd.,Mannville,Alberta,T2P3H5
26533,Vulcan Ob 01-35-12-24w4,Signalta Resources Ltd.,Vulcan County,Alberta,
22576,Eaglesham 01-25-076-01w6,Guide Exploration Ltd.,,Alberta,
18373,Berland Sweet Plant 14-15-059-24-W5,Tourmaline Oil Corp,Greenview,Alberta,
21996,Gadsby Sales Compressor 05-03,Ember Resources Inc.,Stettler,Alberta,
23942,Cascade Caroline,Taqa North Ltd.,Caroline - South,Alberta,
29430,12-10-046-23w3,Baytex Energy Ltd,,Saskatchewan,
22000,Oak Waterflood,Quattro Exploration & Production Ltd.,Fort St. John,British Columbia,
5235,Cargill High River Plant,Cargill Foods,High River,Alberta,T1V1P4
22455,Genesee 05-30-049-03 W5,Journey Energy Inc.,,Alberta,
27115,Inga Gas Battery 15-03-088-23w6,Kelt Exploration,,British Columbia,
1383,Harmac Pacific Operations,Nanaimo Forest Products Ltd.,Nanaimo,British Columbia,V9X1J2
18103,Tristar Whitebear 15-9,Spartan Energy Corp.,,Saskatchewan,
22440,Countess 11-32-020-16 W4,Journey Energy Inc.,,Alberta,
6827,Pavilion Plant,Graymont Western Canada Inc.,Cache Creek,British Columbia,V0K1H0
2502,Kruger Wayagamack Inc.,Kruger Wayagamack Inc.,Trois-RiviÃ¨res,Quebec,G9A5E9
26264,Peyto Swanson 12-31-053-19w5m,Peyto Exploration and Development Corporation,Edson,Alberta,
30390,Abbt6850511,Sinopec Canada,,Alberta,
29849,7gen Pad 19 14-19-064-05w6,Seven Generations Energy Ltd.,Kakwa,Alberta,
209,Tiverton Plant,Greenfield Ethanol Inc.,Tiverton,Ontario,N0G2T0
16931,Rycroft 15-11 Cs,Winslow Resources Inc,Spirit River,Alberta,
4150,Kaybob Amalgamated Sour Gas Plant,Semcams ULC,Fox Creek,Alberta,
22491,Seal Lake 8-8,Baytex Energy Ltd,Peace River,Alberta,T8S1V1
29198,02-26 Oil Battery,Tangle Creek Energy Ltd.,Niton Junction,Alberta,
29119,Edson 04-17-051-18-W5,Tourmaline Oil Corp,Edson,Alberta,
18874,Ghost Pine Sweet Gas Plant 04-18-032-22w4,Canadian Natural Resources Limited,,Alberta,
19266,East Castor Sweet Gas Plant 02-02,Obsidian Energy Ltd.,,Alberta,
21372,Worsley Oil Battery 09-11,Enercapita Energy Ltd.,,Alberta,
24049,Rigel Arena Oil Swb 14-08,Crescent Point Energy Corp.,,Saskatchewan,
444,Copper Cliff Smelter,Vale Canada Limited,Copper Cliff,Ontario,P0M1N0
30333,Alameda Oil Swb 01-10-003-02w2,TORC Oil & Gas Ltd.,,Saskatchewan,
29831,SÃ©choir Ã Bois de Chauffage,Charbon de Bois Feuille d'Ãrable,Sainte-Christine d'Auvergne,Quebec,G0A1A0
30604,Pipestone Compressor Station 14-30-071-08w6,Encana Corporation,,Alberta,
17962,Progress Highway D-87-D/94-A-13,Petronas Energy Canada Ltd.,Blueberry,British Columbia,
8053,Alma Platform,ExxonMobil Canada Properties,Alma Platform,Nova Scotia,
15907,South Thornbury Compressor Station 09-03-077-13w4,Canadian Natural Resources Limited,,Alberta,
30603,16-27-072-09w6 (Well Pad),Encana Corporation,,Alberta,
6305,Chantier Maritime,Verreault Navigation Inc.,Les MÃ©chins,Quebec,G0J1T0
18170,West Pembina Battery and Compressor,Vermilion Energy Inc.,Township 050,Alberta,
28716,Gold Creek Compressor Station 05-11-068-06w6,Canadian Natural Resources Limited,,Alberta,
30016,101/04-12-030-27w3/0 (4b4-7) Swb,Whitecap Resources Inc.,,Saskatchewan,
24583,Seal Bitumen Battery 14-25,Obsidian Energy Ltd.,,Alberta,
29066,Lindbergh Sagd 04-25,Pengrowth Energy Corporation,Lindbergh,Alberta,
15601,Glen Ewen Gas Plant,Steel Reef Infrastructure Corp.,Estavan,Saskatchewan,S4A2A7
30264,Cliffdale Bitumen Battery 13-34-084-17w5,Canadian Natural Resources Limited,,Alberta,
7738,Feed Mill,Otter Farm & Home Co-Operative,Aldergrove,British Columbia,V2W1X7
29494,Kaybob 1-31-062-20w5,Chevron Canada Resources,Fox Creek,Alberta,
17876,Waterton Complex - Compressor Station W,Shell Canada Limited,Pincher Creek,Alberta,T0K1W0
17362,Mark Grande Prairie 16-16,Taqa North Ltd.,Knopcik,Alberta,
21751,Coalspur Battery 9-27,Canlin Energy Corporation,,Alberta,T4H 5R6
19577,Linden Comp Stn 07-11,Ember Resources Inc.,,Alberta,
16372,Hamburg Sweet Gas Plant 11-14-097-11w6,Canadian Natural Resources Limited,,Alberta,
24536,Torc Weyburn Oil Battery 12-27-006-13w2,TORC Oil & Gas Ltd.,,Saskatchewan,
29888,Doe 02-11-080-16w6 Gpp,Tourmaline Oil Corp,Calgary,British Columbia,
29509,Alameda Sour Gas Plant 16-08,Steel Reef Infrastructure Corp.,Alameda,Saskatchewan,
6040,Labatt Breweries Newfoundland,Labatt Breweries of Canada LP,St. John's,Newfoundland and Labrador,A1E3Y4
21203,Signalta Sedgewick 16-04-042-12w4,Cleo Energy Corp.,,Alberta,
875,Meadow Lake Mechanical Pulp,Meadow Lake Mechanical Pulp,Meadow Lake,Saskatchewan,S9X1V7
19305,06-25 -041-22-W4 Nevis,Ember Resources Inc.,Mirror,Alberta,
4842,Flakeboard,Flakeboard Company Limited,St. Stephen,New Brunswick,E3L3A6
29267,Nixon Compressor Station 10-34-070-16w4,Canadian Natural Resources Limited,,Alberta,
25220,Resthaven 02-10,XTO Energy Canada ULC,Resthaven,Alberta,
28811,Viewfield Oil Mwb 03-24 (Tank),Crescent Point Energy Corp.,,Saskatchewan,
267,Genesee Thermal Generating Station,Capital Power Generation Services Inc.,Warburg,Alberta,T0C2T0
21997,06-04-040-21w4 Bashaw,Ember Resources Inc.,Mirror,Alberta,
16028,Knappen Compressor Station 16-01-002-12w4,Canadian Natural Resources Limited,,Alberta,
16770,Wainwright East Ob 11-12-48-08w4,Cardinal Energy Ltd.,Wainwright,Alberta,
29820,7gen 08-07 08-07-063-04w6,Seven Generations Energy Ltd.,Kakwa,Alberta,
15594,Marten Hills Compressor Station 06-19-075-01w5,Canadian Natural Resources Limited,,Alberta,
19457,13-20 Malmo,Ember Resources Inc.,Panoka,Alberta,
30873,3 Pouce Coupe 16-27,Insignia Energy Ltd.,Pouce Coupe,Alberta,
5569,Sgl Canada Inc.,SGL Canada Inc.,Lachute,Quebec,J8H 2C5
19406,Steelman Oil Battery 03-29-003-04w2,Canadian Natural Resources Limited,,Saskatchewan,
29672,Elswick Oil Battery 16-06-005-12w2,TORC Oil & Gas Ltd.,,Saskatchewan,
17534,Bigoray Sour Gas Plant 06-28,Obsidian Energy Ltd.,,Alberta,
16032,Smith Coulee Compressor Station 16-03-006-11w4,Canadian Natural Resources Limited,,Alberta,
16624,Countess Oil Battery 8 03-25-019-17w4,Torxen Energy Ltd.,,Alberta,
15489,07-34-034-06 W4m Multiwell Group Battery,Tamarack Acquisition Corp.,Consort,Alberta,
21371,White Bear Oil Battery 05-28,Crescent Point Resources Partnership,,Saskatchewan,
17011,Fort Kent Compressor Station 14-10-062-04w4,Husky Oil Operations Limited,Bonnyville,Alberta,T9N2H4
6842,Ferrier Sweet Gas Plant 01-34-040-09w5,Canadian Natural Resources Limited,,Alberta,
16491,Pouce Coupe Gas Plant,Spectra Energy Midstream Corporation,Spirit River,Alberta,
29671,03-30-004-08w2 Oil Battery,TORC Oil & Gas Ltd.,,Saskatchewan,
28830,Sunrise Gas Plant 13-36,ARC Resources,,British Columbia,
22500,06-34-035-19w4 Fenn Big Valley,Ember Resources Inc.,Fenn Big Valley,Alberta,A9A9A9
4866,Mcclean Lake Operations,AREVA Resources Canada Inc.,Saskatoon,Saskatchewan,S7L5X2
8506,HÃ´tel-Dieu,HÃ´pital Notre-Dame du Chum,MontrÃ©al,Quebec,H2W1T8
16396,Maple Glen Sweet Gas Plant 15-36-036-16w4,Canadian Natural Resources Limited,,Alberta,
30753,15-24-032-24w3,Baytex Energy Ltd,,Saskatchewan,
1861,Nanticoke Generating Station,Ontario Power Generation Inc.,Nanticoke,Ontario,N0A1L0
28460,Harmon Valley 01-02-084-19w5,Baytex Energy Ltd,Harmon Valley,Alberta,
24548,Para Karr 06-18 Compressor,Paramount Resources Ltd.,,Alberta,
19101,Atlee 15-35,Sanling Energy Ltd.,,Alberta,T4H 5R6
28403,Seal Bitumen Battery 15-15,Obsidian Energy Ltd.,,Alberta,
16852,Sun Valley Compressor Station 02-13-013-04w4,Canadian Natural Resources Limited,,Alberta,
28253,East Coulee Compressor Station 04-01-028-18w4,Canadian Natural Resources Limited,,Alberta,
30003,Sil Industrial Minerals Lamont Plant,543077 Alberta Ltd.,Bruderheim,Alberta,T0B 0S0
22227,Elmworth Comp Station 15-15,Cenovus Energy Inc.,,Alberta,
19562,Hythe Gas Battery 15-31,Encana Corporation,,Alberta,
24694,Wapiti Gas Battery 01-31,Sinopec Canada,,Alberta,
18115,Handsworth Oil Mwb 13-18,Crescent Point Energy Corp.,,Saskatchewan,
28036,Delta Unit 1,Whitecap Resources Inc.,,Saskatchewan,
30563,02-02-062-25w5 (Well Pad),Encana Corporation,,Alberta,
17192,Beiseker Compressor Station 04-15,Lynx Energy Ulc,Beiseker,Alberta,
16030,Janvier Chard Gas Battery 16-01-079-06w4,Canadian Natural Resources Limited,,Alberta,
15428,Skinner Lake 05-18-004-17 W2m,Spartan Energy Corp.,Skinner Lake,Saskatchewan,
29902,Husky Bt 05-08-049-02w4,Husky Oil Operations Limited,Vermilion River,Alberta,
17319,HomesteadÂ HattonÂ 14-Â­2Â Battery,PineÂ CliffÂ EnergyÂ Ltd.,,Saskatchewan,
27837,Nal Dodsland 08-04-33-20-3,NAL Resources Management,Dodsland,Saskatchewan,
29716,Husky Gull Lk N Unit #8 (Shaunavon),Whitecap Resources Inc.,,Saskatchewan,
24636,Virgh 4-28-65-13 Multi Oil Bty,Ridgeback Resources Inc.,,Alberta,T4H 5R6
17810,Richland Bienfait Oil Battery 09-15,Crescent Point Energy Corp.,,Saskatchewan,
29168,Munson 01-33-029-20w4 Cbm Bty,Taqa North Ltd.,West Drumheller,Alberta,
31014,Carlyle 8-2 Bty,Vermilion Energy Inc.,Township 008,Saskatchewan,
21422,Ghost Hills Comp Stn 05-19,Ember Resources Inc.,,Alberta,
29404,Kingsmere 13-15-048-27w4,Inplay Oil Corp.,Kingsmere,Alberta,
16489,Fourth Creek Gas Plant,Spectra Energy Midstream Corporation,Calgary,Alberta,T2P 0M5
27430,Cdn Oxy Pembina Compressor Station 16-03,Obsidian Energy Ltd.,,Alberta,
18415,Birch Comp Stn A-089-E,Canadian Natural Resources Limited,,British Columbia,
28024,Wild River 08-14-057-23w5m,Tourmaline Oil Corp,Edson,Alberta,
5871,St. Marys Cement Plant,St. Marys Cement Inc.,St. Marys,Ontario,N4X1B6
29641,Swan Hills Oil Mwb 13-23,Crescent Point Energy Corp.,,Alberta,
17444,Pengrowth McLeod 16-12,PineÂ CliffÂ EnergyÂ Ltd.,,Alberta,
16023,Grand Forks Oil Battery 15-15-012-13w4,Canadian Natural Resources Limited,,Alberta,
4060,"Uniboard Canad Inc, Usine Val-D'Or",Uniboard Canada Inc,Val-D'Or,Quebec,J9P5G6
15596,Marten Hills Sour Gas Plant 12-18-076-25w4,Canadian Natural Resources Limited,,Alberta,
27579,Clintonville Oil Swb 16-07,Crescent Point Energy Corp.,,Saskatchewan,
18844,Wild River 14-20-056-23 W5,Tourmaline Oil Corp,Hinton,Alberta,
30594,North Central Liquids Hub (Nclh) 05-27-079-17w6,Encana Corporation,Dawson Creek,British Columbia,V1G4H9
16832,Heward Oil Battery 13-14,Enerplus Corporation,,Saskatchewan,
28867,St. Albert Central Gas Battery 07-18-044-01w5,Canadian Natural Resources Limited,,Alberta,
29794,Kaybob 05-33 Gas Battery,Shell Canada Limited,Fox Creek,Alberta,
22122,Drayton Valley Oil Battery 03-01,Cenovus Energy Inc.,,Alberta,
29906,Husky Lloyd Bt 15-04-049-02w4,Husky Oil Operations Limited,Vermilion River,Alberta,
22752,Ochiese Comp Station 01-15,Cenovus Energy Inc.,,Alberta,
21717,08-10-055-11w5m Niton,Journey Energy Inc.,,Alberta,
18841,Surge Valhalla 06-18,Surge Energy Inc.,La Glace,Alberta,
30182,Zeta Creek Comp Stn 04-07-049-12w5,Velvet Energy Ltd.,,Alberta,
8783,Mine du Lac Bloom,Minerai de Fer QuÃ©bec Inc.,Fermont,Quebec,G0G1J0
20181,Boundary Lake 10-19-086-11 W6m,Enercapita Energy Ltd.,Grande Prairie,Alberta,
17605,Centrica Compressor Station 10-10,Canlin Energy Corporation,,Alberta,T4H 5R6
28796,Gardenhead Oil Mwb 01-28,Crescent Point Energy Corp.,,Saskatchewan,
6098,Elmsdale Asphalt Plant,Martells Contracting Ltd.,Elmsdale,Nova Scotia,B2S2B1
16606,Black Butte 1-18,PineÂ CliffÂ EnergyÂ Ltd.,,Alberta,
24497,Harvest Crossfield 4-1-28-28w4,Harvest Operations Corp.,,Alberta,T4H 5R6
17644,Pouce Coupe South Oil Swb 14-10-078-12w6,Kelt Exploration,,Alberta,
18904,West Tommy Lakes Booster Station 1 C-028-K,Enerplus Corporation,,British Columbia,
21390,Sundance 15-07,Tourmaline Oil Corp,Sundance,Alberta,A9A9A9
5445,E.I. Dupont Canada - Thetford Inc.,DuPont Canada,Thetford Mines,Quebec,G6G7K7
211,IncinÃ©rateur,Ville de Quebec,QuÃ©bec,Quebec,G1J3V9
18929,Alameda Oil Mwb 11-23 (Tank),Crescent Point Energy Corp.,,Saskatchewan,
29675,Torc Elswick Oil Battery 03-06-005-12w2,TORC Oil & Gas Ltd.,,Saskatchewan,
17492,Flat Lake Oil Mwb 06-03 (Tank),Crescent Point Energy Corp.,,Saskatchewan,
23645,Cecil Lake Comp Stn 06-06,Canadian Natural Resources Limited,,British Columbia,
29521,Kidney 8-24-90-6w5,Coastal Resources Ltd.,Peerless Lake,Alberta,T0G 2W0
5459,Mines Wabush - Sept-Iles,"SociÃ©tÃ© Ferroviaire et Portuaire de Pointe-Noire, S.E.C.",Sept-Ãles,Quebec,G4R4L4
29268,Pouce Coupe Compressor Station 11-19-079-11w6,Canadian Natural Resources Limited,,Alberta,
29013,06-02-34-25-W4m Linden,Ember Resources Inc.,,Alberta,
8599,Cimenterie Kilmar,Lehigh Hanson Materials Ltd.,Grenville-sur-la-Rouge,Quebec,J0V1B0
24217,Killam 06-30-041-14w4,Zargon Oil and Gas Ltd.,Forestburg,Alberta,T0B1N0
29714,101/09-28-032-24w3/0 (8b12-28) Swb,Whitecap Resources Inc.,,Saskatchewan,
19289,Strathcona Works,Rio Tinto Alcan,Sherwood Park,Alberta,T8H2T3
27481,Centrica Compressor Station 13-18,Canlin Energy Corporation,,Alberta,T4H 5R6
26199,Wild River 12-36-055-23-W5,Tourmaline Oil Corp,Hinton,Alberta,
21387,Horse 05-29 -058-22-W5,Tourmaline Oil Corp,Yellowhead County,Alberta,T0E1W0
16231,Mantario East Oil Battery 04-25-027-27w3 (Tank),Canadian Natural Resources Limited,,Saskatchewan,
16373,Home Cecil 11-19,Harvest Operations Corp.,,Alberta,T4H 5R6
22234,(Gutah) Comp Stn A-098-L,Canadian Natural Resources Limited,,British Columbia,
2230,Suncor Energy Inc. Oil Sands,Suncor Energy Oil Sands Limited Partnership,Fort McMurray,Alberta,T9H3E3
29185,Tamarack Sun Creek 06-19-045-06 W5m,Tamarack Acquisition Corp.,Calgary,Alberta,T2P 3H7
29561,Columbia 15-36,Tourmaline Oil Corp,Calgary,Alberta,T2P 3H7
2083,Shand Power Station,Saskatchewan Power Corporation,Estevan,Saskatchewan,S4A2K9
22094,Prespatou Comp Stn C-059-B (2),Canadian Natural Resources Limited,Ryan Tulloch,British Columbia,
30408,Pembina Oil Swb 16-15,Crescent Point Energy Corp.,,Alberta,
4846,Truro Plant,Stanfields Limited,Truro,Nova Scotia,B2N5C2
19181,Firebag,Suncor Energy Oil Sands Limited Partnership,Ft. McMurray,Alberta,T9H3H3
15134,Manola Sweet Gas Plant 11-18,Tidewater Midstream and Infrastructure Ltd.,,Alberta,
22823,Battrum Oil Mwb 10-21,Crescent Point Energy Corp.,,Saskatchewan,
26563,Whitemud Oil Mwb 01-09,Crescent Point Energy Corp.,,Saskatchewan,
17752,Reno 10-22-079-20w5,Baytex Energy Ltd,Reno,Alberta,
3828,Produits Forestiers RÃ©solu -Usine Amos,Produits Forestiers RÃ©solu,Amos,Quebec,J9T3X5
17356,Bird Bear Oil Mwb 07-27,Crescent Point Energy Corp.,,Saskatchewan,
29644,Aitkin Comp Stn A-079-A,Canadian Natural Resources Limited,,British Columbia,
7095,Zochem,ZOCHEM Inc.,Brampton,Ontario,L6T3T4
18023,Petromet Bigstone West Fir 14-28-59-22,Repsol Oil & Gas Canada Inc.,,Alberta,
3238,Atikokan Generating Station,Ontario Power Generation Inc.,Atikokan,Ontario,P0T1C0
6688,Williams Lake Power Plant,Atlantic Power (Williams Lake) Limited Partnership,Williams Lake,British Columbia,V2G5E8
20162,Tower Compressor Station 09-28,Crew Energy Inc.,,British Columbia,
16952,Czar Battery,Harvest Operations Corp.,,Alberta,
28713,Sasquatch B-32-E,Petronas Energy Canada Ltd.,Town,British Columbia,
29008,10-30-41-23-W4m Nevis North,Ember Resources Inc.,,Alberta,
22784,Wapiti Comp Station 07-23,Cenovus Energy Inc.,,Alberta,
5575,Lvl Global Inc,LVL Global Inc,Ville-Marie,Quebec,J9V1B6
702,Richmond Cement Plant,Lafarge Canada Inc.,Richmond,British Columbia,V6W1H4
16562,Countess Makepeace Sweet Gas Plant 12-33-022-18w4,Torxen Energy Ltd.,,Alberta,
17983,Josephine Compressor Station 08-21-082-10w6,Canadian Natural Resources Limited,,Alberta,
19823,Obed 03-31-054-22w5,Tourmaline Oil Corp,Yellowhead County,Alberta,T0E1W0
30587,05-32-079-17w6 (Well Pad),Encana Corporation,,British Columbia,
16410,Muskrat Comp Stn 14-12,Canadian Natural Resources Limited,,British Columbia,
17548,Willesden Green Sweet Gas Plant 13-27,Obsidian Energy Ltd.,,Alberta,
28967,Carruthers	15-18-047-24w3,Baytex Energy Ltd,Carruthers,Saskatchewan,
24130,Seal 04-33-082-15w5,Baytex Energy Ltd,Seal Lake,Alberta,A9A9A9
18230,Ingoldsby Oil Mwb 04-10,Crescent Point Energy Corp.,,Saskatchewan,
29121,Sunrise 15-02,Tourmaline Oil Corp,Taylor,British Columbia,
30401,Bromhead Oil Mwb 05-31 (Tank),Crescent Point Energy Corp.,,Saskatchewan,
5370,Sturgeon Lake South Sour Gas Plant 02-02-069-22w5,Canadian Natural Resources Limited,,Alberta,
16469,Terra Wilder 10-34-082-20w6,Crew Energy Inc.,Fort St. John,British Columbia,V1J4H7
29385,Edam East Thermal 05-08-048-19w3,Husky Oil Operations Limited,Lloydminster,Saskatchewan,S9V0Z8
4823,Sexsmith Sour Gas Plant,Encana Corporation,,Alberta,
16958,Flinton/Moose Valley 03-17-011-06w2,Spartan Energy Corp.,Flinton/Moose Valley,Saskatchewan,
23868,Fir Comp Station 06-34,Repsol Oil & Gas Canada Inc.,,Alberta,
16237,Huxley Sweet Gas Plant 6-17,PineÂ CliffÂ EnergyÂ Ltd.,,Alberta,
18936,Burnt Timber Ggs 12-18-030-07w5,Ikkuma Resources Corp.,,Alberta,
29842,Reno 16-31-079-20w5,Baytex Energy Ltd,Reno,Alberta,
29059,Dekalb Nelson 16-32,Alphabow Energy Ltd.,,Alberta,T4H 5R6
4155,Sarnia Fractionation Plant,Plains Midstream Canada,Sarnia,Ontario,N7T7H9
683,Kaybob South #3 Gas Plant,Semcams ULC,Fox Creek,Alberta,
16344,Cecil Royce 08-15,Devon Canada Corporation,Cecil South,Alberta,
6640,Cactus Lake Facility,Cona Resources Ltd.,Cactus Lake,Saskatchewan,
16249,Westerose Oil Battery and Comp Station 12-02,Cenovus Energy Inc.,,Alberta,
26080,Wachoupe Oil Mwb 06-01,Crescent Point Energy Corp.,,Saskatchewan,
30954,04-34-031-23 W3m,Tamarack Acquisition Corp.,Coleville,Saskatchewan,
10217,Dartmouth Terminal,Imperial Oil,Dartmouth,Nova Scotia,B2Y3Z7
21956,Cadomin Quarry,Lehigh Hanson Materials Ltd.,Cadomin,Alberta,T0E0E0
21938,Cmi 500 Mobile Plant,Wapiti Gravel Suppliers Ltd.,Mobile Plant,Alberta,T8V3A8
25270,Haynes Compressor Station 14-25,Lynx Energy Ulc,Red Deer,Alberta,T4N3T4
28618,Laglace Oil Battery 14-29-074-08w6,Kelt Exploration,,Alberta,
27616,Provost Oil Battery 04-07,Karve Energy Inc.,Provost,Alberta,
30340,Torquay Oil Swb 13-08-002-11w2,TORC Oil & Gas Ltd.,,Saskatchewan,
16351,Ferrier Sweet Gas Plant 09-22-039-08w5,Canadian Natural Resources Limited,,Alberta,
6627,Foster Creek Sagd Bitumen Battery (With Cogen),"Cenovus Fccl Ltd., as Operator for FCCL Partnership",Bonnyville,Alberta,T9N2J7
24321,Colin Swan H Inverness 10-17,Acquisition Oil Corp,Alberta,Alberta,
21024,01-29-043-21w4 Lamerton,Ember Resources Inc.,Ferintosh,Alberta,T0B 1M0
4316,North Atlantic Refinery,North Atlantic Refining LP,Come By Chance,Newfoundland and Labrador,A0B1N0
19415,Alameda East Oil Battery 05-13-003-02w2,Canadian Natural Resources Limited,,Saskatchewan,
26148,Stp McKay Thermal Project,Southern Pacific Resource Corp.,Fort McMurray,Alberta,
21548,Tucker Thermal,Husky Oil Operations Limited,Bonneville,Alberta,T9N2G7
1139,Usine Dorval,Bombardier Inc.,Dorval,Quebec,H4S1Y9
7961,Booster Station 6 - Bluehills,Spectra Energy Transmission,Peace River District,British Columbia,V1J 4H7
1979,Papeterie de Dolbeau,Produits Forestiers RÃ©solu,Dolbeau-Mistassini,Quebec,G8L2R4
4797,Les Forges de Sorel Cie - St-Joseph-de-Sorel,Les Forges de Sorel Cie,St-Joseph-de-Sorel,Quebec,J3R3M8
26020,Seal Bitumen Battery 13-05,Obsidian Energy Ltd.,,Alberta,
27806,Seal 12-29-084-18w5,Baytex Energy Ltd,Seal,Alberta,
20202,Groundbirch Gas Processing and Production If-A,Shell Canada Limited,Peace River E,British Columbia,
30446,Ferrier Oil Swb 16-14-039-09w5,Trioil Resources Ltd.,Calgary,Alberta,T2P 0R8
30957,11-25-041-02 W4m,Tamarack Acquisition Corp.,Chauvin,Alberta,T0B 0V0
27127,Ante Creek North Sweet Gas Plant 10-07,ARC Resources,,Alberta,
2855,Usine de BÃ©cancour,Olin Canada ULC,BÃ©cancour,Quebec,G9H2Y8
16405,Kotaneelee Gas Plant,Devon Canada Corporation,Kotaneelee,Yukon,
10971,Open Die Plant,Canada Forgings Inc.,Welland,Ontario,
18408,Babcock Comp Stn D-099-E,Canadian Natural Resources Limited,,British Columbia,T4H 5R6
16009,Galloway Sour Gas Plant 14-14-053-20w5,Canadian Natural Resources Limited,,Alberta,
29580,Rrx Dodsland 1-28,Baytex Energy Ltd,Dodsland,Saskatchewan,
23550,Emc Parkland Ne 7-25-14-26,ExxonMobil Canada Ltd,,Alberta,
18608,Connorsville Compressor Station 11-27-025-15w4,Canadian Natural Resources Limited,,Alberta,
23131,Innes 15-35-7-11w2,Penn West Petroleum Ltd.,,Saskatchewan,
28898,Goodfish Compressor Station 13-24-092-10w5,Canadian Natural Resources Limited,,Alberta,
21238,13-18-034-18w4 Fenn Big Valley,Ember Resources Inc.,Fenn Big Valley,Alberta,
15626,Lodgepole Sweet Gas Plant,Cenovus Energy Inc.,,Alberta,
21400,04-01-042-22w4 Bashaw,Ember Resources Inc.,Bashaw,Alberta,T2P 3E5
15374,06-24-039-23w4 Alix,Ember Resources Inc.,Stettler,Alberta,
723,Powell River Division,Catalyst Paper Corporation,Powell River,British Columbia,V8A4R3
29487,Cutbank 10-10-065-05 W6m,Seven Generations Energy Ltd.,Cutbank,Alberta,
18956,Rivercourse Cs 09-08-047-01w4,Husky Oil Operations Limited,Vermilion River,Alberta,
24129,Verlo Roseray Sd Unit,Whitecap Resources Inc.,,Saskatchewan,
15684,Elmworth Comp Stn 10-13,Cenovus Energy Inc.,,Alberta,
7213,Keele Valley Landfill Gas Power Plant,Eastern Power Ltd.,Vaughan,Ontario,L6A4E2
7349,Leysons Chemical Products,597401 Ontario Ltd.,Ancaster,Ontario,L9G 4V5
28783,Torc Wordsworth Oil Battery 09-27-006-05w2,TORC Oil & Gas Ltd.,,Saskatchewan,
21286,Elm Oil Battery 05-32,Cenovus Energy Inc.,,Alberta,
4157,Steelman Gas Plant,Steel Reef Infrastructure Corp.,Estevan,Saskatchewan,S4A2A6
25302,Cynthia Battery,Vermilion Energy Inc.,Township 051,Alberta,
18045,Rimbey Compressor Station 5-32-43-1w5,OMERS Energy Inc.,Calgary,Alberta,T2P0R3
2515,"Koch Fertilizer Canada, Ulc","Koch Fertilizer Canada, ULC",Brandon,Manitoba,R7A7C4
30720,Plato Bty 5-33-25-17w3,Teine Energy Ltd.,Snipe Lake,Saskatchewan,
24704,Well Abwi102061004909w500,Sinopec Daylight Energy Ltd.,,Alberta,
21724,Olds 6-9,NAL Resources Management,Olds,Alberta,
26652,Fenn Big Valley 10-36,Ember Resources Inc.,Fenn Big Valley,Alberta,
6394,Bromont,Unifix Inc.,Bromont,Quebec,J2L1N5
22297,Leedale 100/09-05-043-04-W5 Gs,Bonavista Energy Corporation,Wilsoncr,Alberta,
18216,Fox Creek Sour Gas Plant 05-36,Sinopec Canada,,Alberta,
29251,Chinchaga Compressor Station 02-20-096-03w6,Canadian Natural Resources Limited,,Alberta,
27740,Seal 04-20-084-18w5,Baytex Energy Ltd,Seal,Alberta,
15970,Mitsue Water Plant 10-30,Cardinal Energy Ltd.,Slave Lake,Alberta,T0G 2A0
21018,08-15-039-23w4 Alix,Ember Resources Inc.,Stettler,Alberta,
1812,Lennox Generating Station,Ontario Power Generation Inc.,Greater Napanee,Ontario,K0H1G0
22494,Jumping Pound 5-7 Well Site Compressor,Shell Canada Limited,Calgary,Alberta,T2P 0M5
22840,Bei Chip Lake 10-29,Tangle Creek Energy Ltd.,Wildwood,Alberta,
29429,Teine Dodsland 12-36,Teine Energy Ltd.,Dodsland,Saskatchewan,
21127,Hastings Oil Battery 10-11-004-34w1,Canadian Natural Resources Limited,,Saskatchewan,
23100,Med River 06-34-39-03-5,NAL Resources Management,Med River,Alberta,
29778,04-27 Compressor Station,XTO Energy Canada ULC,,Alberta,T4H 5R6
24474,South Wapiti Sweet Gas Plant 16-36-067-09w6,Canadian Natural Resources Limited,,Alberta,
30234,Abbt0105125 (Tank),Canadian Natural Resources Limited,,Alberta,
17236,Midale South Vol Unit # 2 11-25-005-12-W2,NAL Resources Management,Midale,Saskatchewan,
23338,Narraway Gas Battery 08-33-063-13w6,Canadian Natural Resources Limited,,Alberta,
18694,Westerose Comp Station 01-33,Cenovus Energy Inc.,,Alberta,
17802,Morrison Retlaw 14-36-12-19,Sanling Energy Ltd.,,Alberta,T4H 5R6
22470,Wimborne 04-12-034-26w4,Penn West Petroleum Ltd.,Wimborne,Alberta,
16427,Peggo Comp Stn D-083-C,Canadian Natural Resources Limited,Ryan Tulloch,British Columbia,
30424,Wembley Gas Swb 12-05-073-06w6,Kelt Exploration,,Alberta,
19722,Centrica Compressor Station 08-08,Canlin Energy Corporation,,Alberta,T4H 5R6
15408,Cessford Compressor Station 06-06-022-11w4,Canadian Natural Resources Limited,,Alberta,
30836,Monitor 02-03-035-05w4 Compressor Station,High Ground Energy Inc.,,Alberta,
22903,Wapiti Comp Station 10-30,Cenovus Energy Inc.,,Alberta,
18399,Beg Comp Stn B-013-B,Canadian Natural Resources Limited,,British Columbia,
24324,Arc Weyburn Oil Battery 15-33,ARC Resources,,Saskatchewan,
10565,Timmins Micronizing Plant,Imerys Talc Canada Inc.,Timmins,Ontario,P4N7J5
18580,North East Station 7-15,City of Medicine Hat,Medicine Hat,Alberta,T1A7H3
24192,Blackstone Dehy 09-23-044-16w5,Tidewater Midstream and Infrastructure Ltd.,Yellowhead County,Alberta,T0E1W0
16149,Mitsue Sour Gp 10-30-72-4w5,Cardinal Energy Ltd.,Slave Lake,Alberta,T0G 2A0
19016,Sylvan Lake Gas Plant 06-08-38-03-5,NAL Resources Management,Sylvan Lake,Alberta,
16240,Fbv Central 5-14,Pengrowth Energy Corporation,Big Valley,Alberta,T2P3E5
27936,Torc Hastings Oil Battery 08-21-004-01w2,TORC Oil & Gas Ltd.,,Saskatchewan,
27828,Jayar 6-08-062-03w6,Strath Resources Ltd,,Alberta,
30366,Martenh Bitumen Swb 15-09-076-02w5,Cenovus Energy Inc.,,Alberta,
15715,North Hiding Creek Comp Stn D-039-G,Canadian Natural Resources Limited,,British Columbia,
15836,Clyde Lake Compressor Station 04-35-071-10w4,Canadian Natural Resources Limited,,Alberta,
21722,Olds 16-33-30-1w5,NAL Resources Management,Calgary,Alberta,T2P 0M5
6523,Hi-Pro Feeds Chilliwack,Hi-Pro Feeds,Chilliwack,British Columbia,V2P 6J6
29162,Pouce Coupe Oil Battery 06-33-077-11w6,Kelt Exploration,,Alberta,
28922,Seal Bitumen Battery 16-01,Obsidian Energy Ltd.,,Alberta,
29120,Tourmaline 12-06-081-07-W6,Tourmaline Oil Corp,Blueberry Mountain,Alberta,
6546,Scotford Upgrader and Upgrader Cogeneration,Shell Canada Energy Limited,Fort Saskatchewan,Alberta,T8L4A4
26054,Lre - Westfire Redwater 07-21,Guide Exploration Ltd.,,Alberta,T4H 5R6
22460,Sawn Lake Battery 12-29-091-12w5,Surge Energy Inc.,,Alberta,
3962,Sarnia Manufacturing Centre,Shell Canada Products,Corunna,Ontario,N0N1G0
4768,Algonquin Power Energy From Waste Inc.,Emerald Efw,Brampton,Ontario,L6T5M5
15230,Enchant Oil Battery 09-21-013-15w4,Canadian Natural Resources Limited,,Alberta,
15963,Rio Alto Edson 11-26,Canadian Natural Resources Limited,,Alberta,
19280,Pacific Elevators Limited Viterra,Viterra Inc.,Vancouver,British Columbia,V5L5G1
15289,Belloy Battery,Paramount Resources Ltd.,Swan Hills,Alberta,
6076,Mount Allison University,Mount Allison University,Sackville,New Brunswick,E4L1B5
26322,Horizon Furniture Distributors,Horizon Furniture Distributors Inc.,Kitchener,Ontario,N2R1K4
2108,Waterton Complex,Shell Canada Limited,Pincher Creek,Alberta,T0K1W0
23874,Ojay Comp Stn A-065-A,Canadian Natural Resources Limited,Mel Vollman,British Columbia,
28696,Eastend Oil Swb 14-08,Crescent Point Energy Corp.,,Saskatchewan,
29940,Rife Soda Lake 16-17,Rife Resources Ltd.,Calgary,Saskatchewan,T2P 3N4
15893,Morningside Gas Battery 08-09-042-28w4,Canadian Natural Resources Limited,,Alberta,
18678,Stanmore Compressor Station 11-15-028-10w4,Canadian Natural Resources Limited,,Alberta,
30335,Torquay Oil Swb 04-04-003-11w2,TORC Oil & Gas Ltd.,,Saskatchewan,
28212,Oungre Oil Mwb 03-14,Crescent Point Energy Corp.,,Saskatchewan,
30838,Hge 15-10-035-05w4 Compressor,High Ground Energy Inc.,,Alberta,
28793,01-20-060-17 W5m,Tangle Creek Energy Ltd.,Whitecourt,Alberta,
22774,Peco Comp Station 06-23,Cenovus Energy Inc.,,Alberta,
