NPRI ID,Facility name,Company name,City,Province,PostalCode
4846,Truro Plant,Stanfields Limited,Truro,Nova Scotia,B2N5C2
28047,Wild River 11-16-055-24-W5,Tourmaline Oil Corp,Hinton,Alberta,
28817,Virginia Hills Oil Mwb 04-12 (Tank),Crescent Point Energy Corp.,,Alberta,
30852,Husky Silverdale 07-12-048-28w3,Husky Oil Operations Limited,Wilton,Saskatchewan,
29524,Med River 10-35-39-04-5,NAL Resources Management,Med River,Alberta,
30042,Fairborne Hz Pine Ck 16-3-56-19,Bonavista Energy Corporation,Marlboro,Alberta,
10403,Calstock Power Plant,Atlantic Power LP,Hearst,Ontario,P0L1N0
22585,Aduro Monias 05-31-81-21w6,Aduro Resources Ltd.,Fort St. John,British Columbia,V1J4H7
29953,Vermilion 191/13-12 Single Well Battery,Vermilion Energy Inc.,Township 003,Saskatchewan,
4802,Usine de Candiac,Ruetgers PolymÃ¨res LtÃ©e,Candiac,Quebec,J5R1J2
22141,Surmont Sagd Commercial Battery,Conocophillips Surmont Partnership,Anzac,Alberta,
29801,Wapiti 12-16 Cs,Semcams ULC,Grande Cache,Alberta,
21212,Homeglen West 07-22,NAL Resources Management,Homeglen,Alberta,
1106,Altasteel,AltaSteel Ltd.,Edmonton,Alberta,T6B2X6
21357,Glen Ewen Oil Battery 05-14,Crescent Point Resources Partnership,,Saskatchewan,
18553,Willmar Frobisher Oil Battery 02-02-006-03w2,Canadian Natural Resources Limited,,Saskatchewan,
30707,Surge Betty Lake Hz 03-04-045-07w4,Surge Energy Inc.,Betty Lake,Alberta,
23244,Petrobakken Mwb Kisbey 13-5-8-6,Ridgeback Resources Inc.,,Saskatchewan,T4H 5R6
22762,Kaybob Gas Battery 4-31,Bonavista Energy Corporation,Kaybob,Alberta,
17193,Gayford Compressor Station 14-10,Lynx Energy Ulc,Gayford,Alberta,
23638,Queensdale 10-23 Bty,Vermilion Energy Inc.,Township 006,Saskatchewan,
15400,Hatton East Compressor Station 16-19-013-26w3,Canadian Natural Resources Limited,,Saskatchewan,
1671,Edmonton - Distribution,Nexeo Solutions Canada Corporation,Edmonton,Alberta,T6P1X9
6473,Ottawa,Kemira Water Solutions Canada Inc.,Ottawa,Ontario,K1B3V9
15943,Homestead Compressor Station 10-31-021-13w4,Canadian Natural Resources Limited,,Alberta,
24585,Seal Bitumen Battery 15-22,Obsidian Energy Ltd.,,Alberta,
18646,Goodfare Comp Station 10-23,Cenovus Energy Inc.,,Alberta,
21456,Three Hills Comp Stn 05-12,Ember Resources Inc.,,Alberta,
1755,Progress Gas Plant,Canadian Natural Resources Limited,Gordondale,Alberta,
15684,Elmworth Comp Stn 10-13,Cenovus Energy Inc.,,Alberta,
10218,Edmonton Terminal,Imperial Oil,Edmonton,Alberta,T6C4G3
2120,Caroline Complex,Shell Canada Limited,Caroline,Alberta,T0M0M0
24254,06-20-061-18 W5m,Paramount Resources Ltd.,Kaybob,Alberta,
21045,Parkman 02-14-010-01 W2m,Spartan Energy Corp.,Parkman,Saskatchewan,
17487,Pembina Sweet Gas Plant 09-17,Obsidian Energy Ltd.,,Alberta,
21387,Horse 05-29 -058-22-W5,Tourmaline Oil Corp,Yellowhead County,Alberta,T0E1W0
16483,Tooga Gas Plant B-031-I,Canadian Natural Resources Limited,,British Columbia,
4908,Duffin Creek Water Pollution Control Plant,Regional Municipality of Durham,Pickering,Ontario,L1W3A3
18154,Spirit River Oil Battery 14-06-078-07w6,Kelt Exploration,,Alberta,
5344,Manning,Manning Diversified Forest Products Ltd.,Manning,Alberta,T0H2M0
28265,Karr Creek Compressor Station 02-01-065-03w6,Canadian Natural Resources Limited,,Alberta,
21106,Bigstone Compressor Station 07-29-060-23w5,Canadian Natural Resources Limited,,Alberta,
2760,Drayton Valley Sawmill,Weyerhaeuser Company Limited,Drayton Valley,Alberta,T7A1S8
22110,Kakwa Comp Stn 01-06,Husky Oil Operations Limited,,Alberta,
21755,Peyto Wildhay 04-21-055-23 W5m,Peyto Exploration and Development Corporation,Md of Greenview,Alberta,
22814,9-14 North Buffalo Compressor Station,Ember Resources Inc.,Panoka,Alberta,
3758,Hanlan Robb Gas Plant,Canlin Energy Corporation,Edson,Alberta,T7E1T8
26063,Pine Creek 12-2-56-19 Multiwell Gas,Bonavista Energy Corporation,Marlboro,Alberta,
17996,Petromet Wild River 10-20 Plant,Repsol Oil & Gas Canada Inc.,,Alberta,
22000,Oak Waterflood,Quattro Exploration & Production Ltd.,Fort St. John,British Columbia,
25010,Vancouver Landfill,City of Vancouver,Delta,British Columbia,V4K3N2
10089,Highbury Canco Corporation,Highbury Canco Corporation,Leamington,Ontario,N8H 0C3
19543,Spirit River 06-03-078-07 W6,Tourmaline Oil Corp,Grand Prairie,Alberta,
30834,Monitor 16-17-035-04w4 Compressor,High Ground Energy Inc.,,Alberta,
22282,Wilson Ck 03-13-042-04 W5 Gs,Bonavista Energy Corporation,Wilsoncr,Alberta,
30773,Forestburg Ob 1-21-42-14w4,Cardinal Energy Ltd.,Sedgewick,Alberta,T0B 4C0
6680,Ladyfern Comp Stn B-017-I,Canadian Natural Resources Limited,,British Columbia,
28460,Harmon Valley 01-02-084-19w5,Baytex Energy Ltd,Harmon Valley,Alberta,
22129,Elmworth Comp Stn 03-25,Cenovus Energy Inc.,,Alberta,
1698,Belledune Generating Station,NB Power Nuclear Corporation,Belledune,New Brunswick,E8G2M3
15916,Greencourt Sour Gas Plant 09-26-059-09w5,Canadian Natural Resources Limited,,Alberta,
26470,Torc Pearce Oil Battery 02-20-009-24w4,TORC Oil & Gas Ltd.,,Alberta,
17261,Nottingham Gas Plant 07-17-005-32-W1,Steel Reef Infrastructure Corp.,Nottingham,Saskatchewan,
17456,Oak 606 & 2365,Pengrowth Energy Corporation,British Columbia,British Columbia,
3147,Chalk River Laboratories,Atomic Energy of Canada Limited,Chalk River,Ontario,K0J1J0
17088,Armada Sweet Gas Plant 01-18-017-18w4,Canadian Natural Resources Limited,,Alberta,
15911,Princess Compressor Station 09-16-020-11w4,Canadian Natural Resources Limited,,Alberta,
19988,Torc Steelman Oil Battery 09-33-005-05w2,TORC Oil & Gas Ltd.,,Saskatchewan,
8032,Central Heating Plant,Governors of St. Francis Xavier University,Antigonish,Nova Scotia,B2G2W5
18999,Cpc Trochu 16-32 Ggs,PineÂ CliffÂ EnergyÂ Ltd.,,Alberta,
209,Tiverton Plant,Greenfield Ethanol Inc.,Tiverton,Ontario,N0G2T0
28584,Wildmere 16-07-048-04 W4m Pad,Gear Energy Ltd.,Wildmere,Alberta,
17872,Moose Mountain Compressor Station,Shell Canada Limited,Calgary,Alberta,T2P 0M5
16710,Redland 07-13 Booster,Lynx Energy Ulc,,Alberta,
19219,Mackay River Power Plant,TransCanada Energy Ltd.,Fort McMurray,Alberta,
16135,16-18-26-26-W4m Lyalta Comp Stn,Ember Resources Inc.,,Alberta,
26166,Seal 10-09-084-19w5,Baytex Energy Ltd,Seal,Alberta,
24188,Algar,Connacher Oil and Gas Limited,Calgary,Alberta,T2P 0M5
30988,Ferrier 07-13 Compressor,Vermilion Energy Inc.,Township 043,Alberta,
25093,Saleski Sagd Pilot Project,Laricina Energy Ltd.,Municipal District of Opportun,Alberta,
23653,Teine Dodsland 8-34,Teine Energy Ltd.,Dodsland,Saskatchewan,
22172,Goodfare Comp Stn 09-05,Cenovus Energy Inc.,,Alberta,
17462,Weasel D-035-B/094-H-02,Pengrowth Energy Corporation,,British Columbia,
21076,Portable Plant 020008,Border Paving Ltd.,Moosleigh,Alberta,
15626,Lodgepole Sweet Gas Plant,Cenovus Energy Inc.,,Alberta,
18170,West Pembina Battery and Compressor,Vermilion Energy Inc.,Township 050,Alberta,
18118,Boundary Lake South Sour Gas Plant 01-14-085-13w6,Canadian Natural Resources Limited,,Alberta,
18180,Alexis Oil Battery,Harvest Operations Corp.,,Alberta,T4H 5R6
30835,Hge 15-28-035-04w4 Battery,High Ground Energy Inc.,,Alberta,
28461,Yoho Hz Kaybobs 01-16-62-21 W5,XTO Energy Canada ULC,Calgary,Alberta,T2C5N1
28015,Torc Rosevear Compressor Station 06-18-054-15w5,TORC Oil & Gas Ltd.,,Alberta,
17102,Husky Bone Creek Unit 10-27,Whitecap Resources Inc.,,Saskatchewan,
24555,Seal Bitumen Battery 03-30,Obsidian Energy Ltd.,,Alberta,
27612,Shaunavon Oil Mwb 15-33 (Tank),Crescent Point Energy Corp.,,Saskatchewan,
29909,Lashburn Eor Central Facility 12-01-049-24w3,Husky Oil Operations Limited,Eldon,Saskatchewan,
1809,Lambton Generating Station,Ontario Power Generation Inc.,Courtright,Ontario,N0N1H0
26520,Ferrier (Comp) 9-3,Bellatrix Exploration Ltd.,Cheddarville,Alberta,T2P2Z2
362,Metro Vancouver Waste-To-Energy Facility,Greater Vancouver Sewerage and Drainage District,Burnaby,British Columbia,V3N4V3
16854,Neptune Oil Battery 05-31,Enerplus Corporation,,Saskatchewan,
16249,Westerose Oil Battery and Comp Station 12-02,Cenovus Energy Inc.,,Alberta,
17703,Black Conroy Comp Stn B-094-J/094-H-06,Chinook Energy (2010) Inc.,,British Columbia,
4778,Aluminerie Alouette Inc.,Aluminerie Alouette Inc.,Sept-Ãles,Quebec,G4R5M9
7719,Sikanni Gas Plant,Spectra Energy Transmission,Peace River District,British Columbia,V0C2K0
30181,Velvet Pembina Comp Stn 13-18-049-12w5,Velvet Energy Ltd.,,Saskatchewan,
28802,Plato Oil Mwb 01-14 (Tank),Crescent Point Energy Corp.,,Saskatchewan,
25163,Superb,Superb Operating Company Ltd.,Coleville,Saskatchewan,
27466,Craigmyle East Compressor Station 13-28,Lone Pine Resources Canada Ltd.,Craigmyle,Alberta,T0J 0T0
732,Metalex Products - Richmond,Metalex Products Ltd.,Richmond,British Columbia,V6X2S8
23195,Oldman 10-24,Tourmaline Oil Corp,Oldman,Alberta,A9A9A9
29811,Velvet Rat Creek Comp Stn 05-23-048-11w5,Velvet Energy Ltd.,,Alberta,
16356,South Wapiti Compressor Station 10-01-068-09w6,Canadian Natural Resources Limited,,Alberta,
16462,Kelt Cache Creek 04-11-088-22 W6m,Kelt Exploration,,British Columbia,
19181,Firebag,Suncor Energy Oil Sands Limited Partnership,Ft. McMurray,Alberta,T9H3H3
4468,Bunge Canada - Fort Saskatchewan Plant,Bunge Canada Holdings I ULC,Fort Saskatchewan,Alberta,T8L2T4
29875,Baptiste W Cs 14-25-068-23w4,Husky Oil Operations Limited,Athabasca County,Alberta,
22973,Tide Lake Oil Battery 16-30-017-10w4,Canadian Natural Resources Limited,Alderson,Alberta,
17260,North Nottingham Battery 05-29-005-32-W1,NAL Resources Management,Nottingham,Saskatchewan,
30342,Steelman Oil Swb 14-07-005-05w2,TORC Oil & Gas Ltd.,,Saskatchewan,
23439,Hastings Oil Battery 08-36,Crescent Point Resources Partnership,,Saskatchewan,
22293,Severn 08-05 Booster,Lynx Energy Ulc,,Alberta,
29693,Torc Torquay Oil Battery 14-20-002-11w2,TORC Oil & Gas Ltd.,,Saskatchewan,
18941,Grennan 11-12-26-16w3,Teine Energy Ltd.,Elrose,Saskatchewan,S0L 0Z0
24279,Seal Bitumen Battery 09-25,Obsidian Energy Ltd.,,Alberta,
23560,Grande Cache Coal Corporation,Grande Cache Coal Corporation,Grande Cache,Alberta,T0E0Y0
23720,Tristar Viewfield 9-36-7-8,Ridgeback Resources Inc.,,Saskatchewan,T4H 5R6
8075,Nadeau Poultry Farm Ltd.,Maple Lodge Farms Ltd.,Saint-Francois,New Brunswick,E7A1B6
28851,Mica Gas Battery 04-21-081-13w6,Canadian Natural Resources Limited,,Alberta,
23293,Clive Booster 10-08,Ember Resources Inc.,Stettler,Alberta,
18918,Evi 3,Harvest Operations Corp.,,Alberta,T4H 5R6
23247,Tilston Oil Mwb 16-10 (Tank),Crescent Point Energy Corp.,,Saskatchewan,
19562,Hythe Gas Battery 15-31,Encana Corporation,,Alberta,
27059,Projet Nunavik Nickel,Canadian Royalties Inc.,MontrÃ©al,Quebec,H3B 1X9
23596,Success Oil Mwb 06-26 (Tank),Crescent Point Energy Corp.,,Saskatchewan,
28537,15-18-071-10w6,Cardinal Energy Ltd.,,Alberta,
27944,Torc Pembina Compressor Station 01-36-050-13w5,TORC Oil & Gas Ltd.,,Alberta,
31013,Glen Ewen 2-10 Bty,Vermilion Energy Inc.,Township 003,Saskatchewan,
30669,Marquee Multi-Well Oil Battery 15-24,Lone Pine Resources Canada Ltd.,Drumheller,Alberta,T0J0Y0
18010,Tourmaline Musreau 02/08-13-062-06-W6 Ggs,Tourmaline Oil Corp,Grande Cache,Alberta,
15422,Grassy Lake Oil Battery 11-26,ARC Resources,,Alberta,
17367,Iqaluit,Qulliq Energy Corporation,Iqaluit,Nunavut,X0A 0H0
24508,Caroline 13-35,Harvest Operations Corp.,,Alberta,T4H 5R6
28212,Oungre Oil Mwb 03-14,Crescent Point Energy Corp.,,Saskatchewan,
26441,Torc Penny Oil Battery 01-02-010-24w4,TORC Oil & Gas Ltd.,,Alberta,
24501,Open Creek 7-34-42-5w5,Harvest Operations Corp.,,Alberta,T4H 5R6
23453,Forget Oil Mwb 09-32,Crescent Point Energy Corp.,,Saskatchewan,
18085,South Buick Comp Stn B-012-I,Canadian Natural Resources Limited,,British Columbia,
23528,Horn River Comp Stn C-067-K,Encana Corporation,,British Columbia,
7851,North Enderby Timber Ltd - Enderby,North Enderby Timber Ltd.,Enderby,British Columbia,V0E1V3
15321,Zama Battery - 4,Paramount Resources Ltd.,Zama City,Alberta,
15364,Hamilton Lake - 2,Karve Energy Inc.,Castor,Alberta,
29972,10-27-034-08 W4m Crude Oil Multiwell Battery,Tamarack Acquisition Corp.,Loyalist,Alberta,
24466,Devon Iron River 8-12-64-7 Pad,Devon Canada Corporation,Iron River Op,Alberta,
29902,Husky Bt 05-08-049-02w4,Husky Oil Operations Limited,Vermilion River,Alberta,
18184,Chin Coulee Oil Battery,Little Rock Resources Ltd.,,Alberta,
21284,Connorsville Compressor Station 10-32-025-15w4,Canadian Natural Resources Limited,,Alberta,
22406,Jenner 10-09,Imaginea Energy,Calgary,Alberta,T2P 0B4
30363,Torc Torquay Oil Mwb 14-09-002-11w2,TORC Oil & Gas Ltd.,,Saskatchewan,
30414,Wildwood Oil Swb 14-35,Crescent Point Energy Corp.,,Alberta,
30838,Hge 15-10-035-05w4 Compressor,High Ground Energy Inc.,,Alberta,
16768,Wainwright 4-24-48-09w4,Cardinal Energy Ltd.,Mannville,Alberta,T2P3H5
29674,Odi Steelman Oil Battery 08-15-004-06w2,TORC Oil & Gas Ltd.,,Saskatchewan,
440,Judy Creek Gas Conservation Plant,Accel Energy Canada Limited,Swan Hills,Alberta,T0G2C0
27624,Whitemud Oil Swb 15-19,Crescent Point Energy Corp.,,Saskatchewan,
29430,12-10-046-23w3,Baytex Energy Ltd,,Saskatchewan,
29488,7g 02-31-063-04w6,Seven Generations Energy Ltd.,Kakwa,Alberta,
2788,Kitimat Works,Rio Tinto Alcan,Kitimat,British Columbia,V8C2H2
15693,Elmworth Comp Stn 01-35,Cenovus Energy Inc.,,Alberta,
10224,Nanticoke Terminal,Imperial Oil,Nanticoke,Ontario,N0A1L0
23471,Septimus Sweet Gas Plant 12-27,Crew Energy Inc.,,British Columbia,
21133,Long Lake Oil Battery 11-36-041-27w3,Canadian Natural Resources Limited,,Saskatchewan,
17536,Sousa Sweet Gas Plant 11-31,Obsidian Energy Ltd.,,Alberta,
24530,Frys Oil Mwb 15-28,Crescent Point Energy Corp.,,Saskatchewan,
22450,Mitsue Bty 11-07-70-3w5,Cardinal Energy Ltd.,St. Albert,Alberta,T0G 1X0
30593,16-28-079-17w6 (Well Pad),Encana Corporation,,British Columbia,
17560,Teine Hoosier Gp 15-17,Teine Energy Ltd.,Hoosier,Saskatchewan,
18874,Ghost Pine Sweet Gas Plant 04-18-032-22w4,Canadian Natural Resources Limited,,Alberta,
28137,Seal 09-09-084-18w5,Baytex Energy Ltd,Seal,Alberta,
19101,Atlee 15-35,Sanling Energy Ltd.,,Alberta,T4H 5R6
21578,Viewfield Oil Mwb 03-20,Crescent Point Energy Corp.,,Saskatchewan,
4142,Fort Saskatchewan Storage and Fractionation,Plains Midstream Canada,Fort Saskatchewan,Alberta,T8L2T2
21196,Pheasant Oil Mwb 07-23 (Tank),Crescent Point Energy Corp.,,Saskatchewan,
23550,Emc Parkland Ne 7-25-14-26,ExxonMobil Canada Ltd,,Alberta,
15973,North Thornbury Compresor Station 11-31-079-11w4,Canadian Natural Resources Limited,,Alberta,
16127,Shaman Gadsby 1-29,Canlin Energy Corporation,,Alberta,T4H 5R6
4048,Co-Op Refinery Complex,Consumers' Co-Operative Refineries Limited,Regina,Saskatchewan,S4P 3A1
21954,Spyhill,Lehigh Hanson Materials Ltd.,Spyhill,Alberta,A9A9A9
16561,Bassano Lathom Sweet Gas Plant 10-05-022-18w4,Torxen Energy Ltd.,,Alberta,
6098,Elmsdale Asphalt Plant,Martells Contracting Ltd.,Elmsdale,Nova Scotia,B2S2B1
16445,Archer Mannville-Minburn,Perpetual Energy Inc.,,Alberta,T4H 5R6
27288,Teepee Compressor Station 11-04-074-05w6,Canadian Natural Resources Limited,,Alberta,
28035,Golden Lake Oil Multi Well Battery 14-13-047-23w3,Husky Oil Operations Limited,Maidstone,Saskatchewan,
5014,Brooklyn Energy Centre,Brooklyn Power Corporation,Brooklyn,Nova Scotia,B0J 1H0
15368,Kirkpatrick Lake,Karve Energy Inc.,Castor,Alberta,
26152,Proex Bernadet 3-29-87-24w6,Progress Energy Canada Ltd.,Fort St John,British Columbia,
26549,Melrose Oil Mwb 09-14,Crescent Point Energy Corp.,,Saskatchewan,
30041,15-03 Kimberley-Leedale Ggs,Bonavista Energy Corporation,Wilsoncr,Alberta,
18639,Gilby Gas Battery 07-23,Cenovus Energy Inc.,,Alberta,
2051,Manitoba Kraft Papers Division,Canadian Kraft Paper Industries Ltd.,The Pas,Manitoba,R9A1L4
384,Toronto Plant,Emery Oleochemicals Canada Ltd.,Toronto,Ontario,M8Z5C8
23546,Judy Creek Oil Mwb 12-03,Crescent Point Energy Corp.,,Alberta,
26535,Swan Hills Oil Mwb 14-09,Crescent Point Energy Corp.,,Alberta,
17741,Primewest Lone Pine Creek,Taqa North Ltd.,Lpc - Cbm,Alberta,
28109,Lightning Oil Mwb 13-24,Crescent Point Energy Corp.,,Saskatchewan,
21334,Pedigree Compressor Station 06-12-100-12w6,Canadian Natural Resources Limited,,Alberta,
21215,Willmar Oil Mwb 08-33 (Tank),Crescent Point Energy Corp.,,Saskatchewan,
30424,Wembley Gas Swb 12-05-073-06w6,Kelt Exploration,,Alberta,
19577,Linden Comp Stn 07-11,Ember Resources Inc.,,Alberta,
28494,Kerrobert 01-01-033-24w3,Baytex Energy Ltd,Kerrobert,Saskatchewan,
11066,Superior Glove,Superior Glove Works Ltd.,Acton,Ontario,L7J1S1
30631,Progress 01-03-078-10w6,Longshore Resources Ltd.,Saddle Hills,Alberta,
22582,Wolverine Battery C-052-A/093-P-03,Canlin Energy Corporation,Fsj - Wolverine,British Columbia,
15372,16-36-040-22w4 Nevis,Ember Resources Inc.,Mirror,Alberta,
30580,03-21-080-17w6 (Well Pad),Encana Corporation,,British Columbia,
16402,Tangent 16-20,Devon Canada Corporation,Tangent,Alberta,
28618,Laglace Oil Battery 14-29-074-08w6,Kelt Exploration,,Alberta,
15652,Westpem Comp Stn 02-05,Cenovus Energy Inc.,,Alberta,
16592,Strathmore Phase 2 Gas Battery 06-28,Ember Resources Inc.,,Alberta,
22792,Wapiti Comp Station 11-07,Cenovus Energy Inc.,,Alberta,
26044,Lloyd 13-17-48-5 Swb,Devon Canada Corporation,,Alberta,T4H 5R6
18000,Bonanza Compressor Station 11-25-081-11w6,Canadian Natural Resources Limited,,Alberta,
28900,Progress Gas Battery 14-06-077-10w6,Canadian Natural Resources Limited,,Alberta,
15789,Tweedie Compressor Station 01-19-068-12w4,Canadian Natural Resources Limited,,Alberta,
17876,Waterton Complex - Compressor Station W,Shell Canada Limited,Pincher Creek,Alberta,T0K1W0
23829,Medallion 16-24,Canlin Energy Corporation,,Alberta,T4H 5R6
7865,Utilities Powerhouse and Other Point Sources,University of British Columbia,Vancouver,British Columbia,V6T1Z1
18017,Mcleod River Sweet Gas Plant 16-36-055-15w5,Velvet Energy Ltd.,,Alberta,
16594,Lyalta Comp Stn 14-26,Ember Resources Inc.,,Alberta,
27858,W Gundy B-032-B/094-B-16,Petronas Energy Canada Ltd.,Gundy,British Columbia,
6293,Division Amos,MatÃ©riaux Blanchet Inc.,Amos,Quebec,J9T3A8
18581,Rattlesnake 13-9,City of Medicine Hat,Medicine Hat,Alberta,T1A7H3
18446,Fireweed Comp Stn C-001-G,Canadian Natural Resources Limited,,British Columbia,T4H 5R6
22497,Medicine Hat Ran Redcliff 8-7,Signalta Resources Ltd.,Medicine Hat,Alberta,T1A7H3
31022,Elcott (3d15-31) 13-05-003-02,Vermilion Energy Inc.,Township 002,Saskatchewan,
17897,Long Coulee 08-04-016-22 W4m,Surge Energy Inc.,Champion,Alberta,
17933,Pembina 12-31,Signalta Resources Ltd.,Drayton Valley,Alberta,
22967,Bryant Oil Mwb 13-15 (Tank),Crescent Point Energy Corp.,,Saskatchewan,
29008,10-30-41-23-W4m Nevis North,Ember Resources Inc.,,Alberta,
11774,Innovation Drive Site,The Original Cakerie Ltd.,London,Ontario,N6M0B6
15564,5-12-62-20w5,Paramount Resources Ltd.,,Alberta,
26501,Kaybob Gas Plant 05-31,Encana Corporation,,Alberta,
27465,02-11-041-08 Comp Bty,Canlin Energy Corporation,,Alberta,T4H 5R6
17526,Wainwright 10-28,Cleo Energy Corp.,,Alberta,
30754,Ferrier Gas Swb 01-14,Bellatrix Exploration Ltd.,,Alberta,
30584,04-14-080-17w6 (Well Pad),Encana Corporation,,British Columbia,
28830,Sunrise Gas Plant 13-36,ARC Resources,,British Columbia,
4024,Brunswick Smelter,Glencore Canada Corporation Duplicate???,Belledune,New Brunswick,E8G 2M1
3775,Navajo Metals,General Scrap Partnership,Calgary,Alberta,T2H2G7
29385,Edam East Thermal 05-08-048-19w3,Husky Oil Operations Limited,Lloydminster,Saskatchewan,S9V0Z8
26187,Greencourt 01-29-059-06w5,Baytex Energy Ltd,Greencourt,Alberta,
3529,North Vancouver Chlor-Alkali Facility,Canexus Corporation - Brandon,North Vancouver,British Columbia,V7H1S4
30172,Rowley 13-20 Ggs,Alphabow Energy Ltd.,,Alberta,T4H 5R6
29094,Solumet Metal and Powder Inc,Solumet Metal and Powder Inc.,Varennes,Quebec,J3X1P7
18344,Sedalia 16-27-031-06w4,Baytex Energy Ltd,Sedalia,Alberta,
30044,Wilgrn 01-33-041-05w5 Ggs,Bonavista Energy Corporation,Wg 3-28,Alberta,
30721,Dodsland 12-34-30-20 W3,Teine Energy Ltd.,Kindersley,Saskatchewan,
17839,11-28 Field Compressor,Sabre Energy Ltd.,Flatbush,Alberta,T0G0Z0
27953,Germain Sagd Plant,Laricina Energy Ltd.,Municipal District of Opportun,Alberta,
18740,Monias 10-22-83-21w6,Devon Canada Corporation,,British Columbia,
28246,Wilson Creek 15-03-043-04w5 Ggs,Bonavista Energy Corporation,Wilsoncr,Alberta,
17067,Ansell Gas Plant 07-27-051-19w5,Husky Oil Operations Limited,Edson,Alberta,
27972,Oak 11-11-086-18,Pengrowth Energy Corporation,,British Columbia,
29695,Torc Torquay Oil Battery 16-34-001-11w2,TORC Oil & Gas Ltd.,,Saskatchewan,
22105,Beaverhill Lake Plant 15-07-060-18 W5m,XTO Energy Canada ULC,Fox Creek,Alberta,
22146,Cessford Compressor Station 06-13-024-11w4,Canadian Natural Resources Limited,,Alberta,
22551,Cecilia Sweet Gas Plant 14-36-057-23w5,Canadian Natural Resources Limited,,Alberta,
29687,Torc Torquay Oil Battery 03-16-002-11w2,TORC Oil & Gas Ltd.,,Saskatchewan,
15724,BC6 Comp Stn C-041-F,Canadian Natural Resources Limited,,British Columbia,
3903,Edmonton Refinery,Suncor Energy Products Partnership,Edmonton,Alberta,T8H2G2
15909,Saddle Lake Compressor Station 09-09-058-11w4,Canadian Natural Resources Limited,,Alberta,
16864,Swalwell Sweet Gas Plant 14-35,Ember Resources Inc.,,Alberta,
27853,Aluminerie Arvida - Centre Technologique Ap60,Rio Tinto Alcan,JonquiÃ¨re,Quebec,G7S 0C9
28509,Kerrobert Gas Plant,Whitecap Resources Inc.,,Saskatchewan,
23316,Conroy D-48-C/94-H-12,Polar Star Canadian Oil and Gas Inc.,Calgary,British Columbia,T2P 3J4
17268,Rainbow Oil Battery 13-06,NuVista Energy Ltd.,,Alberta,
29579,Rrx Beadle 13-19,Baytex Energy Ltd,Kindersley,Alberta,
30623,Saskatoon Lightweight,Lehigh Hanson Materials Ltd.,Saskatoon,Saskatchewan,S7K3S7
16461,Kelt Stoddart 03-28-087-21 W6m,Kelt Exploration,Stoddart,British Columbia,
19887,Mansur 13-34,Spartan Energy Corp.,,Saskatchewan,
3356,Teck Highland Valley Copper Partnership,Teck Highland Valley Copper Partnership,Logan Lake,British Columbia,V0K 1W0
24155,Wilson Creek Compressor Station 09-19-043-03w5,OMERS Energy Inc.,Calgary,Alberta,T2P0R3
16858,Handhills Compressor Station 10-33-028-15w4 (Npri),Canadian Natural Resources Limited,,Alberta,
18966,Tilley Main Gas Battery 08-16-017-12w4,Canadian Natural Resources Limited,,Alberta,
26211,Gundy C-86-J/94-B-9,Petronas Energy Canada Ltd.,Gundy Creek,British Columbia,
11852,Rubicon Minerals - Phoenix Project,Rubicon Minerals Corporation,Cochenour,Ontario,P0V1L0
19436,Innes Oil Battery 15-25-007-11w2,Canadian Natural Resources Limited,,Saskatchewan,
28472,Northgate Midale 16-03 Battery and Compressor,Vermilion Energy Inc.,Township 001,Saskatchewan,
27691,12-30-37-20 W4m,Bearspaw Petroleum Ltd.,Stettler,Alberta,
18834,Rumsey Sweet Gas Plant,Ember Resources Inc.,,Alberta,
28630,Elmworth 10-01-069-13 W6m,Modern Resources Inc.,Elmworth,Alberta,
29605,South Wapiti Compressor Station 10-30-067-11w6,Canadian Natural Resources Limited,,Alberta,
28184,Pipestone Comp Stn 16-34,Encana Corporation,,Alberta,
8506,HÃ´tel-Dieu,HÃ´pital Notre-Dame du Chum,MontrÃ©al,Quebec,H2W1T8
18376,Elmworth Comp Stn 10-04,Cenovus Energy Inc.,,Alberta,
4477,Nitta Gelatin,"Nitta Gelatin Canada, Inc.",Toronto,Ontario,M6H1R8
4806,Qit Complexe MÃ©tallurgique de Sorel-Tracy,Qit-Fer et Titane Inc,Sorel-Tracy,Quebec,J3R1M6
26212,P-07,South Rock Ltd.,Dunmore,Alberta,T1A 7G2
28803,Halkirk Oil Mwb 09-12,Karve Energy Inc.,Flagstaff,Alberta,
16526,Princess East Comp Stn 13-36-019-11w4,Torxen Energy Ltd.,,Alberta,
23770,Cascade Valhalla,Taqa North Ltd.,Valhalla/Pouce Coupe,Alberta,
23131,Innes 15-35-7-11w2,Penn West Petroleum Ltd.,,Saskatchewan,
27099,Pikes Peak South Thermal 05-07-049-23w3,Husky Oil Operations Limited,Waseca,Saskatchewan,S0M 3A0
917,Fort Frances Division,Produits Forestiers RÃ©solu,Fort Frances,Ontario,P9A1Y8
18950,Moose Moutain Oil Battery 02-23-023-07w5,Husky Oil Operations Limited,Bragg Creek,Alberta,
16878,Gleichen Comp Stn 13-26,Encana Corporation,,Alberta,
19280,Pacific Elevators Limited Viterra,Viterra Inc.,Vancouver,British Columbia,V5L5G1
16277,Goodfare Sweet Gas Plant,Tidewater Midstream and Infrastructure Ltd.,,Alberta,
23542,Pouce Coupe 13-13-078-11w6,Longshore Resources Ltd.,,Alberta,
17866,Calahoo Haro #1 10-29,Sanling Energy Ltd.,,Alberta,T4H 5R6
24513,Creelman Oil Mwb 04-05 (Tank),Crescent Point Energy Corp.,,Saskatchewan,
4569,Chimie Parachem S.E.C,Chimie Parachem S.E.C,MontrÃ©al-Est,Quebec,H1B5B4
16975,Lathom 13-6,Harvest Operations Corp.,,Alberta,T4H 5R6
18816,11-25-35-25-W4m Three Hills Comp Stn,Ember Resources Inc.,,Alberta,
3394,Irving Paper,Irving Paper Limited,Saint John,New Brunswick,E2L4K9
19972,Maxhamish Comp Stn D-036-I,EOG Resources Canada Inc.,,British Columbia,
11766,15600 Robin's Hill Road,La Cie McCormick Canada,London,Ontario,N5V0A4
18528,Smoky Sweet Gas Plant 07-36-058-03w6,Canadian Natural Resources Limited,,Alberta,
15396,Apf Energy Countess 16-24-018-17w4,Houston Oil & Gas Ltd.,,Alberta,
6836,Central Energy Plant (Powerhouse),University of Manitoba,Winnipeg,Manitoba,R3T2N2
29628,Trilogy Foxck 11-23-62-19,Paramount Resources Ltd.,,Alberta,
19836,Fort Saskatchewan 11-27,Signalta Resources Ltd.,Fort Saskatchewan,Alberta,T2P 3E5
23827,Turner Valley Battery 6-16,Canlin Energy Corporation,,Alberta,T4H 5R6
29738,Lloyd 13-36-48-6w4 Mw Pad,Devon Canada Corporation,,Alberta,T4H 5R6
21492,Princess 11-20-019-12w4,Journey Energy Inc.,,Alberta,
18936,Burnt Timber Ggs 12-18-030-07w5,Ikkuma Resources Corp.,,Alberta,
28749,7gen Pad 4 - 07-04-064-05 W6m,Seven Generations Energy Ltd.,Kakwa,Alberta,
23354,Enchant Oil Battery 02-06-013-15w4,Canadian Natural Resources Limited,,Alberta,
16228,Marengo Oil Battery 06-01-028-28w3 (Tank),Canadian Natural Resources Limited,,Saskatchewan,
29186,Sexton Lumber Co Limited,Sexton Lumber Co Limited,Bloomfield,Newfoundland and Labrador,A0C 1A0
15405,Crane Lake South Gas Battery 05-24-012-25w3,Canadian Natural Resources Limited,,Saskatchewan,
6669,Fording River Operations,Teck Coal Limited,Elkford,British Columbia,V0B1H0
16038,Viking Kinsella Compressor Station 16-09-046-09w4,Canadian Natural Resources Limited,,Alberta,
30264,Cliffdale Bitumen Battery 13-34-084-17w5,Canadian Natural Resources Limited,,Alberta,
22752,Ochiese Comp Station 01-15,Cenovus Energy Inc.,,Alberta,
24008,Innes Oil Mwb 08-25,Crescent Point Energy Corp.,,Saskatchewan,
29372,Morgan Eagle Lake Unit 11-9,Whitecap Resources Inc.,,Saskatchewan,
17013,Fosterton Main Unit,Whitecap Resources Inc.,,Saskatchewan,
15385,Consort Sweet Gas Plant,Karve Energy Inc.,Consort,Alberta,
21416,Cutbank Comp Stn C-029-A,Encana Corporation,,British Columbia,
24340,Wilson Ck 100/06-21-042-04w5 Ggs,Bonavista Energy Corporation,Wilsoncr,Alberta,
3466,Pictou County Plant,Michelin North America (Canada),New Glasgow,Nova Scotia,B2H5C6
2284,Sundance Thermal Electric Power Generating Plant,TransAlta Generation Partnership,Duffield,Alberta,T0E0N1
25171,Pembina 16-15-048-08w5,Baytex Energy Ltd,Pembina,Alberta,
15643,Pembina Comp Stn 11-26,Cenovus Energy Inc.,,Alberta,
16883,Cessford Compressor Station 04-14-024-14w4,Canadian Natural Resources Limited,,Alberta,
6516,Taber Plant,Conagra Limited,Taber,Alberta,T1G2C9
5656,Musselwhite Mine,Goldcorp Canada Ltd,Kenora District,Ontario,P7B6S8
2119,Jumping Pound Complex,Shell Canada Limited,Calgary,Alberta,T2P4V8
19838,Rat Creek Compressor Station 06-19,Obsidian Energy Ltd.,,Alberta,
15469,4-30-29-19 W4m,Bearspaw Petroleum Ltd.,Drumheller,Alberta,T0J0Y0
18030,Northrock 04-18-062-07w6m Satellite,Taqa North Ltd.,Chicken,Alberta,
28945,Glacier Comp Stn 15-15,Advantage Oil and Gas Ltd.,,Alberta,
15753,Norwich Princess 1-30,Taqa North Ltd.,Princess,Alberta,
29413,Perl Acheson 02-01-053-26w4,Inplay Oil Corp.,Perl Acheson,Alberta,
22003,Claresholm 14-31-011-26w4,Ember Resources Inc.,Redcliff,Alberta,
31000,Xto 06-23 (06-35),XTO Energy Canada ULC,,Alberta,
21678,Devon Muskwa,Perpetual Energy Inc.,,Alberta,
22068,Mearon Gas Battery 10-19-094-12w6,Canadian Natural Resources Limited,,Alberta,
19666,Steelman Oil Mwb 05-20,Crescent Point Energy Corp.,,Saskatchewan,
15821,Killam Sweet Gas Plant 04-05-044-09w4,Canadian Natural Resources Limited,,Alberta,
6671,Greenhills Operations,Teck Coal Limited,Elkford,British Columbia,V0B1H0
30406,Oungre Oil Swb 02-17,Crescent Point Energy Corp.,,Saskatchewan,
30024,Whitecap Pembina 16-29-45-6w5,Whitecap Resources Inc.,,Alberta,T4H 5R6
27769,Alexander 08-01,Spartan Energy Corp.,Calgary,Alberta,T2P 0M5
29478,Seal 05-22-082-18w5,Baytex Energy Ltd,Seal,Alberta,
21103,Bashaw Compressor Station 01-28-042-22w4,Canadian Natural Resources Limited,,Alberta,
21358,Hazlet Oil Mwb 08-03 (Tank),Crescent Point Energy Corp.,,Saskatchewan,
23972,Wapiti Comp Station 15-34,Cenovus Energy Inc.,,Alberta,
16711,Redland Compressor Station 11-19,Lynx Energy Ulc,,Alberta,
6055,"Norampac Moncton Division, A Division of Cascades Canada Ulc",Cascades Canada ULC.,Moncton,New Brunswick,E1E1C8
30337,Torquay Oil Swb 04-14-003-11w2,TORC Oil & Gas Ltd.,,Saskatchewan,
28897,Hatton Senate Compressor Station 13-11-015-28w3,Canadian Natural Resources Limited,,Saskatchewan,
23358,Hatton Senate Compressor Station 01-04-016-29w3,Canadian Natural Resources Limited,,Saskatchewan,
27837,Nal Dodsland 08-04-33-20-3,NAL Resources Management,Dodsland,Saskatchewan,
29260,Brintnell Bitumen Satellite 09-13-080-21w4,Canadian Natural Resources Limited,,Alberta,
30234,Abbt0105125 (Tank),Canadian Natural Resources Limited,,Alberta,
19469,Redsprings Gas Mwb 04-34,Crescent Point Energy Corp.,,Saskatchewan,
5285,"Zama Gas Plant: 1, 2, 3",Apache Canada Ltd.,Zama City,Alberta,T0H4E0
27086,Strachan Compressor Station 09-26-038-08w5,Trioil Resources Ltd.,,Alberta,T4H 5R6
223,Peace River Pulp Division,Daishowa-Marubeni International Ltd-Peace River Pulp,County of Northern Lights,Alberta,T8S1V7
29917,Mervin Eor Central Facility 11-36-049-20w3,Husky Oil Operations Limited,Turtle River,Saskatchewan,
29533,Aiken Creek Sour Gas Plant C-038-C,Black Swan Energy,,British Columbia,
3517,Canexus Chemicals Lp Brandon,Canexus Corporation - Brandon,Brandon,Manitoba,R7A6A6
31010,Elswick 3-6-5-11,Vermilion Energy Inc.,Township 005,Saskatchewan,
18103,Tristar Whitebear 15-9,Spartan Energy Corp.,,Saskatchewan,
10100,Elk Lake Planing Mill,EACOM Timber Corporation,Elk Lake,Ontario,P0J1G0
23338,Narraway Gas Battery 08-33-063-13w6,Canadian Natural Resources Limited,,Alberta,
18946,Majorville Compressor Station 16-25-018-20w4,Canadian Natural Resources Limited,Lomond,Alberta,
17434,Tatagwa Oil Mwb 07-24,Crescent Point Energy Corp.,,Saskatchewan,
21372,Worsley Oil Battery 09-11,Enercapita Energy Ltd.,,Alberta,
7349,Leysons Chemical Products,597401 Ontario Ltd.,Ancaster,Ontario,L9G 4V5
23210,Talisman Findley Dehy 09-24-057-06w6,Ikkuma Resources Corp.,,Alberta,
1979,Papeterie de Dolbeau,Produits Forestiers RÃ©solu,Dolbeau-Mistassini,Quebec,G8L2R4
29722,Whiteside 15-32-29-25w3,Whitecap Resources Inc.,,Saskatchewan,
18145,Teine Dodsland 07-05-032-22w3 Battery,Teine Energy Ltd.,Beaufield,Saskatchewan,
280,Western Canada Operations,Dow Chemical Canada ULC,Fort Saskatchewan,Alberta,T8L2P4
15713,Brassey Comp Station D-013-F,Cenovus Energy Inc.,,British Columbia,
4797,Les Forges de Sorel Cie - St-Joseph-de-Sorel,Les Forges de Sorel Cie,St-Joseph-de-Sorel,Quebec,J3R3M8
29716,Husky Gull Lk N Unit #8 (Shaunavon),Whitecap Resources Inc.,,Saskatchewan,
15347,Apache Garrington Gas Plant,Paramount Resources Ltd.,Rocky Mountain House,Alberta,
29927,Pad 33 10-33-063-05w6,Seven Generations Energy Ltd.,Kakwa,Alberta,
24141,Hinton 06-32-51-25 W5,Tourmaline Oil Corp,Hinton,Alberta,
24464,Bilbo Compressor Station 04-23-066-08w6,Canadian Natural Resources Limited,,Alberta,
17047,Jenner 11-21-20-8w4,Cardinal Energy Ltd.,Jenner,Alberta,
15864,Verger Compressor Station 06-18-022-13w4,Canadian Natural Resources Limited,,Alberta,
21112,Dawson Oil Battery 08-26-079-16w5,Canadian Natural Resources Limited,,Alberta,
17192,Beiseker Compressor Station 04-15,Lynx Energy Ulc,Beiseker,Alberta,
27483,Laprise C-14-J/94-G-8,Canlin Energy Corporation,Laprise West,British Columbia,
28444,Zama Plant 4,Paramount Resources Ltd.,Zama,Alberta,
26081,Chinchaga Compressor Station 03-25-095-05w6,Canadian Natural Resources Limited,,Alberta,
19046,Sunset A Oil Battery 14-29,Enercapita Energy Ltd.,,Alberta,
27910,Willesden Green 14-05,Westbrick Energy Ltd.,Brazeau No. 77,Alberta,
15414,Ante Creek North Oil Battery 07-18,ARC Resources,,Alberta,
30091,Lts Viewfield Mwob 13-28-8-10w2,Ridgeback Resources Inc.,,Saskatchewan,
2604,Irving Pulp & Paper,JD Irving,Saint John,New Brunswick,E2M3H1
19299,Norcen Progress,Canadian Natural Resources Limited,,Alberta,
16784,Chigwell Sweet Gas Plant 11-20,Ember Resources Inc.,,Alberta,
23510,Iron River 05-07-64-07w4 Pad,Devon Canada Corporation,Iron River Op,Alberta,
2256,Tonolli Canada Limited,Tonolli Canada,Mississauga,Ontario,L4Y4C2
29548,Rainy River Project,New Gold,Emo,Ontario,P0W 1E0
16503,Hussar Crowfoot Compressor Station 06-15,Lynx Energy Ulc,,Alberta,
30583,04-08-081-17w6 (Well Pad),Encana Corporation,,British Columbia,
23123,Seal Bitumen Battery 14-13,Obsidian Energy Ltd.,,Alberta,
15893,Morningside Gas Battery 08-09-042-28w4,Canadian Natural Resources Limited,,Alberta,
3959,Slave Lake Pulp - Slave Lake,Slave Lake Pulp - a division of West Fraser Mills,Slave Lake,Alberta,T0G 2A0
16740,Suffield A1 Comp Stn 04-03,Ipc Alberta Ltd.,,Alberta,
21495,Wainwright 2-25-45-06w4,Cardinal Energy Ltd.,Wainwright,Alberta,
22414,Pembina Sweet Gas Plant 04-02,Obsidian Energy Ltd.,,Alberta,
22590,Torc Pinto Oil Battery 16-16-002-03w2,TORC Oil & Gas Ltd.,,Saskatchewan,
21948,Saskatoon Branch - 103rd St.,Doepker Industries Ltd.,Saskatoon,Saskatchewan,S7N1Y7
19164,Chauvin 13-14-43-02w4,Cardinal Energy Ltd.,Chauvin,Alberta,T0B 0V0
21577,Viewfield Sour Gas Plant 13-05,Crescent Point Resources Partnership,,Saskatchewan,
7341,Metasheen,BASF Metasheen,Smiths Falls,Ontario,K7A5C7
24169,Greenfield Multiwell Oil Battery 11-01,Prairie Provident Resources,Calgary,Alberta,T2P3G4
26204,Dodsland 5-26,Teine Energy Ltd.,Netherhill,Saskatchewan,
30261,Chambers Gas Mwb 01-16-041-11w5,Canadian Natural Resources Limited,,Alberta,
29901,Husky Bt 04-08-049-02w4,Husky Oil Operations Limited,Vermilion River,Alberta,
17492,Flat Lake Oil Mwb 06-03 (Tank),Crescent Point Energy Corp.,,Saskatchewan,
17553,Misty Lake Compressor Station 14-25,Obsidian Energy Ltd.,,Alberta,
24359,Fisher Comp Stn 12-29,Cenovus Energy Inc.,,Alberta,
702,Richmond Cement Plant,Lafarge Canada Inc.,Richmond,British Columbia,V6W1H4
28713,Sasquatch B-32-E,Petronas Energy Canada Ltd.,Town,British Columbia,
24255,06-02-061-20 W5m,Paramount Resources Ltd.,Kaybob,Alberta,
21571,Huntoon Oil Mwb 02-18 (Tank),Crescent Point Energy Corp.,,Saskatchewan,
16384,Horse Sweet Gas Plant 14-23-058-26w5,Canadian Natural Resources Limited,,Alberta,
28894,Chard Compressor Station 11-28-079-06w4,Canadian Natural Resources Limited,,Alberta,
29934,Pinto 14-30-001-04 W2m,Spartan Energy Corp.,Pinto,Saskatchewan,
4304,Fort Nelson Gas Plant,Spectra Energy Transmission,Fort Nelson,British Columbia,V0C 1R0
28010,Msn 16-23 Pad 16-23-084-15w5,Baytex Energy Ltd,Seal Lake Field,Alberta,
23824,Manatokan 6-36-63-8w4 Pad,Devon Canada Corporation,Manatokan Op,Alberta,
1221,Edmundston Pulp Mill,Twin Rivers Paper Company Inc.,Edmundston,New Brunswick,E3V 1S9
1681,Arclin Canada LtÃ©e - Ste Therese,Arclin Canada Ltd.,Sainte-ThÃ©rÃ¨se,Quebec,J7E4R9
30422,Wembley Gas Swb 11-31-073-08w6,Kelt Exploration,,Alberta,
6217,Mine de Mont-Wright,ArcelorMittal Mines Canada,Fermont,Quebec,G0G1J0
29429,Teine Dodsland 12-36,Teine Energy Ltd.,Dodsland,Saskatchewan,
2083,Shand Power Station,Saskatchewan Power Corporation,Estevan,Saskatchewan,S4A2K9
22754,Three Hills Creek Gas Battery 01-36,Lynx Energy Ulc,,Alberta,
23411,Homeglen Comp Stn 06-02,Cenovus Energy Inc.,,Alberta,
23502,Iron River 08-31-063-07w4 Pad,Devon Canada Corporation,Iron River Op,Alberta,
26275,16-23-035-19w4 Fenn Big Valley,Ember Resources Inc.,Fenn Big Valley,Alberta,
11765,Strathroy,KML Windows Inc.,Strathroy,Ontario,N7G3H8
17028,Pelican Compressor Station 05-25-078-20w4,Husky Oil Operations Limited,Md 17,Alberta,
6622,Alder Flats Sweet Gas Plant,Cenovus Energy Inc.,,Alberta,
15336,10-22-042-21w4 Lamerton,Ember Resources Inc.,Stettler,Alberta,
6826,Exshaw Plant,Graymont Western Canada Inc.,Exshaw,Alberta,T0L2C0
30586,05-11-081-18w6 Water Disposal Well (Well Site),Encana Corporation,,British Columbia,
16873,Liebenthal Compressor Station 13-22-019-25w3,Canadian Natural Resources Limited,,Saskatchewan,
25296,Atcor Drumheller 10-23,Surge Energy Inc.,Calgary,Alberta,
23534,Severn 16-33 Booster,Lynx Energy Ulc,,Alberta,
22455,Genesee 05-30-049-03 W5,Journey Energy Inc.,,Alberta,
22148,Pembina Comp Stn 06-27,Cenovus Energy Inc.,,Alberta,
28320,Gordondale Oil Battery 08-30-078-09w6,Canadian Natural Resources Limited,,Alberta,
28316,Maple Glen Compressor Station 14-24-036-17w4,Canadian Natural Resources Limited,,Alberta,
21216,Workman 11-25,Spartan Energy Corp.,,Saskatchewan,
10388,Sandy Lake Diesel Generating Station,Hydro One Remote Communities Inc.,Sandy Lake,Ontario,P0V1V0
30874,4 Pouce Coupe 16-27,Insignia Energy Ltd.,Pouce Coupe,Alberta,
1593,Port Alberni Division,Catalyst Paper Corporation,Port Alberni,British Columbia,V9Y5J7
18962,Wainwright North Gas Plant 16-15-046-06w4,Husky Oil Operations Limited,Paradise Valley,Alberta,T0B 3R0
21424,Hcft 01-26 Booster,Lynx Energy Ulc,,Alberta,
29869,Freeman 1-11,Coastal Resources Ltd.,Calgary,Alberta,T2P3R7
6305,Chantier Maritime,Verreault Navigation Inc.,Les MÃ©chins,Quebec,G0J1T0
15989,Hillsdown Sweet Gas Plant 13-04-037-25w4,Canadian Natural Resources Limited,,Alberta,
28898,Goodfish Compressor Station 13-24-092-10w5,Canadian Natural Resources Limited,,Alberta,
30165,Ante Creek Oil Mwb 02-02-066-25w5,ARC Resources,,Alberta,
28981,Tangent	08-20-080-21w5,Baytex Energy Ltd,Tangent,Alberta,
6504,Tolko High Level Lumber Division,Tolko Industries Ltd.,High Level,Alberta,T0H1Z0
19306,07-07-032-27w4 Stewart,Ember Resources Inc.,Red Deer,Alberta,T4N3T4
30362,Torc Hastings Oil Mwb 12-15-004-34w1,TORC Oil & Gas Ltd.,,Saskatchewan,
18579,Dauntless 16-4,City of Medicine Hat,Medicine Hat,Alberta,T1A7H3
18122,Teepee Oil Battery 14-21-072-03w6,Canadian Natural Resources Limited,,Alberta,
28033,Jackfish 3 Sagd Plant,Devon Canada Corporation,Conklin,Alberta,
15290,Hope Creek,Apache Canada Ltd.,,Alberta,
26558,Swan Hills Oil Mwb 03-36,Crescent Point Energy Corp.,,Alberta,
15187,Alder Flats Sweet Gas Plant 11-33,Tidewater Midstream and Infrastructure Ltd.,,Alberta,
30929,Kaybob 04-22-060-20 Pad Mwb,Bonavista Energy Corporation,Kaybob,Alberta,
5134,Eskay Creek Mine,Barrick Gold Inc.,Smithers,British Columbia,V0J2N0
16763,Alderson West Sour Gas Plant 06-02-016-15w4,Torxen Energy Ltd.,,Alberta,
7738,Feed Mill,Otter Farm & Home Co-Operative,Aldergrove,British Columbia,V2W1X7
18181,Gooseberry Oil Battery,Harvest Operations Corp.,,Alberta,T4H 5R6
30361,Torc Hastings Oil Battery 09-08-004-33w1,TORC Oil & Gas Ltd.,,Saskatchewan,
15387,Monitor Sour Gas Plant,Karve Energy Inc.,Consort,Alberta,
22326,Pcp Provost Bty 9-7,Harvest Operations Corp.,,Alberta,T4H 5R6
3707,Strathcona Refinery,Imperial Oil,Edmonton,Alberta,T6P1X7
485,Ingredion Canada Incorporated - London Plant,Ingredion Canada Incorporated,London,Ontario,N6N1E3
10139,Dundas Operations,Carmeuse Lime Canada,Dundas,Ontario,L9H3S9
27268,Pouce Coupe Gas Battery 05-20-079-12w6,Canadian Natural Resources Limited,,Alberta,
26436,Torc Kaybob Oil Battery 04-01-060-20w5,TORC Oil & Gas Ltd.,,Alberta,
15538,13-05-036-04w5,Paramount Resources Ltd.,,Alberta,
17510,Loverna 1 Battery 08-14-031-27w3,Teine Energy Ltd.,Antelope Park,Saskatchewan,
658,Belle Plaine Facility,K + S Windsor Salt Ltd.,Belle Plaine,Saskatchewan,S0G0G0
30872,Will Grn 01-02-044-08w5,Inplay Oil Corp.,Willesden Green,Alberta,
29938,Rife Soda Lake 01-20,Rife Resources Ltd.,Calgary,Saskatchewan,T2P 3N4
1902,Balzac Gas Plant,Nexen Inc.,Rockyview County,Alberta,T4A 0P7
15258,West Blueberry Comp Stn 12-29,Canadian Natural Resources Limited,Mel Vollman,British Columbia,
21677,Mistahae Compressor Station 06-07-078-01w5,Canadian Natural Resources Limited,,Alberta,
26160,Seal 08-16-084-19w5,Baytex Energy Ltd,Seal,Alberta,
16497,Hcft 11-33 Booster,Lynx Energy Ulc,,Alberta,
26133,Lathom Gas Unit Consolidated Bty,Cenovus Energy Inc.,,Alberta,
29905,Husky Lloyd Bt 14-04-049-02w4,Husky Oil Operations Limited,Vermilion River,Alberta,
19086,Carbon 4-22-029-21w4 Cbm Battery,Taqa North Ltd.,Carbon,Alberta,
2223,South Rosevear Gas Plant,Bonavista Energy Corporation,Rosevear,Alberta,
16378,Hamburg Sweet Gas Plant 11-33-096-08w6,Canadian Natural Resources Limited,,Alberta,
23509,Iron River 7-6-64-7w4 Pad,Devon Canada Corporation,Iron River Op,Alberta,
30946,Rife Battle 16-12,Rife Resources Ltd.,Calgary,Saskatchewan,T2P3N4
24397,Wembley Oil Battery 11-36-072-08w6,Canadian Natural Resources Limited,,Alberta,
17571,Wildboy Gas Plant,Predator Oil BC Ltd.,,British Columbia,A1A 1A1
30347,Torquay Oil Swb 16-09-002-11w2,TORC Oil & Gas Ltd.,,Saskatchewan,
25188,Mine Canadian Malartic Gp,Corporation MiniÃ¨re Osisko,Malartic,Quebec,J0Y 1Z0
5528,Centre d'Ãpuration Rive-Sud (Cers),Ville de Longueuil,Longueuil,Quebec,J4G 1R6
18381,Gutah 3 Comp Stn A-054-K,Canadian Natural Resources Limited,,British Columbia,
17072,Stolberg Dehy 02-03-041-14w5,Tidewater Midstream and Infrastructure Ltd.,Nordegg,Alberta,
29254,Edson Sweet Gas Plant 03-29-054-19w5,Canadian Natural Resources Limited,,Alberta,
29060,Kakwa 16-07-063-05w6,Trioil Resources Ltd.,,Alberta,T4H 5R6
8024,Venture Platform,ExxonMobil Canada Properties,Venture Platform,Nova Scotia,
30750,Rrx Pembina 05-09-046-02w5,Baytex Energy Ltd,Duvernay Rrx,Alberta,T2P0R3
21617,David Oil Battery 12-24,NuVista Energy Ltd.,,Alberta,
26098,Progress Oil Battery 06-22-078-10w6,Canadian Natural Resources Limited,,Alberta,
21104,Beavertail Oil Battery D-065-H,Canadian Natural Resources Limited,Mel Vollman,British Columbia,
2794,Endako Mine,Thompson Creek Mining Ltd.,Endako,British Columbia,V0J1N0
16909,Carson Creek 13-36,Accel Canada Holdings Limited,Whitecourt,Alberta,
29026,Strachan Compressor Station 09-24-038-09w5,Husky Oil Operations Limited,Clearwater County,Alberta,
30831,Hge 13-34-034-04w4 Battery,High Ground Energy Inc.,,Alberta,
20092,Cleartech Poco,Cleartech Industries Inc.,Port Coquitlam,British Columbia,V3C1S8
442,Cold Lake,Imperial Oil Resources Limited,Grande Centre,Alberta,T0A1T0
5561,Installations Portuaires et Services Ferroviaires,Rio Tinto Alcan,La Baie,Quebec,G7B3R1
28115,Woodsworth Oil Mwb 09-14,Crescent Point Energy Corp.,,Saskatchewan,
16436,Schuler 13-07,Canlin Energy Corporation,,Alberta,T4H 5R6
22667,Ojay Comp Stn A-065-E,Canadian Natural Resources Limited,Mel Vollman,British Columbia,
517,Plant #31 Brampton,O-I Canada Corp.,Brampton,Ontario,L6T2J5
17113,Rainbow Battery 12-23-110-07w6,Husky Oil Operations Limited,Rainbow Lake,Alberta,T2H2Y0
15390,Hansman Lake Battery,Karve Energy Inc.,Consort,Alberta,
8504,Ccum,Climatisation et Chauffage Urbains de MontrÃ©al Sec,MontrÃ©al,Quebec,H3C2L4
18352,01-26-083-15w5,Baytex Energy Ltd,,Alberta,T4H 5R6
16810,Carson Creek Sour Gas Plant,Enerplus Corporation,,Alberta,
23457,Ingoldsby Oil Mwb 16-08,Crescent Point Energy Corp.,,Saskatchewan,
28530,Bantry 6-16-17-12w4,Cardinal Energy Ltd.,Bantry,Alberta,T0J 3K0
29483,Tangleflags 14-12-050-25w3,Baytex Energy Ltd,Tangleflags,Saskatchewan,
27946,Torc Penny Oil Battery 13-16-010-24w4,TORC Oil & Gas Ltd.,,Alberta,
26148,Stp McKay Thermal Project,Southern Pacific Resource Corp.,Fort McMurray,Alberta,
21148,Wordsworth Oil Mwb 15-09,Crescent Point Energy Corp.,,Saskatchewan,
18640,Gilby Comp Station 14-33,Cenovus Energy Inc.,,Alberta,
17513,Crystal 09-06-046-03 W5,Journey Energy Inc.,,Alberta,
30563,02-02-062-25w5 (Well Pad),Encana Corporation,,Alberta,
30418,Pouce Coupe Oil Mwb 13-06-078-11w6,Kelt Exploration,,Alberta,
24520,Nottingham Oil Battery 09-02,Legacy Oil + Gas Inc.,,Saskatchewan,
28241,Lochend 04-11-028-04w5,Bonavista Energy Corporation,Lochend,Alberta,
24130,Seal 04-33-082-15w5,Baytex Energy Ltd,Seal Lake,Alberta,A9A9A9
25242,Federal D-030-E/094-B-08 Compressor Station,Husky Oil Operations Limited,Ft. St. John,British Columbia,
16337,Marian Lake Oil Battery 07-31-037-17w4,Canadian Natural Resources Limited,,Alberta,
18513,Peggo East Comp Stn A-072-C,Canadian Natural Resources Limited,,British Columbia,T4H 5R6
16793,Canor Neston 16-26-060-24 W4,Houston Oil & Gas Ltd.,,Alberta,
28274,Wapiti Compressor Station 10-07-068-07w6,Canadian Natural Resources Limited,,Alberta,
28022,Wildriver 09-15-057-23 W5m,Tourmaline Oil Corp,Edson,Alberta,
18804,Brazeau Comp Stn 02-10,Bellatrix Exploration Ltd.,,Alberta,
16406,West Eagle Comp Stn 02-01,Canadian Natural Resources Limited,Mel Vollman,British Columbia,
16025,Algar Compressor Station 15-21-084-15w4,Canadian Natural Resources Limited,,Alberta,
18388,Resthaven Sweet Gas Plant,Cenovus Energy Inc.,,Alberta,
23165,Crystal Hill Oil Battery 03-19,Crescent Point Energy Corp.,,Saskatchewan,
17796,Turin K-19,Sanling Energy Ltd.,,Alberta,T4H 5R6
27741,Seal 05-32-084-18w5,Baytex Energy Ltd,Seal,Alberta,
11394,Royal Windsor Drive,Royal Ready Mix Inc.,Oakville,Ontario,L6J7X6
17586,Boundary Battery 7-32-84-14,Canlin Energy Corporation,Fsj - Boundary Lake North,British Columbia,
28224,Silverton Oil Mwb 01-31,Crescent Point Energy Corp.,,Saskatchewan,
30454,Hanlan Sour Inlet,Canlin Energy Corporation,,Alberta,T4H 5R6
29451,02-12-081-18w6 (Well Pad),Encana Corporation,Dawson Creek,British Columbia,
16410,Muskrat Comp Stn 14-12,Canadian Natural Resources Limited,,British Columbia,
3048,Thunder Bay Generating Station,Ontario Power Generation Inc.,Thunder Bay,Ontario,P7B6T7
27792,Conserve Taber 12-6-8-15-W4,Conserve Oil Corporation,Taber,Alberta,
11866,Peterborough County/City Waste Management Facility,City of Peterborough,Peterborough,Ontario,K9J6X7
30404,Eastend Oil Swb 14-34,Crescent Point Energy Corp.,,Saskatchewan,
21120,Gold Creek South Karr Compressor Station 11-15-066-05w6,Canadian Natural Resources Limited,,Alberta,
5406,Usine de Matane,Compagnie Rocktenn du Canada Inc.,Matane,Quebec,G4W3M9
29874,Alameda 09-08-004-03 W2m,Spartan Energy Corp.,Alameda,Saskatchewan,
11900,Stittsville Asphalt Plant,R.W. Tomlinson Limited,Ottawa,Ontario,K0A1B0
17791,Pouce Oil Battery 08-33-080-12w6,Kelt Exploration,,Alberta,
28197,Coutts Oil Mwb 13-03 (Tank),Crescent Point Energy Corp.,,Alberta,
21371,White Bear Oil Battery 05-28,Crescent Point Resources Partnership,,Saskatchewan,
16075,Peejay Comp Stn D-039-E,Canadian Natural Resources Limited,,British Columbia,
3916,Ccr Refinery,Glencore Canada Corporation,MontrÃ©al-Est,Quebec,H1B5H6
2173,Kapuskasing Operations,Rayonier A.M. Canada G.P.,Kapuskasing,Ontario,P5N 2Y2
29932,Pinto 14-18-001-04 W2m,Spartan Energy Corp.,Pinto,Saskatchewan,
6439,Entreposage et Transbordement de Produits Chimiques,Somavrac Inc.,Trois-RiviÃ¨res,Quebec,G8Z2Y3
29102,Provost Oil Battery 13-11,Surge Energy Inc.,,Alberta,
21046,Star Swan Hills 10-28 Battery,Acquisition Oil Corp,Alberta,Alberta,
29639,Skwi163000419w3,Crescent Point Energy Corp.,,Saskatchewan,
18949,Edgerton Battery 01-24,Caltex Resources Ltd.,,Alberta,T4H 5R6
17068,Husky Deny Kiskiu 13-09-058-02w6,Ikkuma Resources Corp.,,Alberta,
16514,Alderson West Comp Stn 10-28-015-15w4,Torxen Energy Ltd.,,Alberta,
6130,Centrale de Cap-aux Meules,Hydro-QuÃ©bec,"Cap-aux-Meules, Ãles-de-la-Mad",Quebec,G4T1R3
17100,Wildmere #1 Gas Plant 10-19-047-04w4,Husky Oil Operations Limited,Paradise Valley,Alberta,T0B 3R0
6625,Christina Lake Sagd Bitumen Battery,"Cenovus Fccl Ltd., as Operator for FCCL Partnership",Lac la Biche,Alberta,T0P1J0
6306,Les Industries Flexipak Inc.,Les Industries Flexipak Inc.,Montreal,Quebec,H4R2B2
28833,Helmet Comp Stn C-039-K,Canadian Natural Resources Limited,,British Columbia,
2776,Burnaby Refinery,Parkland Refining (B.C.) Ltd.,Burnaby,British Columbia,V5C1X4
29359,Torc Midale et Al Alameda Oil Battery 12-19-004-02w2,TORC Oil & Gas Ltd.,,Saskatchewan,
19699,Oak 2-7,Pengrowth Energy Corporation,Fort St. John,British Columbia,
20175,Willow Creek Mine,Conuma Coal Resources Ltd.,Chetwynd,British Columbia,V0C 1J0
30128,Lloyd 15-20-48-5 Mwcb,Devon Canada Corporation,,Alberta,T4H 5R6
19593,Progress Oil Battery 07-31,Longshore Resources Ltd.,Saddle Hills,Alberta,
30722,Dodsland 13-29-31-19 W3,Teine Energy Ltd.,Winslow,Saskatchewan,
29257,Wilde Hills Compressor Station 04-09-016-27w3,Canadian Natural Resources Limited,,Saskatchewan,
28822,Peoc Mannv 14-25-50-9w4 Proration,Perpetual Energy Inc.,,Alberta,T4H 5R6
28209,Clintonville Oil Mwb 16-17,Crescent Point Energy Corp.,,Saskatchewan,
1753,Minnehik Buck Lake Gas Plant,Keyera Corp.,Buck Lake,Alberta,
16054,July Lake Comp Stn A-071-G,Canadian Natural Resources Limited,,British Columbia,T4H 5R6
8543,Montreal East,Nexeo Solutions Canada Corporation,MontrÃ©al,Quebec,H1B2V1
30589,09-06-081-17w6 (Well Pad),Encana Corporation,,British Columbia,
28501,Harmon Valley 09-26-083-19w5,Baytex Energy Ltd,Harmon Valley,Alberta,
23964,Peco Gas Battery 14-07,Cenovus Energy Inc.,,Alberta,
29362,Wapati 13-5-67-8w6,Whitecap Resources Inc.,,Alberta,T4H 5R6
24506,Pancdn Badger,Harvest Operations Corp.,,Alberta,
4101,Irving Oil Refinery,Irving Oil Refining G.P.,Saint John,New Brunswick,E2L 4H6
30413,Wapella Oil Mwb 01-04 (Tank),Crescent Point Energy Corp.,,Saskatchewan,
17699,Taqa North Chinchagariver C-032-H/094-H-08,Taqa North Ltd.,Chinchaga,British Columbia,
22117,Berland River West Comp Station 02-05,Cenovus Energy Inc.,,Alberta,
18741,Monias 14-14,Crew Energy Inc.,,British Columbia,
25149,Macklin Cleaning 05-24-039-28w3,Prairie Thunder Resources Ltd.,Macklin,Saskatchewan,
24142,Gas Test Bty 07-03-050-19w5,Husky Oil Operations Limited,Yellowhead County,Alberta,T0E1W0
24523,Crystal Hills Oil Mwb 13-02 (Tank),Crescent Point Energy Corp.,,Saskatchewan,
27693,6-21-38-20w4m,Bearspaw Petroleum Ltd.,Stettler,Alberta,
5095,Mcadam Wallboard Plant,"Certainteed Gypsum Canada, Inc.",Mcadam,New Brunswick,E6J1B1
28310,Moose Hills Bitumen Battery 10-03-057-06w4,Canadian Natural Resources Limited,,Alberta,
28979,Seal	03-16-082-18w5,Baytex Energy Ltd,Seal,Alberta,
30455,Pc Hanlan Robb 11-6,Canlin Energy Corporation,,Alberta,T4H 5R6
4063,Prince George Pulp and Paper and Intercontinental Pulp Mills,Canfor Pulp Limited Partnership,Prince George,British Columbia,V2N2K3
17877,Ram Compressor,Shell Canada Limited,Caroline,Alberta,T0M0M0
18089,Sukunka Comp Stn B-065-B,Canadian Natural Resources Limited,,British Columbia,
24405,Progress Gas Battery 14-34-077-11w6,Canadian Natural Resources Limited,,Alberta,
29120,Tourmaline 12-06-081-07-W6,Tourmaline Oil Corp,Blueberry Mountain,Alberta,
24636,Virgh 4-28-65-13 Multi Oil Bty,Ridgeback Resources Inc.,,Alberta,T4H 5R6
19546,Bpco Edmonton,La Cie MatÃ©riaux de Construction BP Canada,Edmonton,Alberta,T6P 1X7
24525,Taylorton Oil Mwb 13-15,Crescent Point Energy Corp.,,Saskatchewan,
21973,Anderson Gas Battery 15-03-081-04w6,Canadian Natural Resources Limited,,Alberta,
21181,Queensdale 6-27 Bty,Vermilion Energy Inc.,Township 006,Saskatchewan,
29960,Wildmere Pad 16-02-048-07 W4m,Gear Energy Ltd.,Wildmere,Alberta,
16358,Narraway Sweet Gas Plant 10-08-062-10w6,Canadian Natural Resources Limited,,Alberta,
26145,Dawson Gas Plant,Spectra Energy Transmission,Bessborough,British Columbia,V1G 4E7
24217,Killam 06-30-041-14w4,Zargon Oil and Gas Ltd.,Forestburg,Alberta,T0B1N0
2038,Aluminerie de Baie-Comeau,Alcoa LimitÃ©e,Baie-Comeau,Quebec,G4Z2L6
17111,10-34-042-05 W5m Wilson Creek,OMERS Energy Inc.,Wilson Creek,Alberta,
24353,Bonavista Cherhill 16-24,Bonavista Energy Corporation,,Alberta,
672,Zellstoff Celgar Limited Partnership,Zellstoff Celgar Limited Partnership,Castlegar,British Columbia,V1N3H9
27992,Iron River 08-27-64-7w4 Pad,Devon Canada Corporation,Iron River Op,Alberta,
15242,Hays Oil Battery 12-18-013-14w4,Canadian Natural Resources Limited,,Alberta,
821,Brandon Generating Station,Manitoba Hydro,Brandon,Manitoba,R7A7J8
28204,Hummingbird Oil Mwb 03-12 (Tank),Crescent Point Energy Corp.,,Saskatchewan,
16512,Hussar Crowfoot Sweet Gas Plant 14-01,Lynx Energy Ulc,,Alberta,
24239,Provost 13-10-40-2w4,Zargon Oil and Gas Ltd.,Provost,Alberta,T0B3S0
18045,Rimbey Compressor Station 5-32-43-1w5,OMERS Energy Inc.,Calgary,Alberta,T2P0R3
15560,07-22-061-21 W5m,Paramount Resources Ltd.,Kaybob,Alberta,
22556,Brintnell South Compressor Station 13-01-081-23w4,Canadian Natural Resources Limited,,Alberta,
4152,West Pembina Gp,Keyera Corp.,Drayton Valley,Alberta,
22815,10-31 South Buffalo Compressor Station,Ember Resources Inc.,Stettler,Alberta,
21735,Cdn 88 Twining,Alphabow Energy Ltd.,,Alberta,T4H 5R6
3610,Prince Albert Pulp Inc,Prince Albert Pulp Inc.,Prince Albert,Saskatchewan,S6V5T5
15471,Amisk Oil Battery 04-34,Bow River Energy Ltd.,,Alberta,
18253,Sakwatamau 06-12-063-15w5,Enercapita Energy Ltd.,,Alberta,
30953,01-19-031-23 W3m,Tamarack Acquisition Corp.,Coleville,Saskatchewan,
1362,Brazeau River Gas Plant,Keyera Corp.,Drayton Valley,Alberta,
1996,New Brunswick Division,Potash Corp,Penobsquis,New Brunswick,E4G2B4
15319,Zama Battery - 2,Paramount Resources Ltd.,Zama City,Alberta,
31016,Frobisher 1-9 Bty,Vermilion Energy Inc.,Township 001,Saskatchewan,
15419,Pouce Sweet Gas Plant 11-34,ARC Resources,,Alberta,
21457,Tide Lake Comp Stn 01-04-018-11w4,Torxen Energy Ltd.,,Alberta,
29636,Rapdan Sour Gas Plant 13-01,Crescent Point Energy Corp.,,Saskatchewan,
15450,Baytex Excelsior Battery 07-10-056-24w4,Baytex Energy Ltd,Excelsior,Alberta,
4330,Fonderie Bibby Ste-Croix,Canada Pipe Co Ltd,Sainte-Croix,Quebec,G0S2H0
21579,Viewfield Oil Mwb 05-23,Crescent Point Energy Corp.,,Saskatchewan,
21390,Sundance 15-07,Tourmaline Oil Corp,Sundance,Alberta,A9A9A9
27079,Hoffer 04-05-02-15 W2m,NAL Resources Management,Hoffer,Saskatchewan,
16513,Alderson Gas Plant 13-21-015-11w4,Torxen Energy Ltd.,,Alberta,
17040,Warner Oil Battery 04-20-007-16w4,Canadian Natural Resources Limited,Wrentham,Alberta,
21075,Portable Plant 020002,Border Paving Ltd.,Blackfalds,Alberta,
16346,Stettler Sweet Gas Plant 08-24-038-19w4,Canadian Natural Resources Limited,,Alberta,
18400,Frob Alida Oil Battery 07-04-010-08w2,Canadian Natural Resources Limited,,Saskatchewan,
3992,Lingan Generating Station,Nova Scotia Power Incorporated,Lingan,Nova Scotia,B1H 5E6
2377,Neucel Specialty Cellulose (Sfo),Neucel Specialty Cellulose,Port Alice,British Columbia,V0N2N0
18744,Abbt0048774 (Red Earth Oil Battery 16-10-087-07w5) (Tank),Canadian Natural Resources Limited,,Alberta,
29863,Teine Kerrobert Bty 8-14,Teine Energy Ltd.,Coleville,Saskatchewan,
15404,Crane West Gas Battery 01-16-013-24w3,Canadian Natural Resources Limited,,Saskatchewan,
16238,Medicine River Sour Gas Plant,Cenovus Energy Inc.,,Alberta,
15563,3-29-62-20w5,Paramount Resources Ltd.,Grande Prairie,Alberta,
27015,Seal Main Sagd Bitumen Battery 09-06,Obsidian Energy Ltd.,,Alberta,
28205,Huntoon Oil Mwb 01-04 (Tank),Crescent Point Energy Corp.,,Saskatchewan,
3350,"Florenceville, New Brunswick","McCain Foods Canada, a Division of McCain Foods Limited",Florenceville-Bristol,New Brunswick,E7L 1B2
16861,Wapiti Compressor Station 07-24-068-07w6,Canadian Natural Resources Limited,,Alberta,
15715,North Hiding Creek Comp Stn D-039-G,Canadian Natural Resources Limited,,British Columbia,
21164,Ferrybank 2-1 Gathering System,Bonavista Energy Corporation,Ferrybank,Alberta,
24339,Bonavista Strachan 05-34-037-08w5,Bonavista Energy Corporation,Strachan,Alberta,
27744,Seal 09-04-084-19w5,Baytex Energy Ltd,Seal,Alberta,
18906,West Tommy Lakes Comp Station 3 A-029-I,Enerplus Corporation,,British Columbia,
16865,Twining Sweet Gas Plant 12-10,Ember Resources Inc.,,Alberta,
4060,"Uniboard Canad Inc, Usine Val-D'Or",Uniboard Canada Inc,Val-D'Or,Quebec,J9P5G6
5098,Victoria General Hospital Central Heating Plant,Capital Health,Halifax,Nova Scotia,B3H2Y9
24004,Handsworth Oil Mwb 01-32 (Tank),Crescent Point Energy Corp.,,Saskatchewan,
18192,Storthoaks Oil Mwb 12-23,Crescent Point Energy Corp.,,Saskatchewan,
30171,Pengrowth Draig Hanna,Alphabow Energy Ltd.,,Alberta,T4H 5R6
17490,Journey 06-01-046-02 W5,Journey Energy Inc.,,Alberta,
29156,Whitecap Elnora 16-19-35-22w4,Whitecap Resources Inc.,,Alberta,T4H 5R6
30341,Hoffer Oil Swb 13-32-001-15w2,TORC Oil & Gas Ltd.,,Saskatchewan,
17036,Amadou Compressor Station 14-03-074-20w4,Husky Oil Operations Limited,Calling Lake,Alberta,
17921,Berrymoor Sour Gas Plant 11-31,ARC Resources,,Alberta,
23275,Horizon Oil Sands Processing Plant and Mine,Canadian Natural Resources Limited,Fort McMurray,Alberta,T9H3H5
18411,Mink Comp Stn D-071-C,Canadian Natural Resources Limited,,British Columbia,
24192,Blackstone Dehy 09-23-044-16w5,Tidewater Midstream and Infrastructure Ltd.,Yellowhead County,Alberta,T0E1W0
2695,Ingredion Canada Incorporated - Port Colborne Plant,Ingredion Canada Incorporated,Port Colborne,Ontario,L3K5X7
24336,Gilby 03-28-41-4 Ggs,Bonavista Energy Corporation,Wg 3-28,Alberta,
29182,Lre - Czar Drumheller 16-09,Guide Exploration Ltd.,,Alberta,T4H 5R6
22576,Eaglesham 01-25-076-01w6,Guide Exploration Ltd.,,Alberta,
18443,Abbt3430001 (Erskine Oil Battery 05-07-039-20w4) (Tank),Canadian Natural Resources Limited,,Alberta,
17066,Kakwa Gas Plant 10-07-063-05w6,Husky Oil Operations Limited,Amundson,Alberta,
29233,Xto 15-25-62-22-W5 Gas Multiwell Batt,XTO Energy Canada ULC,Calgary,Alberta,T2C5N1
16981,Hussar Gas Plant 13-36-024-21w4,Husky Oil Operations Limited,Hussar,Alberta,T0J1S0
10058,Thorold Asphalt,Rankin Construction Inc.,Thorold,Ontario,L2V 3Y5
15887,Brintnell North Bitumen Battery 07-27-082-21w4,Canadian Natural Resources Limited,,Alberta,
8053,Alma Platform,ExxonMobil Canada Properties,Alma Platform,Nova Scotia,
17946,Pouce Coupe Battery 6-3,Canlin Energy Corporation,,Alberta,T4H 5R6
16412,Stoddart Comp Stn 14-34,Canadian Natural Resources Limited,Mel Vollman,British Columbia,
15675,Wainwright East Ob 01-30-47-09w4,Cardinal Energy Ltd.,Wainwright,Alberta,
21975,Cecil Sour Gas Plant 08-15-084-08w6,Canadian Natural Resources Limited,,Alberta,
21911,Para Kaybob 12-10-064-19w5,Paramount Resources Ltd.,,Alberta,
29694,Torc Torquay Oil Battery 14-27-001-11w2,TORC Oil & Gas Ltd.,,Saskatchewan,
28134,Elmworth Comp Station 12-02,Cenovus Energy Inc.,,Alberta,
28777,Torc Steelman Swb 15-07-004-04w2,TORC Oil & Gas Ltd.,,Saskatchewan,
10288,Amherst Plant,Sifto Canada,Nappan,Nova Scotia,B4H3Y4
16126,01-22-27-25-W4m Entice Comp Stn,Ember Resources Inc.,,Alberta,
28011,Torc Pembina Oil Battery 12-31-050-10w5,TORC Oil & Gas Ltd.,,Alberta,
29971,Placid 6-29,Athabasca Oil Corporation,Fox Creek,Alberta,
6933,Beinfait Mine - Char Plant,Prairie Mines & Royalty Ltd.,Estevan,Saskatchewan,S4A2W2
28000,Msn 15-24 Pad 15-24-084-15w5,Baytex Energy Ltd,Seal Lake Field,Alberta,
18478,Kimea Comp Stn D-031-D,Canadian Natural Resources Limited,,British Columbia,
17340,Encal Grande Prairie 14-19-72-6,Taqa North Ltd.,Knopcik,Alberta,
1042,Swan Hills Treatment Center,Sena Waste Services,Swan Hills,Alberta,T0G2C0
17471,Lake Alma Oil Mwb 02-29 (Tank),Crescent Point Energy Corp.,,Saskatchewan,
28253,East Coulee Compressor Station 04-01-028-18w4,Canadian Natural Resources Limited,,Alberta,
2134,Redwater Fertilizer Operations,Agrium Inc.,Sturgeon County,Alberta,T0A2W0
16520,Alderson East 13-3-16-13w4,Cardinal Energy Ltd.,Alderson,Alberta,
24543,Nco Rainbow 7-14,Sanling Energy Ltd.,,Alberta,T4H 5R6
16032,Smith Coulee Compressor Station 16-03-006-11w4,Canadian Natural Resources Limited,,Alberta,
28486,Harmon Valley 08-18-084-18w5,Baytex Energy Ltd,Harmon Valley,Alberta,
18318,Graham Comp Stn C-076-K,Canadian Natural Resources Limited,,British Columbia,T4H 5R6
24059,Farrell Creek B-88-I Gas Plant,Petronas Energy Canada Ltd.,Farrell,British Columbia,
4136,Wolf Lake and Primrose Plant,Canadian Natural Resources Limited,,Alberta,T4H 5R6
31023,Northgate 4-14-1-2,Vermilion Energy Inc.,Township 001,Saskatchewan,
10565,Timmins Micronizing Plant,Imerys Talc Canada Inc.,Timmins,Ontario,P4N7J5
24341,Wilgrn 06-22-041-05w5 Ggs,Bonavista Energy Corporation,Wg 6-22,Alberta,
29014,13-15-36-24-W4m Ghost Pine Comp Stn,Ember Resources Inc.,,Alberta,
16850,Bantry Gas Battery 05-08-019-13w4,Canadian Natural Resources Limited,,Alberta,
4875,Cavendish Farms,Cavendish Farms Corporation,New Annan,Prince Edward Island,C1N4J9
23427,Wapiti Comp Station 06-13,Cenovus Energy Inc.,,Alberta,
1872,Norampac Cabano Une Division de Cascades Canada Inc,Cascades Canada ULC.,Temiscouata-sur-le-Lac,Quebec,G0L1E0
6827,Pavilion Plant,Graymont Western Canada Inc.,Cache Creek,British Columbia,V0K1H0
28655,Cessford Compressor Station 10-27-024-11w4,Canadian Natural Resources Limited,,Alberta,
27147,Pembina Hz 14-7-50-5w5 Swb,Sanling Energy Ltd.,,Alberta,T4H 5R6
24143,Lre - Kakwa 07-14,Guide Exploration Ltd.,,Alberta,T4H 5R6
22198,Wapiti Comp Stn 11-18-066-10w6,Cenovus Energy Inc.,,Alberta,
28493,Seal 01-18-084-17w5,Baytex Energy Ltd,Seal,Alberta,
17752,Reno 10-22-079-20w5,Baytex Energy Ltd,Reno,Alberta,
21540,Wilson Creek Plant,Harvest Operations Corp.,,Alberta,T4H 5R6
4435,Highland Creek Treatment Plant,City of Toronto,Toronto,Ontario,M1E3Z3
21485,Momentive Sturgeon,Momentive Specialty Chemicals Canada Inc.,Sturgeon County,Alberta,T8L5C1
5472,Emballages Krupack Place Turcot,Kruger Inc,MontrÃ©al,Quebec,H4C1V9
16301,Eaglesham Sweet Gas Plant 02-14-077-25w5,Canadian Natural Resources Limited,,Alberta,
2081,Boundary Dam Power Station,Saskatchewan Power Corporation,Estevan,Saskatchewan,S4A2A6
21025,09-06-042-20w4 Lamerton,Ember Resources Inc.,Bashaw,Alberta,T2P 3E5
29258,Lanaway Oil Battery 04-23-036-03w5 (Tank),Canadian Natural Resources Limited,,Alberta,
10976,Glanbrook Landfill Site,City of Hamilton,Hamilton,Ontario,L8E3X8
22770,Pembina Comp Stn 06-09,Cenovus Energy Inc.,,Alberta,
25005,Pouce Coupe 1-19,Insignia Energy Ltd.,Pouce Coupe,Alberta,T2P2V6
24518,Manor Oil Battery 05-14,Legacy Oil + Gas Inc.,,Saskatchewan,
26108,Princess Gas Battery 01-14-020-12w4,Canadian Natural Resources Limited,,Alberta,
15839,Alderson Compressor Station 05-04-016-11w4,Canadian Natural Resources Limited,,Alberta,
26397,Nordstrong Equipment,Nordstrong Equipment Limited,Cannington,Ontario,L0E 1E0
10229,Sarnia Terminal,Imperial Oil,Sarnia,Ontario,N7T7J2
26188,Tangleflags 02-29-050-24w3,Baytex Energy Ltd,Tangleflags,Saskatchewan,
16022,Kettle River Sour Gas Plant 15-14-083-05w4,Canadian Natural Resources Limited,,Alberta,
3824,"Gerdau Ameristeel Corporation, Whitby Mill",Gerdau Ameristeel Corporation,Whitby,Ontario,L1N5T1
22241,4-7 Leahurst,Ember Resources Inc.,Stettler,Alberta,
22971,Northend Oil Battery 16-20-040-28w3,Husky Oil Operations Limited,Killarney Lake,Saskatchewan,
22275,Green Comp Stn B-025-I,Canadian Natural Resources Limited,,British Columbia,
21715,Petro Canada Hanlan Robb 10-17,Canlin Energy Corporation,,Alberta,T4H 5R6
15601,Glen Ewen Gas Plant,Steel Reef Infrastructure Corp.,Estavan,Saskatchewan,S4A2A7
4790,F.F.Soucy - RiviÃ¨re-du-Loup,F.F. Soucy Inc.,RiviÃ¨re-du-Loup,Quebec,G5R3Z1
27982,Caribou D-32-C/94-G-7,Petronas Energy Canada Ltd.,Caribou,British Columbia,
23065,Carson Creek 5-13,Accel Canada Holdings Limited,Whitecourt,Alberta,
5124,Highway Gas Plant,Spectra Energy Midstream Corporation,Peace River District,British Columbia,V1J4H7
29247,Valhalla Oil Battery 01-18-076-08w6,Canadian Natural Resources Limited,,Alberta,
28877,Jean Lake North Gas Battery 08-30-097-23w4,Canadian Natural Resources Limited,,Alberta,
15408,Cessford Compressor Station 06-06-022-11w4,Canadian Natural Resources Limited,,Alberta,
2855,Usine de BÃ©cancour,Olin Canada ULC,BÃ©cancour,Quebec,G9H2Y8
29946,Sour Battery 09-35-022-26 W4m,Cuda Energy Inc.,Wheatland,Alberta,
17195,Joffre Compressor Station 04-22,Lynx Energy Ulc,Joffre,Alberta,T4N5H3
4929,Corner Brook Pulp and Paper,Corner Brook Pulp and Paper Ltd.,Corner Brook,Newfoundland and Labrador,A2H6J4
5477,Mont-Laurier,Saputo Produits Laitiers Canada S.E.N.C.,Mont Laurier,Quebec,J8L1M8
15316,11-19-041-05 W5,Paramount Resources Ltd.,Rocky Mountain House,Alberta,
15401,Thunderhill Compressor Station 04-15-014-27w3,Canadian Natural Resources Limited,,Saskatchewan,
24477,01-36-30-26-W4m Twining Comp Stn,Ember Resources Inc.,,Alberta,
30170,Husky Shorncliffe 7-21,Alphabow Energy Ltd.,,Alberta,T4H 5R6
18844,Wild River 14-20-056-23 W5,Tourmaline Oil Corp,Hinton,Alberta,
17056,Husky Webb 1-1,Whitecap Resources Inc.,,Saskatchewan,
23548,Twining Comp Stn 01-11,Ember Resources Inc.,,Alberta,
2001,"Pf RÃ©solu Canada Inc , Usine de Baie-Comeau",Produits Forestiers RÃ©solu,Baie-Comeau,Quebec,G4Z1K6
19058,Granada Compressor Station 02-18,Obsidian Energy Ltd.,,Alberta,
30409,Pinto Oil Swb 03-35,Crescent Point Energy Corp.,,Saskatchewan,
29179,Lre - Pine Creek 13-09,Guide Exploration Ltd.,,Alberta,T4H 5R6
22495,Tourmaline Chin/09-29 Ggs,Tourmaline Oil Corp,Calgary,Alberta,
6842,Ferrier Sweet Gas Plant 01-34-040-09w5,Canadian Natural Resources Limited,,Alberta,
30262,Cliffdale Bitumen Battery 04-23-084-17w5,Canadian Natural Resources Limited,,Alberta,
27368,Norcen Hoadley 02-05,Bonavista Energy Corporation,Ferrybank,Alberta,
22189,Red Rock Comp Stn 10-33,Cenovus Energy Inc.,,Alberta,
24403,Wembley Oil Battery 14-03-073-08w6,Canadian Natural Resources Limited,,Alberta,
22784,Wapiti Comp Station 07-23,Cenovus Energy Inc.,,Alberta,
19102,Cressford 02-24,Sanling Energy Ltd.,,Alberta,T4H 5R6
23586,Pbn 15-10-049-12w5 Mwob,Ridgeback Resources Inc.,,Alberta,T4H 5R6
17931,Fairydell-Bon Accord 5-35,Signalta Resources Ltd.,Fort Saskatchewan,Alberta,T2P 3E5
23533,Severn 15-27 Booster,Lynx Energy Ulc,,Alberta,
16890,Wes Hilda Compressor Station 04-26-017-02w4,Canadian Natural Resources Limited,,Alberta,
28437,Kaybob 15-28,Semcams ULC,Kaybob,Alberta,
4268,Charlottetown Thermal Generating Station,Maritime Electric Co. Ltd.,Charlottetown,Prince Edward Island,C1A5B9
29933,Pinto 14-26-002-04 W2m,Spartan Energy Corp.,Pinto,Alberta,
29892,Elmworth 2-23 Bty,Semcams ULC,Greenview No. 16,Alberta,
29688,Torc Torquay Oil Battery 03-19-002-10w2,TORC Oil & Gas Ltd.,,Saskatchewan,
4316,North Atlantic Refinery,North Atlantic Refining LP,Come By Chance,Newfoundland and Labrador,A0B1N0
27451,Seal Bitumen Battery 02-34,Obsidian Energy Ltd.,,Alberta,
19276,Nevis Oil Battery 12-36,Surge Energy Inc.,,Alberta,
28243,Morningside 11-35 Comp,Bonavista Energy Corporation,Mornside,Alberta,
16654,Lre - Aec Boyer,Guide Exploration Ltd.,,Alberta,
5445,E.I. Dupont Canada - Thetford Inc.,DuPont Canada,Thetford Mines,Quebec,G6G7K7
17124,Arrowood 01-07-020-25 W4,Houston Oil & Gas Ltd.,,Alberta,
22020,07-04-034-05 W5m Battery,Sitka Exploration Ltd.,,Alberta,
28885,Duncan Compressor Station 09-33-076-14w4,Canadian Natural Resources Limited,,Alberta,
16997,Gambler Gas Plant 08-28-070-21w4,Husky Oil Operations Limited,Calling Lake,Alberta,
21724,Olds 6-9,NAL Resources Management,Olds,Alberta,
28998,La Jolie B-003-K/094-O-12,Chevron Canada Resources,Fort Nelson,British Columbia,
19238,Trilogy Kaybob 6-3 Gas Grp,Paramount Resources Ltd.,,Alberta,
30873,3 Pouce Coupe 16-27,Insignia Energy Ltd.,Pouce Coupe,Alberta,
635,Hanson Brick - Burlington,Hanson Brick,Burlington,Ontario,L7R3Y2
10298,City of Cornwall Landfill Site,Corporation of the City of Cornwall,Cornwall,Ontario,K6K1M2
2128,Cnul Peace River Complex,Canadian Natural Upgrading Ltd,Peace River,Alberta,T8S 1V1
15096,Mundare Sweet Gas Plant 09-28,Tidewater Midstream and Infrastructure Ltd.,,Alberta,
16572,Bassano Lathom Comp Stn 10-23-020-18w4,Torxen Energy Ltd.,,Alberta,
30335,Torquay Oil Swb 04-04-003-11w2,TORC Oil & Gas Ltd.,,Saskatchewan,
6015,Cfb Halifax - Windsor Park,Department of National Defence (Use This One),Halifax,Nova Scotia,B3K5X5
18339,Sedalia 07-01-032-07w4,Baytex Energy Ltd,Sedalia,Alberta,
16469,Terra Wilder 10-34-082-20w6,Crew Energy Inc.,Fort St. John,British Columbia,V1J4H7
29678,Torc Hoffer Oil Battery 03-03-002-16w2,TORC Oil & Gas Ltd.,,Saskatchewan,
19305,06-25 -041-22-W4 Nevis,Ember Resources Inc.,Mirror,Alberta,
24148,Garrington 8-15-34-4w5,Whitecap Resources Inc.,,Alberta,T4H 5R6
30837,Hge 08-09-036-02w4 Battery,High Ground Energy Inc.,,Alberta,
4157,Steelman Gas Plant,Steel Reef Infrastructure Corp.,Estevan,Saskatchewan,S4A2A6
17628,Clarke Lake Battery D-83-I/94-J-10,Canlin Energy Corporation,Fn - Clarke Lk P144,British Columbia,
20212,Sunrise 3-18-80-17 W6,Tourmaline Oil Corp,Taylor,British Columbia,V0C2K0
6655,Manchester Asphalt Plant,The City of Calgary,Calgary,Alberta,T2P2M5
29355,Torc Torquay Oil Battery 15-01-002-12w2,TORC Oil & Gas Ltd.,,Saskatchewan,
24154,Discovery Consort Multi-Well Oil Battery 09-16,Prairie Provident Resources,Calgary,Alberta,T2P3G4
16606,Black Butte 1-18,PineÂ CliffÂ EnergyÂ Ltd.,,Alberta,
28,Cornwall Site,BASF Canada Inc.,Cornwall,Ontario,K6J2B5
1139,Usine Dorval,Bombardier Inc.,Dorval,Quebec,H4S1Y9
2229,Montreal Sulphur Plant,Suncor Energy Products Partnership,MontrÃ©al-Est,Quebec,H1B1A6
17426,Clover A &Amp; B-Plant 09-34,Paramount Resources Ltd.,,Alberta,
6810,Inuvik Plant,NWT Power Corp,Inuvik,Northwest Territories,X0E0T0
24069,West Oil Battery 13-02,Sinopec Canada,,Alberta,
28399,Renaissance Sloat Creek Compressor Station 10-18,Obsidian Energy Ltd.,,Alberta,
29659,Sullivan Lake Oil Battery 08-18-034-13w4,Canadian Natural Resources Limited,,Alberta,
27003,Taqa North Boundarylake 15-26-085-14,Taqa North Ltd.,Boundary,British Columbia,
23196,West Doe Plant,Spectra Energy Midstream Corporation,Peace River Regional District,British Columbia,V1G 4E7
24603,Pben Mwb Corning 1-32-10-7,Ridgeback Resources Inc.,,Saskatchewan,T4H 5R6
29650,Horsham Compressor Station 13-28-016-28w3,Canadian Natural Resources Limited,,Saskatchewan,
21366,Tatagwa Oil Mwb 09-34,Crescent Point Energy Corp.,,Saskatchewan,
1147,Rabbit Lake Operation,Cameco,Saskatoon,Saskatchewan,S7M1J3
17343,02-26 Gas Plant,Tangle Creek Energy Ltd.,Niton Junction,Alberta,
15930,Minehead Compressor Station 10-12-049-18w5,Canadian Natural Resources Limited,,Alberta,
26115,Tony Creek Gas Battery 07-16-064-21w5,Canadian Natural Resources Limited,,Alberta,
29357,Torc et Al Weir Hill Oil Battery 11-25-005-06w2,TORC Oil & Gas Ltd.,,Saskatchewan,
5222,Chinchaga Gas Plant,Keyera Corp.,Manning,Alberta,
25225,Knopcik 07-07,Cardinal Energy Ltd.,Hythe,Alberta,T0H 2C0
3996,Trenton Generating Station,Nova Scotia Power Incorporated,Trenton,Nova Scotia,B0K 1X0
5012,Goldboro Gas Plant,ExxonMobil Canada Properties,Goldboro,Nova Scotia,B0H1L0
19016,Sylvan Lake Gas Plant 06-08-38-03-5,NAL Resources Management,Sylvan Lake,Alberta,
24440,Gardenhead Oil Mwb 01-20,Crescent Point Energy Corp.,,Saskatchewan,
28333,Viking Kinsella Oil Battery 09-10-048-08w4,Canadian Natural Resources Limited,,Alberta,
18841,Surge Valhalla 06-18,Surge Energy Inc.,La Glace,Alberta,
22822,Carnduff Oil Mwb 07-36 (Tank),Crescent Point Energy Corp.,,Saskatchewan,
30769,Mitsue Wplant 02/10-30-72-4w5,Cardinal Energy Ltd.,Slave Lake,Alberta,T0G 2A0
30934,16-24-005-09 W4m,Tamarack Acquisition Corp.,Foremost,Alberta,
15200,Sylvan Lake Sweet Gas Plant 05-01,Tidewater Midstream and Infrastructure Ltd.,,Alberta,
23935,Tristar N Handsworth 5-5-11-7,Lightstream Resources Ltd.,,Saskatchewan,
7371,Keele Valley Landfill,City of Toronto,Maple,Ontario,L6A1S5
19309,Wildhay,Paramount Resources Ltd.,Swan Hills,Alberta,
21123,Nevis Compressor Station 06-12-039-22w4,Canadian Natural Resources Limited,,Alberta,
28906,Dunvegan Sat #2 Gas Battery 16-17-081-04w6,Canadian Natural Resources Limited,,Alberta,
21996,Gadsby Sales Compressor 05-03,Ember Resources Inc.,Stettler,Alberta,
15922,Dunvegan Sweet Gas Plant 10-04-066-23w5,Canadian Natural Resources Limited,,Alberta,
28331,Progress Compressor Station 06-15-077-11w6,Canadian Natural Resources Limited,,Alberta,
18106,Cannington Manor Oil Mwb 08-31,Crescent Point Energy Corp.,,Saskatchewan,
28747,7gen Pad 29 - 16-29-064-05 W6m,Seven Generations Energy Ltd.,Kakwa,Alberta,
21802,Penhold Central Battery 15-29,Lynx Energy Ulc,Penhold C,Alberta,
7095,Zochem,ZOCHEM Inc.,Brampton,Ontario,L6T3T4
30350,Torquay Oil Swb 16-22-001-12w2,TORC Oil & Gas Ltd.,,Saskatchewan,
28783,Torc Wordsworth Oil Battery 09-27-006-05w2,TORC Oil & Gas Ltd.,,Saskatchewan,
16459,Terra Red Creek 03-10-085-21w6,Terra Energy Corporation,Fort St. John,British Columbia,V1J1Z1
7304,Unilever Ice Cream,"Good Humor-Breyers, Division of Unilever Canada Inc.",Simcoe,Ontario,N3Y 4L5
24312,North Alameda Oil Mwb 01-36 (Tank),Crescent Point Energy Corp.,,Saskatchewan,
22580,Kakut 14-12-075-03w6,Guide Exploration Ltd.,,Alberta,
31009,Vermilion 8-16-38-21,Vermilion Energy Inc.,Township 038,Alberta,
30832,Hge 15-09-035-04w4 Battery,High Ground Energy Inc.,,Alberta,
30336,Openshaw Oil Swb 04-05-003-02w2,TORC Oil & Gas Ltd.,,Saskatchewan,
15284,Maple Creek Compressor Station 08-34-012-26w3,Canadian Natural Resources Limited,,Saskatchewan,
23810,Pancdn Ferrybank,Bonavista Energy Corporation,Ferrybank,Alberta,
5125,Jedney I Gas Plant,Spectra Energy Midstream Corporation,Fort St. John,British Columbia,V1J4H7
23408,Gilby Gas Battery 08-16,Cenovus Energy Inc.,,Alberta,
15134,Manola Sweet Gas Plant 11-18,Tidewater Midstream and Infrastructure Ltd.,,Alberta,
28694,Eastbrook Oil Swb 04-29,Crescent Point Energy Corp.,,Saskatchewan,
22620,Workman Oil Battery 07-02,ARC Resources,,Saskatchewan,
26403,Fort Hills Oil Sands,Fort Hills Energy Limited Partnership,Fort McMurray,Alberta,T9H 4V9
29850,7gen Pad 3 13-03-064-05w6,Seven Generations Energy Ltd.,Kakwa,Alberta,
27985,Lily B-038-J/094-G-02,Petronas Energy Canada Ltd.,Lily (Montney),British Columbia,
29740,Discovery Provost 07-30 Multi-Well Oil Battery,Prairie Provident Resources,,Alberta,
30955,13-13-031-26 W3m,Tamarack Acquisition Corp.,Coleville,Saskatchewan,
21753,Gilby 2-27 Gas Plant,Canlin Energy Corporation,,Alberta,T4H 5R6
25212,2-36-76-18w4m,BlackPearl Resources Inc.,Wandering River,Alberta,
23506,Devon Iron River 04-06-64-6w4 Pad,Devon Canada Corporation,Iron River Op,Alberta,
17837,Big Bend 13-36-66-27w4m Compressor Station,Sabre Energy Ltd.,Flatbush,Alberta,T0G0Z0
8783,Mine du Lac Bloom,Minerai de Fer QuÃ©bec Inc.,Fermont,Quebec,G0G1J0
29491,Lochend Oil Battery 13-03-025-03w5,Trioil Resources Ltd.,Calgary,Alberta,T2P 0R8
18956,Rivercourse Cs 09-08-047-01w4,Husky Oil Operations Limited,Vermilion River,Alberta,
22122,Drayton Valley Oil Battery 03-01,Cenovus Energy Inc.,,Alberta,
19221,Utikuma Oil Battery,Vermilion Energy Inc.,Township 081,Alberta,
3827,Lunenburg Division,High Liner Foods Inc.,Lunenburg,Nova Scotia,B0J2C0
31001,Xto 100/04-08 (09-18),XTO Energy Canada ULC,,Alberta,T4H 5R6
28418,Ferrier Swb 16-3-44-10w5,Taqa North Ltd.,,Alberta,
27932,Flagstone MacOun Oil Battery 16-30-004-08w2,TORC Oil & Gas Ltd.,,Saskatchewan,
22479,Bearberry 07-09 Ggs,Taqa North Ltd.,Ricinus,Alberta,
24484,Linden Gas Bettery 12-23,Ember Resources Inc.,,Alberta,
19367,Imperial Cyn-Pem 14-30,Whitecap Resources Inc.,,Alberta,T4H 5R6
29904,Husky Lloyd Bt 13-04-049-02w4,Husky Oil Operations Limited,Vermilion River,Alberta,
30259,Beartrap Oil Swb 12-14-059-03w4,Canadian Natural Resources Limited,,Alberta,
15418,Prestville Cranberry Battery 10-36,Acquisition Oil Corp,Alberta,Alberta,
15220,Progress Compressor Station 06-35-077-11w6,Canadian Natural Resources Limited,,Alberta,
30229,Gilby Oil Swb 02-10-040-04w5,Repsol Oil & Gas Canada Inc.,,Alberta,
29838,Seal 01-05-083-14w5,Baytex Energy Ltd,Seal Lake Field,Alberta,
23973,Wapiti Comp Stn 11-20,Cenovus Energy Inc.,,Alberta,
1528,Usine de Thurso,Fortress Cellulose SpÃ©cialisÃ©e,Thurso,Quebec,J0X 3B0
21380,12-30-66-26w4 Compressor,Sabre Energy Ltd.,Flatbush,Alberta,T0G0Z0
18766,Domcan Warwick 10-18 Ggs,Warwick Gas Storage Lp,,Alberta,T4H 5R6
19191,Hastings Oil Battery 14-27,Crescent Point Resources Partnership,,Saskatchewan,
17357,Hummingbird Oil Mwb 11-26,Crescent Point Energy Corp.,,Saskatchewan,
11793,Essar Power Canada Ltd,Essar Power Canada Ltd.,Sault Ste. Marie,Ontario,P6A 7B4
2221,Port Hawkesbury Paper,NewPage,Port Hawkesbury,Nova Scotia,B9A1A1
16791,Cadogan Oil Battery 10-14,Enerplus Corporation,,Alberta,
15841,Newbrook Compressor Station 05-11-062-20w4,Canadian Natural Resources Limited,,Alberta,
4433,Aqua Bond Inc.,Aqua Bond Inc.,Scarborough,Ontario,M1V 5J8
1149,Mcarthur River,Cameco,Saskatoon,Saskatchewan,S7M1J3
24084,Twining Gas Battery 03-22,Ember Resources Inc.,,Alberta,
5008,Av Cell Inc.,AV Cell Inc.,Atholville,New Brunswick,E3N4S7
16016,Charron Lake Compressor Station 15-01-069-16w4,Canadian Natural Resources Limited,,Alberta,
19722,Centrica Compressor Station 08-08,Canlin Energy Corporation,,Alberta,T4H 5R6
4000,Point Aconi Generating Station,Nova Scotia Power Incorporated,Point Aconi,Nova Scotia,B1Y 2A6
17854,Samson Rainbow Gas Plant,Sanling Energy Ltd.,,Alberta,T4H 5R6
22358,Valley 05-13-009-06-W2,NAL Resources Management,Valley,Saskatchewan,N0T4V4
16991,Thompson Lake Gas Plant 13-30-040-10w4,Husky Oil Operations Limited,Battle Bend,Alberta,
28850,Hatton Senate Compressor Station 04-21-014-28w3,Canadian Natural Resources Limited,,Saskatchewan,
15592,Marten Hills Compressor Station 06-13-077-24w4,Canadian Natural Resources Limited,,Alberta,
17630,"Mackay River, In-Situ Oil Sands Plant",Suncor Energy Oil Sands Limited Partnership,Fort McMurray,Alberta,
