NPRI ID,Facility name,Company name,Address,Province,Latitude,Longitude
22190,Cutbank Comp Stn 10-36,Cenovus Energy Inc.,,Alberta,54.6707,-119.2183
28947,Alumicast Technologies,Alumicast Technologies,705 Bayview Dr. Drive,Ontario,44.33,-79.676
1139,Usine Dorval,Bombardier Inc.,500 Cote-Vertu,Quebec,45.4744,-73.733
18582,Seven Persons 7-27,City of Medicine Hat,,Alberta,50.0224,-110.743
26092,Inga Comp Stn 06-19,Canadian Natural Resources Limited,,British Columbia,56.644512,-121.66106200000002
28657,Sundown B-067-H/093-P-10,Tourmaline Oil Corp,,British Columbia,55.63536,-120.58595
29556,Pinto 11-15,Tourmaline Oil Corp,3700 - 250 6th Avenue Southwest,Alberta,53.84123,-117.9313
21371,White Bear Oil Battery 05-28,Crescent Point Resources Partnership,,Saskatchewan,49.7603,-102.0844
18336,Garden Plains 05-15-033-13w4,Baytex Energy Ltd,,Alberta,51.8282,-111.7742
19887,Mansur 13-34,Spartan Energy Corp.,,Saskatchewan,49.6955,-103.6972
24694,Wapiti Gas Battery 01-31,Sinopec Canada,,Alberta,54.925153,-119.198874
28780,Torc Workman Oil Battery 15-31-001-31w1,TORC Oil & Gas Ltd.,,Saskatchewan,49.087116,-101.616607
16151,Pine Ck 04-25-058-19 W5 Comp,Bonavista Energy Corporation,,Alberta,54.0376,-116.6985
4136,Wolf Lake and Primrose Plant,Canadian Natural Resources Limited,,Alberta,54.7729,-110.579
27828,Jayar 6-08-062-03w6,Strath Resources Ltd,,Alberta,54.3468,-118.41578
24148,Garrington 8-15-34-4w5,Whitecap Resources Inc.,,Alberta,51.91391,-114.477
17810,Richland Bienfait Oil Battery 09-15,Crescent Point Energy Corp.,,Saskatchewan,49.1254,-102.7176
24278,Seal Bitumen Battery 16-13,Obsidian Energy Ltd.,,Alberta,56.28828000000001,-116.851
21413,Cutbank Comp Stn A-038-I,Encana Corporation,,British Columbia,55.1924,-120.09
20175,Willow Creek Mine,Conuma Coal Resources Ltd.,11657 Willow Creek Forest Service Road Road,British Columbia,55.6044,-122.2007
30437,Ferrier 02-06 Gathering System,Canlin Energy Corporation,,Alberta,52.49572,-114.99334
22010,Pembina Compressor 05-21-047-10w5,Baytex Energy Ltd,,Alberta,53.0668,-115.4122
16503,Hussar Crowfoot Compressor Station 06-15,Lynx Energy Ulc,,Alberta,51.0423,-113.001
29548,Rainy River Project,New Gold,5967 Highway 11/71 Highway,Ontario,48.848,-94.003
16768,Wainwright 4-24-48-09w4,Cardinal Energy Ltd.,,Alberta,53.1486,-111.195
17072,Stolberg Dehy 02-03-041-14w5,Tidewater Midstream and Infrastructure Ltd.,,Alberta,52.4936,-115.935
17107,Boundary 08-02,Whitecap Resources Inc.,,British Columbia,56.3385,-120.0929
15257,Stoddart Comp Stn 11-30,Canadian Natural Resources Limited,,British Columbia,56.4892,-121.1504
18740,Monias 10-22-83-21w6,Devon Canada Corporation,,British Columbia,56.2133,-121.2102
3356,Teck Highland Valley Copper Partnership,Teck Highland Valley Copper Partnership,97c Highway,British Columbia,50.4742,-121.027
17947,Ksitvan East Sour Gas Plant 07-22-078-09w6,Canadian Natural Resources Limited,,Alberta,55.7711,-119.3089
8028,Milford Mine Site,National Gypsum Canada Ltd.,1707 Highway 2 Highway North,Nova Scotia,45.0113,-63.4243
29663,Sle 16-35-79-10w6,Sanling Energy Ltd.,,Alberta,55.896149,-119.439213
23123,Seal Bitumen Battery 14-13,Obsidian Energy Ltd.,,Alberta,56.2883,-116.864
11900,Stittsville Asphalt Plant,R.W. Tomlinson Limited,891 Jinkinson Road,Ontario,45.237502,-75.979493
5406,Usine de Matane,Compagnie Rocktenn du Canada Inc.,90 Industriel Boulevard,Quebec,48.8372,-67.5481
27752,Installations Portuaires de Port-Cartier,ArcelorMittal Infrastructure Canada,"24 Boul. des Ãles, Bureau 201 Boulevard",Quebec,50.0334,-66.791
27404,Sceptre Pembina 8-35,Ridgeback Resources Inc.,,Alberta,53.18247,-115.49206
16162,Trilogy Fox Creek 11-10 Ggs,Paramount Resources Ltd.,,Alberta,54.3505,-116.7668
16925,Lone Pine 11-13-030-29w4,NAL Resources Management,,Alberta,51.5698,-113.9641
28482,Northgate 05-20 Battery and Compressor,Vermilion Energy Inc.,,Saskatchewan,49.04803,-102.25108
22770,Pembina Comp Stn 06-09,Cenovus Energy Inc.,,Alberta,52.9509,-115.1044
29247,Valhalla Oil Battery 01-18-076-08w6,Canadian Natural Resources Limited,,Alberta,55.579631000000006,-119.218887
15327,Zama Compressor - 3,Paramount Resources Ltd.,,Alberta,58.9979,-118.7975
16860,East Drumheller Sweet Gas Plant 02-05-028-17w4,Canadian Natural Resources Limited,,Alberta,51.359,-112.3601
5015,Energy From Waste Plant,PEI Energy Systems,40 Riverside Drive,Prince Edward Island,46.2517,-63.10787
18076,Chauvin 8-31 Comp Stn,Repsol Oil & Gas Canada Inc.,,Alberta,52.8743,-110.1627
24003,Glen Ewan Oil Battery 01-31,Crescent Point Resources Partnership,,Saskatchewan,49.856358,-102.794343
4159,Nipisi Gas Plant,Canadian Natural Resources Limited,,Alberta,55.9132,-115.1504
5239,Hythe Brainard Sour Gas Plant,Veresen Energy Infrastructure Inc.,,Alberta,55.4891,-119.7508
16498,Hussar Crowfoot Compressor Station 01-36,Lynx Energy Ulc,,Alberta,50.995,-112.8017
24008,Innes Oil Mwb 08-25,Crescent Point Energy Corp.,,Saskatchewan,49.581804,-103.367428
4150,Kaybob Amalgamated Sour Gas Plant,Semcams ULC,,Alberta,54.4272,-116.8843
2502,Kruger Wayagamack Inc.,Kruger Wayagamack Inc.,1 Ile de la Potherie,Quebec,46.3583,-72.5185
16710,Redland 07-13 Booster,Lynx Energy Ulc,,Alberta,51.3043,-112.9709
22876,Wolf Lake Compressor Station 08-13-068-04w4,Canadian Natural Resources Limited,,Alberta,54.886,-110.4662
17052,South Success Unit 1,Whitecap Resources Inc.,,Saskatchewan,50.3767,-108.1003
26513,Kiwigana Comp Stn C-093-L,Encana Corporation,,British Columbia,59.247917,-122.909375
26535,Swan Hills Oil Mwb 14-09,Crescent Point Energy Corp.,,Alberta,54.9642,-115.461
6316,Fonderie Cormier - Saint-Thomas,Fonderie Cormier Inc.,621 Rang Saint-Charles,Quebec,45.9712,-73.3704
29672,Elswick Oil Battery 16-06-005-12w2,TORC Oil & Gas Ltd.,,Saskatchewan,49.360845,-103.60122
15349,Apache North Bingley Battery,Paramount Resources Ltd.,,Alberta,52.4809,-114.8702
23156,Caribou B-086-G/094-G-07,Progress Energy Canada Ltd.,,British Columbia,57.4033,-122.6967
16019,Waskahigan Sweet Gas Plant 15-07-064-23w5,Canadian Natural Resources Limited,,Alberta,54.5287,-117.4642
22544,Whitesands Project,Grizzly Oil Sands Ulc,,Alberta,55.6626,-111.2577
29972,10-27-034-08 W4m Crude Oil Multiwell Battery,Tamarack Acquisition Corp.,,Alberta,51.94968,-111.05416
30425,Wembley Gas Swb 14-02-073-08w6,Kelt Exploration,,Alberta,55.299665000000005,-119.118647
19095,Kaybob Ob 02-09-62-20w5,Razor Energy Corp.,,Alberta,54.34316,-116.93577
22552,Foisy Compressor Station 04-30-056-11w4,Canadian Natural Resources Limited,,Alberta,53.8622,-111.6371
27463,Willesden Green Compressor Station 10-15,Obsidian Energy Ltd.,,Alberta,52.794564,-115.21883
25302,Cynthia Battery,Vermilion Energy Inc.,,Alberta,53.401901,-115.569198
22610,14-26-038-22w4 Alix,Ember Resources Inc.,,Alberta,52.2999,-113.0461
17313,Torc Silverton Oil Battery 11-24-004-34w1,TORC Oil & Gas Ltd.,,Saskatchewan,49.3146,-102.4664
28866,Westlock West Sweet Gas Plant 07-15-060-02w5,Canadian Natural Resources Limited,,Alberta,54.186838,-114.211287
29287,Iron River 2-19-62-5 Pad,Devon Canada Corporation,,Alberta,54.371564,-110.739591
19604,Strath Provost Multi-Well Oil Battery 11-27,Prairie Provident Resources,1100 - 640 5 Avenue Southwest,Alberta,52.2103,-110.496
24508,Caroline 13-35,Harvest Operations Corp.,,Alberta,51.963969,-114.759107
27723,Seal 01-04-084-19w5,Baytex Energy Ltd,SEal 01-04-084-19w5,Alberta,56.24838,-116.92976000000002
18949,Edgerton Battery 01-24,Caltex Resources Ltd.,,Alberta,52.8868,-110.4402
30258,Ansell Gas Mwb 14-26-051-20w5,Canadian Natural Resources Limited,,Alberta,53.43749,-116.84221
27145,Northstar Long Coulee 14-12,Sanling Energy Ltd.,,Alberta,50.33804,-112.90466
4896,Bunge Canada - Harrowby Plant,Bunge Canada Holdings I ULC,16 Highway West,Manitoba,50.759805,-101.458402
23100,Med River 06-34-39-03-5,NAL Resources Management,,Alberta,52.39761,-114.35246
16740,Suffield A1 Comp Stn 04-03,Ipc Alberta Ltd.,,Alberta,50.5731,-111.1775
27972,Oak 11-11-086-18,Pengrowth Energy Corporation,,British Columbia,56.44497,-120.73555
21366,Tatagwa Oil Mwb 09-34,Crescent Point Energy Corp.,,Saskatchewan,49.43,-103.9375
28804,Rapdan Oil Swb 13-29,Crescent Point Energy Corp.,,Saskatchewan,49.245322,-108.671076
635,Hanson Brick - Burlington,Hanson Brick,0 - 5155 Dundas Street,Ontario,43.4153,-79.8081
24254,06-20-061-18 W5m,Paramount Resources Ltd.,,Alberta,54.28855,-116.6671
28871,Galloway Gas Battery 08-05-053-21w5,Canadian Natural Resources Limited,,Alberta,53.546642000000006,-117.050935
7371,Keele Valley Landfill,City of Toronto,Mcnaughton Road,Ontario,43.8683,-79.4984
5345,Niton Sweet Gas Plant,Cenovus Energy Inc.,,Alberta,53.6705,-115.7622
19086,Carbon 4-22-029-21w4 Cbm Battery,Taqa North Ltd.,,Alberta,51.4898,-112.8887
15200,Sylvan Lake Sweet Gas Plant 05-01,Tidewater Midstream and Infrastructure Ltd.,,Alberta,52.3228,-114.0208
24106,Cypress Thorsby 7-14-49-1w5,Petrus Resources Ltd.,,Alberta,53.226456000000006,-114.033728
15086,Torc Workman Oil Battery 02-30-001-31w1,TORC Oil & Gas Ltd.,,Saskatchewan,49.06,-102.1391
1639,Brasserie de MontrÃ©al,Molson Canada 2005,1555 Notre-Dame,Quebec,45.5187,-73.548
26053,Lre - Roxanna 11-20,Guide Exploration Ltd.,,Alberta,55.775877,-117.069848
21098,Lindbergh Custom Treating Facility,Canadian Natural Resources Limited,,Alberta,53.9206,-110.6085
3529,North Vancouver Chlor-Alkali Facility,Canexus Corporation - Brandon,100 Amherst Avenue,British Columbia,49.3004,-123.0156
16858,Handhills Compressor Station 10-33-028-15w4 (Npri),Canadian Natural Resources Limited,,Alberta,51.43899999999999,-112.0545
20043,Bubbles D-47-A,Petronas Energy Canada Ltd.,,British Columbia,57.3141,-122.1093
30582,04-02-080-17w6 (Well Pad),Encana Corporation,,British Columbia,55.89986999999999,-120.55461
30356,Abbt0148366,TORC Oil & Gas Ltd.,,Alberta,54.077740000000006,-116.80466
15356,East Castor,Karve Energy Inc.,,Alberta,52.2357,-111.7881
20212,Sunrise 3-18-80-17 W6,Tourmaline Oil Corp,,British Columbia,55.9285,-120.6423
16006,Big Bend Sour Gas Plant 13-36-066-27w4,Canadian Natural Resources Limited,,Alberta,54.7604,-113.9595
27932,Flagstone MacOun Oil Battery 16-30-004-08w2,TORC Oil & Gas Ltd.,,Saskatchewan,49.322678,-103.077008
11148,Boniferro Mill Works Ulc,Boniferro Mill Works ULC,45 Third Line,Ontario,46.5517,-84.3548
28999,Liard 7850 (C-086-F/094-O-12),Chevron Canada Resources,,British Columbia,59.654665,-123.82187
28137,Seal 09-09-084-18w5,Baytex Energy Ltd,,Alberta,56.270078000000005,-116.772031
28459,Harmon Valley 01-35-083-19w5,Baytex Energy Ltd,,Alberta,56.23374,-116.87716
2274,Mildred Lake Plant Site,Syncrude Canada Ltd.,,Alberta,57.0405,-111.6192
11734,Bfg Canada Inc.,BFG Canada Inc.,1760 Strasburg Road,Ontario,43.3944,-80.4692
11740,Mcwatters,Liberty Mines Inc,Stringer's Road,Ontario,48.3112,-81.0428
1809,Lambton Generating Station,Ontario Power Generation Inc.,1886 St. Clair Parkway,Ontario,42.7961,-82.4697
5014,Brooklyn Energy Centre,Brooklyn Power Corporation,65 Wood Hauling Road,Nova Scotia,44.051547,-64.695611
21148,Wordsworth Oil Mwb 15-09,Crescent Point Energy Corp.,,Saskatchewan,49.4,-102.25
5688,111 Progress,Atlantic Packaging Products Ltd.,111 Progress Avenue,Ontario,43.7718,-79.2735
16249,Westerose Oil Battery and Comp Station 12-02,Cenovus Energy Inc.,,Alberta,52.8514,-114.0469
28264,Tilley West Compressor Station 01-03-018-13w4,Canadian Natural Resources Limited,,Alberta,50.4866,-111.702902
18106,Cannington Manor Oil Mwb 08-31,Crescent Point Energy Corp.,,Saskatchewan,49.7765,-106.1167
3057,Usine Shawinigan,Rio Tinto Alcan,Rio Tinto Alcan Usine Shawinigan - 1100 St-Sa,Quebec,46.56100000000001,-72.7351
18446,Fireweed Comp Stn C-001-G,Canadian Natural Resources Limited,,British Columbia,56.8396,-121.6344
23244,Petrobakken Mwb Kisbey 13-5-8-6,Ridgeback Resources Inc.,,Saskatchewan,49.6227,-102.7938
17195,Joffre Compressor Station 04-22,Lynx Energy Ulc,,Alberta,52.3629,-113.5349
29561,Columbia 15-36,Tourmaline Oil Corp,3700 250 6th Avenue Southwest,Alberta,52.84154,-116.04149
6669,Fording River Operations,Teck Coal Limited,,British Columbia,50.1895,-114.8793
28035,Golden Lake Oil Multi Well Battery 14-13-047-23w3,Husky Oil Operations Limited,,Saskatchewan,53.05437,-109.239128
22815,10-31 South Buffalo Compressor Station,Ember Resources Inc.,,Alberta,52.3994,-112.8688
24444,Redvers Oil Battery 02-20,Crescent Point Energy Corp.,,Saskatchewan,49.489922,-101.76309
29461,Indus Aggregate,Burnco Rock Products Ltd,283129 Twp Rd 222,Alberta,50.8527,-113.8417
16787,Willesden Green Gas Battery 16-12-042-08w5,Enerplus Corporation,,Alberta,52.6065,-115.0144
28655,Cessford Compressor Station 10-27-024-11w4,Canadian Natural Resources Limited,,Alberta,51.076242,-111.455666
16511,Cavalier Sweet Gas Plant 16-32,Lynx Energy Ulc,,Alberta,51.0062,-113.176
28393,Monolith Compressor Station 11-27,Obsidian Energy Ltd.,,Alberta,52.210313,-112.067311
21477,Portage la Prairie,Simplot Canada (II) Ltd.,Highway #1 and Simplot Road Highway West,Manitoba,49.9721,-98.3943
5012,Goldboro Gas Plant,ExxonMobil Canada Properties,500 Sable Road,Nova Scotia,45.173506,-61.614461
15974,Jenner Compressor Station 11-32-018-09w4,Canadian Natural Resources Limited,,Alberta,50.5673,-111.2135
24714,Mark et Al Grande Prairie 06-19,Taqa North Ltd.,,Alberta,55.249301,-118.910866
16122,Pine Creek Dehydrator Battery 11-14,Semcams ULC,,Alberta,53.9284,-116.7172
28885,Duncan Compressor Station 09-33-076-14w4,Canadian Natural Resources Limited,,Alberta,55.629906000000005,-112.105065
27936,Torc Hastings Oil Battery 08-21-004-01w2,TORC Oil & Gas Ltd.,,Saskatchewan,49.310024,-102.076617
29869,Freeman 1-11,Coastal Resources Ltd.,1400 - 520 5th Avenue Southwest,Alberta,54.6934,-115.84641
3935,Ikkuma Sierra C-091-D/094-I-14,Ikkuma Resources Corp.,,British Columbia,58.8311,-121.3859
23596,Success Oil Mwb 06-26 (Tank),Crescent Point Energy Corp.,,Saskatchewan,50.4611,-108.1042
23453,Forget Oil Mwb 09-32,Crescent Point Energy Corp.,,Saskatchewan,49.6045,-102.9125
5224,House Mountain Gp 1-8-70-10w5,Cardinal Energy Ltd.,,Alberta,55.04,-115.4758
30018,102/06-10-067-08w6/0 (02-08) Swb,Whitecap Resources Inc.,,Alberta,54.783322,-119.135093
15922,Dunvegan Sweet Gas Plant 10-04-066-23w5,Canadian Natural Resources Limited,,Alberta,54.6856,-117.4144
30748,01-22-083-15w5,Baytex Energy Ltd,,Alberta,56.2047,-116.27109
29575,Redwater Fractionation Site Facility Ii (Rfs Ii),Pembina Pipeline Corporation,Range Rd 220,Alberta,53.81251,-113.12762
24562,Seal Bitumen Battery 04-29,Obsidian Energy Ltd.,,Alberta,56.219286,-116.817863
17005,Renaissance Provost 1-30,Alphabow Energy Ltd.,,Alberta,52.1157,-110.9831
16121,Obed Battery,Semcams ULC,,Alberta,53.7066,-117.241
3713,Dofasco Hamilton,ArcelorMittal Dofasco Inc.,1330 Burlington Street East,Ontario,43.2597,-79.8111
23558,Berwyn 08-36-082-26 W5m,Guide Exploration Ltd.,,Alberta,56.1516,-117.9195
15790,Calling Lake South Sour Gas Plant 01-20-070-22w4,Canadian Natural Resources Limited,,Alberta,55.0694,-113.3139
15826,Joffre Compressor Station 04-10-039-26w4,Canadian Natural Resources Limited,,Alberta,52.3341,-113.6742
15742,Encal Columbia 16-33-46-16w5,Taqa North Ltd.,,Alberta,53.0139,-116.2586
29638,Shaunavon Oil Swb 15-21,Crescent Point Energy Corp.,,Saskatchewan,49.667387,-108.520464
26259,Jansen Project,BHP Billiton Canada Inc.,130 3rd Avenue South,Saskatchewan,51.88147,-104.7276
23502,Iron River 08-31-063-07w4 Pad,Devon Canada Corporation,,Alberta,54.4912,-111.0414
15539,East Garrington Plant,Paramount Resources Ltd.,,Alberta,51.919,-114.3946
28461,Yoho Hz Kaybobs 01-16-62-21 W5,XTO Energy Canada ULC,C2a.116 - 505 Quarry Park Boulevard Southeast,Alberta,54.22054,-117.0504
24343,Boundary Lake North 06-27-086-13w6,Enercapita Energy Ltd.,,Alberta,56.486175,-119.967377
17418,Trilogy Two Creeks 03-31-63-17w5 Bty,Paramount Resources Ltd.,,Alberta,54.4872,-116.5706
22754,Three Hills Creek Gas Battery 01-36,Lynx Energy Ulc,,Alberta,52.0429,-113.5791
8599,Cimenterie Kilmar,Lehigh Hanson Materials Ltd.,1235 Chemin Kilmar Chemin Nord,Quebec,45.7683,-74.6141
8706,Usine Dubuc,Rio Tinto Alcan,2040 de la RÃ©serve,Quebec,48.4095,-71.1301
16237,Huxley Sweet Gas Plant 6-17,PineÂ CliffÂ EnergyÂ Ltd.,,Alberta,51.9151,-113.3737
16656,Lre - Paddle North 01-06,Guide Exploration Ltd.,,Alberta,58.0812,-117.6356
16906,Pembalta Iv Sour Gas Plant 09-16,ARC Resources,,Alberta,53.2287,-115.1044
22429,Utikuma Oil Battery 10-23-078-08w6,Kelt Exploration,,Alberta,55.7758,-119.122
27624,Whitemud Oil Swb 15-19,Crescent Point Energy Corp.,,Saskatchewan,49.492764,-108.682428
17260,North Nottingham Battery 05-29-005-32-W1,NAL Resources Management,,Saskatchewan,49.4129,-102.2922
25225,Knopcik 07-07,Cardinal Energy Ltd.,,Alberta,55.30681,-119.52263
30857,Karr Bt 05-36-065-03w6,Husky Oil Operations Limited,,Alberta,54.666974,-118.324264
29478,Seal 05-22-082-18w5,Baytex Energy Ltd,,Alberta,56.121616,-116.73816200000002
28864,West Kirby Wiau Compressor Station 06-36-073-08w4,Canadian Natural Resources Limited,,Alberta,55.364583,-111.09949
18154,Spirit River Oil Battery 14-06-078-07w6,Kelt Exploration,,Alberta,55.736,-119.076
23638,Queensdale 10-23 Bty,Vermilion Energy Inc.,,Saskatchewan,49.4881,-102.0368
3350,"Florenceville, New Brunswick","McCain Foods Canada, a Division of McCain Foods Limited",8800 Main Street,New Brunswick,46.4498,-67.6116
30265,Cliffdale Compressor Station 04-10-084-17w5,Canadian Natural Resources Limited,,Alberta,56.26285,-116.60722
6224,Eacom Timber Corp - Scierie de Matagami,EACOM Timber Corporation,Usine Eacom Timber Matagami - 2000 Parc Indus,Quebec,49.7287,-77.6978
19845,Septimus Well 02-35 - BCbt11202,ARC Resources,,British Columbia,56.0678,-120.6985
3875,"Cascades East Angus, Une Division de Cascades Canada Ulc",Cascades Canada ULC.,248 Warner,Quebec,45.4827,-71.664
21580,Viewfield Oil Mwb 05-05,Crescent Point Energy Corp.,,Saskatchewan,49.6159,-103.2018
23872,Sunrise Comp Station 01-34,Encana Corporation,,British Columbia,55.798,-120.538
27825,Hi-Pro Feeds Ste. Anne,Hi-Pro Feeds,42158 Municipal Road 30 Road East,Manitoba,49.663873,-96.775678
26460,12-15-060-17 W5m,Tangle Creek Energy Ltd.,,Alberta,54.19045,-116.44845
29628,Trilogy Foxck 11-23-62-19,Paramount Resources Ltd.,,Alberta,54.379493,-116.742
1368,Morrin Ghost Pine Sweet Gas Plant 8-11,PineÂ CliffÂ EnergyÂ Ltd.,,Alberta,51.6372,-112.866
18230,Ingoldsby Oil Mwb 04-10,Crescent Point Energy Corp.,,Saskatchewan,49.2782,-102.1123
27616,Provost Oil Battery 04-07,Karve Energy Inc.,,Alberta,52.246631,-111.573135
22468,Willesden Green Sweet Gas Plant 14-01,Obsidian Energy Ltd.,,Alberta,52.5941,-114.8793
16301,Eaglesham Sweet Gas Plant 02-14-077-25w5,Canadian Natural Resources Limited,,Alberta,55.6669,-117.7616
6065,Saint Mary's University - Halifax,Saint Mary's University,923 Robie Street,Nova Scotia,44.6304,-63.5804
16942,Samson Innisfail,Penn West Petroleum Ltd.,,Alberta,51.971,-114.0527
27937,Torc Willmar Oil Battery 05-07-005-03w2,TORC Oil & Gas Ltd.,,Saskatchewan,49.368162,-102.407266
22814,9-14 North Buffalo Compressor Station,Ember Resources Inc.,,Alberta,52.5304,-112.9108
2229,Montreal Sulphur Plant,Suncor Energy Products Partnership,11450 Cherrier,Quebec,45.6364,-73.5213
24354,North Rosevear Former Sour Gp,Bonavista Energy Corporation,,Alberta,53.713587,-116.14392
19327,Oungre 01-28-002-14 W2m,Spartan Energy Corp.,,Saskatchewan,49.1472,-103.8124
3147,Chalk River Laboratories,Atomic Energy of Canada Limited,1 Plant Road,Ontario,46.0554,-77.3628
21415,Cutbank Comp Stn B-100-B,Encana Corporation,,British Columbia,55.3167,-120.2333
3501,Whitecourt,National Silicates Partnership,Lot - 6 52nd Avenue,Alberta,54.1419,-115.7042
25062,Bullmoose B-049-C/093-P-02,Husky Oil Operations Limited,,British Columbia,55.03542,-120.85938
30599,04-18-071-08w6 (Well Site),Encana Corporation,,Alberta,55.144195,-119.224839
21426,Irricana Compressor Station 10-22,Ember Resources Inc.,0,Alberta,51.3196,-113.7176
18526,Simonette Compressor Station 15-29-062-25w5,Canadian Natural Resources Limited,,Alberta,54.3977,-117.7089
21388,Obed 01-21,Tourmaline Oil Corp,,Alberta,53.761093,-117.349179
15470,Marlowe Gas Plant,Steen River Oil & Gas Ltd.,,Alberta,59.6234,-117.7272
23162,Green B-6-G/94-G-10,Progress Energy Canada Ltd.,,British Columbia,57.5855,-122.6969
30364,Torc Pinto Oil Mwb 14-13-002-02w2,TORC Oil & Gas Ltd.,,Saskatchewan,49.12979,-102.15472
18023,Petromet Bigstone West Fir 14-28-59-22,Repsol Oil & Gas Canada Inc.,,Alberta,54.1787,-117.3284
17516,Steen River Gas Plant,Steen River Oil & Gas Ltd.,1100 - 645 7th Avenue Southwest,Alberta,59.6018,-117.4097
18455,Gold Creek 03-30,Canadian Natural Resources Limited,,Alberta,54.7344,-118.902
5098,Victoria General Hospital Central Heating Plant,Capital Health,1278 Tower Road,Nova Scotia,44.6375,-63.5817
22556,Brintnell South Compressor Station 13-01-081-23w4,Canadian Natural Resources Limited,,Alberta,55.9971,-113.4737
18109,Arcola 9-27 Bty,Vermilion Energy Inc.,,Saskatchewan,49.6783,-102.3203
15337,07-03-043-21w4 Lamerton,Ember Resources Inc.,,Alberta,52.7468,-112.988
29691,Torc Torquay Oil Battery 13-27-002-11w2,TORC Oil & Gas Ltd.,,Saskatchewan,49.157801,-103.406067
15372,16-36-040-22w4 Nevis,Ember Resources Inc.,,Alberta,52.49,-113.0344
26318,Galahad Multi-Well Oil Battery 12-34,Prairie Provident Resources,,Alberta,52.486703000000006,-112.089041
30722,Dodsland 13-29-31-19 W3,Teine Energy Ltd.,*Near* 31 Hwy,Saskatchewan,51.686876,-108.672566
2230,Suncor Energy Inc. Oil Sands,Suncor Energy Oil Sands Limited Partnership,Hwy 63n Highway,Alberta,57.0033,-111.4661
2740,Evraz Inc Na Canada - Regina Facilities,Evraz Inc Na Canada,100 Armour Road,Saskatchewan,50.5176,-104.6301
30263,Cliffdale Bitumen Battery 10-35-084-17w5,Canadian Natural Resources Limited,,Alberta,56.3282,-116.567
28498,Harmon Valley 13-12-084-19w5,Baytex Energy Ltd,,Alberta,56.27278,-116.8726
16766,Abbt0051889,Ipc Alberta Ltd.,,Alberta,50.6315,-111.0222
16810,Carson Creek Sour Gas Plant,Enerplus Corporation,,Alberta,54.24299,-115.55891
17702,Martin Creek Comp Stn D-018-E/094-H-06,Chinook Energy (2010) Inc.,,British Columbia,57.3478,-121.4679
28895,Calling Lake Gas Battery 12-14-073-22w4,Canadian Natural Resources Limited,,Alberta,55.324614,-113.28518
22579,Alexis 03-36-055-05w5,Guide Exploration Ltd.,,Alberta,53.7912,-114.6129
21381,Ferrier Sweet Gas Plant 07-18-040-09w5,Canadian Natural Resources Limited,,Alberta,52.4413,-115.2818
11661,Mylan Canada - 85 Advance Rd Location,Mylan Pharmaceuticals ULC,85 Advance Road,Ontario,43.6355,-79.5216
30401,Bromhead Oil Mwb 05-31 (Tank),Crescent Point Energy Corp.,,Saskatchewan,49.16461,-103.60637
29373,Pembina 100/09-35-050-11w5/0,Whitecap Resources Inc.,,Alberta,53.368418000000005,-115.503214
17741,Primewest Lone Pine Creek,Taqa North Ltd.,,Alberta,51.5816,-113.8404
30405,Oungre Oil Mwb 15-31,Crescent Point Energy Corp.,,Saskatchewan,49.08484,-103.59525
27015,Seal Main Sagd Bitumen Battery 09-06,Obsidian Energy Ltd.,,Alberta,56.08169300000001,-116.327199
15449,Baytex Darwin Gas Plant 16-28-094-18w5,Baytex Energy Ltd,,Alberta,57.1897,-119.0548
22346,Meg Christina Lake Regional Project,MEG Energy Corp.,,Alberta,55.6664,-110.714
26302,Wapiti 13-16-66-08w6m,OMERS Energy Inc.,,Alberta,54.71657,-119.15135
5687,Roxul Inc.,Roxul Inc.,805 Steeles Avenue East,Ontario,43.5332,-79.8874
6838,Head Office / Main Plant,Doepker Industries Ltd.,300 Doepker Avenue,Saskatchewan,52.3209,-104.8186
23504,Iron River 07-15-64-8w4 Pad,Devon Canada Corporation,,Alberta,54.5343,-111.1217
26184,Harmon Valley 12-05-084-18w5,Baytex Energy Ltd,,Alberta,56.25444,-116.817
10388,Sandy Lake Diesel Generating Station,Hydro One Remote Communities Inc.,General Delivery,Ontario,53.063008,-93.356944
22576,Eaglesham 01-25-076-01w6,Guide Exploration Ltd.,,Alberta,55.6088,-118.0036
26275,16-23-035-19w4 Fenn Big Valley,Ember Resources Inc.,,Alberta,52.02296,-112.60499
29452,16-36-078-17w6 Water Hub,Encana Corporation,,British Columbia,55.80866999999999,-120.48651
28835,Tommy Lakes Comp Stn A-043-I,Canadian Natural Resources Limited,,British Columbia,57.702083,-122.028125
29626,Eastend Oil Swb 01-28,Crescent Point Energy Corp.,,Saskatchewan,49.496575,-108.632109
22878,Dawson Creek Comp Stn 09-15,Encana Corporation,,British Columbia,55.6741,-120.2275
28308,Wolf McLeod Gas Battery 14-34-055-16w5,Canadian Natural Resources Limited,,Alberta,53.801048,-116.29607
15602,Wapiti Comp Station 03-29,Cenovus Energy Inc.,,Alberta,54.6472,-119.332
28836,Wargen Comp Stn B-032-J,Canadian Natural Resources Limited,,British Columbia,57.19375,-121.146875
1374,Strachan Gas Plant,Keyera Corp.,,Alberta,52.2263,-115.177
18580,North East Station 7-15,City of Medicine Hat,,Alberta,50.0844,-110.607
18363,Chickadee 16-30,Outlier Resources Ltd.,,Alberta,54.1454,-115.8155
16427,Peggo Comp Stn D-083-C,Canadian Natural Resources Limited,,British Columbia,59.3222,-120.2806
18744,Abbt0048774 (Red Earth Oil Battery 16-10-087-07w5) (Tank),Canadian Natural Resources Limited,,Alberta,56.535,-115.0169
19299,Norcen Progress,Canadian Natural Resources Limited,,Alberta,55.7251,-119.3995
17089,Queenstown Sweet Gas Plant 04-22-019-21w4,Canadian Natural Resources Limited,,Alberta,50.6168,-112.8453
27933,Torc Silverton Oil Battery 16-21-003-32w1,TORC Oil & Gas Ltd.,,Saskatchewan,49.235106,-101.734187
22620,Workman Oil Battery 07-02,ARC Resources,,Saskatchewan,49.005,-101.6616
22559,Cantal 14-20-005-33 W1m,Spartan Energy Corp.,,Saskatchewan,49.4107,-101.9038
24514,Pinto Oil Battery 04-10,Legacy Oil + Gas Inc.,,Saskatchewan,49.015856,-102.607974
31000,Xto 06-23 (06-35),XTO Energy Canada ULC,,Alberta,54.029104,-117.760855
27496,St. Anne 13-26-054-05 W5m,Guide Exploration Ltd.,,Alberta,53.694115,-114.62815
26123,Liebenthal Gas Battery 16-28-018-25w3,Canadian Natural Resources Limited,,Saskatchewan,50.55717,-109.373921
24251,Horse 16-17-058-26-W5,Tourmaline Oil Corp,,Alberta,54.0193,-117.8199
22232,Red Rock Comp Stn 16-33,Cenovus Energy Inc.,,Alberta,54.6743,-119.4388
3043,Lantic Inc. - Raffinerie MontrÃ©al,Lantic Inc. - Raffinerie MontrÃ©al,4026 Notre-Dame Rue Est,Quebec,45.546113,-73.533495
26652,Fenn Big Valley 10-36,Ember Resources Inc.,Fenn Big Valley,Alberta,51.962779,-112.567417
28274,Wapiti Compressor Station 10-07-068-07w6,Canadian Natural Resources Limited,,Alberta,54.874939000000005,-119.050399
28825,Seal 05-02-083-14w5,Baytex Energy Ltd,,Alberta,56.166,-116.1092
6624,Sand Creek Sour Gas Plant,Cenovus Energy Inc.,,Alberta,52.9047,-115.3247
10367,Saskatoon,Ardent Mills Ulc,95 33rd Street,Saskatchewan,52.1435,-106.6611
6086,Acadia Campus,Acadia University,61 University Avenue South,Nova Scotia,45.0845,-64.3659
5019,Point Tupper Fractionation Plant,ExxonMobil Canada Properties,3940 Port Malcolm Road,Nova Scotia,45.5836,-61.3374
5528,Centre d'Ãpuration Rive-Sud (Cers),Ville de Longueuil,2999 Ãle Charron,Quebec,45.5837,-73.4862
26133,Lathom Gas Unit Consolidated Bty,Cenovus Energy Inc.,,Alberta,50.79575,-112.01578
24169,Greenfield Multiwell Oil Battery 11-01,Prairie Provident Resources,1100 - 640 5 Avenue Southwest,Alberta,56.516487,-115.935907
17105,Willesden Green 1-17 Gathering System,Bonavista Energy Corporation,,Alberta,52.6104,-114.8218
21163,Ferrybank 2-1 Cs,NAL Resources Management,,Alberta,52.7579,-113.7861
26139,Roche Percee Oil Mwb 05-27,Crescent Point Energy Corp.,,Saskatchewan,49.0638,-102.87687
23410,Montney Comp Station D-087-D,ConocoPhillips Canada Resources Corp.,0,British Columbia,56.8228,-121.9564
30042,Fairborne Hz Pine Ck 16-3-56-19,Bonavista Energy Corporation,,Alberta,53.564530000000005,-116.71971
6674,Coal Mountain Operations,Teck Coal Limited,,British Columbia,49.4988,-114.6584
29364,Conwest Valhalla 3-27,Whitecap Resources Inc.,,Alberta,55.521465,-119.309232
17498,Progress Oil Battery 06-19-077-09w6,Kelt Exploration,,Alberta,55.6839,-119.3933
6237,Usine de CogÃ©nÃ©ration de Chapais,Chapais Ãnergie,140 de la CogÃ©nÃ©ration,Quebec,49.7709,-74.8562
17422,Trilogy Two Creek 07-04,Paramount Resources Ltd.,,Alberta,54.4181,-116.362
19534,Wapiti 12-03,Devon Canada Corporation,,Alberta,54.7729,-118.9815
29697,15-21-004-08w2 Oil Battery,TORC Oil & Gas Ltd.,,Saskatchewan,49.317098,-103.023872
28,Cornwall Site,BASF Canada Inc.,501 Wallrich Avenue,Ontario,45.0189,-74.7551
5544,Usine de Joliette,Holcim (Canada) Inc.,Joliette - 966 des Prairies Chemin,Quebec,46.0297,-73.4024
30688,Meota West 06-24-046-18w3m,Serafina Energy Ltd.,,Saskatchewan,52.97845,-108.48622
15772,Copton Compressor Station 11-25-059-09w6,Kelt Exploration,,Alberta,54.1306,-119.2189
29936,Rife Lashburn West Multiwell 13-04,Rife Resources Ltd.,400 - 144 4th Avenue Avenue Southwest,Saskatchewan,53.203482,-109.610194
24603,Pben Mwb Corning 1-32-10-7,Ridgeback Resources Inc.,,Saskatchewan,49.856876,-102.914611
6688,Williams Lake Power Plant,Atlantic Power (Williams Lake) Limited Partnership,4455 MacKenzie Avenue North,British Columbia,52.1608,-122.1724
16405,Kotaneelee Gas Plant,Devon Canada Corporation,,Yukon,60.12,-124.11
27126,Waskada Sour Gas Plant 16-21,EOG Resources Canada Inc.,,Manitoba,49.0567,-100.76543
15475,Lre - Cherhill Gas Plant 02-25,Guide Exploration Ltd.,,Alberta,53.8615,-114.7561
209,Tiverton Plant,Greenfield Ethanol Inc.,4th Concession Road,Ontario,44.3193,-81.5657
19593,Progress Oil Battery 07-31,Longshore Resources Ltd.,,Alberta,55.6268,-119.2238
15225,Progress Compressor Station 08-04-077-11w6,Canadian Natural Resources Limited,,Alberta,55.6417,-119.635
28472,Northgate Midale 16-03 Battery and Compressor,Vermilion Energy Inc.,,Saskatchewan,49.01319,-102.33639
18238,Sunset Battery 2-17,Shell Canada Upstream,,British Columbia,55.9368,-120.765
19313,Countess 10-09-020-16w4,Journey Energy Inc.,,Alberta,50.683,-112.16
23805,Torc Willmar Oil Battery 11-02-005-04w2,TORC Oil & Gas Ltd.,,Saskatchewan,49.3577,-102.4452
18840,Helmet Comp Stn D-004-J,Canadian Natural Resources Limited,,British Columbia,59.4229,-120.6671
29114,Dodsland 3-26,Teine Energy Ltd.,,Saskatchewan,51.59319,-108.854517
23409,Goodwin Gas Battery 10-29,Cenovus Energy Inc.,,Alberta,54.1339,-115.7595
21127,Hastings Oil Battery 10-11-004-34w1,Canadian Natural Resources Limited,,Saskatchewan,49.25,-102.1
17525,Neptune 10-13 Compressor Station,Penn West Petroleum Ltd.,,Alberta,56.4586,-119.9143
22296,Redland Compressor Station 08-33,Lynx Energy Ulc,,Alberta,51.3487,-113.0319
10217,Dartmouth Terminal,Imperial Oil,585 Pleasant Street,Nova Scotia,44.6408,-63.5384
29585,Ante Creek Multi-Well Gas Battery 04-36,Enerplus Corporation,333 7 Avenue Southwest,Alberta,54.75057,-117.50228
6344,Elkem MÃ©tal Chicoutimi,Elkem Metal Canada Inc.,2020 de la RÃ©serve Road,Quebec,48.4124,-71.1307
26203,Dodsland 5-25,Teine Energy Ltd.,,Saskatchewan,51.77051,-108.71819
18820,Norfolk Gas Battery 13-13,Ember Resources Inc.,0,Alberta,51.0498,-113.6599
17494,Fayban Compressor Station 6-8-45-7w4,Cleo Energy Corp.,,Alberta,53.0359,-110.9941
29031,Baytex Westerose 13-17,Journey Energy Inc.,,Alberta,53.728379,-115.602469
1071,Aluminerie de BÃ©cancour Inc.,Aluminerie de BÃ©cancour Inc.,5555 Pierre Thibault,Quebec,46.3829,-72.3874
29659,Sullivan Lake Oil Battery 08-18-034-13w4,Canadian Natural Resources Limited,,Alberta,51.916408,-111.827142
27955,Torc Torquay Swb 14-34-001-12w2,TORC Oil & Gas Ltd.,,Saskatchewan,49.070486,-103.534146
4790,F.F.Soucy - RiviÃ¨re-du-Loup,F.F. Soucy Inc.,191 Delage,Quebec,47.8186,-69.52
4304,Fort Nelson Gas Plant,Spectra Energy Transmission,0 - 285 Autoroute Mile Alaska,British Columbia,58.6539,-122.6892
26273,03-19-037-20w4 Ewing Lake,Ember Resources Inc.,Ab,Alberta,52.18838,-112.85223
6130,Centrale de Cap-aux Meules,Hydro-QuÃ©bec,1034 de la VerniÃ¨re Chemin,Quebec,47.3709,-61.8828
30728,Acheson Sour Gas Plant 05-02-053-26w4,Tidewater Midstream and Infrastructure Ltd.,,Alberta,53.5468,-113.7348
19436,Innes Oil Battery 15-25-007-11w2,Canadian Natural Resources Limited,,Saskatchewan,49.5937,-103.3699
17259,Alida 11-27-005-33-W1,NAL Resources Management,,Saskatchewan,49.4165,-102.3764
30021,Karr 00/16-12-066-04w6,Whitecap Resources Inc.,,Alberta,54.703140000000005,-118.45587
27806,Seal 12-29-084-18w5,Baytex Energy Ltd,,Alberta,56.31379,-116.8178
22189,Red Rock Comp Stn 10-33,Cenovus Energy Inc.,,Alberta,54.4968,-118.9903
24142,Gas Test Bty 07-03-050-19w5,Husky Oil Operations Limited,,Alberta,53.28509,-116.6923
28320,Gordondale Oil Battery 08-30-078-09w6,Canadian Natural Resources Limited,,Alberta,55.78689,-119.376596
29850,7gen Pad 3 13-03-064-05w6,Seven Generations Energy Ltd.,,Alberta,54.51438,-118.676616
18552,Wildmint Comp Stn D-035-A,Canadian Natural Resources Limited,,British Columbia,57.0312,-120.5531
22750,Pod One,Connacher Oil and Gas Limited,0,Alberta,56.1135,-111.8293
30158,Hcft 15-15 Booster,Lynx Energy Ulc,,Alberta,50.87601,-112.69034
17487,Pembina Sweet Gas Plant 09-17,Obsidian Energy Ltd.,,Alberta,53.254,-114.4379
18103,Tristar Whitebear 15-9,Spartan Energy Corp.,,Saskatchewan,49.813,-102.2128
27831,Cliffdale 01-14-084-18w5,Baytex Energy Ltd,,Alberta,56.27841,-116.742589
3623,Fonderie Horne,Glencore Canada Corporation,101 Avenue Portelance,Quebec,48.2542,-79.0167
22663,Pine Creek 12-26-057-19w5,Apache Canada Ltd.,,Alberta,53.9574,-116.7206
28862,Progress Gas Battery 06-20-077-10w6,Canadian Natural Resources Limited,,Alberta,55.684968000000005,-119.516106
21973,Anderson Gas Battery 15-03-081-04w6,Canadian Natural Resources Limited,,Alberta,55.998000000000005,-118.5322
21112,Dawson Oil Battery 08-26-079-16w5,Canadian Natural Resources Limited,,Alberta,55.8746,-116.3795
18946,Majorville Compressor Station 16-25-018-20w4,Canadian Natural Resources Limited,,Alberta,50.5551,-112.6231
30092,Rbr Kayb 14-31-063-18w5 Mwob,Ridgeback Resources Inc.,,Alberta,54.49971,-116.713781
30872,Will Grn 01-02-044-08w5,Inplay Oil Corp.,,Alberta,52.762806000000005,-115.05465900000002
23838,Gordondale Oil Battery 15-32-078-11w6,Canadian Natural Resources Limited,,Alberta,55.808551,-119.664843
15378,Horsham Compressor Station 04-36-016-29w3,Canadian Natural Resources Limited,,Saskatchewan,50.3842,-109.8814
18399,Beg Comp Stn B-013-B,Canadian Natural Resources Limited,,British Columbia,57.0104,-122.1594
16372,Hamburg Sweet Gas Plant 11-14-097-11w6,Canadian Natural Resources Limited,,Alberta,57.4189,-119.675
19666,Steelman Oil Mwb 05-20,Crescent Point Energy Corp.,,Saskatchewan,49.309957,-102.519363
29619,Montney Comp Station 04-17,ConocoPhillips Canada Resources Corp.,,British Columbia,56.626514,-121.800358
28227,Whitemud Oil Swb 14-14,Crescent Point Energy Corp.,,Saskatchewan,49.390937,-108.598293
11444,St. Clair Ethanol Plant,Suncor Energy Inc.,535 Rokeby Line,Ontario,42.85649,-82.41989000000001
17553,Misty Lake Compressor Station 14-25,Obsidian Energy Ltd.,,Alberta,51.8654,-110.5856
22774,Peco Comp Station 06-23,Cenovus Energy Inc.,,Alberta,53.2398,-116.5305
8638,HÃ´pital Saint-Luc,HÃ´pital Notre-Dame du Chum,1058 Saint-Denis Rue,Quebec,45.5122,-73.5571
16793,Canor Neston 16-26-060-24 W4,Houston Oil & Gas Ltd.,,Alberta,54.223,-113.4786
5337,Nevis Gas Plant,Keyera Corp.,,Alberta,52.31287,-113.07678
28583,Wildmere 04-09-048-04 W4m Pad,Gear Energy Ltd.,,Alberta,53.120753,-110.53686100000002
27623,Whitemud Oil Mwb 09-15,Crescent Point Energy Corp.,,Saskatchewan,49.473357,-108.608991
3269,Carseland Nitrogen Operations,Agrium Inc.,26501 221 Township Road,Alberta,50.8458,-113.5867
2604,Irving Pulp & Paper,JD Irving,408 Mill Street West,New Brunswick,45.262,-66.0924
15887,Brintnell North Bitumen Battery 07-27-082-21w4,Canadian Natural Resources Limited,,Alberta,56.1348,-113.2013
29430,12-10-046-23w3,Baytex Energy Ltd,,Saskatchewan,52.95295,-109.26699
4650,Porocel of Canada Ltd.,Porocel of Canada Ltd,2159 Brier Park Place Nw Place Northwest,Alberta,50.0612,-110.723
18905,West Tommy Lakes Booster Station 2 C-030-J,Enerplus Corporation,,British Columbia,57.6896,-122.2469
16142,Gold Creek Compressor Station 06-03-069-06w6,Canadian Natural Resources Limited,,Alberta,54.9444,-118.8281
26441,Torc Penny Oil Battery 01-02-010-24w4,TORC Oil & Gas Ltd.,,Alberta,49.78669,-113.14199
3959,Slave Lake Pulp - Slave Lake,Slave Lake Pulp - a division of West Fraser Mills,,Alberta,55.2481,-114.514
2134,Redwater Fertilizer Operations,Agrium Inc.,56225 Sh643,Alberta,53.8416,-113.0979
24548,Para Karr 06-18 Compressor,Paramount Resources Ltd.,,Alberta,54.709648,-118.600073
15684,Elmworth Comp Stn 10-13,Cenovus Energy Inc.,,Alberta,55.0619,-119.3881
24534,Ojay Comp Stn D-055-A,Canadian Natural Resources Limited,,British Columbia,58.547917000000005,-120.05312
22419,Pembalta #8 Sour Gas Plant 05-05,Obsidian Energy Ltd.,,Alberta,53.1939,-115.2919
22241,4-7 Leahurst,Ember Resources Inc.,,Alberta,52.3422,-112.7648
18162,Calcrude Cherhill 04-24-056-05 W5,Journey Energy Inc.,,Alberta,53.847,-114.6194
2815,Kidd Metallurgical Site,Glencore Canada Corporation Duplicate???,10050 Highway 101 East Highway East,Ontario,48.5493,-81.078
26163,Seal 09-17-084-18w5,Baytex Energy Ltd,,Alberta,56.28349,-116.79836
28817,Virginia Hills Oil Mwb 04-12 (Tank),Crescent Point Energy Corp.,,Alberta,54.692363,-115.837832
27086,Strachan Compressor Station 09-26-038-08w5,Trioil Resources Ltd.,,Alberta,52.302233,-115.032585
15170,Holden Gas Battery 09-19,Tidewater Midstream and Infrastructure Ltd.,,Alberta,53.1559,-112.3267
24001,Forget Oil Mwb 13-29 (Tank),Crescent Point Energy Corp.,,Saskatchewan,49.680939,-102.52278
29684,Torc Pinto Oil Battery 02-25-002-03w2,TORC Oil & Gas Ltd.,,Saskatchewan,49.148442,-102.283596
8053,Alma Platform,ExxonMobil Canada Properties,,Nova Scotia,43.4014,-60.3081
26081,Chinchaga Compressor Station 03-25-095-05w6,Canadian Natural Resources Limited,,Alberta,57.266383,-118.667671
26146,Tsea D-07-I C/S,Nexen Inc.,N/A Road,British Columbia,59.42292,-122.07812
28189,Avon Hill Oil Mwb 03-16,Crescent Point Energy Corp.,,Saskatchewan,51.563752,-109.040537
7701,Sawmill/Planer Mill Operations,Apollo Forest Products Ltd.,2555 Tachie Road,British Columbia,54.4638,-124.2589
6627,Foster Creek Sagd Bitumen Battery (With Cogen),"Cenovus Fccl Ltd., as Operator for FCCL Partnership",0,Alberta,55.06952,-110.53643999999998
15626,Lodgepole Sweet Gas Plant,Cenovus Energy Inc.,,Alberta,53.1032,-115.3634
28933,Farrell Creek B-88-I Field Battery,Petronas Energy Canada Ltd.,,British Columbia,56.235417000000005,-122.096875
21485,Momentive Sturgeon,Momentive Specialty Chemicals Canada Inc.,305 - 55202 Sh 825,Alberta,53.7451,-113.2356
2372,Myra Falls Operations,NVI Mining Ltd.,1 Westmin Road Highway,British Columbia,49.5772,-125.602
15693,Elmworth Comp Stn 01-35,Cenovus Energy Inc.,,Alberta,55.0108,-119.865
10582,Starplex Scientific Inc.,Starplex Scientific Inc.,50 Steinway Boulevard,Ontario,43.7509,-79.6256
28121,Pinto Oil Mwb 03-07,Crescent Point Energy Corp.,,Saskatchewan,49.015932,-102.669692
30182,Zeta Creek Comp Stn 04-07-049-12w5,Velvet Energy Ltd.,,Alberta,53.208752,-115.753692
1753,Minnehik Buck Lake Gas Plant,Keyera Corp.,,Alberta,52.9404,-114.8323
18156,07-26-031-23w3,Baytex Energy Ltd,2800 - 520 3rd,Saskatchewan,51.6835,-109.1535
21858,P-08,South Rock Ltd.,,Alberta,50.82222,-112.34806
22903,Wapiti Comp Station 10-30,Cenovus Energy Inc.,,Alberta,54.8306,-119.6626
29070,Bowser Mineral Property,Pretium Resources Inc.,37 Highway,British Columbia,56.39246,-129.95158999999998
10139,Dundas Operations,Carmeuse Lime Canada,600 Highway # 5 Highway West,Ontario,43.3521,-79.8679
17088,Armada Sweet Gas Plant 01-18-017-18w4,Canadian Natural Resources Limited,,Alberta,50.4276,-112.4623
30875,Pouce Coupe 02-27,Insignia Energy Ltd.,,Alberta,55.705485,-119.6207
17876,Waterton Complex - Compressor Station W,Shell Canada Limited,,Alberta,49.4889,-113.9551
29654,Rivercourse Oil Battery 02-36-047-01w4,Canadian Natural Resources Limited,,Alberta,53.09059,-110.014671
30023,Whitecap Boundarylake 05-17-084-13 002,Whitecap Resources Inc.,,British Columbia,56.28183000000001,-120.02414
29940,Rife Soda Lake 16-17,Rife Resources Ltd.,400 - 144 4th Ave. Avenue Southwest,Saskatchewan,53.05777,-109.47024
21319,Elmworth Comp Stn 04-12,Cenovus Energy Inc.,,Alberta,55.1287,-119.7146
27738,Harmon Valley 05-12-084-19w5,Baytex Energy Ltd,,Alberta,56.26541,-116.82091
21186,Midale Oil Mwb 16-23,Crescent Point Energy Corp.,,Saskatchewan,49.4918,-103.3771
15906,Smith West Sweet Gas Plant 09-01-071-02w5,Canadian Natural Resources Limited,,Alberta,55.1214,-114.1591
29119,Edson 04-17-051-18-W5,Tourmaline Oil Corp,,Alberta,52.874467,-116.029179
28244,South Rosevear 08-14-053-15w5,Bonavista Energy Corporation,,Alberta,53.575741,-116.093104
18115,Handsworth Oil Mwb 13-18,Crescent Point Energy Corp.,,Saskatchewan,49.8274,-102.8129
28992,Peco 7-1 Cs,Boulder Energy Ltd.,,Alberta,53.02324,-116.20476
30259,Beartrap Oil Swb 12-14-059-03w4,Canadian Natural Resources Limited,,Alberta,54.1024,-110.352
30832,Hge 15-09-035-04w4 Battery,High Ground Energy Inc.,,Alberta,51.993416,-110.514266
17484,Pembalta #7 Sour Gas Plant 04-34,Obsidian Energy Ltd.,,Alberta,53.0904,-115.245
16066,Murray River Comp Stn C-033-J,Canadian Natural Resources Limited,,British Columbia,54.9478,-121.1603
26086,Bigstick Compressor Station 15-23-015-25w3,Canadian Natural Resources Limited,,Saskatchewan,50.27975,-109.33768
30346,Hoffer Oil Swb 15-35-001-16w2,TORC Oil & Gas Ltd.,,Saskatchewan,49.08557,-104.04042
26431,Torc Amelia Hz Swb 04-22-010-26w4,TORC Oil & Gas Ltd.,,Alberta,49.84349,-113.45275
15050,Westward Ho 12-05-034-04w5,NAL Resources Management,,Alberta,51.8901,-114.4952
15670,Claresholm Sweet Gas Plant 13-31-011-26w4,Canadian Natural Resources Limited,,Alberta,49.9583,-113.5566
8783,Mine du Lac Bloom,Minerai de Fer QuÃ©bec Inc.,880 389 Route,Quebec,52.8383,-67.2761
17766,Kaybob Ob 03-24-62-20w5,Razor Energy Corp.,,Alberta,54.3708,-116.8748
7851,North Enderby Timber Ltd - Enderby,North Enderby Timber Ltd.,6261 Hwy 97a,British Columbia,50.58271,-119.151358
24703,Brazeau Comp Stn 12-12,Sinopec Canada,,Alberta,53.128697,-115.485803
16509,Redland Compressor Station 06-17,Lynx Energy Ulc,,Alberta,51.217,-113.9777
29692,Torc Torquay Oil Battery 1-33-001-12w2,TORC Oil & Gas Ltd.,,Saskatchewan,49.07401,-103.545329
17841,8-01 Booster Compressor,Sabre Energy Ltd.,,Alberta,53.2832,-115.3244
15634,Minnehik-Buck Lake Comp Stn 02-27,Cenovus Energy Inc.,,Alberta,52.81399999999999,-114.786
27901,South Kaybob 02-20,XTO Energy Canada ULC,,Alberta,54.19755,-116.80826
17701,Martin Creek Sour Gas Plant B-002-E/094-H-06,Chinook Energy (2010) Inc.,,British Columbia,57.3353,-121.3979
22114,Wapiti Comp Stn 01-29,Cenovus Energy Inc.,,Alberta,54.7363,-119.0105
2638,Wastewater Facility,City of Regina,12100 Dewdney Avenue West,Saskatchewan,50.47,-104.744
16752,Pcr Ferrier 7-16 Comp.,Taqa North Ltd.,,Alberta,52.7012,-115.3925
24467,Amoco Kirby,Devon Canada Corporation,,Alberta,55.351198,-110.631166
18341,Sedalia 09-29-031-05w4,Baytex Energy Ltd,,Alberta,51.6862,-110.6669
25107,Weir Hill Oil Mwb 11-28,Crescent Point Energy Corp.,,Saskatchewan,49.41546,-102.76065
30581,03-31-080-17w6 (Well Pad),Encana Corporation,,British Columbia,55.97254,-120.65755
16743,Hythe Comp Stn 07-34,Encana Corporation,,Alberta,55.3639,-119.7606
3803,G.E. Booth (Lakeview) Wastewater Treatment Facility,Ontario Clean Water Agency,1300 Lakeshore Road East,Ontario,43.5784,-79.5476
23089,Torc Ingoldsby Oil Battery 04-17-004-31w1,TORC Oil & Gas Ltd.,,Saskatchewan,49.2976,-101.6384
29842,Reno 16-31-079-20w5,Baytex Energy Ltd,,Alberta,55.89578,-117.11242
17677,Landrose Comrpessor Station 12-10-050-26w3,Canadian Natural Resources Limited,,Saskatchewan,53.3014,-109.7381
17341,Northrock Red Rock 16-14,Taqa North Ltd.,,Alberta,54.4544,-119.0917
27303,Peoc Mannville 15-26-50-9w4,Perpetual Energy Inc.,,Alberta,53.348617,-111.20872
26545,Hoffer Oil Mwb 01-21,Crescent Point Energy Corp.,,Saskatchewan,49.045153000000006,-103.812392
19046,Sunset A Oil Battery 14-29,Enercapita Energy Ltd.,,Alberta,55.0072,-116.8734
2978,Usine Vaudreuil,Rio Tinto Alcan,1955 Mellon Boulevard,Quebec,48.4257,-71.1718
21076,Portable Plant 020008,Border Paving Ltd.,,Alberta,52.5492,-113.8408
22225,Elmworth Oil Battery 14-32,Cenovus Energy Inc.,,Alberta,55.1105,-119.1859
7718,Kwoen Gas Plant,Spectra Energy Transmission,0 - 1 Sukunka Forest Service Road Road,British Columbia,55.38395,-121.70055
28714,Caribou B-19-H,Petronas Energy Canada Ltd.,,British Columbia,57.34365,-122.61087
30331,Steelman Oil Swb 16-27-004-06w2,TORC Oil & Gas Ltd.,,Saskatchewan,49.331809,-102.72692
25142,Husky Windy Lk 9-2 Proration Mwb Oil,Alphabow Energy Ltd.,,Alberta,52.41397,-111.1836
25026,Groundbirch Gp 06-19-080-20w6,Pengrowth Energy Corporation,6-19-80-20w6,British Columbia,55.94771,-121.12188
16770,Wainwright East Ob 11-12-48-08w4,Cardinal Energy Ltd.,,Alberta,53.1267,-111.04412
20203,Green B-025-I/094-G-7,Progress Energy Canada Ltd.,,British Columbia,57.4354,-122.5555
26331,Bfg Canada Ltd.,BFG Canada Ltd.,120 Armstrong Avenue,Ontario,43.65249,-79.88835999999999
17015,Eagle Creek Oil Battery 15-13-039-25w3,Prairie Thunder Resources Ltd.,,Saskatchewan,52.3594,-109.4744
16238,Medicine River Sour Gas Plant,Cenovus Energy Inc.,,Alberta,52.358,-114.3241
27902,Fir 01-32,XTO Energy Canada ULC,,Alberta,54.13815,-117.25256
3753,Gold Creek Gas Plant,Canadian Natural Resources Limited,,Alberta,54.8333,-118.6467
23628,Jcwp 7-6,Accel Energy Canada Limited,,Alberta,54.5037,-115.4878
25214,1-22-72-8w5m,BlackPearl Resources Inc.,,Alberta,55.24507,-115.13323
16461,Kelt Stoddart 03-28-087-21 W6m,Kelt Exploration,,British Columbia,56.577,-121.2664
18799,Pipestone Comp Stn 10-10,Encana Corporation,,Alberta,55.1347,-119.1431
22820,Heward Oil Mwb 04-29,Crescent Point Energy Corp.,,Saskatchewan,49.6702,-103.2003
24570,Pennwest Melrose 7-25,Penn West Petroleum Ltd.,,Saskatchewan,49.761091,-102.963338
17483,Compeer Sour Gas Plant 04-31,Obsidian Energy Ltd.,,Alberta,51.8682,-110.1397
17983,Josephine Compressor Station 08-21-082-10w6,Canadian Natural Resources Limited,,Alberta,56.1203,-119.4975
28884,Progress Compressor Station 09-22-077-11w6,Canadian Natural Resources Limited,,Alberta,55.688590000000005,-119.606758
21375,South Boundary 02-25-085-14,Whitecap Resources Inc.,,British Columbia,56.3947,-120.0695
16932,Fairborne Clive 04-15-040-24w4m,Ember Resources Inc.,0,Alberta,52.4357,-113.3904
24139,Mclean Creek North Compressor Station 06-21-022-06w5,Husky Oil Operations Limited,,Alberta,50.88291,-114.7776
18145,Teine Dodsland 07-05-032-22w3 Battery,Teine Energy Ltd.,,Saskatchewan,51.7119,-109.8459
27612,Shaunavon Oil Mwb 15-33 (Tank),Crescent Point Energy Corp.,,Saskatchewan,49.784736,-108.38111200000002
21801,Huxley South 12-22,PineÂ CliffÂ EnergyÂ Ltd.,,Alberta,51.8782,-113.3593
17340,Encal Grande Prairie 14-19-72-6,Taqa North Ltd.,,Alberta,55.2547,-118.9178
23501,Iron River 5-5-64-7w4 Pad,Devon Canada Corporation,,Alberta,54.5058,-111.0348
23276,Torc MacOun Oil Battery 06-24-004-09w2,TORC Oil & Gas Ltd.,,Saskatchewan,49.3096,-103.0947
6836,Central Energy Plant (Powerhouse),University of Manitoba,33 MacLean Crescent,Manitoba,49.8071,-97.1324
29939,Rife Soda Lake 08-20,Rife Resources Ltd.,400 - 144 4th Avenue Avenue Southwest,Saskatchewan,53.065002,-109.470243
16057,Bulrush Comp Stn B-038-K,Canadian Natural Resources Limited,,British Columbia,56.9441,-120.3458
21450,Husar Crowfoot Compressor Station 16-16,Lynx Energy Ulc,,Alberta,50.964,-112.8663
23131,Innes 15-35-7-11w2,Penn West Petroleum Ltd.,,Saskatchewan,49.6081,-103.3924
26549,Melrose Oil Mwb 09-14,Crescent Point Energy Corp.,,Saskatchewan,49.735601,-102.980343
18587,Fox Valley 16-31-16-26w3,City of Medicine Hat,,Saskatchewan,50.3953,-109.5598
21678,Devon Muskwa,Perpetual Energy Inc.,,Alberta,56.5282,-114.0716
15943,Homestead Compressor Station 10-31-021-13w4,Canadian Natural Resources Limited,,Alberta,50.8287,-111.7914
211,IncinÃ©rateur,Ville de Quebec,900 Industrielle,Quebec,46.828385,-71.220097
15282,Sandhills Compressor Station 04-35-013-25w3,Canadian Natural Resources Limited,,Saskatchewan,50.1227,-109.3261
5841,Bowmanville Cement Plant,St. Marys Cement Inc.,400 Waverley Road South,Ontario,43.8806,-78.7005
27992,Iron River 08-27-64-7w4 Pad,Devon Canada Corporation,,Alberta,54.56430400000001,-110.966812
2051,Manitoba Kraft Papers Division,Canadian Kraft Paper Industries Ltd.,"Tolko Rd., Highway 10 North",Manitoba,53.860974,-101.213325
1651,"Gerdau Ameristeel Corporation, Manitoba Mill",Gerdau Ameristeel Corporation,27 Main Street,Manitoba,50.1302,-96.9013
16880,Gleichen Compressor Station 04-01,Lynx Energy Ulc,,Alberta,50.8351,-112.799
23465,Weyburn Oil Mwb 05-01,Crescent Point Energy Corp.,,Saskatchewan,49.441,-103.7861
17931,Fairydell-Bon Accord 5-35,Signalta Resources Ltd.,,Alberta,53.8798,-113.6274
24518,Manor Oil Battery 05-14,Legacy Oil + Gas Inc.,,Saskatchewan,49.557156,-102.048636
18655,Hoadley Comp Station 08-06,Cenovus Energy Inc.,,Alberta,52.7593,-114.1252
17207,Gilby Sweet Comp Stn 04-19,Tidewater Midstream and Infrastructure Ltd.,,Alberta,52.6248,-114.431
28861,Dunvegan Gas Battery 06-19-081-04w6,Canadian Natural Resources Limited,,Alberta,56.034321,-118.61699099999998
7304,Unilever Ice Cream,"Good Humor-Breyers, Division of Unilever Canada Inc.",175 Union Street,Ontario,42.8389,-80.3108
3828,Produits Forestiers RÃ©solu -Usine Amos,Produits Forestiers RÃ©solu,801 des Papetiers,Quebec,48.5625,-78.1625
6851,Red Deer Batch Plant,Border Paving Ltd.,,Alberta,52.256379,-113.883934
11866,Peterborough County/City Waste Management Facility,City of Peterborough,1260 Bensfort Road,Ontario,44.2227,-78.2821
26199,Wild River 12-36-055-23-W5,Tourmaline Oil Corp,,Alberta,53.7974,-117.2934
658,Belle Plaine Facility,K + S Windsor Salt Ltd.,522 Kalium Road,Saskatchewan,50.3954,-105.1562
4890,Saint John Plant,Moosehead Breweries Ltd.,89 Main Street,New Brunswick,45.2577,-66.0974
3062,Usine Grande-Baie,Rio Tinto Alcan,5000 du Petit-Parc Route,Quebec,48.3058,-70.9267
29370,Husky Butte Voluntary Unit 5-34,Whitecap Resources Inc.,,Saskatchewan,49.951324,-108.527289
30412,Virgina Hills Oil Swb 06-22,Crescent Point Energy Corp.,,Alberta,54.7251,-115.88221
27770,Torc Amelia Swb 03-26-009-27w4,TORC Oil & Gas Ltd.,,Alberta,49.771951,-113.570696
18929,Alameda Oil Mwb 11-23 (Tank),Crescent Point Energy Corp.,,Saskatchewan,49.1755,-101.7978
29933,Pinto 14-26-002-04 W2m,Spartan Energy Corp.,,Alberta,49.157368,-110.443042
1528,Usine de Thurso,Fortress Cellulose SpÃ©cialisÃ©e,451 Victoria,Quebec,45.5985,-75.2562
15131,Ante Creek North Sour Gas Plant 02-26,ARC Resources,,Alberta,54.8972,-117.7088
24154,Discovery Consort Multi-Well Oil Battery 09-16,Prairie Provident Resources,1100 - 640 5 Avenue Southwest,Alberta,51.919097,-110.927455
30333,Alameda Oil Swb 01-10-003-02w2,TORC Oil & Gas Ltd.,,Saskatchewan,49.189890000000005,-102.18887
17831,Church Hill-Zargon 10-7-11-13w4,Zargon Oil and Gas Ltd.,Township Road 112,Alberta,49.8964,-111.7656
29094,Solumet Metal and Powder Inc,Solumet Metal and Powder Inc.,3654 Chemin de la Cote Bissonnette,Quebec,45.716893,-73.427604
2960,Shell Scotford Refinery,Shell Canada Products,,Alberta,53.7959,-113.0996
22020,07-04-034-05 W5m Battery,Sitka Exploration Ltd.,,Alberta,51.8878,-114.6473
15963,Rio Alto Edson 11-26,Canadian Natural Resources Limited,,Alberta,53.607,-116.7037
22667,Ojay Comp Stn A-065-E,Canadian Natural Resources Limited,,British Columbia,54.6354,-120.4281
29372,Morgan Eagle Lake Unit 11-9,Whitecap Resources Inc.,,Saskatchewan,51.643182,-108.924916
18741,Monias 14-14,Crew Energy Inc.,,British Columbia,56.1114,-120.9991
28269,Pinto Oil Battery 16-08-002-03w2,Canadian Natural Resources Limited,,Saskatchewan,49.114995,-102.367617
30594,North Central Liquids Hub (Nclh) 05-27-079-17w6,Encana Corporation,37 Vic Turner Airport Road,British Columbia,55.87445,-120.57927
17048,Abbt9920001 (Etzikom Creek Oil Battery 06-13-006-17w4) (Tank,Canadian Natural Resources Limited,,Alberta,49.4708,-112.1734
24428,Brazeau Oil Battery 06-05,Cenovus Energy Inc.,,Alberta,53.110624,-116.015732
1070,Essar Steel Algoma Inc,Essar Steel Algoma Inc.,105 West Street North,Ontario,46.5208,-84.3697
22171,Berland River West Comp Stn 09-05,Cenovus Energy Inc.,,Alberta,54.0748,-117.5533
17143,Boundary Lake 08-12-088-15w6,Chinook Energy (2010) Inc.,,British Columbia,56.6207,-120.2465
16758,Britnell Oil Battery and Comp Stn 1107 11-07-082-22w4,Canadian Natural Resources Limited,,Alberta,56.0951,-113.4486
4778,Aluminerie Alouette Inc.,Aluminerie Alouette Inc.,400 Chemin de De la Pointe-Noire,Quebec,50.1583,-66.4416
29111,Tamarack Hatton 06-29-017-26 W5m,Tamarack Acquisition Corp.,3100 - 250 6 Avenue Southwest,Saskatchewan,50.46124,-109.54816
27512,Wapiti Comp Stn 15-09,Sinopec Canada,,Alberta,54.96508299999999,-119.306767
17113,Rainbow Battery 12-23-110-07w6,Husky Oil Operations Limited,,Alberta,58.5687,-119.0615
6523,Hi-Pro Feeds Chilliwack,Hi-Pro Feeds,46255 Chilliwack Central Road Road,British Columbia,49.163678,-121.945043
29873,Alameda 05-28-003-03 W2m,Spartan Energy Corp.,,Saskatchewan,49.237265,-102.362429
6506,Boyle Wood Products Division,Millar Western Forest Products Ltd.,Hwy 63 & Boyle Rd,Alberta,54.585964,-112.820181
15242,Hays Oil Battery 12-18-013-14w4,Canadian Natural Resources Limited,,Alberta,50.0856,-111.914
21806,Twining Battery 09-33,Lynx Energy Ulc,,Alberta,51.7871,-113.3357
26451,Velvet Pine Creek Comp Stn 09-04-056-17w5,Velvet Energy Ltd.,,Alberta,53.81207,-116.45727
26145,Dawson Gas Plant,Spectra Energy Transmission,7868 Chemin 241,British Columbia,55.78491999999999,-120.537547
536,Wembley Gas Plant,NuVista Energy Ltd.,,Alberta,55.3359,-119.223
26204,Dodsland 5-26,Teine Energy Ltd.,,Saskatchewan,51.6003,-108.71868
25005,Pouce Coupe 1-19,Insignia Energy Ltd.,1-19-77-10 W6,Alberta,55.670280000000005,-119.51497
28236,Ansell Ggs 12-31,Bonavista Energy Corporation,,Alberta,53.361436,-116.484688
23174,Ingoldsby Oil Mwb 16-13,Crescent Point Energy Corp.,,Saskatchewan,49.3084,-101.6675
28495,Harmon Valley 01-26-083-19w5,Baytex Energy Ltd,,Alberta,56.21882,-116.87519
23531,Rich Gas Battery 04-24,Ember Resources Inc.,0,Alberta,52.0158,-113.0285
29586,Ante Creek Multi-Well Gas Battery 05-26,Enerplus Corporation,333 7 Avenue Southwest,Alberta,54.73964,-117.52749
30925,7g 16-06-063-04w6,Seven Generations Energy Ltd.,,Alberta,54.425881,-118.573255
17529,Loverna 2 Gas Plant 11-1-31-27w3,Teine Energy Ltd.,,Saskatchewan,51.6289,-109.7025
5161,Fraser Lake Sawmills,West Fraser Mills Ltd.,6626 16 Highway,British Columbia,54.0664,-124.7505
21365,Queensdale Oil Mwb 04-33,Crescent Point Energy Corp.,,Saskatchewan,49.5096,-102.0928
4330,Fonderie Bibby Ste-Croix,Canada Pipe Co Ltd,6200 Principale Street,Quebec,46.6236,-71.7361
17877,Ram Compressor,Shell Canada Limited,Bag 500 Caroline,Alberta,52.0882,-115.6894
21573,Griffin Oil Mwb 10-11,Crescent Point Energy Corp.,,Saskatchewan,49.6366,-103.3779
5344,Manning,Manning Diversified Forest Products Ltd.,SE 26 93 23 W5,Alberta,57.094098,-117.580416
4024,Brunswick Smelter,Glencore Canada Corporation Duplicate???,692 Main Street,New Brunswick,47.8992,-65.8339
24086,Freda Lake Oil Battery 08-31,Enerplus Corporation,123 Na,Saskatchewan,49.335378000000006,-104.408551
30271,Queenstown Compressor Station 03-28-079-12w6,Canadian Natural Resources Limited,,Alberta,50.57407,-112.81834
30091,Lts Viewfield Mwob 13-28-8-10w2,Ridgeback Resources Inc.,,Saskatchewan,49.68068,-103.31292
105,Aldex Chemical,Aldex Chemical Co. Ltd.,630 Laurent Rue,Quebec,45.3907,-72.7547
2256,Tonolli Canada Limited,Tonolli Canada,1333 Tonolli Road,Ontario,43.6022,-79.5811
17049,Suffield #18,Whitecap Resources Inc.,,Saskatchewan,50.1767,-108.5811
15318,Zama Battery,Paramount Resources Ltd.,,Alberta,58.9432,-118.9168
2128,Cnul Peace River Complex,Canadian Natural Upgrading Ltd,05-21-085-18 W5m,Alberta,56.3806,-116.795
6584,Vulcan Sour Gas Plant,ConocoPhillips Canada Resources Corp.,,Alberta,50.2696,-112.8938
30402,Bromhead Oil Mwb 15-09,Crescent Point Energy Corp.,,Saskatchewan,49.20049,-103.6964
26115,Tony Creek Gas Battery 07-16-064-21w5,Canadian Natural Resources Limited,,Alberta,54.53625,-117.1136
30792,Cleartech Inland Way,Cleartech Industries Inc.,12720 Inland Way,Alberta,53.582659,-113.595228
30114,Peoc Mannville 01-26-050-10w4,Perpetual Energy Inc.,,Alberta,53.33785,-111.34866
22563,Lougheed 11-12-006-15 W2m,Spartan Energy Corp.,,Saskatchewan,49.4591,-103.9038
30707,Surge Betty Lake Hz 03-04-045-07w4,Surge Energy Inc.,,Alberta,52.850709,-110.959301
16409,Attachie 07-20,Devon Canada Corporation,,British Columbia,56.2955,-121.4367
15739,Foothills Medical Centre,Calgary Health Region,1403 29th Street Northwest,Alberta,51.0651,-114.1305
11398,Kitchener Plant,PWO Canada Inc.,255 McBrine Drive,Ontario,43.3983,-80.4729
18950,Moose Moutain Oil Battery 02-23-023-07w5,Husky Oil Operations Limited,,Alberta,50.9658,-114.8727
30230,Gilby Oil Swb 08-28-040-04w5,Repsol Oil & Gas Canada Inc.,,Alberta,52.47051999999999,-114.50858999999998
18066,Gilby Compressor Station 10-12-41-3w5m,OMERS Energy Inc.,3000 - 520 3rd Avenue Southwest,Alberta,52.6823,-114.3929
30343,Torquay Oil Swb 14-21-001-12w2,TORC Oil & Gas Ltd.,,Saskatchewan,49.055739,-103.556306
23139,Seal Bitumen Battery 16-23,Obsidian Energy Ltd.,,Alberta,56.3028,-116.2447
29055,Winter 04-04 Battery,Northern Blizzard Resources Inc.,1900 - 421 7 Avenue Southwest,Saskatchewan,52.66936,-109.58093999999998
16592,Strathmore Phase 2 Gas Battery 06-28,Ember Resources Inc.,0,Alberta,50.9843,-113.4443
17211,Apl Niton 14-05,Journey Energy Inc.,,Alberta,53.728379,-115.602469
29198,02-26 Oil Battery,Tangle Creek Energy Ltd.,,Alberta,53.51387,-115.65692
17445,South Swan Hills,Accel Energy Canada Limited,,Alberta,54.6473,-115.4958
30264,Cliffdale Bitumen Battery 13-34-084-17w5,Canadian Natural Resources Limited,,Alberta,56.3319,-116.607
27631,Westerose Oil Battery 12-29,Surge Energy Inc.,,Alberta,52.911711,-114.262379
21722,Olds 16-33-30-1w5,NAL Resources Management,,Alberta,51.6183,-114.075
29386,Edam West Thermal 11-19-048-20w3,Husky Oil Operations Limited,4335 - 44 Street,Saskatchewan,53.15615,-108.92082
6591,Joffre Site; Cogeneration,Nova Chemicals Corporation,,Alberta,52.3083,-113.55
17316,Winter Facility,Cona Resources Ltd.,,Saskatchewan,52.6613,-109.5828
28412,Bougie Battery A-072-C/094-G-15,Canlin Energy Corporation,,British Columbia,57.80860799999999,-122.77033
10280,Valleyfield,National Silicates Partnership,132 Fabre,Quebec,45.2692,-74.1132
27453,Seal Bitumen Battery 13-13,Obsidian Energy Ltd.,,Alberta,56.288299,-116.87046
6013,Cfb Halifax - Canadian Forces Ammunition Depot Bedford,Department of National Defence (Use This One),335 Dartmouth Road,Nova Scotia,44.7092,-63.6314
30268,Kaybob Oil Mwb 04-16-060-20w5,Canadian Natural Resources Limited,,Alberta,54.18309,-116.94837
29113,Dodsland 2-34,Teine Energy Ltd.,,Saskatchewan,51.781461,-108.611846
8505,HÃ´pital Notre-Dame,HÃ´pital Notre-Dame du Chum,1560 Sherbrook Est Rue,Quebec,45.5259,-73.5629
4477,Nitta Gelatin,"Nitta Gelatin Canada, Inc.",60 Paton Road,Ontario,43.6606,-79.4457
15369,12-07-041-22w4 Nevis,Ember Resources Inc.,,Alberta,52.5157,-113.1738
18639,Gilby Gas Battery 07-23,Cenovus Energy Inc.,,Alberta,52.5412,-114.3227
24415,Flat Rock Comp Stn 15-20,Canadian Natural Resources Limited,,British Columbia,56.38839599999999,-120.644474
1443,Centrale de Tracy,Hydro-QuÃ©bec,12125 Boulevard Marie-Victorin,Quebec,45.9972,-73.1722
28642,Plover Lake Facility,Cona Resources Ltd.,,Saskatchewan,52.01782,-109.63656
29008,10-30-41-23-W4m Nevis North,Ember Resources Inc.,,Alberta,52.55801999999999,-113.30137
17354,Hardy Oil Mwb 08-08 (Tank),Crescent Point Energy Corp.,,Saskatchewan,49.2818,-104.7913
31014,Carlyle 8-2 Bty,Vermilion Energy Inc.,,Saskatchewan,49.61517,-102.30427
10753,600 Clarke Road,La Cie McCormick Canada,600 Clarke Road,Ontario,43.0146,-81.1784
15601,Glen Ewen Gas Plant,Steel Reef Infrastructure Corp.,,Saskatchewan,49.2055,-102.0425
23138,Umc et Al Elcott 16-19,Spartan Energy Corp.,,Saskatchewan,49.0566,-102.1204
21538,Rose Creek 6-7-73-6w5 Ggs,Harvest Operations Corp.,,Alberta,52.6894,-114.8623
26538,Weasone Oil Swb 12-31,Crescent Point Energy Corp.,,Alberta,54.386928000000005,-115.354793
28184,Pipestone Comp Stn 16-34,Encana Corporation,,Alberta,55.11053199999999,-119.275062
24569,Seal Bitumen Battery 07-24,Obsidian Energy Ltd.,,Alberta,56.121602,-116.673018
21164,Ferrybank 2-1 Gathering System,Bonavista Energy Corporation,,Alberta,52.7579,-113.931
19823,Obed 03-31-054-22w5,Tourmaline Oil Corp,,Alberta,53.703,-117.2349
28115,Woodsworth Oil Mwb 09-14,Crescent Point Energy Corp.,,Saskatchewan,49.56082,-102.302907
21751,Coalspur Battery 9-27,Canlin Energy Corporation,,Alberta,53.1614,-116.9735
28494,Kerrobert 01-01-033-24w3,Baytex Energy Ltd,2800 - 520 3rd Avenue Southwest,Saskatchewan,51.79788,-109.26718
29336,Whitemud Oil Mwb 03-21 (Tank),Crescent Point Energy Corp.,,Saskatchewan,49.394557,-108.643127
30623,Saskatoon Lightweight,Lehigh Hanson Materials Ltd.,,Saskatchewan,52.1753,-106.515
25208,Stony Lake Oil Battery 04-29-087-03w6,Canadian Natural Resources Limited,,Alberta,56.56828,-118.44924
21249,Fairydell Battery 03-21-057-24w4,Coastal Resources Ltd.,,Alberta,53.9362,-113.4996
28015,Torc Rosevear Compressor Station 06-18-054-15w5,TORC Oil & Gas Ltd.,,Alberta,53.66396999999999,-116.20186
24084,Twining Gas Battery 03-22,Ember Resources Inc.,0,Alberta,51.84063,-113.4686
22051,Chard Compressor Station 10-02-080-06w4,Canadian Natural Resources Limited,,Alberta,55.8446,-111.0914
19264,Bryant Oil Mwb 12-30,Crescent Point Energy Corp.,,Saskatchewan,49.4122,-102.945
30840,Altario 01-24-035-02w4 Compressor,High Ground Energy Inc.,,Alberta,52.0143,-110.14897
18984,Worsley 16-36-086-10 W6m,Enercapita Energy Ltd.,,Alberta,56.5061,-119.432
16654,Lre - Aec Boyer,Guide Exploration Ltd.,,Alberta,57.931906000000005,-117.823451
6849,Hinton Batch Plant,Border Paving Ltd.,252 River Road East,Alberta,53.43138,-117.5418
16040,Clearhills Sour Gas Plant 16-11-088-13w6,Canadian Natural Resources Limited,,Alberta,56.6227,-119.9465
2181,Av Nackawic,AV Nackawic Inc.,103 Pinder Road,New Brunswick,46.0111,-67.2265
18918,Evi 3,Harvest Operations Corp.,,Alberta,56.517,-116.0455
6473,Ottawa,Kemira Water Solutions Canada Inc.,2810 Sheffield Road,Ontario,45.3976,-75.6036
27953,Germain Sagd Plant,Laricina Energy Ltd.,3-4-85-22 W4m,Alberta,56.33537,-113.41986
29493,Chevron 06-25-059-20w5 Multiwell Bat,Chevron Canada Resources,,Alberta,54.129540000000006,-116.86783
18246,Bvi Bow Island 2-17,Alphabow Energy Ltd.,,Alberta,49.9039,-111.3323
28998,La Jolie B-003-K/094-O-12,Chevron Canada Resources,,British Columbia,59.66875,-123.78438
23653,Teine Dodsland 8-34,Teine Energy Ltd.,,Saskatchewan,51.6109,-109.0066
3998,Tufts Cove Generating Station,Nova Scotia Power Incorporated,315 Windmill Road,Nova Scotia,44.6764,-63.5961
8032,Central Heating Plant,Governors of St. Francis Xavier University,5005 Martha Drive Drive,Nova Scotia,45.6188,-61.9933
30153,Chigwell South 01-25,Lynx Energy Ulc,,Alberta,52.55385,-117.45825
19717,Ansell Compressor Station 03-06-049-18w5,Husky Oil Operations Limited,,Alberta,53.1942,-116.6249
30837,Hge 08-09-036-02w4 Battery,High Ground Energy Inc.,,Alberta,52.077101,-110.227828
23700,Tristar Ashley Lake 01-01-010-04 W2,Spartan Energy Corp.,,Saskatchewan,49.7865,-102.4158
502,Edmonton 142 Street Plant,Cleartech Industries Inc.,12020 142nd Street,Alberta,53.5726,-113.566
30269,Kitscoty Compressor Station 04-06-051-02w4,Canadian Natural Resources Limited,,Alberta,53.3681,-110.297
28525,Chauvin 01-10-43-02w4,Cardinal Energy Ltd.,,Alberta,52.68487,-110.20037
24543,Nco Rainbow 7-14,Sanling Energy Ltd.,,Alberta,58.37466800000001,-119.03958
29432,03-04-40-24-W4m Clive,Ember Resources Inc.,,Alberta,52.40796,-113.40019
4157,Steelman Gas Plant,Steel Reef Infrastructure Corp.,,Saskatchewan,49.3164,-102.6244
27400,Pbn Swanh 08-17-69-09w5 Mwob,Ridgeback Resources Inc.,,Alberta,54.972392000000006,-115.32664
18461,Storm Grimshaw 11-23-083-23w5,Canamax Energy Ltd,,Alberta,56.2114,-117.5333
23457,Ingoldsby Oil Mwb 16-08,Crescent Point Energy Corp.,,Saskatchewan,49.2055,-101.6211
29892,Elmworth 2-23 Bty,Semcams ULC,NEar Forestry Trunk Road,Alberta,54.89606,-118.34038
1195,Domtar Usine de Windsor,Domtar Inc.,609 Rang 12,Quebec,45.5644,-71.979
23693,Petrobakken Freestone 3-33,Ridgeback Resources Inc.,,Saskatchewan,49.6859,-102.7643
29776,Willesden Green 08-10,Westbrick Energy Ltd.,,Alberta,52.776095,-115.213564
20078,Dillon / Brule Mine,Conuma Coal Resources Ltd.,0 - 7 Blind Creek Road,British Columbia,55.3658,-121.7628
28331,Progress Compressor Station 06-15-077-11w6,Canadian Natural Resources Limited,,Alberta,55.67051899999999,-119.619517
22731,Mast Comp Stn D-060-A,Canadian Natural Resources Limited,,British Columbia,55.0479,-121.1156
24353,Bonavista Cherhill 16-24,Bonavista Energy Corporation,,Alberta,53.862689,-114.751704
16531,Redland South Compressor Station 06-04,Lynx Energy Ulc,,Alberta,51.2754,-112.9065
3526,Nanaimo,Canexus Corporation - Brandon,1200 MacPhee Road,British Columbia,49.1411,-123.865
30128,Lloyd 15-20-48-5 Mwcb,Devon Canada Corporation,,Alberta,53.15944,-110.6965
15998,Wild Hay Gas Battery 13-24-055-25w5,Canadian Natural Resources Limited,,Alberta,53.7706,-117.6014
26426,Kaybob West 07-14,Athabasca Oil Corporation,7 -14-063-20w5,Alberta,54.44886,-116.90932
30323,Smith Compressor Station 11-34-071-02w5,Canadian Natural Resources Limited,,Alberta,55.1941,-114.223
15871,Endiang Sweet Gas Plant 06-28-034-15w4,Canadian Natural Resources Limited,,Alberta,51.9434,-112.0775
28969,Harmon Valley	09-15-082-18w5,Baytex Energy Ltd,,Alberta,56.11079,-116.71887
28937,Town Comp Stn. B-8-I,Petronas Energy Canada Ltd.,,British Columbia,56.91875,-122.096875
24403,Wembley Oil Battery 14-03-073-08w6,Canadian Natural Resources Limited,,Alberta,55.300962,-119.141954
5084,Bayside Power,Bayside Power L.P.,0 - 509 Bayside Drive,New Brunswick,45.2753,-66.0269
6696,Calgary Plant,Canada Malting Co Ltd.,3316 Bonnybrook Road,Alberta,51.0245,-114.025
27324,North Portal Oil Mwb 15-04,Crescent Point Energy Corp.,,Saskatchewan,49.012711,-102.48376
30336,Openshaw Oil Swb 04-05-003-02w2,TORC Oil & Gas Ltd.,,Saskatchewan,49.17708,-102.25036
27853,Aluminerie Arvida - Centre Technologique Ap60,Rio Tinto Alcan,2685 Boulevard du Saguenay,Quebec,48.431927,-71.156743
30604,Pipestone Compressor Station 14-30-071-08w6,Encana Corporation,,Alberta,55.181697,-119.219195
17056,Husky Webb 1-1,Whitecap Resources Inc.,,Saskatchewan,50.224,-108.2095
5459,Mines Wabush - Sept-Iles,"SociÃ©tÃ© Ferroviaire et Portuaire de Pointe-Noire, S.E.C.",1505 de la Pointe Noire Chemin,Quebec,50.1616,-66.4838
19306,07-07-032-27w4 Stewart,Ember Resources Inc.,,Alberta,51.7275,-113.819
18581,Rattlesnake 13-9,City of Medicine Hat,,Alberta,49.9883,-110.914
16958,Flinton/Moose Valley 03-17-011-06w2,Spartan Energy Corp.,,Saskatchewan,49.9039,-102.9696
28234,Elkton Harmattan,ExxonMobil Canada Ltd,,Alberta,51.691271,-114.477378
16828,Provost Compressor Station 04-29-032-14w4,Canadian Natural Resources Limited,,Alberta,51.7662,-111.9637
19544,Wroe 8-12,Tourmaline Oil Corp,,Alberta,53.9144,-117.5737
28145,Lre - Baytex 05-10,Guide Exploration Ltd.,,Alberta,51.8145,-113.615962
27146,Pace 04-09-013-17w4 Oil Battery,Sanling Energy Ltd.,,Alberta,50.063486,-112.276017
27924,Brdf,University of British Columbia,2337 Lower Mall Road South,British Columbia,49.26027,-123.25438
18877,Kaybob Compressor Station 07-25-058-18w5,Canadian Natural Resources Limited,,Alberta,54.041238,-116.53763
29631,Pinto Oil Swb 16-31,Crescent Point Energy Corp.,,Saskatchewan,49.085731,-102.658563
20061,Caribou Sour Gas Plant C-004-G,Keyera Corp,,British Columbia,57.3382,-122.6722
19395,Station A Comp Stn 02-02,Cenovus Energy Inc.,,Alberta,55.2015,-119.8814
1473,Thompson Operations,Vale Canada Limited,1 Inco Road,Manitoba,55.7138,-97.8561
17356,Bird Bear Oil Mwb 07-27,Crescent Point Energy Corp.,,Saskatchewan,49.5874,-102.7335
16022,Kettle River Sour Gas Plant 15-14-083-05w4,Canadian Natural Resources Limited,,Alberta,56.199,-110.6751
16402,Tangent 16-20,Devon Canada Corporation,,Alberta,55.9542,-117.7108
23468,Richland Weyburn Oil Battery 10-22,Crescent Point Resources Partnership,,Saskatchewan,49.488,-103.8087
7819,Creative Energy Vancouver Platforms Corp.,Creative Energy Vancouver Platforms Corp.,1 - 720 Beatty Street North,British Columbia,49.2782,-123.1122
17455,Montney 10-03-087-18w6,Pengrowth Energy Corporation,10-03-087-18w6,British Columbia,56.5188,-120.7631
27320,Glen Ewen Oil Mwb 14-33,Crescent Point Energy Corp.,,Saskatchewan,49.25877,-102.08744
24239,Provost 13-10-40-2w4,Zargon Oil and Gas Ltd.,Range Road 23,Alberta,52.4321,-110.2179
17959,Progress Blueberry C-29-K/94-A-12,Petronas Energy Canada Ltd.,,British Columbia,56.6857,-121.8557
30858,Mannville Mwb 10-32-052-07w4,Husky Oil Operations Limited,,Alberta,53.536841,-111.000425
21286,Elm Oil Battery 05-32,Cenovus Energy Inc.,,Alberta,55.1033,-119.1923
29838,Seal 01-05-083-14w5,Baytex Energy Ltd,,Alberta,56.161409,-116.165715
23530,Mikwan Gas Battery 08-26,Ember Resources Inc.,0,Alberta,52.0326,-113.0307
23546,Judy Creek Oil Mwb 12-03,Crescent Point Energy Corp.,,Alberta,54.426080000000006,-115.28528
29580,Rrx Dodsland 1-28,Baytex Energy Ltd,,Saskatchewan,51.59316,-108.74913
30446,Ferrier Oil Swb 16-14-039-09w5,Trioil Resources Ltd.,400 - 850 2 Street Southwest,Alberta,52.363293,-115.181253
17946,Pouce Coupe Battery 6-3,Canlin Energy Corporation,,Alberta,55.6403,-119.627
20210,Sunset Gas Processing and Production If-A,Shell Canada Limited,,British Columbia,55.928,-120.778
16861,Wapiti Compressor Station 07-24-068-07w6,Canadian Natural Resources Limited,,Alberta,54.9675,-119.1316
29521,Kidney 8-24-90-6w5,Coastal Resources Ltd.,686 686 Highway and Opportunity 17,Alberta,56.81906,-114.80281
24636,Virgh 4-28-65-13 Multi Oil Bty,Ridgeback Resources Inc.,,Alberta,54.64804,-115.915461
29650,Horsham Compressor Station 13-28-016-28w3,Canadian Natural Resources Limited,,Saskatchewan,50.381109,-109.805997
23974,Willesden Gas Battery 06-12,Cenovus Energy Inc.,,Alberta,52.689440000000005,-115.0303
2938,SociÃ©tÃ© en Commandite Revenu Noranda - Valleyfield,SociÃ©tÃ© en Commandite Revenu Noranda,860 GÃ©rard Cadieux Boulevard,Quebec,45.2283,-74.0981
16307,Goodfish 03-32,Devon Canada Corporation,,Alberta,56.9309,-115.2522
28904,Karr Creek Oil Battery 15-36-065-04w6,Canadian Natural Resources Limited,,Alberta,54.674231000000006,-118.462871
27129,Queensdale 02-15-006-01 W2m,Spartan Energy Corp.,,Saskatchewan,49.466644,-102.059705
17444,Pengrowth McLeod 16-12,PineÂ CliffÂ EnergyÂ Ltd.,,Alberta,53.8287,-115.9433
18733,Hangingstone Compressor Station 11-10-084-10w4,Canadian Natural Resources Limited,,Alberta,56.271846,-111.49889
15343,14-22-037-19w4 Gadsby,Ember Resources Inc.,,Alberta,52.1985,-112.638
15471,Amisk Oil Battery 04-34,Bow River Energy Ltd.,,Alberta,52.4793,-110.9361
15777,Narraway Compressor Station 01-22-063-12w6,Canadian Natural Resources Limited,,Alberta,54.4599,-119.717
4929,Corner Brook Pulp and Paper,Corner Brook Pulp and Paper Ltd.,1 Mill Road,Newfoundland and Labrador,48.9552,-57.9485
2794,Endako Mine,Thompson Creek Mining Ltd.,Endako Mine Road,British Columbia,54.0332,-125.1183
31021,Wordsworth 13-5-7-4 (15-5),Vermilion Energy Inc.,,Saskatchewan,49.535,-102.51118
2788,Kitimat Works,Rio Tinto Alcan,0 - 1 Smeltersite Road,British Columbia,54.0102,-128.7036
11895,Dufferin Organics Processing Facility,City of Toronto,35 Vanley Crescent,Ontario,43.7621,-79.4715
16864,Swalwell Sweet Gas Plant 14-35,Ember Resources Inc.,0,Alberta,51.5313,-113.2763
26161,Tangleflags 08-24-050-25w3,Baytex Energy Ltd,,Saskatchewan,53.32592,-109.5177
25155,Hope Bay Site,Tmac Resources Inc.,,Nunavut,68.0399,-106.574464
22822,Carnduff Oil Mwb 07-36 (Tank),Crescent Point Energy Corp.,,Saskatchewan,49.0784,-101.9081
21029,02-29-031-28w4 Lonepine West,Ember Resources Inc.,,Alberta,51.6801,-113.9351
24141,Hinton 06-32-51-25 W5,Tourmaline Oil Corp,,Alberta,53.443180000000005,-117.6554
15203,Pouce Coupe Sour Gas Plant 03-03,AltaGas Ltd.,,Alberta,55.9859,-119.9558
2198,Surrey,National Silicates Partnership,8160 130th Street,British Columbia,49.1518,-122.8609
27021,Gordondale Sour Gas Plant 16-31,AltaGas Ltd.,,Alberta,55.80785,-119.68695
29378,Karr 1-7-66-3w6 Oil Battery,Mancal Energy Inc.,,Alberta,54.69257,-118.43036
6303,Usine Abitibi-O (La Sarre) et Bois-JointÃ©,Rayonier A.M. Canada G.P.,495 111 Route,Quebec,48.805747,-79.231317
16975,Lathom 13-6,Harvest Operations Corp.,,Alberta,50.7587,-112.4981
28258,Wapiti Compressor Station 06-10-069-10w6,Canadian Natural Resources Limited,,Alberta,54.958831,-119.43863799999998
19036,Chauvin 6-19-42-01w4,Cardinal Energy Ltd.,,Alberta,52.6284,-110.1361
21975,Cecil Sour Gas Plant 08-15-084-08w6,Canadian Natural Resources Limited,,Alberta,56.2797,-119.168
18412,Beg Comp Stn B-090-I,Canadian Natural Resources Limited,,British Columbia,56.9854,-122.1219
8543,Montreal East,Nexeo Solutions Canada Corporation,10515 Notre-Dame,Quebec,45.6217,-73.5058
7302,Brampton Brick,Brampton Brick Ltd.,225 Wanless Drive,Ontario,43.7211,-79.8164
17312,Rosebank Oil Mwb 10-33 (Tank),Crescent Point Energy Corp.,,Saskatchewan,49.3437,-102.2585
19743,Peyto Cutbank 04-06-063-09 W6m,Peyto Exploration and Development Corporation,,Alberta,54.4237,-119.3497
23824,Manatokan 6-36-63-8w4 Pad,Devon Canada Corporation,,Alberta,54.4901,-111.0794
1106,Altasteel,AltaSteel Ltd.,9401 34th Street,Alberta,53.5291,-113.3875
23142,Hartaven Oil Mwb 16-35 (Tank),Crescent Point Energy Corp.,,Saskatchewan,49.7831,-103.1155
21440,Lousana Comp Stn 04-10,Ember Resources Inc.,0,Alberta,52.072,-113.0733
29639,Skwi163000419w3,Crescent Point Energy Corp.,,Saskatchewan,49.332708,-108.542446
27861,Seal Bitumen Battery 04-30,Obsidian Energy Ltd.,,Alberta,56.306537,-116.84421
7961,Booster Station 6 - Bluehills,Spectra Energy Transmission,0 - 73 Chemin Beatton R Airport,British Columbia,56.6583,-121.2033
16426,Wargen Comp Stn D-056-C,Canadian Natural Resources Limited,,British Columbia,57.0478,-121.3175
28471,Openshaw 01-10 Battery and Compressor,Vermilion Energy Inc.,,Saskatchewan,49.10407,-102.32274
30793,Cleo Provost 14-14-039-10w4,Cleo Energy Corp.,,Alberta,52.35844,-111.3377
30341,Hoffer Oil Swb 13-32-001-15w2,TORC Oil & Gas Ltd.,,Saskatchewan,49.08547,-103.98461
29462,Springbank Aggregate,Burnco Rock Products Ltd,24130 Old Banff Coach Road,Alberta,51.074740000000006,-114.24676
21227,Bashaw 9-15,Ember Resources Inc.,,Alberta,52.5304,-112.9348
24312,North Alameda Oil Mwb 01-36 (Tank),Crescent Point Energy Corp.,,Saskatchewan,49.248133,-102.278538
732,Metalex Products - Richmond,Metalex Products Ltd.,2511 No. 5 Road,British Columbia,49.1941,-123.092
21284,Connorsville Compressor Station 10-32-025-15w4,Canadian Natural Resources Limited,,Alberta,51.1778,-112.0603
30154,Hcft 16-08 Booster,Lynx Energy Ulc,,Alberta,50.94865,-112.89181
30762,Expand 01-07-085-24w5m,Canamax Energy Ltd,,Alberta,56.350112,-117.77036
23843,Iron River 06-27-64-7w4 Pad,Devon Canada Corporation,,Alberta,54.5639,-110.9781
28695,Skwi013500520w3,Crescent Point Energy Corp.,,Saskatchewan,49.423672,-108.587224
15339,Lanaway,Paramount Resources Ltd.,,Alberta,52.1444,-115.535
15904,Byemoor Sweet Gas Plant 08-32-034-17w4,Canadian Natural Resources Limited,,Alberta,51.9614,-112.37
2537,"Clean Harbors Canada, Inc","Clean Harbors Canada, Inc.",4090 Telfer Road North,Ontario,42.8804,-82.2971
30164,Severn 09-28 Booster,Lynx Energy Ulc,,Alberta,51.16339,-113.00815
27115,Inga Gas Battery 15-03-088-23w6,Kelt Exploration,,British Columbia,56.610224,-121.576681
27822,Hi-Pro Feeds Olds,Hi-Pro Feeds,5902 48th Avenue,Alberta,51.781386,-114.10339
15564,5-12-62-20w5,Paramount Resources Ltd.,,Alberta,54.3453,-116.8809
8506,HÃ´tel-Dieu,HÃ´pital Notre-Dame du Chum,3840 Saint-Urbain Rue,Quebec,45.5136,-73.5779
4743,Greenway Pollution Control Centre,Corporation of the City of London,109 Greenside Avenue,Ontario,42.9744,-81.2821
16572,Bassano Lathom Comp Stn 10-23-020-18w4,Torxen Energy Ltd.,,Alberta,50.7115,-112.394
11343,Bitumar Hamilton,Bitumar Inc.,400 Eastport Boulevard,Ontario,43.2757,-79.7834
26064,Suncor Pine Creek,Bonavista Energy Corporation,,Alberta,53.94290600000001,-116.711037
16268,West Paddle River Comp Stn 11-10,Cenovus Energy Inc.,,Alberta,53.825,-115.5567
6079,Grand Lake Timber,J.D. Irving Ltd.,290 Main Street,New Brunswick,46.1728,-65.8852
16801,Rrx Smiley Gp 09-30,Baytex Energy Ltd,,Saskatchewan,51.77427,-109.38582
15643,Pembina Comp Stn 11-26,Cenovus Energy Inc.,,Alberta,53.2576,-115.5078
19470,Wildwood Oil Mwb 13-13,Crescent Point Energy Corp.,,Saskatchewan,49.5644,-102.1615
23508,Iron River 06-07-64-07w4 Pad,Devon Canada Corporation,,Alberta,54.5203,-111.0538
30266,Edson Compressor Station 11-08-052-19w5,Canadian Natural Resources Limited,,Alberta,53.47740600000001,-116.768316
3916,Ccr Refinery,Glencore Canada Corporation,0 - 220 Durocher Avenue Nord-Ouest,Quebec,45.6283,-73.5125
29685,Torc Torquay Oil Battery 02-20-002-11w2,TORC Oil & Gas Ltd.,,Saskatchewan,49.146924,-103.439607
18844,Wild River 14-20-056-23 W5,Tourmaline Oil Corp,,Alberta,53.8579,-117.3846
29483,Tangleflags 14-12-050-25w3,Baytex Energy Ltd,,Saskatchewan,53.304957,-109.531043
21302,Niton Comp Station 06-10,Cenovus Energy Inc.,,Alberta,53.7356,-115.7015
30172,Rowley 13-20 Ggs,Alphabow Energy Ltd.,,Alberta,51.58862,-112.5089
