NAME,ADDRESS,LATITUDE,LONGITUDE
Cruizers #83 Wendell,2301 Wendell Falls PKY ,35.78041556,-78.43703685
THE CORNER TAVERN & GRILL,1303-03 NW MAYNARD RD ,35.78533307,-78.80998103
Taj Mahal,4520 Capital BLVD ,35.84571366,-78.57896604
Hardees Of Knightdale,905 N SMITHFIELD RD ,35.79784152,-78.48810246
Taco Bell #020165,2101 WALNUT ST,35.75662681,-78.74089813
Subway,1326 N Main ST ,35.59047244,-78.77764359
D'S BOTTLE SHOP,13200-115 FALLS OF NEUSE ROAD,35.94169829,-78.56097042
Staybridge Suites Sundowner Room,1012 AIRPORT BLVD,35.85722953,-78.81815774
HIMALAYAN RANGE,910 NE MAYNARD RD ,35.80043169,-78.76838489
DAIRY DEPOT,3433 ROGERS RD ,35.95058269,-78.51038161
PHO VIETNAM,2811-109 HILLSBOROUGH ST ,35.78914005,-78.6746802
NY Pizza,1831 N HARRISON AVE ,35.82997763,-78.76808179999999
Nina's Ristorante,8801 LEADMINE RD ,35.90519757,-78.65724665
KFC #J120103,1403 W Williams ST,35.7501529,-78.87726967
Carmen's Cuban Cafe,108 Factory Shops Rd,35.86238399,-78.81829239
Applebee's AG 352,6609 Knightdale BLVD ,35.79704031,-78.50745317
Papa Johns,877 E Gannon AVE ,35.83015828,-78.29418521
TOBACCO ROAD,222 GLENWOOD AVE ,35.78363286,-78.6469718
William Peace University Cafeteria,15 E Peace St ,35.78928549,-78.63745249
WENDY'S #6318,1020 TIMBER  DR ,35.68948859,-78.58097867
Seoul Garden Restaurant,4701-131 Atlantic Ave,35.8482227,-78.60177748
MARIO DELI &amp; GRILL,2317 EAGLE ROCK RD ,35.75231212,-78.38972318
SUBWAY #37788,4137 DAVIS DR ,35.835626500000004,-78.85811603
PLATES,301 GLENWOOD AVE ,35.784569,-78.64802957
Burger Fi,3004 Wake Forest RD Suite 100,35.82333592,-78.62038753
CHIHUA GRILL,421-103 CHAPANOKE RD ,35.73579423,-78.65329305
LOS TRES MEXICAN RESTAURANT,1301 E WILLIAMS ST ,35.71702832,-78.84117412
FOOD LION #1541 DELI,9567 CHAPEL HILL RD ,35.8045716,-78.81120699
BB's Grill,2950  42 HWY ,35.59159967,-78.69231812
BJ's Membership Club #177 Food Court,6301 Triangle Plantation DR ,35.87315637,-78.58237548
Crafty Beer Shop,8450 Honeycutt Road,35.89510574,-78.62166097
Jamaican Tasty Delights,"3601 Capital BLVD, Ste 107",35.82958159,-78.58592881
Jasmin & Olivz Mediterranean,9934 CHAPEL HILL RD ,,
Seaboard Cafe,707A Seamart Dr ,35.78943057,-78.64073719
Just Salad,4025 LAKE BOONE TRL,35.81457389,-78.69709804
KAI SUSHI &amp; SAKE BAR,7713 LEADMINE  RD ,35.88617531,-78.66044244
Fuji China,4001 Widewater Pky ,35.79511678,-78.50515596
SARDI'S DEN,8111-137 CREEDMOOR RD ,35.89754797,-78.68081035
DIXIE BELLE'S,1001 DAVIS  DR ,35.7538731,-78.84889231
Chili's Grill and Bar #867,115 Carillon Dr ,35.6933369,-78.58321782
NICHE WINE LOUNGE,109 N MAIN ST ,35.65161684,-78.8340312
Chipotle  #2822,1081 PINE PLAZA DR ,35.74657076,-78.82939266
Catering by Design,132 KILMAYNE DR,35.76971918,-78.78397786
Z Pizza,9630 Falls of the Neuse RD,,
DICKEY'S BARBECUE PIT #127,200-100 CROSSROADS BLVD ,35.76120817,-78.74157163
Starbucks Coffee Co,204-200 Crossroads BLVD ,35.76118923,-78.74147311
Moe's Southwest Grill #150,506 Daniels St,35.79149603,-78.66105804
JASMIN BISTRO,1109 LEDSOME LN ,35.76296438,-78.74766614
Lowes Foods #184 (Deli),5400 Apex Peakway ,35.73683859,-78.86537597
Cha House,1319 KILDAIRE FARM RD,35.75976658,-78.78193974
SKY ZONE,2101  Westinghouse Blvd.,35.80806334,-78.59593599
China House,7063 Knightdale Blvd,35.79797229,-78.49327225
Kale Me Crazy,302 Colonades WAY ,35.73853619,-78.77756307
Backfins Crabhouse,110 S White  ST ,35.97912263,-78.50961846
La Farm Bakery,4248 NW CARY PKY ,35.79057556,-78.82751464
DAWAT INDIAN RESTAURANT,3735 DAVIS  DR ,35.8337549,-78.85587925
MANHATTAN CAFE - BAGEL & BAKERY,970 HIGH HOUSE RD ,35.788416999999995,-78.82691458
CAROLINA BARBECUE,733 W 70 HWY ,,
LIVING KITCHEN,555-100 FAYETTEVILLE ST ,35.7729602,-78.63942323
BREEZE THRU #30005,5016 Commons Hill DR ,35.80199412,-78.87216538
THE MASON JAR TAVERN,114 GRAND HILL PLACE,35.66266499,-78.84948074
Legislative Bldg Snack Bar,16 W Jones St ,35.78321051,-78.63894874
PORT CITY JAVA NELSON,2801 FOUNDERS DR ,35.78448278,-78.67872874
Apero,309 BLAKE ST ,35.77638073,-78.63560413
BURGER KING #9362,1711 N HARRISON AVE ,35.82886051,-78.77022313
HARRIS TEETER #118 STARBUCKS,5277 SUNSET LAKE RD ,35.66680054,-78.79652372
PANERA BREAD #1869,15 CABELA DR ,35.69767128,-78.58701959
London Bridge Pub,110 E Hargett ST ,35.77795451,-78.63784395
The Opening Bell,7033 LOUIS STEPHENS DR,35.86296634,-78.8872285
BUFFALO BROTHERS GARNER,7245 WHITE OAK RD ,35.68789371,-78.58073782
CAROLINA ALE HOUSE,400 CONSERVATION DR ,,
Starbucks Coffee #08373,609 Peace St ,35.78857146,-78.64804835
Viva Chicken,4361 Lassiter @ North Hills AVE ,,
VIDRIO,500 GLENWOOD AVE ,35.78656832,-78.64701998
Links Grille At Lochmere,2511 KILDAIRE FARM RD,35.72297677,-78.76802116
SAXBY'S COFFEE,141 PARK AT NORTH HILLS ,35.837177000000004,-78.63903248
Buffalo Brothers,4025-100 Lake Boone  Trail,35.81549931,-78.69718015
First Watch 555,4233 Corners PKY ,35.91890974,-78.78791806
DOMO SUSHI,160 NE MAYNARD  RD ,35.80237018,-78.78042873
Bee Hive Cafe,3800 HILLSBOROUGH ST ,35.79996357,-78.68916341
CICI'S PIZZA,1007 BEAVER CREEK COMMONS DR ,35.74374477,-78.87238568
Manhattan Pizza,305 MATTHEWS DR,35.66435998,-78.79440661
FIFTEEN,317 W MORGAN ST ,35.77943405,-78.64400454
FLASK &amp; BEAKER AT STATEVIEW HOTEL,2451 Alumni DR ,35.76374924,-78.67736196
Milano's Pizza,7509 Purfoy RD ,35.59150607,-78.77314692
Country Inn &amp; Suites Breakfast Area,201 Airgate DR,35.86365032,-78.81563537
Aubrey &amp; Peedi's Grill,38 N Main ST ,35.78246153,-78.36945172
SALEM STREET PUB,113 N SALEM ST ,35.73118477,-78.85154922
Daniels Restaurant &amp; Catering,1430 W WILLIAMS ST ,35.75245638,-78.87657249
Chevy's Sports Bar at Watergreen,1710 Center Street,35.72521642,-78.82753664
Panera Bread #1643,1065 Darrington DR ,35.79924907,-78.81572724
PIZZA HUT #2020,11010 LAKE GROVE  BLVD ,35.82315923,-78.84707532
ASIAN BISTRO,1318 S MAIN ST ,35.96093216,-78.51926224
Poke'Go,8107 Creedmoor RD ,35.89788799,-78.68116797
MCDONALD'S #7811,6250 CAPITAL BLVD ,35.87020114,-78.58011489
Crowleys Old Favorites,3071 MEDLIN DR ,35.80933835,-78.67683223
THE ASPENS AT BEDFORD FALLS KITCHEN,1580 DUNN RD,35.92446259,-78.58662877
Summertime Tea &amp; Smoothie,1350 FIFTH AVE ,35.70948463,-78.6218586
HICKORY TAVERN #29,401 VILLAGE WALK DR ,35.64081684,-78.83774133
Remington Grill,208 CROSSROADS BLVD,35.76064286,-78.73871452
CAROLINA SUSHI &amp; ROLL,5951-107 POYNER VILLAGE PKY ,35.86511564,-78.57030208
Red Hot &amp; Blue,6615 Falls of Neuse RD ,35.87396756,-78.62444941
Hong Kong #1 Chinese Restaurant,2720 NC HWY 55 ,35.7849366,-78.87112496
N.Y. Bagels &amp; Deli,7909-121 Falls Of Neuse Rd ,35.89197359,-78.62697433
Chili's Grill And Bar #953,8341 Brier Creek Pky,35.90773733,-78.78491152
PEACOCK,2250 GATHERING PARK CIRCLE,35.82041548,-78.85752223
Subway #40338,6209-128 Rock Quarry  RD ,35.72380299,-78.54900696
BRUEGGERS BAGELS #192,9704 STRICKLAND RD ,35.90232333,-78.65729539
First Watch,4035 LAKE BOONE TRL,35.81457389,-78.69709804
Church's Fried Chicken,1401 NEW BERN AVE ,35.78033482,-78.61745225
Benchwarmers Bagels,500-107 E Davie ST ,35.77531669,-78.63247092
CHIPOTLE #1659,2316 HILLSBOROUGH ST ,35.78770631,-78.66664805
PAPA JOHNS #3855,877 E GANNON AVE ,35.83015828,-78.29418521
ENRIGO ITALIAN BISTRO,575 New Waverly PL ,35.73853619,-78.77756307
SZECHUAN HEAT,1216 PARKSIDE MAIN ST ,35.84836238,-78.88929435
Cafe Capistrano,8471-A Garvey Ste 113 DR ,35.89607573,-78.56786149
J & S New York Pizza,540 E WILLIAMS ST ,35.72374776,-78.84778574
Transfer Company Bar,500 E Davie ST ,35.77487463,-78.63206132
BOULEVARD PIZZA,2925 WENDELL BLVD ,35.79213283,-78.37769913
BIRYANI POT,962 AIRPORT  BLVD ,35.85718763,-78.82039682
FRESH LOCAL ICE CREAM,6033 GLENWOOD AVE ,35.85400628,-78.7015418
Caffe Luna,136 E HARGETT ST,35.77799941,-78.6368955
BURGER KING #10775,636 W GANNON AVE ,35.82096151,-78.32958448
ROOKIES,800 W WILLIAMS ST ,35.73964723,-78.86480181
SUBWAY #25595,10760 Wakefield Commons DR ,35.94279833,-78.54088780000001
Buffalo Brothers,3111 Capital Blv,35.82314532,-78.59044451
Rum Runners,208 E MARTIN ST ,35.77665179,-78.63635253
On the Snap,2221 N Grassland DR ,35.615651799999995,-78.81032894
Sub Station II,1440 Garner Station BLVD ,35.72533679,-78.65258741
McDonald's #16917,7991 Fayetteville RD ,35.66510467,-78.69868308
Nukkad Restaurant,1710 HIGH HOUSE RD,35.79274209,-78.84401301
MEI WEI ASIAN DINER,1424 N MAIN ST ,35.59261337,-78.77067049
Fiesta Mexicana,2839 Jones Franklin RD ,35.74361197,-78.73773412
Himalayan Grill and Bar,1207 KILDAIRE FARM RD,35.76380548,-78.78219496
LA TAQUERIA,973 E BROAD ST ,35.59365952,-78.78267468
THE PICKLED ONION,8511 CANTILEVER WAY ,35.88567278,-78.73779147
Jersey Mike's Subs,280  Meeting ST ,35.75666346,-78.74478781
MORRISVILLE DELI,3524 DAVIS DR ,35.81812076,-78.84576194
SIP Noshery,400 Southtown CIR ,35.91648377,-78.47039569
MY WAY TAVERN,522 ST. MARY'S ST ,35.78716434,-78.65060422
THE CORNER TAVERN &amp; GRILL,2016 CREEKSIDE LANDING  DR ,35.74554013,-78.88323254
SAXBYS COFFEE #1081,2604 HILLSBOROUGH ST ,35.78854261,-78.6701207
Biaggi's Ristorante Italiano,1060 Darrington Dr ,35.79989381,-78.81615412
Margauxs,8111 CREEDMOOR RD ,35.89850336,-78.68248786
BIG CITY BAGELS &amp; CAFE,7461 SIX FORKS  RD ,35.88069032,-78.64725808
LA VOLTA,411-112 FAYETTEVILLE  ST ,35.77525845,-78.63929418
Red Bowl Asian Bistro,6360 PLANTATION CENTER  DR ,35.87315637,-78.58237548
Duke Raleigh Hospital Foodservice,3400 Wake Forest RD ,35.82845511,-78.61849027
Dan Sushi Hibachi,1313 N Main ST ,35.59227955,-78.77762782
HOME2 SUITES INSPIRED TABLE,1020 Lower Shiloh  WAY ,35.86394654,-78.84386289
Bruegger's Bagel Bakery #721,222-117 GLENWOOD AVE ,35.78392897,-78.64733509
ZOE'S KITCHEN,1017 MARKET CENTER DR ,35.80454378,-78.81676023
Taqueria La Zacatecana,520 Village CT ,35.70774919,-78.61859506
POOR BOY GENERAL STORE AND GRILL,5804  POOR BOY FARM RD ,35.75699599,-78.44826686
COMFORT INN BREAKFAST,1411 E WILLIAMS ST ,35.71228616,-78.83826445
Ba-Da Wings,2161 Avent Ferry RD ,35.77835817,-78.67605091
NYC Bagels,263 GRANDE HEIGHTS DR,35.804703,-78.7805746
MCALISTER'S DELI #100956,5505 CAPITAL BLVD ,35.86064576,-78.58265814
FIVE GUYS BURGERS AND FRIES,2400 JOHN BRANTLEY BLVD ,,
SAN JUAN MEXICAN RESTAURANT ,3501 FORESTVILLE RD ,35.88257697,-78.50942512
Greek Fiesta,3904 Western BLVD ,35.78509127,-78.69043452
CHAR-GRILL CARY,3635 SW CARY PKY ,35.78179255,-78.8379919
Bawarchi Grill &amp; Spirits,800 W Williams ST ,35.73964723,-78.86480181
Whole Foods Market Deli-Sushi-Cheese,102 B New Waverly Pl ,,
RISE BISCUITS &amp; DONUTS,169 GRAND HILL PL ,35.66266499,-78.84948074
MCDONALDS (Walmart),10050 GLENWOOD AVE ,35.91234038,-78.77801463
ASIAN GARDEN,13654 CAPITAL  BLVD ,36.00548951,-78.51867461
SCHLOTZSKY'S,906 US 64 HWY W ,35.74468924,-78.82280214
Torero's Restaurant,4721 Atlantic Ave,35.84801871,-78.60292943
Raleigh Country Club ,400 Donald Ross DR ,35.77609598,-78.59754311
BLAZE PIZZA #1193,316 GRAND HILL PL ,35.66711942,-78.84367420000001
MI CANCUN,324 GRAND HILL PL ,35.66711942,-78.84367420000001
HOLIDAY INN EXPRESS,1006 MARCO DR ,35.717045500000005,-78.84034017
QUICKLY,4141 DAVIS DR ,35.835626500000004,-78.85811603
GOOD HARVEST,1104 LEDSOME LN ,35.76313262,-78.74823051
Frankie's Restaurant,11190 Fun Park DR ,35.9187995,-78.79335269
TAQUERIA LA CABANA,3520 CAPITAL BLVD ,35.82807152,-78.58408386
Kwench Juice Cafe,9660-142 Falls of Neuse RD ,35.90546933,-78.60229361
CRANK ARM BREWING COMPANY,319 W DAVIE ST ,35.77552399,-78.64407042
DICED GOURMET SALADS &amp; WRAPS #2,1028 OBERLIN RD ,35.79783502,-78.65845011
Dalat Oriental Restaurant,2109-110 AVENT FERRY RD,35.77936846,-78.67658538
BOSTON MARKET,4558 Capital Blv ,35.84571366,-78.57896604
High Horse,208 Wolfe ST ,35.77587123,-78.63624076
Applebee's Grill &amp; Bar,6609 Knightdale BLVD ,35.79704031,-78.50745317
S-MART CAFE,1000 RYAN RD ,35.77674815,-78.76677132
RED PEPPER ASIAN,4121 NEW BERN AVE ,35.80114227,-78.56526592
RALEIGH CRABTREE MARRIOTT FOODSERVICE,4500 MARRIOTT DR ,35.84277362,-78.67772751
Rosemarie's Seafood Joint,14460-183 Falls of Neuse RD ,35.94558664,-78.54364115
Pho2 Far East,4011-133 Capital  BLVD ,35.8353751,-78.58250245
BACK IN THE DAY CAFE,3470 KILDAIRE FARM  RD ,35.70711378,-78.79652253
NISHIKI,1216 PARKSIDE MAIN ST ,35.84836238,-78.88929435
NOTTE URBANA,306 E HARGETT ST ,35.77786792,-78.63459466
STARBUCKS- TALLEY,2610 CATES AVE ,35.78448278,-78.67872874
QDOBA MEXICAN GRILL #383,2222 WALNUT  ST ,35.75542976,-78.74288401
METLIFE CARY CAFE MARKETPLACE,201 METLIFE WAY ,35.83005175,-78.79975563
Peak of the Vine,301 N Salem ST ,35.73305629,-78.85046886
THAI CAFE #2,3309 ROGERS RD ,35.95073316,-78.51539337
SAMI'S SUBS &amp; MORE,10924 LEESVILLE RD ,35.91850621,-78.73006348
PLAZA CAFE,411 FAYETTEVILLE ST ,35.77508557,-78.63883977
PEPPERS MARKET,2107 GRACE PARK DR ,35.82111262,-78.84652326
NEW WHITE OAK GRILL &amp; LOUNGE,7901 WHITE OAK  RD ,35.6721705,-78.57506068
ZAXBY'S,2901 HILLSBOROUGH ST ,35.7890291,-78.67549354
TLC WINGS ,3625 HILLSBOROUGH ST ,35.79323627,-78.68493196
Wendy's #1339,3400 OLYMPIA DR ,35.73409368,-78.65166168
NY Pizza,634 Holly Spring RD,35.65381034,-78.82480349
MOGE TEE,2304 Hillsborough ST ,35.78758054,-78.66618308
Subway,411-A S Main St,35.91835371,-78.46518814
BURGER KING #17359,851 VILLAGE WALK DR ,35.63884148,-78.8349912
GODAVARI TRULY SOUTH INDIAN,100-108 JERUSALEM DR ,35.85087294,-78.82654162
STARBUCKS #8529,5959 TRIANGLE TOWN  BLVD ,35.86599856,-78.57603863
MOUSTACHE CAFE,108 FACTORY SHOPS DR ,35.86038432,-78.81776736
Bumble Tea,3221 AVENT FERRY RD,35.76673883,-78.69565606
STARBUCKS #23309,1015 PARKSIDE MAIN ST.,35.84638553,-78.88790674
Harris Teeter #304 Wine Bar,4221 Corners PKY ,35.91890974,-78.78791806
AMERICAN AIRLINES ADMIRALS CLUB,2400 W TERMINAL BLVD ,,
BRUEGGERS BAGELS #143,7550-106 CREEDMOOR RD ,35.88944343,-78.67969753
Peno Mediterranean Grill,9424 Falls of Neuse RD ,35.90143714,-78.60286042
Popeye's RDU JV,2400 John Brantley BLVD ,,
Sam's Club #8223 Cafe,2537 S Saunders St,35.75036941,-78.64662127
HYATT HOUSE H BAR,160 PARK AT NORTH HILLS  ST ,35.83636262,-78.63811885
BUFFALO BROTHERS,11735  RETAIL DR ,35.96793718,-78.54322313
Smithfield Chicken &amp; Bar-B-Que,4000 JONES SAUSAGE RD ,35.72647997,-78.58070292
Lucky Chicken II,1851 N. Harrison Avenue,35.83015295,-78.76773947
Der Biergarten Cary,1080 DARRINGTON DR ,35.80030045,-78.81678609999999
Wegmans #139 Coffee/Subs/Pizza/Salads,3710 DAVIS DR,35.82831621,-78.85023067
COMFORT INN &amp; SUITES,6209 GLENWOOD AVE ,35.85617198,-78.70428576
Starbucks,3023-101 Capital ,35.82103718,-78.59167505
Pressed Sandwich House,10630-104 Durant RD ,35.90585466,-78.59235176
Brueggers Bagel #3771,4212 NW CARY PKY ,35.79085045,-78.82705749
HIBACHI SUSHI,3217 AVENT FERRY  RD ,35.76673883,-78.69565606
NEW RAINBOW GARDEN,407 S MAIN ST ,35.91731538,-78.46472721
McDonald's #2028,1805 N HARRISON AVE,35.82979304,-78.76916111
PURE JUICERY,716 Slash Pine DR ,35.83075427,-78.90892711
River Ridge Golf Club,3224 Auburn-Knightdale Rd RD ,35.7282959,-78.52542842
SHUCKIN SHACK CARY,4214 NW CARY PKY ,35.79085045,-78.82705749
SMITHFIELD'S CHICKEN N BAR-B-Q,3578 DAVIS  DR ,35.81858861,-78.84697957
Jersey Mike's Subs #3008-B,8111-107 Creedmoor RD ,35.89754797,-78.68081035
Sparks American Grill,5490 Apex Peakway DR ,35.73844497,-78.86540656
Sheetz #361,4801 Thorton RD,35.89881867,-78.55822088
Kashin Restaurant,309 CROSSROADS BLVD ,35.76064286,-78.73871452
Subway 3152,4003 WAKE FOREST RD ,35.8362139,-78.61511172
Real McCoy's,3325  Rogers RD ,35.95072627,-78.5140884
Moe's Southwest Grill,1406 E Broad ST,35.59427198,-78.77524481
International House Of Pancakes,1450 Us 70 Hwy ,35.72139768,-78.6425865
BREWERY BHAVANA,218 S BLOUNT ST ,35.77740827,-78.63692426
WHITE OAK STADIUM 14,1205 Timber DR E,35.68908515,-78.57456476
MILOWS,8320-108 LITCHFORD RD ,35.89311432,-78.60100965
Publix 1551 Deli,9640 Leesville RD ,35.90563318,-78.72728627
KLARA'S RESTAURANT,2418 HILLSBOROUGH ST ,35.78785805,-78.66730306
Sam's Club #6570 Snackbar,3001 CALVARY  DR ,35.84648464,-78.58500406
KARAIKUDI,744 E CHATHAM ST ,35.79077863,-78.76691591
Raleigh Iceplex,2601 Raleigh BLVD ,35.81203562,-78.5968228
WAFFLE HOUSE #1302,1417 E WILLIAMS ST ,35.71142555,-78.83789587
POPEYES #12346,7120 KNIGHTDALE BLVD ,35.79780164,-78.49001904
STARBUCKS # 26652,212 HINTON OAKS BLVD ,35.79763536,-78.51259399999999
Bean Sprouts Cafe,201 E Hargett ST ,35.77854007,-78.63610358
Jumbo China #5,6108 Falls Of Neuse Rd ,35.86627943,-78.6187408
ESPIGA BAKERY &amp; CAFE,6320 CAPITAL BLVD #123,35.87073633,-78.57847002
Reuben's NY Deli,170  E Davie ST ,35.77518054,-78.63762576
Manchesters Bar and Grill,9101-153 Leesville Road,35.89661733,-78.7231695
SONIC DRIVE IN #5735,304 S Main ST ,35.9198667,-78.46378987
Dean's Kitchen + Bar,1080 DARRINGTON DR ,35.80030045,-78.81678609999999
214 MARTIN STREET,214 E. MARTIN STREET,35.77650911,-78.63599541
THE GARDEN ON MILLBROOK,2400 E MILLBROOK RD ,35.8475498,-78.59604131
ON THE BORDER,3351 CYPRESS PLANTATION TRL ,35.87315637,-78.58237548
ACME PIZZA CO,204 Village Walk DR ,35.63987917,-78.83920922
ZAXBY'S #60701,20 EAGLE WING WAY ,35.69782164,-78.58765235
PAPA JOHN'S ,238 Grande Heights Dr ,35.804703,-78.7805746
PIEBIRD,618 N PERSON ST ,35.78882326,-78.6340625
Starbucks Coffee Co #8218,501 OBERLIN RD ,35.79058333,-78.66326182
Biscuitville # 169,605 STELLATA DR ,35.59136738,-78.78197965
Boston Market,9500 STRICKLAND RD,35.90168214,-78.65420911
Firehouse Subs #785,7901 FALLS OF NUESE RD ,35.89352061,-78.62784692
Mimi's Cafe #118,1115 Walnut  ST ,35.77377018,-78.76025493
Sono Sushi Bar,319  Fayetteville ST ,35.77609243,-78.63879706
TRAIN STATION SPORTS BAR &amp; GRILL,301 - C  N HARRISON AVE ,35.78845375,-78.7833407
Bojangles' #27,3920 Jones Sausage RD ,,
DON JULIO MEXICAN RESTAURANT,12516-104 CAPITAL BLVD ,35.98680854,-78.53454582
Bass Lake Draft House,124 Bass Lake Rd ,35.65381034,-78.82480349
GIARDINO GOURMET SALADS,821 BASS PRO LN ,35.83116175,-78.77007317
Firenza Pizza,2320-114 Bale ST ,35.812985,-78.62723763
THE BIG EASY,231 GRANDE HEIGHTS DR ,35.804703,-78.7805746
BADA BING PIZZA,222-121 GLENWOOD AVE ,35.78392897,-78.64733509
JOYCE &amp; FAMILY RESTAURANT TOO ,129 N MAIN ST ,35.58594643,-78.80056831
Napper Tandy,126 N West ST ,35.78237671,-78.64537075
Pizza Hut # 1101,3691 NEW BERN  AVE ,35.79885313,-78.57923704
Dominos #8903,1183 W Chatham ST ,35.77079471,-78.80690314
Firehouse Subs #487,1551 Hwy 70  W ,,
McDonald's #10148,141 Wakelon DR,35.83323615,-78.31751158
La Roca Mexican Grill,1431 Garner Station BLVD ,35.72288448,-78.65416214
TROPICAL SMOOTHIE CAFE,1028 OBERLIN RD ,35.79783502,-78.65845011
St. Augustine's University Cafeteria,1315 Oakwood Ave ,35.78808582,-78.61949307
THE GRAND MARQUISE BALLROOM,225  NEW FIDELITY  CT ,35.71328555,-78.63155743
Domino's #5577,1600 CROSS LINK RD,35.7540284,-78.61369584
FAIRE,2130 CLARK AVENUE,35.7897601,-78.66234333
MORE.,116-100 N WEST ST ,35.77902937,-78.64606799
Thai Spices & Sushi,986 High House RD ,35.788416999999995,-78.82691458
Speedway #6989,10920 Creedmoor Rd ,35.94189642,-78.68548351
CAMOS BROS PIZZA,2916-100 N. MAIN STREET,35.61634927,-78.73486655
PANDA GARDEN,1440-103 BROGDEN WOODS DR ,35.98988119,-78.69439726
New China Restaurant,949 N Harrison AVE,35.80143518,-78.78451708
ROLY POLY TRYON VILLAGE,8111 TRYON WOOD DR ,35.74716614,-78.74322582
STARBUCKS PRE-SECURITY,2400 JOHN BRANTLEY BLVD / RDU,35.86970553,-78.78942675
JOHNNY'S PIZZA,96 CORNERSTONE DR ,35.79108879,-78.85232757
Chipotle Mexican Grill - Garner,4203 FAYETTEVILLE RD,35.72206935,-78.65202042
Great Wok,2823 WENDELL BLVD ,35.79568777,-78.38037181
Five Guys (Stonecreek) #0161,1856 Boulderstone WAY ,35.79156535,-78.84859346
BIG-Z,2822 NEW BIRCH DRIVE,35.74570711,-78.59888069
SHEETZ #598,1885 N BROAD ST ,35.61018975,-78.80807717
GONZA TACOS Y TEQUILA,7713 LEAD MINE  RD ,35.88617531,-78.66044244
HONG KONG CHINESE KITCHEN,5563 WESTERN  BLVD ,35.78412594,-78.72051017
JJ Cafe,2143 TEN TEN RD ,35.72082607,-78.81811355
HARU SUSHI,2603 GLENWOOD  AVE ,35.81550372,-78.66059857
GOODBERRY'S #6,2421 Spring Forest Rd,35.860848600000004,-78.59868826
Residence Inn-Crabtree Foodservice,2200 SUMMIT PARK LN ,35.83458474,-78.67562565
QUIZNOS,1 EXCHANGE PLAZA ,35.77765525,-78.6387137
13 Tacos &amp; Taps,10511-119 Shadowlawn DR ,35.90833211,-78.58941339
PANERA BREAD #1650,1001 BEAVER CREEK COMMONS DR ,35.74374477,-78.87238568
Thai Villa Restaurant,1319 BUCK JONES RD ,35.76486034,-78.74231056
KING WOK CHINESE RESTAURANT,7405 N SUNSET LAKE RD ,35.59575573,-78.77437888
Jellybeans,10701 Common Oaks Dr,35.94139537,-78.54490677
CiCi's Pizza # 425,4001 Widewaters Pky ,35.79511678,-78.50515596
TELEFLEX CAFE,3015 CARRINGTON MILL BLVD.,35.86501618,-78.83567394
Pearl Chinese Restaurant,3215 AVENT FERRY RD ,35.76673883,-78.69565606
Starbucks #9840,1107 Walnut ST ,35.77377018,-78.76025493
Circle K #6314,11700 New Leesville RD ,35.92072024,-78.74118636
Burger King #7810,7102 KNIGHTDALE BLVD ,35.79787089,-78.49170015
LEVEL UP/VIRGIL'S TAQUERIA,126 S. SALISBURY ST.,35.77862242,-78.64041384
DUCK DONUTS,100 WRENN DR ,35.76514973,-78.78400849
SUSHI LULU,3607 FALLS RIVER  AVE ,35.92958969,-78.56497256
Subway,10130 Green Level Church  Rd Suite 300,35.82060358,-78.90107787
Waffle House #2052,2320 Dixie Forest Road,35.8628339,-78.60008588
Bojangles,4621 New Bern AVE ,35.79891549,-78.55786564
MIRAGE,400-110 N WEST ST ,35.77523747,-78.64627909
SMOKIN' GROOVES BAR AND GRILL,2253 NEW HOPE CHURCH RD ,35.83624718,-78.60062749
MCDONALDS #31892 MORRISVILLE WALMART,1001 SHILOH GLENN  DR ,35.86659083,-78.84693338
Burger King #8018,100-F Colonades Way ,35.737941,-78.77931814
TAIPEI AUTHENTIC CHINESE CUISINE,121 E CHATHAM ST ,35.78769406,-78.78052303
HOOTERS,1001 CLAREN CIR ,35.85640624,-78.82295551
Whole Foods Market #10611 Culinary,5055 Arco ST ,35.83347908,-78.88191924
Firehouse Subs #917,1303 N MAIN ST ,35.59227955,-78.77762782
Credit Suisse RTP Bldg #1,7033 Louis Stephens DR ,35.86296634,-78.8872285
WENDY'S #6332,1150 EDWARDS MILL RD ,35.79833812,-78.72658903
HIBACHI SUSHI SUPREME BUFFET,9601 CHAPEL HILL RD ,35.806020600000004,-78.8106566
Cava Grill #087,2001 WALNUT ST,35.75880896,-78.74142861
The Piper's Tavern,8304 FALLS OF NEUSE RD ,35.89456739,-78.61981562
Schiano's Pizza Pasta &amp; Grill #2,13220 Strickland  RD ,35.90878313,-78.72593809
Bahama Breeze Restaurant,3309 Wake Forest Road ,35.82856037,-78.6204818
Everest Nepali Kitchen,212 Grande Heights DR ,35.804703,-78.7805746
DUNKIN DONUTS 344467,800 PERRY RD ,35.7208474,-78.84460695
PHO &amp; CRAWFISH 79,3310 CAPITAL  BLVD ,35.82439477,-78.5854745
Fuji Express,2143 TEN TEN RD ,35.72082607,-78.81811355
SHEETZ #607,40 CABELA DR ,35.69803233,-78.58532113
BROOKSIDE PIZZA,1000 BROOKSIDE DR ,35.79244363,-78.62465098
BOND BROTHERS BEER COMPANY,202 E CEDAR ST ,35.78798563,-78.77802091
COUNTRY CAFE,84 HANOR LN ,35.79364277,-78.37704073
Starbucks NCSU,2610 CATES AVE,35.78448278,-78.67872874
TACOS Y PUPUSAS LAS MARIAS,1600-107 RONALD DR ,35.83830906,-78.60976740000001
Hilton North Raleigh Foodservice,3415 WAKE FOREST RD ,35.82973066,-78.62058677
CHUTNEYS,4121 Davis DR ,35.835626500000004,-78.85811603
DANNY'S BARBEQUE,311 ASHVILLE AVE ,35.73790672,-78.78493778
Lin Hibachi Buffet,1420 E Broad ST ,35.59376837,-78.77497022
DELTA CROWN SKY CLUB,2400 W TERMINAL BLVD ,,
SWEET LEAF CAFE,1313 N MAIN  ST ,35.59187796,-78.77846616
ACC AMERICAN CAFE/LA TAPENADE,1600 JOHN BRANTLEY  BLVD ,,
OAKWOOD PIZZA BOX,610 N PERSON ST ,35.78856032,-78.63409336
Crazy Fire Mongolian Grill,1270 BUCK JONES RD ,35.76713782,-78.74177043
LYNNWOOD BREWING CONCERN,1053-101 E WHITAKER MILL RD ,35.80730491,-78.62113053
CAMBRIDGE VILLAGE DINING,10000 Cambridge Village Loop,35.71810568,-78.84579127
Greek Fiesta at Brier Creek,8521 Brier CreekPKY,,
C &amp; T WOK CHINESE AND THAI CUISINE,130 MORRISVILLE SQUARE WAY ,35.81951783,-78.82897679
Hot Point Deli,1284 BUCK JONES RD,,
St. Michael the Arch Angel Catholic Church,808 High House RD ,35.78588729,-78.82211368
Sammy's Tap And Grill,2235 AVENT FERRY RD,35.77835817,-78.67605091
Subway #2615,3416 POOLE RD ,35.76724571,-78.57953261
PAPAS PIZZA AND SUBS,7713 LEAD MINE RD ,35.88617531,-78.66044244
Los Tres Vaqueros,7909-109 FALLS OF NEUSE RD ,35.89197359,-78.62697433
ARGANA,1246 NW MAYNARD RD ,35.7848684,-78.80932512
BEDFORD BISTRO &amp; BAR,3607 FALLS RIVER  AVE ,35.92958969,-78.56497256
MoonRunners Saloon,1506 US 70 HWY W ,35.72377782,-78.64623771
SAMS' CLUB #6976 CAFE,11460 ROYAL COTTON RD ,35.95675315,-78.53862938
THE MAC HOUSE,14460-167 NEW FALLS OF NEUSE RD ,,
Circus Family Restaurant,1600 Wake Forest Rd ,35.80050101,-78.62468351
CARRABBA'S ITALIAN GRILL #8407,1148 KILDAIRE FARM RD ,35.76558405,-78.78364268
Pho Oxtail,3901 Captial  BLVD ,35.83498992,-78.58517624
Rex Hospital Cafeteria,4420 LAKE BOONE TRL,35.81817246,-78.70242018
SOL AZTECA MEXICAN RESTAURANT,120 MORRISVILLE SQUARE WAY ,35.81951783,-78.82897679
El Mandado Supermarket &amp; Taqueria,2950 E MILLBROOK RD,35.84852909,-78.58256656
Pizza Amore,103 N ARENDELL AVE,35.82139737,-78.31306375
BOJANGLES,3025 WINSTON HILL DR ,35.78948112,-78.84654757
MYST,510  GLENWOOD AVE ,35.78682593,-78.64666059
ORIENT GARDEN RESTAURANT,1233 NW MAYNARD RD ,35.78438636,-78.81241463
FRESCA CAFE' AND GELATO,302 COLONADES  WAY ,35.73978792,-78.77779248
Koi Asian Grill and Sushi ,126 E Millbrook RD ,35.85499105,-78.64059702
DUNKIN DONUTS #350706,10030 GREEN LEVEL CHURCH  RD ,35.82060358,-78.90107787
CRAZY FIRE MONGOLIAN GRILL,3611 SPRING FOREST RD ,35.85591049,-78.57981091
Tropical Smoothie Cafe,409 Village Walk DR ,35.64081684,-78.83774133
Pista House,6105 GRACE PARK  DR ,35.82111262,-78.84652326
GOLDEN CHINA,1324 N MAIN ST ,35.59047244,-78.77764359
THE MATTHEWS HOUSE,317 W CHATHAM ST ,35.78648749,-78.78723389
IHOP #3181,1150 Beaver Creek Commons  Dr ,35.74676581,-78.87654743
St. Raphael Hall Foodservice,5801 Falls Of Neuse Rd ,35.85949781,-78.61925176
AIKO,410 GLENWOOD AVE ,35.78564805,-78.64672862
CAFE 121,140 E CHATHAM ST ,35.78711494,-78.77981276
TUPELO HONEY CAFE,425 OBERLIN ROAD,35.7899475,-78.66382840000001
HONORS COMMONS C-STORE,2221  DUNN AVE ,35.78448278,-78.67872874
Barbecue Lodge,4600 Capital Blv,35.84833828,-78.57926249
AC Hotel Raleigh North Hills Level 7,101 PARK AT NORTH HILLS ST ,35.83817045,-78.64018999
Harris Teeter #495 Starbucks,8345 Creedmoor RD ,35.90105252,-78.68223183
Viva Mexican Kitchen,4112 PLEASANT VALLEY RD ,35.86043731,-78.70472608
SUBWAY #14347,126 S SALISBURY ST ,35.77862242,-78.64041384
WENDY'S #6324,4023 Davis DR ,35.83815015,-78.85701601
BAHAMA BREEZE RESTAURANT,3309 WAKE FOREST RD ,35.82856037,-78.6204818
CHECKERS PIZZA,2810 HILLSBOROUGH ST ,35.78959693,-78.67445032
LongHorn Steakhouse #251,8121 Brier Creek PKY ,35.90950546,-78.78398096
Smoothies +,8105 Fayetteville RD ,35.66336427,-78.69976409
JERSEY MIKES ,14460 NEW FALLS OF NEUSE RD ,35.94386602,-78.54362008
AMRA'S,101 GLENWOOD AVE ,35.78194955,-78.64757999
LIME FRESH #6331,8521 BRIER CREEK RD ,35.90572819,-78.78601339
Bloomsbury Bistro,509 W WHITAKER MILL RD ,35.80399495,-78.64475001
PHAT CHICKEN,717 E MARTIN ST ,35.77678359,-78.62694437
PDQ #506,6305 FALLS OF NEUSE RD ,35.86883928,-78.62139862
ESMERALDA GRILL,748 E CHATHAM ST ,35.79157241,-78.76514155
WINGS CAFE,1307  BUCK JONES RD ,35.76486034,-78.74231056
PIZZERIA FAULISI,215 E CHATHAM ST ,35.78786553,-78.77734174
Gateway Restaurant,2411 Crabtree Blv,35.80541069,-78.61383129
RALEIGH CONVENTION CENTER,500 S SALISBURY  ST ,35.77365136,-78.64125822
Bojangles #12,3808 WESTERN BLVD ,35.78520361,-78.68874189
POPEYES #11378,1701 PINEWINDS DR ,35.7164361,-78.65506548
Templeton of Cary,215 BRIGHTMORE DR,35.7441046,-78.77772922
PIZZERIA VERITAS,1260 NW Maynard RD ,35.7848684,-78.80932512
EL CERRO BAR &amp; GRILL,2217 AVENT FERRY RD ,35.77835817,-78.67605091
WENDY'S #6303,1343 KILDAIRE FARM RD ,35.75983801,-78.78290963
IHOP #3331,7471 SIX FORKS RD ,35.88190821,-78.64672008
HARVEST SUNDRIES &amp; DELI,411 FAYETTEVILLE ST ,35.77508557,-78.63883977
TOWER INDIA,144 MORRISVILLE SQUARE WAY ,35.81951783,-78.82897679
Honey Pig,1065 DARRINGTON DR,35.79924907,-78.81572724
Burger Fi,2052 RENAISSANCE PARK PL ,35.82699882,-78.77115656
BERKELEY CAFE,217 W MARTIN ST ,35.77679382,-78.64280742
UNC HEALTHCARE MOTOWN CAFE,1025 Think  PL ,35.85709776,-78.83605698
Subway,13200 FALLS OF NEUSE RD,35.9407555,-78.55981965
SUBWAY #2692,2424 WAKE FOREST RD ,35.81503317,-78.62593167
COURTYARD BISTRO,3401 SUMNER BLVD ,35.86693412,-78.58017989
Farm House Cafe,320 Vintage Point LN ,35.77122092,-78.42877202
WENDY'S #6307,1710 HIGH HOUSE RD ,35.79274209,-78.84401301
The Sports Page Bar &amp; Grill,835 N SMITHFIELD RD ,35.79576936,-78.48796476
CORTEZ SEAFOOD AND COCKTAILS,413-100 GLENWOOD AVE ,35.78533541,-78.64740203
Bruegger's Bagels #4127,10750 Wakefield Commons DR ,35.94195641,-78.54123068
Jersey Mike's Subs,957 High House Rd,35.78725248,-78.82820605
TAZIKI'S RTP,7161 O'KELLY CHAPEL ROAD,35.84415135,-78.88824644
Chilis Grill & Bar,1388 KILDAIRE FARM RD ,35.75917392,-78.783798
PUBLIX #1514 DELI,1030 FORESTVILLE RD ,35.94611021,-78.5075981
Euro Cafe,5959 Triangle Towne Blvd.,35.86599856,-78.57603863
MAMMA  MIA ITALIAN BISTRO,708 LAURA DUNCAN  RD ,35.73509961,-78.84201223
Paolo's,101 - 500 Keybridge St,35.81970931,-78.82290896
MUM'S JAMAICAN RESTAURANT,3901-101 CAPITAL BLVD ,35.83464973,-78.58295913
Jersey Mike's,3088 Wake Forest RD ,35.82333592,-78.62038753
CORBETT'S BURGERS &amp; SODA BAR,126 KILMAYNE DR ,35.77049321,-78.78304446
Four Points Cafe,1200 HURRICANE ALLEY WAY ,35.79764554,-78.72528751
SERENA SICILIAN INFLUENCED CUCINA,7456 CREEDMOOR  RD ,35.88787167,-78.67820041
Taco Bell #2836,3224 S WILMINGTON ST,35.73593592,-78.6509095
HWY 55 BURGERS SHAKES &amp; FRIES,3421 N MAIN ST ,35.62460903,-78.72399215
Mahoney's Pub,6490 Tryon RD ,35.74415808,-78.76236898
WENDYS #6306,2964 KILDAIRE FARM RD ,35.71879788,-78.78766335
DUNKIN DONUTS #348417,3817 WESTERN BLVD ,35.78436913,-78.68893912
DELHI DARBAR INDIAN CUISINE,962 AIRPORT  BLVD ,35.85718763,-78.82039682
Muscle Maker Grill,2330-112 Bale ST ,35.81322416,-78.62772121
RISE BISCUITS &amp; DONUTS,8301-101 BRIER CREEK PKY ,35.90870808,-78.78526235
BODY OF CHRIST CHURCH DREAM CENTER,5616 FOX RD ,35.85695738,-78.56583482
FRESH AND FRY SEAFOOD,2822 NEW BIRCH  DR ,35.74570711,-78.59888069
MCDONALDS #32336,1001 MORRISVILLE CARPENTER RD ,35.81889798,-78.84482154
WHICHES ON WHEELS,400 SOUTHTOWN CIR ,35.91648377,-78.47039569
HYDERABADI BIRYANI CORNER,748  E CHATHAM ST ,35.79157241,-78.76514155
Waraji Japanese Restaurant,5910 DURALEIGH RD ,35.8587201,-78.7119967
BATTISTELLA'S,200 E MARTIN ST ,35.77665674,-78.63648766
Curry House,2101 S MAIN ST,35.94802112,-78.53310077
STAMMTISCH CAFE,215 GREGSON DR ,35.73531293,-78.80332985
VINOS FINOS Y PICADAS,8450 HONEYCUTT RD ,35.89510574,-78.62166097
Freddy's Frozen Custard &amp; Steakburgers #3213,11708 Retail DR ,35.96629568,-78.5434927
THE UNION TAVERN & JUNCTION SALON BAR,327 W DAVIE  ST ,35.7752364,-78.64497472
CHICK-FIL-A #868,4621 CAPITAL BLVD ,35.84746002,-78.58118683
DIM SUM HOUSE,100 JERUSALEM DR ,35.85102001,-78.82707041
Budacai,120 E Martin ST ,35.77657388,-78.63713929
WHITE STREET BREWING CO,218 S WHITE ST ,35.97750081,-78.51016553
CELLAR 55,1351 E BROAD ST ,35.59548799,-78.77604319
China King,1861 Aversboro RD ,35.68506655,-78.61583871
MCALISTERS DELI,4361 LASSITER@NORTH HILLS AVE ,,
The Spring Cafe,2900-104 SPRING FOREST RD ,35.85548719,-78.59163396
SPRING CAFE 2,2900-104 SPRING FOREST RD ,35.85548719,-78.59163396
Philly Steaks &amp; Sub,3110 NEW BERN AVE,35.78850913,-78.58674652
THE OAK,4035 LAKE BOONE  TRL ,35.81457389,-78.69709804
ORO RESTAURANT &amp; LOUNGE,18 E MARTIN ST ,35.77684525,-78.63842774
Barrys Cafe,2851 Jones Franklin RD ,35.74361197,-78.73773412
Kale Me Crazy #18,2018 Cameron ST ,35.79149603,-78.66105804
Sam And Wally's Eatery,2 Hanover Square,,
Watkins Grill,1625 Wake Forest Rd,35.80177768,-78.62518779
Cisco Systems Triangle Terrace Cafe,7025 Bldg-5 Kit Creek Rd,,
Wendy's #9758,8000 Pooler AVE ,35.91248995,-78.78305243
ALADDINS EATERY,6325 FALLS OF NEUSE RD ,35.86922851,-78.62251606
Bojangles #52,5856 TRYON RD,35.74648785,-78.74008963
SERGIOS PIZZA,2127 TEN TEN RD ,35.72082607,-78.81811355
La Rancherita,4325-3000 Glenwood Ave,35.839589200000006,-78.67658819
JERSEY MIKES SUBS,280 MEETING ST ,35.756834999999995,-78.74426752
Latitudes Fine Food and Spirits,7425 Knightdale Blvd.,35.79937576,-78.47986997
Lincoln Brewing Co. ,2912 N MAIN ST ,35.61559182,-78.73259449999999
TIME WARNER CABLE DINING,4200 PARAMOUNT  PKY ,35.86029687,-78.83206286
Kick Back Jack's,1405 GARNER STATION  BLVD ,35.72437552,-78.65237822
SUBWAY #35970,4500 FAYETTEVILLE RD ,35.71894128,-78.65858197
Kadhai-The Indian Wok,6260 GLENWOOD AVE ,35.85876954,-78.70313649
Hibachi 88,6213 Rock Quarry RD ,35.72312495,-78.54796019
NC Farm Bureau Cafeteria,5301 GLENWOOD AVE ,35.84689434,-78.69211011
TASU,8919 BRIER CREEK PKY ,35.89996272,-78.79210079
WENDY'S #6330,7200 SIX FORKS RD ,35.87800592,-78.64500114
WHICH WICH,145 GRAND HILL PL ,35.66266499,-78.84948074
PIO Chickens,1601 CROSS LINK RD ,35.75482608,-78.61481064
Holiday Inn Express &amp; Suites Food Service,11400  COMMON OAKS DR ,35.95134484,-78.54091064
SUBWAY,1561 E WILLIAMS ST ,35.7067576,-78.83534627
Hampton Inn - Foodservice,405 Hinton Oaks BLVD ,35.8002213,-78.5111488
THE PICKLED ONION,10750 WAKEFIELD COMMONS DR ,35.94195641,-78.54123068
MCALISTERS DELI #100956,5505-104 CAPITAL BLVD ,35.86077805,-78.58184894
BULLFEATHERS,1625 N MAIN ST ,35.59674702,-78.76145615
AVIATOR TASTING ROOM,209 TECHNOLOGY PARK  LN ,35.61969631,-78.80852643
NEW CHINA CHEF,1769 W WILLIAMS ST ,35.75964934,-78.87770701
Anjappar,101 Ledgestone WAY ,35.79230683,-78.84803797
RESIDENCE INN DOWNTOWN RALEIGH,616 S SALISBURY ST ,35.77259393,-78.64078384
THE ROCKFORD,320-1/2 GLENWOOD AVE ,,
AMEDEO'S PIZZA,2045 CREEKSIDE LANDING DR ,35.74520682,-78.88668196
WINGS OVER RALEIGH,2900-100 HILLSBOROUGH ST ,35.78933335,-78.67505846
Vicious Fishes Brewery Tap &amp; Kitchen,132 S Fuquay AVE ,35.58323642,-78.79867676
Sonic Drive-In #3975,700 Cayman AVE ,35.66114172,-78.83534808
ONCE IN A BLUE MOON BAKERY AND CAFE,115 W CHATHAM ST,35.78682557,-78.78180095
Saint Mary's School Dining ,900 HILLSBOROUGH ST ,35.78272295,-78.65261406
Chili's,1120 Beaver Creek Commons Drive ,35.74628844,-78.87450516
JERRY'S GRILL,813 E Whitaker Mill RD ,35.8075542,-78.62516193
BIG APPLE BAGELS,1141 FALLS RIVER  AVE ,35.90718863,-78.58877443
THE OAKZ,"510 GLENWOOD  AVE , STE. 10",35.78682593,-78.64666059
Pizza Hut,1301 N MAIN ST ,35.59226357,-78.77817423
Embassy Suites Foodservice,4700 CREEDMOOR RD ,35.84476666,-78.67922186
RED MONKEY LATIN FUSION,4325 GLENWOOD  AVE ,35.84183815,-78.68184484
Hot Shots,107 Edinburgh DR S ,35.73935005,-78.79822545
THE FALCON'S NEST AT ST. AUGUSTINE,1315 OAKWOOD AVE ,35.78808582,-78.61949307
MCDONALD'S,1299 KILDAIRE FARM  RD ,35.76224608,-78.78290933
Smithfield Chicken & Bar-B-Que,7911 Fayetteville Rd ,35.66636356,-78.69699987
Jason's Deli,8421-101 Brier Creek Pky ,35.90670595,-78.78578747
Chido Taco,2330 BALE ST,35.81292611,-78.62748278
SOPHIE'S DELI PIZZA & A GRILL #2,4414 FAYETTEVILLE RD ,35.71956114,-78.65423803
Fairfield Inn &amp; Suites RDU Foodservice,2750 Slater RD ,35.86023259,-78.82088455
ANOTHER BROKEN EGG,160 PARK AT NORTH HILLS ST ,35.83636262,-78.63811885
ROSATI'S PIZZA MORRISVILLE,3605 DAVIS  DR ,35.82130357,-78.84976245
FIREHOUSE SUBS #1138,4111 ED DR ,35.82558522,-78.70458274
Moe's Southwest Grill #837,1016-A Shoppes at Midway Drive ,35.79794748,-78.50550835
Dominic's NY Pizzeria,5911 Poyner Village Pkwy,35.86437434,-78.57019405
ATRIA OAKRIDGE DINING,10810 SANDY OAK LN ,35.90822378,-78.59303841
CAVE 1912,1912 BERNARD ST ,35.807491299999995,-78.63053647
Kroger #354 Deli,8345 CREEDMOOR RD ,35.90105252,-78.68223183
MCDONALDS #28653,1409 MAIN ST ,35.56231733,-78.80608783
Wasabi,"107 Edinburgh South, St 135 ",35.73756978,-78.79910146
EMC2,One Technology DR ,,
Flying Mayan #1,319 Fayetteville ST ,35.77609243,-78.63879706
Chick-fil-A #00585,400 Fayetteville ST ,35.77538001,-78.63988316
CHEVY'S ALE HOUSE,1402 E WILLIAMS ST ,35.71270219,-78.84009363
TASTE OF JAMAICA,600 E CHATHAM ST ,35.79071172,-78.76780088
Rudino's,5217 Sunset Lake RD ,35.66680054,-78.79652372
SHISH KABOB AT PINECREST,9101 LEESVILLE  RD ,35.896759499999995,-78.72548207
Lake Wheeler Park Concession,6404 LAKE WHEELER RD ,35.69640292,-78.69852933
Co Noodle,101-120 Park at North Hills ST ,35.83857979,-78.64050881
HOMEWOOD SUITES BY HILTON RALEIGH/CRABTREE FOOD SERVICE,5400 HOMEWOOD BANKS DR ,35.83620491,-78.68057425
HIMALAYAN NEPALI CUISINE,746 E CHATHAM ST ,35.79077863,-78.76691591
KFC/Long John Silvers # J120031,7040 Knightdale BLVD ,35.79797229,-78.49327225
Red Lobster,4408 Old Wake Forest RD ,35.84113884,-78.61058275
HIBACHI 88,3416 POOLE RD ,35.76724571,-78.57953261
Chili's #1393,11380 Capital BLVD ,35.95485838,-78.53983156
FRESHBERRY FROZEN YOGURT CAFE,2526 HILLSBOROUGH ST ,35.78835156,-78.66922690000001
Red Robin #567,2260 Walnut ST,35.75448808,-78.74211776
Mo Fu Shoppe,321 S Blount ST ,35.77587123,-78.63624076
Salsa Fresh Restaurant,9650 STRICKLAND RD ,35.90420107,-78.65677159
NY Bagel Deli &amp; Cafe,7500-111 Ramble WAY ,35.87498247,-78.53897134
MY WAY TAVERN,301  W CENTER ST ,35.65096874,-78.83406158
BANGKOK THAI,13200-131 NEW FALLS OF NEUSE RD ,,
E &amp; L Food Shop (Marathon),4803 Fayetteville RD ,35.7159549,-78.65530372
Caribbean Cafe,2645-D E Millbrook RD ,35.84846974,-78.5905395
Saltgrass Steakhouse,6601 Knightdale BLVD ,35.79658276,-78.50947971
THE PHARMACY CAFE,702 PERSON ST ,35.78910664,-78.63427779
Taziki's,7901-101 Falls of Neuse RD ,35.89154831,-78.62724825
DAIRY QUEEN ORANGE JULIUS,8321 BRIER CREEK PKY ,35.90685073,-78.78334742
DOUG'S DOGS N'MORE,13654 CAPITAL BLVD ,36.00548951,-78.51867461
WAKE MED NORTH FALLS CAFE,10000 FALLS OF NEUSE RD ,35.90890852,-78.5978446
Umami,8411 Brier Creek  PKY ,35.90685073,-78.78334742
D.P. Dough,2109 AVENT FERRY RD ,35.77835817,-78.67605091
Verizon Cary Marketplace,7000 WESTON PKWY,35.83093189,-78.79195115
QUIZNOS SUB,1246 NW Maynard Rd ,35.7848684,-78.80932512
Bob Evan's Restaurant,2001 WALNUT ST ,35.75880896,-78.74142861
SUBWAY #3726,12233 CAPITAL BLVD ,35.98087356,-78.54097555
AROMA,160 NE MAYNARD  RD ,35.80237018,-78.78042873
The Pho Place,3607-117 FALLS RIVER  AVE ,35.93010621,-78.56526166
One Stop Market,101 Dickens RD ,35.61594652,-78.81133237
The Border Restaurant,712 N Main St,35.98936616,-78.50485152
STARBUCKS #29679,2815 ROGERS RD ,35.95329016,-78.52502096
WORLD OF BEER,4208 SIX FORKS  RD ,35.83691426,-78.63994726
Honest Abe's Kitchen and Bar,5433 Wade Park BLVD ,35.80695603,-78.7303442
Texas Roadhouse #294,11440 Capital BLVD ,35.95645938,-78.54034204
SHEETZ 555,4010 CONVENIENCE LN ,35.86024024,-78.89476815
JERSEY MIKE'S SUBS,7177 OKELLY CHAPEL RD ,35.84415135,-78.88824644
VIVA MEXICAN KITCHEN,4075 DAVIS  DR ,35.835626500000004,-78.85811603
Pizza Hut #9107,1805 Aversboro Rd,35.6858565,-78.61707161
OISO SUSHI &amp; KOREAN,1305 NW MAYNARD RD ,35.78581105,-78.81098892
Homegrown Pizza,4928 Linksland Dr,35.65750438,-78.81055316
JOULE COFFEE,223 S WILMINGTON ST ,35.77751377,-78.63794241
Five Guys Burgers and Fries #2,4120 Main at N. Hills St. Ste 155,35.83718561,-78.64323049
MAMA MIA'S PIZZERIA & RESTAURANT,7142 KNIGHTDALE BLVD ,35.79711938,-78.48874912
THE OVAL,1910 ENTREPRENUUR ,,
THE LATIN CORNER,421 CHAPANOKE RD ,35.73464573,-78.65333581
Crabtree Beer Garden,4325 GLENWOOD AVE ,35.84183815,-78.68184484
Windsor Point Restaurant,1221 BROAD ST,35.59974785,-78.80163084
LUMPYS ICE CREAM,306 E WAIT AVE ,35.97813632,-78.50742791
Clean Eatz,1856 Boulderstone WAY ,35.79156535,-78.84859346
QUALITY GROCERY,701 E LANE ST ,35.78369416,-78.62913849
DUNKIN DONUTS #306810,3209 S WILMINGTON ST ,35.73574481,-78.64970629999999
Moe's Southwest Grill,7850-115 Alexander Promonade Pl ,35.91259169,-78.7803264
SAN JOSE MEXICAN RESTAURANT,5811 POYNER VILLAGE  PKY ,35.86464286,-78.56916648
FRIDA'S PATIO MEXICAN CUISINE,3470 KILDAIRE FARM RD ,35.70711378,-78.79652253
Firehouse Subs,1047 Beaver Creek Commons DR ,35.74374477,-78.87238568
LATIN QUARTER,7335 SIX FORKS  RD ,35.88069032,-78.64725808
Pine Hollow Golf Club Food Service,3300 GARNER RD ,35.67653726,-78.50626539
Chick-fil-A #792,6701 FALLS OF NEUSE RD ,35.87534331,-78.62404244
PENN STATION #251,1013 MARKET CENTER DR ,35.80454378,-78.81676023
MO-TE,3901 CAPITAL  BLVD ,35.83498992,-78.58517624
CPK/BROOKWOOD FARMS FOODCOURT,2400 JOHN BRANTLEY BLVD ,,
Raleigh Crab House,4538 Capital BLVD ,35.84571366,-78.57896604
WELCOME MART,3252 AUBURN KNIGHTDALE ROAD,35.71972403,-78.51969036
CHICK-FIL-A #2181,801 VILLAGE WALK  DR ,35.6392159,-78.83457704
WENDY'S #1337,3715 WESTERN BLVD ,35.78449034,-78.68764087
Tropical Smoothie Cafe,817 Bass Pro LN ,35.83116175,-78.77007317
Wang's Bistro,877-405 E GANNON AVE ,35.8212246,-78.33353509999999
CANNIZZARO'S PIZZERIA,238 S WHITE ST ,35.97699087,-78.51038402
PEACE CHINA,13220 Strickland  RD ,35.90878313,-78.72593809
Anise Pho,222-113 GLENWOOD AVE ,35.78392897,-78.64733509
AMERICAN DELI,1601-11 CROSS LINK RD ,35.75438832,-78.61376
Sullivans Steak House,414 GLENWOOD AVE ,35.78564805,-78.64672862
Al Aseel,717-199 E MARTIN ST ,35.77656647,-78.62699406
Shuckin' Shack,2340-100 Bale ST ,35.81345271,-78.62812288
CHUY'S #72,1035 PARKSIDE MAIN ST ,35.84658961,-78.88869026
Dickey's Barbeque #1496,1102 Parkside Main ST ,35.84836238,-78.88929435
KABABISH CAFE,201 W CHATHAM ST ,35.78664712,-78.78390015
PIZZA HUT #9106,920 NE Maynard RD ,35.80043169,-78.76838489
El Dorado #3,112 E VANCE ST ,35.581700299999994,-78.79884512
El Dorado Restaurant,1303 5TH AVE,35.70820906,-78.62278736
Quiznos Sub,1440 Garner Station BLVD ,35.72533679,-78.65258741
Smithfield Chicken & Bar-B-Que,1440 E Broad St,35.59446528,-78.77463279
DIM SUM HOUSE,100 JERUSALEM DR ,35.85102001,-78.82707041
Vida Dulce Ice Cream Shop,1018 SHOPPES AT MIDWAY DR,35.79843154,-78.50727783
State Farmers Market Restaurant,1240 Farmers Market Dr ,35.76445694,-78.6633093
Starbuck's Target #961,2021 Walnut ST ,35.75778819,-78.73860862
WENDY'S #6320,7132  KNIGHTDALE BLVD ,35.79711938,-78.48874912
Wendy's #1341,4750 Capital Blv,35.85030189,-78.57990167
Goodberry's Creamery,1407 Garner Station Blv,35.72484349,-78.65163223
Panera Bread #601879,2410 Landmark DR ,35.81609747,-78.6975704
SUSHI GAMI,427 WOODBURN RD ,35.789967299999994,-78.66025735
Bojangles # 31,10610 Durant Rd ,35.90586931,-78.59121781
PIOLA,141-100 PARK AT NORTH HILLS ST ,35.837177000000004,-78.63903248
Sheetz,1655 N Main Street,35.59694528,-78.76014426
MOD Pizza - Millbrook Rd,2071  W Millbrook Rd,35.85737248,-78.67971393
Tailgaters Sports Bar,2645-A E Millbrook RD ,35.84846974,-78.5905395
BURGER KING #1094,6300 Capital BLVD ,35.87091963,-78.57966996
MC Restaurant,324 S ACADEMY ST,35.78328321,-78.78164208
ABLE KARAOKE BAR &amp; GRILL,6446 TRYON RD ,35.74559939,-78.76155440000001
NINA'S WING CORNER,877 E GANNON AVE ,35.83015828,-78.29418521
Tuscan Blu,327 W. DAVIE ST ,35.7752364,-78.64497472
Sake House Japanese Restaurant,1141 Falls River AVE ,35.90718863,-78.58877443
Stromboli's ,3434 Edwards Mill  RD ,35.82690996,-78.70345096
Grand Street Pizza,901 N SMITHFIELD RD ,35.79576936,-78.48796476
Dogwood,610 Glenwood AVE ,35.78777191,-78.64681795
Hampton Inn &amp; Suites Foodservice,111 Hampton Woods LN ,35.7929716,-78.74897358
Brier Creek Country Club,9400 Club Hill Dr ,35.90632864,-78.79701316
Lady Justice Cafe,901 Corporate Center DR ,35.79559812,-78.74087256
Wang's Kitchen,3416 POOLE RD ,35.76724571,-78.57953261
Carolina Fish Fry,1566 BENSON RD,35.68442705,-78.60448652
SMITHFIELD'S CHICKEN'N Bar-B-Q,7304 KNIGHTDALE  BLVD ,35.79790459,-78.48480969
SMITHFIELD'S CHICKEN N BAR-B-QUE,4000 JONES SAUSAGE RD ,35.72647997,-78.58070292
TJ's Lunch Counter At Wake Christian,5500 WAKE ACADEMY DR,35.70444604,-78.67165429
Burger King #27555,923 GATEWAY COMMONS CIR,35.96847497,-78.49643336
Mt Fuji,1311 E Broad ST ,35.59548799,-78.77604319
DOMINO'S #4453,4412 FALLS OF NEUSE RD ,35.84340583,-78.61118826
Nil's Cafe,513 E Broad ST ,35.59342774,-78.7940251
GOLDEN SEAFOOD AND CHICKEN,2600 S SAUNDERS ST ,35.74861938,-78.64948768
TAVERN ON THE GREEN,565 COMPETITION RD ,35.67202739,-78.66911618
MARKET RESTAURANT,938 N BLOUNT ST ,35.79344583,-78.63503077
DANTE'S ITALIANO,13200 NEW FALLS OF NEUSE RD ,35.9407555,-78.55981965
CLEAN EATZ,7461 SIX FORKS RD ,35.88069032,-78.64725808
First Citizens Bank Kitchen,4300 Six Forks RD ,35.83913698,-78.64107203
Golden Corral #2485,11016 Capital BLVD,35.94776303,-78.53774736
THE ROLESVILLE GRILL,420 S MAIN ST ,35.91732118,-78.46806696
MACHUPICCHU PERUVIAN CUISINE,4500 FALLS OF NEUSE  RD ,35.84340583,-78.61118826
TARGET CAFE #2784,7129 OKELLY CHAPEL RD ,35.84442227,-78.88560741
Bad Daddy's Burger bar #235,4213 Corners PKY ,35.91890974,-78.78791806
CAFE' SAGE @ HOLIDAY INN - CARY,5630  DILLARD DR ,35.75553675,-78.73628587
McDonald's #28245,110 Carillon Dr ,35.69257858,-78.58282245
Rudino's Pizza &amp; Grinders,2640 Timber DR,35.71604965,-78.63679241
BellaRose Nursing and Rehab Center Foodservice,200 BellaRose Lake WAY ,35.66979959,-78.60082284
Applebee's Grill and Bar,11805 Retail DR ,35.96855168,-78.54257336
TAVA BISTRO,14460 NEW FALLS OF NEUSE RD ,35.94386602,-78.54362008
CHURCHILL'S,1622 GLENWOOD AVE ,35.80323173,-78.64545233
FLYING BURRITO,4800 GROVE BARTON RD ,35.87110639,-78.71583123
Sweet Tomatoes Restaurant,5244 Capital BLVD ,35.85814638,-78.58018299999999
The Pour House Drink Stand,224 S BLOUNT ST,35.77717382,-78.63689319
WENDELL MART,2901 WENDELL BLVD ,35.79244552,-78.37817576
CHARLIE'S KABOBS #2,929 HERITAGE LAKE  RD ,35.94688449,-78.50377701
CAFE 24,126 S SALISBURY ST ,35.77862242,-78.64041384
JADE GARDEN CHINESE RESTUARANT,1207 HILLSBOROUGH ST ,35.78267089,-78.65564881
NICE BOWLS ASIAN CUISINE,4224 NW CARY PKY ,35.79057556,-78.82751464
ALL STAR PIZZA,2822 NEW BIRCH DR ,35.74570711,-78.59888069
Arby's #6768,1500 E Williams ST ,35.71089517,-78.83904369
East Village Bar & Grill,1 DIXIE TRL ,35.79008059,-78.67652344
Taco Bell #22798,2207 S MAIN ST ,35.94669513,-78.53614532
YURI JAPANESE RESTAURANT,1361  KILDAIRE FARM RD ,35.75976658,-78.78193974
Starbucks # 9465,4421 New Bern AVE ,35.79892111,-78.56075395
BEST STEAK &amp; SUBS,323 CROSSROADS BLVD ,35.76064286,-78.73871452
Scoozi Pizza &amp; Grill,7039 Knightdale Blvd,35.7998273,-78.4900383
GOLDEN CORRAL # 2501,1420 E BROAD ST ,35.59376837,-78.77497022
ROADRUNNERS PIZZA,8420-120 LOUISBURG RD ,35.89413592,-78.51092096
Moe's Southwest Grill #283,10760 WAKEFIELD COMMONS DR ,,
SIMPLY CREPES CAFE &amp; CATERING,8470 HONEYCUTT RD ,35.89510574,-78.62166097
YUMMY HIBACHI,"7110 KNIGHTDALE BLVD, STE P",35.79638702,-78.4899936
WAKEFIELD TAVERN,13200 NEW FALLS OF NEUSE RD ,35.9407555,-78.55981965
MCDONALDS #34433,4980 CARY GLEN BLVD ,35.8192725,-78.90188372
TAVERN ON THE GREEN,565 COMPETITION RD ,35.67202739,-78.66911618
BRIXX BRADFORD,14112 BRADFORD GREEN SQUARE ,35.79325638,-78.84558396
Peace China,802 Semart  DR ,35.79052298,-78.63966331
SEQIRUS CAFE,475 GREEN OAKS PKY ,35.65081234,-78.86718952
Smithfield Chicken & Bar-B-Que,7304 US Hwy 64 East ,,
The Grille At Goodnight's & Goodnight's Comedy Club,861 W Morgan ST ,35.78057044,-78.65623803
Bul Box,1125 HATCHES POND LN,35.82663773,-78.84968108
Salvio's Pizzeria,2428 SW Cary Pkwy,35.76363975,-78.82085718
Korean Kitchen,2101 S Main ST ,35.94802112,-78.53310077
KING CHINESE BUFFET,1029 E BROAD ST ,35.59365952,-78.78267468
VIEW BAR,610 GLENWOOD AVE ,35.78777191,-78.64681795
Brooklyn Heights,605 Glenwood AVE ,35.78765337,-78.64749335
Subway #2017,"6320  Capital Blvd, Ste 133",35.87073633,-78.57847002
PIZZA HUT #9214,2026 KILDAIRE FARM RD ,35.73567462,-78.78068706
Ginza Steakhouse,1077 Darrington  DR ,35.79929094,-78.81667687
Popeyes #12729,3904 Western BLVD ,35.78509127,-78.69043452
Panera Bread #6039,231 Grand Hill PL ,35.66506502,-78.84472443
J &amp; S NEW YORK PIZZA,804 PERRY RD ,35.7208474,-78.84460695
Midtown Grille,4421-115 Six Forks RD ,35.83992724,-78.64257479
Norse Brewing Company,203 BROOKS ST,35.97750697,-78.5085161
Mustang Charlie's,1501 N SALEM ST ,35.74825575,-78.85363723
US AIRWAYS CLUB,2400 TERMINAL BLVD ,,
Solas/Bia,419 GLENWOOD AVE ,35.78568566,-78.6477788
Big Eds Garner,231 Timber DR ,35.68500723,-78.60613102
Courthouse Deli,316 Fayetteville ST,35.776264700000006,-78.63982973
SHISH KABOB ,9101 LEESVILLE  RD ,35.896759499999995,-78.72548207
Szechuan Mansion Restaurant,1353 KILDAIRE FARM RD,35.75976658,-78.78193974
Chick-fil-A #868,4621 Capital Blv ,35.84746002,-78.58118683
FOUNDATION,213 FAYETTEVILLE  ST ,35.77777121,-78.63886697
Chick-Fil-A #1218,411 Colanades WAY ,35.7406098,-78.77696357
Kwench Juice Cafe ,9660-142 Falls of Neuse RD ,35.90546933,-78.60229361
Woody's Sports Tavern &amp; Grill,8322 CHAPEL HILL RD,35.79224815,-78.77617181
CAPITAL CLUB 16 RESTAURANT &amp; BAR,16 W MARTIN  ST ,35.77714251,-78.64002343
Mr Dumpling,5470 Apex Peakway ,35.73683859,-78.86537597
BLACK CAT CAFE,4209 LASSITER MILL RD ,35.83964955,-78.64524978
Cafe Tiramisu/North Ridge Pub,6196 Falls Of Neuse Rd ,35.86627943,-78.6187408
CHICK-FIL-A #792,6701 FALLS OF NEUSE RD ,35.87534331,-78.62404244
Jordan Oaks,10820 Penny Rd ,35.71735337,-78.79549961
YAMATO JAPANESE SUSHI & STEAK HOUSE,7110 KNIGHTDALE  BLVD ,35.79638702,-78.4899936
WAFFLE HOUSE #1090,1006 AIRPORT BLVD ,35.85853632,-78.81924536
Zely & Ritz,301 Glenwood AVE ,35.784569,-78.64802957
SHEETZ #634,8101 GLENWOOD AVE ,35.87359133,-78.72883202
Quiznos Sub,3201 EDWARDS MILL RD ,35.82544379,-78.70695572
JUMBO CHINA,404-183 E SIX FORKS RD ,35.82034681,-78.62593575
HIBACHI SUSHI &amp; SUPREME BUFFET,6711 GLENWOOD AVE.,35.86105276,-78.71059746
LA MEXICANITA #2,225 N ARENDELL AVE ,35.82273008,-78.31406114
The Dominican Restaurant,"3601 Capital BLVD, Ste 107",35.82958159,-78.58592881
FAINTING GOAT BREWING COMPANY,330 S MAIN ST ,35.58136729,-78.80007214
Famous Toastery,304 Grand Hill PL ,35.66711942,-78.84367420000001
Snoopy's Hot Dogs And More,2431-161 SPRING FOREST RD ,35.86071298,-78.59906382
McDonald's #7618,1567 Us 70 Hwy E,35.68895612,-78.55377531
LITTLE TOKYO,1105 WALNUT ST ,35.77377018,-78.76025493
University Towers Dining Service,111 FRIENDLY DR,35.78839034,-78.67544835
McKenzie's Restaurant & Pub,12215 Hampton WAY ,35.97818108,-78.54359203
WENDY'S #6325,3715 WESTERN BLVD ,35.78449034,-78.68764087
SULTAN'S DELI,1459 BEAVER CREEK COMMONS DRIVE,35.74554013,-78.88323254
TLAQUEPAQUE MEXICAN CUISINE,11206 CAPITAL  BLVD ,35.95167217,-78.5389061
Keith's BBQ and Catering,13037 Keith Store  RD ,35.96903522,-78.56127439
The Wild Cook's Indian Grill,3212 Hillsborough St ,35.79120472,-78.68001075
XOCO MEXICAN GRILL,410 GLENWOOD AVE ,35.78564805,-78.64672862
WENDY'S #1340,4105 WAKE FOREST RD ,35.83751586,-78.61367241
Subway #25595,10760 Wakefield Commons DR ,35.94279833,-78.54088780000001
The Cobalt Cafe,6150 Rogers RD ,35.92242305,-78.46776638
DUNKIN' DONUTS BASKIN ROBBINS #344346,3570 DAVIS DR ,35.81804247,-78.84694048
Chick-Fil-A #03376,3770 LAKE BOONE TRL ,35.81676997,-78.692995
PANERA BREAD #1649,7840 ALEXANDER PROMENADE PL ,35.91424375,-78.77695631
The Taco Market,3800 NEW BERN  AVE ,35.79743532,-78.57600249
Amberly Local,718 SLASH PINE DR,35.83075427,-78.90892711
GLAXO ZEBULON FOODSERVICE,1011 N ARENDELL AVE ,35.83040203,-78.32849606
Zaxby's #69201,1171 PINE PLAZA DR ,35.7473816,-78.83219078
Che Empanadas,500-115 E Davie ST ,35.77531669,-78.63247092
DUNKIN' #347369,8710-100 GLENWOOD AVE ,35.88736454,-78.74503936
Mandolin,2519 Fairview RD ,35.80902867,-78.65518587
SUBWAY #50592,601 N MAIN ST ,35.66097455,-78.83661982
Terrace Cafe SAS Building A,920 SAS Campus DR ,35.81616993,-78.7476237
TAIPEI CAFE,9825-G CHAPEL HILL RD ,35.81118245,-78.81682593
WENDY'S #6322,1000 AERIAL CENTER PKY ,35.85877302,-78.81734039
Wendy's #2134,7020 Us Hwy 64 E,,
KFC/Taco Bell Of Zebulon,161 Wakelon Dr,35.83320735,-78.31620174
New Asian Garden,13654 Capital BLVD ,36.00548951,-78.51867461
Pizza Hut,3921 WESTERN BLVD ,35.78394918,-78.69180226
Nancy's Pizzeria,8111-137 Creedmoor RD ,35.89754797,-78.68081035
GORDON BIERSCH,2400 JOHN BRANTLEY BLVD ,,
Saint Jacques,6112 Falls of Neuse RD ,35.86627943,-78.6187408
TAIPEI CAFE,9825-G CHAPEL HILL RD ,35.81118245,-78.81682593
Market Grill,1201 Agricultural St.,,
YUM YUM THAI CUISINE,1861 N HARRISON AVE ,35.83023022,-78.7675584
PAPA SHOGUN,111 SEABOARD AVE ,35.78860778,-78.64016785
CLYDE COOPERS BBQ,109 E DAVIE ST ,35.77583605,-78.63753225
Zoes Kitchen,1028 OBERLIN RD ,35.79783502,-78.65845011
AMANTE PIZZA,9545 CHAPEL HILL RD,35.8045716,-78.81120699
Beans & Bubbles,3607-125 FALLS RIVER AVE ,35.93010621,-78.56526166
N. C. BAGEL CAFE &amp; DELI,3108 GRACE PARK DR ,35.82111262,-78.84652326
Buffalo Brothers,1289 Kildaire Farm RD ,35.7627377,-78.78213078
Michelangelos Pizza,928 Us Hwy 64 ,,
Sunny's Diner,8710-104 GLENWOOD AVE ,35.88736454,-78.74503936
UNVINE'D WINE BAR &amp; TOPAS,201 W CHATHAM ST ,35.78664712,-78.78390015
San Remo Italian Grill,3450 Kildaire Farm Rd,35.70711378,-78.79652253
Camos Brothers Pizza,6087 CAPITAL BLVD ,35.86882022,-78.58309511
SHEETZ #507,7900 FAYETTEVILLE  RD ,,
"ANDY'S BURGERS, SHAKES, &amp; FRIES ",239 TIMBER DR ,35.68500723,-78.60613102
Hot Sauce &amp; Ketchup,7440-10 Six Forks RD ,35.88160626,-78.64604669
Michelangelos Pizza,941 N HARRISON AVE,35.80143518,-78.78451708
Demario's,1155  Timber Dr E ,35.68905989,-78.57703897
Hampton Inn & Suites Food Service,600 GLENWOOD AVE ,35.78751043,-78.64657251
Cava #84,403 Daniels ST ,35.79001079,-78.66157335
RUBY TUESDAY,6201 Capital Blv ,35.87004794,-78.58206145
El Paseo,3027-113 Capital BLVD ,35.82107282,-78.5915988
Starbucks #53826,11720 Retail DR ,35.96629568,-78.5434927
Just Cookin',231 Timber DR ,35.68500723,-78.60613102
Kendall Bldg. Snack Bar,700 Wade Ave,35.79736953,-78.65403755
WENDY'S #6323,2007 NW CARY PKY ,35.80538619,-78.81235031
Jersey Mikes Subs,922 Us 64 Hwy ,,
San Lorenzo,411-112 FAYETTEVILLE ST.,35.77525845,-78.63929418
RED DRAGON CHINESE RESTAURANT,2513 FAIRVIEW RD,35.80920928,-78.65461085
THE BRICKHOUSE,3801 HILLSBOROUGH ST ,35.79387274,-78.68856288
La Stella Wood Fired,2420 Hillsborough ST ,35.78792253,-78.66754204
MR. WONDERFUL'S CHICKEN &amp; WAFFLES,3587 MAITLAND DR ,35.79725239,-78.58046526
SHUCKERS OYSTER BAR &amp; GRILL,3309 ROGERS RD ,35.95073316,-78.51539337
NINA'S RISTORANTE,8801 LEADMINE RD ,35.90519757,-78.65724665
ANZIO'S PIZZA,252 SOUTHTOWN CIR ,35.91648377,-78.47039569
KIWI CAFE AND SMOOTHIES,11211 GALLERIA AVE ,35.94865826,-78.54331441
The Lost Cajun Wakefield,10901 Forest Pines DR ,35.9442777,-78.54524907
Bojangles # 2,4405 FALLS OF NEUSE RD ,35.84129134,-78.61244468
Georgina's Pizzeria,3536 Davis DR,35.81812076,-78.84576194
MCDONALD'S #12293,3424 POOLE RD ,35.76749685,-78.57821337
Hope Community Church,821 Buck Jones RD ,35.77077091,-78.73723242
MIKE'S ITALIAN KITCHEN,7144 KNIGHTDALE BLVD ,35.79711938,-78.48874912
MAUDE'S GARDEN &amp; COFFEE,12333 STRICKLAND ROAD,35.90556189,-78.7027985
Centro,106 S Wilmington ST ,35.77926874,-78.63844527
Jersey Mike's #3009,2320-108 Bale ST ,35.812985,-78.62723763
HOLLY HILL CHILDREN'S HOSPITAL DINING,201 MICHAEL J. SMITH LANE,35.77912888,-78.5783855
SUBWAY 4286-KANGAROO 1516,3505 KILDAIRE FARM  RD ,35.70271047,-78.79384541
CITY BARBEQUE- GARNER,110 CABELA DR ,35.69799194,-78.58356211
WENDY'S #6319,181 GRAND HILL PL ,35.66221876,-78.84762462
EASTERN CHINA CHINESE RESTAURANT,9585 Chapel Hill ,35.8062,-78.80999811
Subway #30454,7850-100 Alexander Promenade PL ,35.91259169,-78.7803264
PHARAOH'S @ THE MUSEUM,5 EDENTON  ST ,35.78116162,-78.63925223
THE BURGER SHOP,203 WAIT AVE ,35.978886100000004,-78.50924596
Uncorked Wine Bar,10511 Shawdowlawn DR ,,
Firehouse Subs Ladder #178,10251 Little Brier Creek  LN ,35.91133497,-78.78517004
Secrets Cajun Kitchen,4511 NEW BERN AVE,35.79875761,-78.55938498
JOSE AND SONS,327 W DAVIE ST ,35.7752364,-78.64497472
Lemon Shark Poke,2000 Boulderstone WAY ,35.79156535,-78.84859346
China Fu,1121-103 Falls River AVE,35.90616936,-78.58829014
BEST WESTERN PLUS EDISON INN FOODSERVICE,1595 MECHANICAL BLVD ,35.72391732,-78.64471806
PIZZA HUT #9210,321  N MAIN ST ,35.65582685,-78.83511867
CAFE CATURRA,432 WOODBURN RD ,35.78994083,-78.65855965
Neo-Asia,6602 GLENWOOD AVE ,35.86036202,-78.70776115
MCALISTER'S DELI,4361 LASSITER@NORTH HILLS AVE ,,
BEEF O' BRADY'S,305 S MAIN ST ,35.58164085,-78.79935598
Starbucks Target #1794,8651 Brier Creek PKY ,35.90295188,-78.78588758
V PIZZA,1389 Kildaire Farm RD ,35.75907973,-78.78276201
Calavera Taqueria Restaurant,615 W Morgan ST ,35.7796093,-78.64877604
Outback Steakhouse #3459,5200 Capital BLVD ,35.85666967,-78.58031568
Sheetz #664,6030 Village Park DR ,35.79758228,-78.50003382
EL RINCON PERUANO,7909 FALLS OF NEUSE RD ,35.89330024,-78.62599606
Moe's Southwest Grill #283,10760 WAKEFIELD COMMONS DR,35.94279833,-78.54088780000001
BIG JOHN'S NEW HAVEN STYLE,1839-138 S Main ST ,35.95204501,-78.52816059
Nancy's Pizzeria,8111-137 Creedmoor RD ,35.89754797,-78.68081035
PHO PHO PHO NOODLE KITCHEN &amp; BAR,510-103 GLENWOOD AVE.,35.78663007,-78.64718
WAFFLE HOUSE #725,2624 WESTINGHOUSE BLVD ,35.81659394,-78.59823562
BA-DA WINGS,6300-108 CREEDMOOR RD ,35.87241027,-78.67947283
HYATT PLACE,710 CORPORATE CENTER DR ,35.79191164,-78.73805959
"Hwy 55 Burgers, Shakes &amp; Fries",4325  GLENWOOD  AVE ,35.84183815,-78.68184484
RIDGEWOOD WINE &amp; BEER CO.,1214 RIDGE RD ,35.80212022,-78.68558086
Carolina Ale House,7981 Skyland Ridge PKY ,35.91437536,-78.78281819
Second Empire at Dodd-Hinsdale,330 HILLSBOROUGH ST ,35.78102197,-78.64468913
SUBWAY,311 CROSSROADS BLVD ,35.76064286,-78.73871452
Jonathan's Sports Lounge &amp; Grill,3400 New Birch DR ,35.74660149,-78.59862151
MCDONALDS #29233 BRIER CREEK WALMART,10050 GLENWOOD AVE ,35.91234038,-78.77801463
MOJO'S GRILL WAKE TECH,9101 FAYETTEVILLE  RD ,35.65086793,-78.70393311
Crepe Traditions,2604  Hillsborough  ST ,35.78854261,-78.6701207
EURO CAFE,5959 TRIANGLE TOWN BLVD ,35.86599856,-78.57603863
Pei Wei Asian Diner #0116,1107 -101 Walnut ST,35.77143524,-78.76293052
Chick-Fil-A #4239,1010 FORESTVILLE RD,35.94595609,-78.50659937
BABA GHANNOUJ MEDITERRANEAN BISTRO,14460 NEW FALLS OF NEUSE RD ,35.94386602,-78.54362008
DUNKIN DONUTS BASKIN ROBBINS #350706,10030 GREEN LEVEL CHURCH  RD ,35.82060358,-78.90107787
Uncle Julio's #48,4325 GLENWOOD AVE,35.84183815,-78.68184484
China O,222-117 GLENWOOD AVE ,35.78392897,-78.64733509
Pho Sure,7451 Six Forks RD ,35.88069032,-78.64725808
WHICH WICH #327,3301 VILLAGE MARKET  PL ,35.80772157,-78.81800343
Kroger #371 Deli ,1371 EAST BROAD STREET,35.59548799,-78.77604319
Harris Teeter #136 Starbucks,9600 FALLS OF NEUSE RD,35.90522894,-78.60015155
ROSATI'S PIZZA,3605 DAVIS  DR ,35.82130357,-78.84976245
KING WOK,7405 SUNSET LAKE RD ,35.59548799,-78.77604319
Smithfield's Chicken 'N' Bar-B-Q,121 WAKELON ST,35.83344055,-78.31878142
Peak City Grill & Bar,126 N Salem ST ,35.73152951,-78.85065754
SASSOOL,9650 STRICKLAND RD ,35.90420107,-78.65677159
WHICH WICH #182,8521 BRIER CREEK PKY ,35.90685073,-78.78334742
SPIRITS PUB &amp; GRUB,701 E CHATHAM ST ,35.79216315,-78.76531398
FLIK INTERNATIONAL AT FIDELITY,11000 WESTON PKY ,35.82847987,-78.80246624
3 OLIVES PIZZA &amp; DELI,800-103 S. NEW HOPE ROAD,35.78367204,-78.56103865
Pizza Hut,10911-111 RAVEN RIDGE RD ,35.90597894,-78.59080305
CHRONIC TACOS,1000 FORESTVILLE RD ,35.94611021,-78.5075981
Woodland Terrace Independent Living Foodservices,300 KILDAIRE WOODS DR ,35.76613538,-78.7790102
BI CAFE,5000 DAVIS DR ,,
RAJBHOG CAFE,3607 DAVIS DR ,35.82130357,-78.84976245
SLEEP INN BREAKFAST,12401 WAKE UNION CHURCH RD ,35.98418878,-78.53961914
D's Bottle Shop,13200 Falls of Neuse RD ,35.9407555,-78.55981965
Subway #3262,1813 N Harrison AVE ,35.82980559,-78.76837941
THAI THAI CUISINE,108 OSTERVILLE  DR ,35.67779122,-78.83224207
Subway #2615,3416 POOLE RD ,35.76724571,-78.57953261
TASTE OF CHINA,6209 ROCK QUARRY RD ,35.72312495,-78.54796019
Burger King #866,3000 Capital Blv ,35.82022527,-78.59202903
BOMBAY BEIJING RESTAURANT & LOUNGE,1026 RYAN RD ,35.77674815,-78.76677132
Los Cuates Mexican Restaurant,4524 Old Wake Forest RD ,35.84195384,-78.6099575
GROCERY BOY JR.,1912 W GARNER  RD ,35.72598424,-78.6258069
COMFORT INN FUQUAY VARINA BREAKFAST,7616 PURFOY RD ,35.59000199,-78.77411286
IHOP #2130,7304 GB ALFORD HWY ,35.6348554,-78.83001059
Hayes Barton Cafe &amp; Dessertery,2000 FAIRVIEW RD ,35.80452758,-78.64632317
Mami's Latin Style Rotisserie Chicken,2401 WAKE FOREST  RD ,35.81373825,-78.6271485
Pub 4100,4100 GLENWOOD AVE ,35.8372393,-78.67111738
LUGANO RISTORANTE,1060 DARRINGTON DR ,35.79989381,-78.81615412
Divots Grill,180 JAKE MAY DR,35.77109192,-78.38670899
PROVENANCE,120 E MARTIN ST ,35.77657388,-78.63713929
Prestonwood Country Club Ballroom Kitchen,300 Prestonwood PKY,35.79547778,-78.83456632
Shake Shack #1294,310 COLONADES WAY,35.73853619,-78.77756307
THE BERKELEY CAFE,217 W MARTIN ST ,35.77679382,-78.64280742
FIVE GUYS #1728,150 CABELA DR ,35.69799194,-78.58356211
HIBACHI JAPAN,11216 CAPITAL BLVD ,35.9524773,-78.53734624
Subway #41217,8410-140 Louisburg RD ,35.89400635,-78.51125194
HIBACHI GRILL &amp; SUPREME BUFFET,3131 CAPITAL BLVD ,35.82314532,-78.59044451
WHOLE FOODS #10338 PREPARED FOODS,8710 SIX FORKS RD ,35.89889154,-78.65023656
HOT BREADS CAFE,1901  NW CARY PKY ,35.80913057,-78.81047156
Brooklyn Boys Pizzeria,1260 NW Maynard RD ,35.7848684,-78.80932512
THE STATION AT PERSON ST,701 N PERSON ST ,35.78917088,-78.63456336
Subway,6418 TRYON RD ,35.74559939,-78.76155440000001
MCDONALDS #16917,7991 FAYETTEVILLE RD ,35.66510467,-78.69868308
Nakato Express,1262 NW Maynard Rd ,35.78462498,-78.80987267
NC Seafood Restaurant,1201 AGRICULTURE ST ,35.76445694,-78.6633093
QDOBA MEXICAN GRILL #612,210A HINTON OAKS BLVD ,35.79690512,-78.51046763
JOYCE AND FAMILY RESTAURANT,129 N MAIN ST ,35.58594643,-78.80056831
BLAZE PIZZA #1062,1024 MARKET CENTER DRIVE,35.80772157,-78.81800343
KFC # J120105,3928 Western BLVD,35.78576143,-78.69252351
EMBASSY SUITES AND FLYING SPOONS,8001 ARCO CORPORATE  DR ,35.90726871,-78.77640002
SHUCKERS OYSTER BAR &amp; GRILL,510-100 GLENWOOD AVE.,35.78663007,-78.64718
Mac's Tavern,1014 Ryan Rd,35.77674815,-78.76677132
COURTNEY'S NY BAGEL &amp; DELI,929 HERITAGE LAKE  RD ,35.94688449,-78.50377701
Manhattan Pizza,"1600 Ronald Dr, Ste 101",35.83816392,-78.61019076
CHICK-FIL-A #1218,411 COLONADES WAY ,35.7406098,-78.77696357
Hummus Cafe,962-B Airport BLVD ,35.85834068,-78.82129441
Carillon Assisted Living of Wake Forest Dining,3218 Heritage Trade Drive,35.95094757,-78.51668794
DAILY GRIND,10970 CHAPEL HILL RD ,35.85637651,-78.84057157
METLIFE 1 JUICE BAR,101 METLIFE WAY ,35.83005175,-78.79975563
Wendy's #8217,7460 Louisburg Rd ,35.87454018,-78.53976999999999
THE LOCAL @ ALLSCRIPTS,305 CHURCH AT NORTH HILLS ST ,35.83506313,-78.63573722
Backfins Crabhouse,1009-100 Stadium DR ,35.99015656,-78.52993342
Daniels,818 N Main ST ,35.59147338,-78.7892357
"Melting Pot, The",3100 Wake Forest RD ,35.82333592,-78.62038753
