NAME,ADDRESS,CITY,STATE
MCDONALDS #13824,101 TIMBER DR ,GARNER,NC
ATLAS CUISINE.,914 KILDAIRE FARM  RD ,CARY,NC
The Melting Pot,3100 Wake Forest RD ,RALEIGH,NC
Taco Bell / KFC 3248,5434 SIX FORKS RD ,RALEIGH,NC
Cafe Tiramisu/North Ridge Pub,6196 Falls Of Neuse Rd ,RALEIGH,NC
STARBUCKS #29148,1101 PINE PLAZA DR ,APEX,NC
WHICHES ON WHEELS,400 SOUTHTOWN CIR ,ROLESVILLE,NC
KOCINA GRILL AT THE ATRIUM,2501 BLUE RIDGE RD ,RALEIGH,NC
One Whirled Cafe,3652 Rogers Road,WAKE FOREST,NC
Kroger #303 Deli & Bakery ,7905 FALLS OF NEUSE RD ,RALEIGH,NC
WEST PARK TAVERN,2734 NC HWY 55 ,CARY,NC
WAFFLE HOUSE #351,1724 WALNUT ST ,CARY,NC
SUBWAY #50592,601 N MAIN ST ,HOLLY SPRINGS,NC
BODY OF CHRIST CHURCH DREAM CENTER,5616 FOX RD ,RALEIGH,NC
DELHI DARBAR INDIAN CUISINE,962 AIRPORT  BLVD ,MORRISVILLE,NC
GONZA TACOS Y TEQUILA,7713 LEAD MINE  RD ,RALEIGH,NC
MURPHY DINING HALL,2200 TRINITY RD ,RALEIGH,NC
Antonio's Gourmet Market & Papas,8460-112 HONEYCUTT RD ,RALEIGH,NC
WING STOP #1245,684-A CARY TOWNE BLVD ,CARY,NC
Chili's Bar and Grill,3411 Sumner Blv ,RALEIGH,NC
SMOOTHIE U,2600 FOUNDER DRIVE,RALEIGH,NC
ACADEMY STREET BISTRO,200 S ACADEMY ST ,CARY,NC
GOOEY'S AMERICAN GRILLE,950 GATEWAY COMMONS CIR ,WAKE FOREST,NC
Hako Sushi,2603-155 GLENWOOD  AVE ,RALEIGH,NC
MCDONALDS #33850,601 CORPORATE CENTER DR ,RALEIGH,NC
Scotchman Store,503 W GANNON AVE ,ZEBULON,NC
ANOTHER BROKEN EGG CAFE,1103 PARKSIDE MAIN ST ,CARY,NC
GOLDEN PIG,815 W CHATHAM ST ,CARY,NC
WENDY'S #6319,181 GRAND HILL PL ,HOLLY SPRINGS,NC
MANHATTAN CAFE - BAGEL & BAKERY,970 HIGH HOUSE RD ,CARY,NC
DUNKIN DONUTS/BASKIN ROBBINS #334786,5265 SIX FORKS RD,RALEIGH,NC
Subway# 34670,1709 Lake Wheeler RD ,RALEIGH,NC
PEARL CHINESE RESTAURANT,3215 AVENT FERRY RD ,RALEIGH,NC
Tripps,3516 WADE AVE ,RALEIGH,NC
Prestonwood Snack Bar,320 Prestonwood Pky ,CARY,NC
NOTTE URBANA,306 E HARGETT ST ,RALEIGH,NC
BREWERKS CAFE &amp; BAKERY,701 E LANE ST ,RALEIGH,NC
BRUEGGERS BAGELS #32,122 SW MAYNARD RD ,CARY,NC
MCDONALDS #3259,869 SE MAYNARD RD ,CARY,NC
Zanyu Asian Noodles,8450 HONEYCUTT RD ,RALEIGH,NC
Refuel 103,1205 NE MAYNARD RD ,CARY,NC
THE CARY CAFE,212 GRANDE HEIGHTS DR ,CARY,NC
SCHLOTZSKY'S,906 US 64 HWY W ,APEX,NC
San Lorenzo,411-112 FAYETTEVILLE ST.,RALEIGH,NC
CITY MARKET SUSHI,315 BLAKE ST ,RALEIGH,NC
Coastal Cafe,3030 Slater RD ,MORRISVILLE,NC
Chhote's,1155  Timber  DR E ,GARNER,NC
Moe's Southwest Grill #150,506 Daniels St,RALEIGH,NC
St. Raphael Hall Foodservice,5801 Falls Of Neuse Rd ,RALEIGH,NC
LOCKED &amp; LOADED GRILL,305 MCCORMICK STREET,GARNER,NC
SMOK'T BBQ &amp; TAPS,1937 HIGH HOUSE RD ,CARY,NC
GARDENS AT WAKEFIELD PLANTATION,12800 SPRUCE TREE  WAY ,RALEIGH,NC
Rolesville Diner,"411 S Main ST, Unit E",ROLESVILLE,NC
RUCKUS ARBORETUM,2025 RENNAISANCE PARK PL ,CARY,NC
Tonbo Ramen,211 S Wilmington ST ,RALEIGH,NC
Hot Point Deli,1718 WALNUT  ST ,CARY,NC
SASSOOL,9650 STRICKLAND RD ,RALEIGH,NC
FOX AND HOUND #65077,4158  MAIN @ NORTH HILLS ST,RALEIGH,NC
EURO CAFE,5959 TRIANGLE TOWN BLVD ,RALEIGH,NC
CALAVERA EMPANADA &amp; TEQUILA BAR,444 S BLOUNT ST ,RALEIGH,NC
Kathmandu Kitchen,1275 NW MAYNARD RD ,CARY,NC
Justin's Grill,1322-A E MILLBROOK RD ,RALEIGH,NC
Daybreak,154 E CHATHAM ST,CARY,NC
BAHAMA BREEZE RESTAURANT,3309 WAKE FOREST RD ,RALEIGH,NC
Rudino's,5217 Sunset Lake RD ,HOLLY SPRINGS,NC
BLUE PLATE RESTAURANT,3400 N Main ST ,FUQUAY VARINA,NC
HIBACHI BOWL,8109 FAYETTEVILLE RD ,RALEIGH,NC
BOJANGLES #45,900 S MAIN ST ,ROLESVILLE,NC
Honest Abe's Kitchen and Bar,5433 Wade Park BLVD ,RALEIGH,NC
CARRABBA'S ITALIAN GRILL #8412,1201 HADDON HALL DR ,APEX,NC
Fresca Cafe' and Gelato,302  Colonades Way ,CARY,NC
Lowes Foods #184 (Deli),5400 Apex Peakway ,APEX,NC
THE FIRE PIT,950 GATEWAY COMMONS CIR ,WAKE FOREST,NC
GOLDEN CORRAL #942,3424 CAPITAL BLVD ,RALEIGH,NC
BOCCI TRATTORIA &amp; PIZZERIA,2412 HILLSBOROUGH ST ,RALEIGH,NC
New China Restaurant,949 N Harrison AVE,CARY,NC
Cloos Coney Island,2233-102 AVENT FERRY RD ,RALEIGH,NC
FAIRE,2130 CLARK AVENUE,RALEIGH,NC
HOLIDAY INN EXPRESS Foodservice,1014 AIRPORT  BLVD ,MORRISVILLE,NC
Azitra Indian Restaurant,8411 Brier Creek PKY ,RALEIGH,NC
GOLDEN CORRAL #950,3551 GRENELLE ST ,RALEIGH,NC
MCDONALD'S #7811,6250 CAPITAL BLVD ,RALEIGH,NC
SIR WALTER COFFEE,145 E DAVIE ST ,RALEIGH,NC
FULL MOON OYSTER BAR,1600 VILLAGE MARKET PL ,MORRISVILLE,NC
N.Y. Pizza @ High House Crossing,2763 NC Hwy 55 ,CARY,NC
GRILL 57,4202 FAYETTEVILLE RD ,RALEIGH,NC
AKARI EXPRESS,2109-118 AVENT-FERRY RD ,RALEIGH,NC
CAROLINA SUSHI &amp; ROLL,5951-107 POYNER VILLAGE PKY ,RALEIGH,NC
NOODLE BLVD.,919 N HARRISON AVE ,CARY,NC
JUMBO CHINA,3111 LELAND DR ,RALEIGH,NC
BRUEGGERS BAGELS #101,2231 AVENT FERRY RD ,RALEIGH,NC
Mezeh Grill Spring Forest,832 SPRING FOREST RD,RALEIGH,NC
Bella Italia Ristorante,10630 Durant Rd ,RALEIGH,NC
CITY CLUB RALEIGH,150 Fayetteville St,RALEIGH,NC
Pizza Hut,10911-111 RAVEN RIDGE RD ,RALEIGH,NC
DAILY GRIND,10970 CHAPEL HILL RD ,MORRISVILLE,NC
Taqueria Acapulco,1601-43 CROSS LINK RD ,RALEIGH,NC
Tuscan Blu,327 W. DAVIE ST ,RALEIGH,NC
Jersey Mikes Subs,922 Us 64 Hwy ,APEX,NC
PENG'S ASIAN CUISINE,108-A FACTORY SHOPS RD ,MORRISVILLE,NC
DAIRY QUEEN ORANGE JULIUS,8321 BRIER CREEK PKY ,RALEIGH,NC
HERO'S PUB,7440-8 SIX FORKS RD ,RALEIGH,NC
Amalia's Authentic Italian Restaurant,1248 S Main ST ,WAKE FOREST,NC
SARDI'S DEN,8111-137 CREEDMOOR RD ,RALEIGH,NC
Agriculture Bldg. Snack Bar,2 W EDENTON ST,RALEIGH,NC
MR. WONDERFUL'S CHICKEN &amp; WAFFLES,3587 MAITLAND DR ,RALEIGH,NC
BOMBAY BEIJING RESTAURANT & LOUNGE,1026 RYAN RD ,CARY,NC
BOMBSHELL BEER COMPANY,120  QUANTUM ST ,HOLLY SPRINGS,NC
Staybridge Suites Sundowner Room,1012 AIRPORT BLVD,MORRISVILLE,NC
Jersey Mike's subs,701 Cary Towne Blvd,Cary,NC
THE SHINY DINER,1550 BUCK JONES RD ,CARY,NC
TRIBUTE PIZZA PLACE,107 EDINBURGH SOUTH DR ,CARY,NC
El Paseo,3027-113 Capital BLVD ,RALEIGH,NC
Gusto Farm to Street,3088 Wake Forest RD ,RALEIGH,NC
Mod Pizza Waverly,316 Colonades WAY ,CARY,NC
SUGAR BUZZ BAKERY &amp; CAFE,1231 KILDAIRE FARM RD ,RALEIGH,NC
FLASK &amp; BEAKER AT STATEVIEW HOTEL,2451 Alumni DR ,RALEIGH,NC
J. Betski's,10 W Franklin ST ,RALEIGH,NC
RANDY'S PIZZA #9,941 N HARRISON AVE ,CARY,NC
Roly Poly,4040 Ed DR ,RALEIGH,NC
SAKURA 8,2634 TIMBER DR ,GARNER,NC
PHARMACY BOTTLE &amp; BEVERAGE,120 E CHATHAM ST ,CARY,NC
TAVA BISTRO,14460 NEW FALLS OF NEUSE RD ,RALEIGH,NC
Taza Grill,6325 - 19 Falls Of Neuse Rd ,RALEIGH,NC
ISAAC HUNTER'S OAK CITY TAVERN,112 FAYETTEVILLE STREET,RALEIGH,NC
Dalat Oriental Restaurant,2109-110 AVENT FERRY RD,RALEIGH,NC
THAI SAIWASDEE,3601 Capital BLVD STE 107,RALEIGH,NC
McDonald's,10100 LEESVILLE RD ,RALEIGH,NC
NINA'S RISTORANTE,8801 LEADMINE RD ,RALEIGH,NC
Sheetz #675,101 KUMAR CT,RALEIGH,NC
SAXBY'S COFFEE,141 PARK AT NORTH HILLS ,RALEIGH,NC
Lemongrass Thai Restaurant,8320-142 Litchford Rd ,RALEIGH,NC
BUSY BEE CAFE,225 S WILMINGTON ST ,RALEIGH,NC
IRIS,2110 BLUE RIDGE RD ,RALEIGH,NC
KARAIKUDI,744 E CHATHAM ST ,CARY,NC
TERRA FIN STATION,5009 FALLS OF NEUSE RD ,RALEIGH,NC
Starbucks #8459,4421 SIX FORKS RD,RALEIGH,NC
PANDA GARDEN,5249 SUNSET LAKE RD ,HOLLY SPRINGS,NC
Zoes Kitchen #346,6004-100 Falls of Neuse RD ,RALEIGH,NC
SMITHFIELD'S CHICKEN N BAR-B-Q,3578 DAVIS  DR ,MORRISVILLE,NC
GRAVY,135 S WILMINGTON ST ,RALEIGH,NC
CLYDE COOPER'S BARBECUE,327 S WILMINGTON ST ,RALEIGH,NC
Clouds Brewing,126 N. West Street,RALEIGH,NC
Unwined on White,153 S White ST ,WAKE FOREST,NC
CHICK-FIL-A #868,4621 CAPITAL BLVD ,RALEIGH,NC
EGGS UP GRILL #17,1436 N MAIN ST ,FUQUAY-VARINA,NC
CRISP BAR &amp; RESTAURANT,222-103 GLENWOOD AVE ,RALEIGH,NC
PANERA #1813,6201 GLENWOOD AVE.,RALEIGH,NC
PEACE CHINA,13220 Strickland  RD ,RALEIGH,NC
FOOD LION #1541 DELI,9567 CHAPEL HILL RD ,MORRISVILLE,NC
APEX BEVERAGE CO,800 W WILLIAMS ST ,APEX,NC
Euro Cafe,5959 Triangle Towne Blvd.,RALEIGH,NC
ADDA Bistro &amp; Dining,6105 GRACE PARK  DR ,MORRISVILLE,NC
Steak 'N' Shake,4202 Fayetteville RD ,RALEIGH,NC
WENDY'S 1341,4750 CAPITAL  BLVD ,RALEIGH,NC
Zaxby's,8812 HARVEST OAKS  DR ,RALEIGH,NC
JERSEY MIKES 3133,2055 RENAISSANCE PARK  PL ,CARY,NC
KFC/Taco Bell,809 Airport BLVD ,MORRISVILLE,NC
EL MESON GRILL,109 CAPCOM AVE ,WAKE FOREST,NC
IL BACIO,3622 ROGERS RD ,WAKE FOREST,NC
Mahoney's Pub,6490 Tryon RD ,CARY,NC
SPARIANS,141 PARK AT NORTH HILLS ST ,RALEIGH,NC
BRUEGGERS BAGELS #192,9704 STRICKLAND RD ,RALEIGH,NC
TROPICAL PICKEN CHICKEN,2010 S MAIN ST ,WAKE FOREST,NC
TAQUERIA CINCO DE MAYO,2259 New Hope Church RD ,RALEIGH,NC
COOLEY'S RESTAURANT,711 N MAIN ST ,FUQUAY VARINA,NC
CAROLINA BREWING COMPANY TAPROOM,140 THOMAS MILL RD ,HOLLY SPRINGS,NC
Wake Med Kitchen,3000 NEW BERN AVE,RALEIGH,NC
Wingz American Grill,3400-120 New Birch DR ,RALEIGH,NC
PETER WANG'S SZECHUAN & BUFFET,1207 KILDAIRE FARM  RD ,CARY,NC
Showmars - Wake Forest,1009-128 Stadium DR ,WAKE FOREST,NC
Target #1892 Cafe &amp; Starbucks,4191 The Circle @ North Hills ST ,RALEIGH,NC
Oriental Pho,5959 TRIANGLE TOWN BLVD,RALEIGH,NC
6 FLAVORS SOUTH INDIAN CUISINE,9650-145 Strickland RD ,RALEIGH,NC
SUBWAY #40395 (WALMART),7016 GB ALFORD HWY ,HOLLY SPRINGS,NC
WENDY'S #6307,1710 HIGH HOUSE RD ,CARY,NC
Kwench Juice Cafe,9660-142 Falls of Neuse RD ,RALEIGH,NC
ASIAN GARDEN,242 GRANDE HEIGHTS DR ,CARY,NC
N. C. BAGEL CAFE &amp; DELI,3108 GRACE PARK DR ,MORRISVILLE,NC
Strike &amp; Barrel,413 Brooks ST ,WAKE FOREST,NC
NIGHT KITCHEN BAKERY,10 W. FRANKLIN STREET,RALEIGH,NC
Jumbo China Buffet #7,4551-130 New Bern AVE ,RALEIGH,NC
NO. 1 CHINESE RESTAURANT,3667 SW CARY  PKY ,CARY,NC
Jersey Mikes,4121 - 101 NEW BERN AVE,RALEIGH,NC
MIKE'S ITALIAN KITCHEN,7144 KNIGHTDALE BLVD ,KNIGHTDALE,NC
Subway #12050,8711 Six Forks Rd,RALEIGH,NC
Embassy Suites Foodservice,4700 CREEDMOOR RD ,RALEIGH,NC
WING STOP,4531-100 NEW BERN AVE ,RALEIGH,NC
BURGER KING #10775,636 W GANNON AVE ,ZEBULON,NC
LUCETTEGRACE,235 S. SALISBURY STREET,RALEIGH,NC
PEPPERS MARKET,2107 GRACE PARK DR ,MORRISVILLE,NC
TIJUANA FLATS #138,1310 E MILLBROOK RD ,RALEIGH,NC
SALSA AZTECA,7425 KNIGHTDALE BLVD ,KNIGHTDALE,NC
ACADEMY STREET BISTRO,200 S ACADEMY ST ,CARY,NC
THE REMEDY DINER,137 E HARGETT ST ,RALEIGH,NC
International House Of Pancakes,3009 Capital Blv ,RALEIGH,NC
TYLER'S RESTAURANT &amp; TAPROOM,18 SEABOARD  AVE ,RALEIGH,NC
Which Wich #280,413 WOODBURN RD ,RALEIGH,NC
The Grille At Goodnight's & Goodnight's Comedy Club,861 W Morgan ST ,RALEIGH,NC
SUBWAY #2532,809 E Williams ST ,APEX,NC
LIME FRESH #6317,3305 VILLAGE MARKET  PL ,MORRISVILLE,NC
Courtney's,407 E Six Forks Rd ,RALEIGH,NC
HOME2 SUITES INSPIRED TABLE,1020 Lower Shiloh  WAY ,MORRISVILLE ,NC
Smithfield Chicken & Bar-B-Que,7304 US Hwy 64 East ,KNIGHTDALE,NC
ROSATI'S PIZZA MORRISVILLE,3605 DAVIS  DR ,MORRISVILLE,NC
McDonald's 3452,3810 LAKE BOONE TRL ,RALEIGH,NC
Second Empire at Dodd-Hinsdale,330 HILLSBOROUGH ST ,RALEIGH,NC
Char-Grill,4617 Atlantic Ave,RALEIGH,NC
WENDY'S #6328,6611 GLENWOOD AVE ,RALEIGH,NC
RISE BISCUITS &amp; DONUTS,8301-101 BRIER CREEK PKY ,RALEIGH,NC
Red Lobster #0598,1805 WALNUT ST ,CARY,NC
Comfort Inn,1001 WAKE TOWNE DR ,RALEIGH,NC
BRUEGGER'S BAGELS OF NORTH HILLS,110 PARK AT NORTH HILLS ST ,RALEIGH,NC
SUBWAY #37620,4111 ED DR ,RALEIGH,NC
PEDALER WINE AND BEER,5910 DURALEIGH RD ,RALEIGH,NC
International House Of Pancakes,1450 Us 70 Hwy ,GARNER,NC
SOLA COFFEE &amp; CAFE,7705 LEAD MINE RD ,RALEIGH,NC
SUBWAY #17385,611 E CHATHAM ST ,CARY,NC
"Ruckus Pizza, Pasta &amp; Spirits",8111-208 Tryon Woods  DR ,CARY,NC
Starbucks,1380 N Main ST ,FUQUAY VARINA,NC
BITTERSWEET,16 E MARTIN ST ,RALEIGH,NC
Carolina Billiards,533 Plaza Circle ,GARNER,NC
THE PICKLED ONION,8511 CANTILEVER WAY ,RALEIGH,NC
KFC #J120100,1221 New Bern AVE,RALEIGH,NC
AMC Holly Springs 9,320 GRAND HILL PL ,HOLLY SPRINGS,NC
WHICH WICH? #182,8521 BRIER CREEK PKY ,RALEIGH,NC
SALEM STREET PUB,113 N SALEM ST ,APEX,NC
"XL SIDELINE, LLC",1016 INVESTMENT BLVD ,APEX,NC
Hunter's Country Kitchen,84 Hanor LN ,WENDELL,NC
McDonald's #5651,8305 Creedmoor  RD ,RALEIGH,NC
RICCI'S TRATTORIA,10110 GREENLEVEL CHURCH RD ,CARY,NC
Pho Oxtail,3901 Captial  BLVD ,RALEIGH,NC
HAMPTON INN (Breakfast area),1010 AIRPORT BLVD.,MORRISVILLE,NC
STARBUCKS #25115,180 CABELA  DR ,GARNER,NC
Indian Pizza and Kebab,1155 Timber DR E ,GARNER,NC
BRUNO,11211  GALLERIA  AVE ,RALEIGH,NC
BIRYANI MAXX,590 E. CHATHAM ST.,CARY,NC
Bruegger's Bagel Bakery #721,222-117 GLENWOOD AVE ,RALEIGH,NC
HIBACHI SUSHI &amp; SUPREME BUFFET,6711 GLENWOOD AVE.,RALEIGH,NC
DUNKIN DONUTS #350706,10030 GREEN LEVEL CHURCH  RD ,CARY,NC
Sweetwaters Coffee &amp; Tea,726 SLASH PINE DR,CARY,NC
BURGER KING #8872,8300 LITCHFORD RD ,RALEIGH,NC
MCDONALDS #1044,703 W PEACE ST ,RALEIGH,NC
EAST COAST WINGS &amp; GRILL #19,1945 HIGH HOUSE RD ,CARY,NC
Cattails Restaurant,1501 HWY ,ZEBULON,NC
Shearon Harris Cafe,5413 Shearon Harris Rd,NEW HILL,NC
APPLEBEE'S GRILL &amp; BAR,7831 TARGET CIR ,RALEIGH,NC
SOPRANO'S GRILL,1030-101 N ROGERS LN ,RALEIGH,NC
Buffalo Brothers,3111 Capital Blv,RALEIGH,NC
Smoothies +,8105 Fayetteville RD ,RALEIGH,NC
AMEDEO'S,3905 WESTERN  BLVD ,RALEIGH,NC
GARIBALDI TRATTORIA PIZZA E PASTA,900 N MAIN ST ,FUQUAY VARINA,NC
Barcelona Wine Bar,430 W Martin ST ,RALEIGH,NC
Kashin Restaurant,309 CROSSROADS BLVD ,CARY,NC
Cha House,1319 KILDAIRE FARM RD,CARY,NC
Supremo's Pizza,2822  NEW BIRCH  DR ,RALEIGH,NC
RUBY TUESDAY #5122,4411 New Bern AVE,RALEIGH,NC
McDonald's #28245,110 Carillon Dr ,GARNER,NC
RAGAZZI'S,1514 US HWY 70 W ,GARNER,NC
MCDONALDS #35357,1001 FORESTVILLE  RD ,WAKE FOREST,NC
First Watch Daytime Cafe #580,2808-105 Rogers RD ,WAKE FOREST,NC
TWO GUYS GRILLE,4149 Davis DR ,MORRISVILLE,NC
DeM0'S PIZZERIA &amp; DELI,222-121 GLENWOOD AVE ,RALEIGH,NC
El Tapatio,13200 Falls of Neuse Road,RALEIGH,NC
DICKEY'S BARBECUE PIT #413,6552 GLENWOOD  AVE ,RALEIGH,NC
The Cheesecake Factory,4325 Glenwood Ave ,RALEIGH,NC
TROY MEZZE LOUNGE,317 BLAKE ST ,RALEIGH,NC
SPRING ROLLS,5433-280 WADE PARK BLVD ,RALEIGH,NC
BOCCI TRATTORIA &amp; PIZZERIA,2425 KILDAIRE FARM  RD ,CARY,NC
Poole'side Pies,428 S MCDOWELL ST,RALEIGH,NC
Chopt North Ridge,6004 Falls of Neuse RD ,RALEIGH,NC
Mi Cancun,6675-105 FALLS OF NEUSE ROAD,RALEIGH,NC
DQ Grill and Chill #41609,5260 New Bern AVE ,RALEIGH,NC
McDonald's # 25393,2900 Wakefield Pines DR ,RALEIGH,NC
Abbey Road Tavern &amp; Grill,711 N Main ST ,FUQUAY-VARINA,NC
MCDONALDS #28653,1409 MAIN ST ,FUQUAY VARINA,NC
Burger King #8018,100-F Colonades Way ,CARY,NC
Target Food Avenue Express,8641 Brier Creek Pky,RALEIGH,NC
Touchdown Sports Bar,3601 NEW BERN AVE,RALEIGH,NC
Falafel Co,1000 BROOKSIDE DR,RALEIGH,NC
THE CORNER TAVERN &amp; GRILL,2016 CREEKSIDE LANDING  DR ,APEX,NC
TAILGATERS SPORTS BAR,2645-A E Millbrook RD ,RALEIGH,NC
BISTRO IN THE PARK,201 HARRISON OAKS BLVD,CARY,NC
CHIPOTLE MEXICAN GRILL #1087,100-103 Wrenn DR ,CARY,NC
Pam's Farmhouse Restaurant,5111 Western BLVD ,RALEIGH,NC
BURGER KING #756,340 E SIX FORKS RD ,RALEIGH,NC
THE LUXURY BOX,851 CANTILEVER WAY ,RALEIGH,NC
Eggs Up Grill #31,4216 Lassiter RD ,Holly Springs,NC
Crosswinds Cafe,1750 E International Dr,RALEIGH,NC
LEE'S KITCHEN #2,1100 N RALEIGH BLVD ,RALEIGH,NC
KFC/TACO BELL #118,7108  GB ALFORD HWY ,HOLLY SPRINGS,NC
FIRST CHINA RESTAURANT,6452 TRYON  RD ,CARY,NC
RED BOWL ASIAN BISTRO,2020 BOULDERSTONE WAY ,CARY,NC
MAGNOLIA KITCHEN,120 N Wingate ST,WAKE FOREST,NC
MCDONALDS #4997,1700 TRAWICK  RD ,RALEIGH,NC
Mamma Mia,708 Laura Duncan Rd ,APEX,NC
Subway #28785,10450-101 Durant Rd,RALEIGH,NC
Moe's Southwest Grill #205,168 SHENSTONE BLVD ,GARNER,NC
China Won,8109-109 Fayetteville RD ,RALEIGH,NC
BOND BROTHERS BEER COMPANY,202 E CEDAR ST ,CARY,NC
Best Steak and Subs,323 Crossroads BLVD ,CARY,NC
ANOTHER BROKEN EGG,1211 MARKET CENTER  DR ,MORRISVILLE,NC
DICKEY'S BARBECUE #387,2001 C WIDEWATERS PKY ,KNIGHTDALE,NC
The Addison of Fuquay-Varina Dining,6516 Johnson Pond Rd,FUQUAY VARINA,NC
Smithfield Chicken &amp; Bar-B-Que,121 WAKELON ST ,ZEBULON,NC
Hereghty Heavenly Delicious,2603-123 Glenwood AVE ,RALEIGH,NC
McDonald's #14961,4413 Capital BLVD ,RALEIGH,NC
PARK WEST 14 CINEMAS,3400 VILLAGE MARKET PLACE  DR ,MORRISVILLE,NC
Starbucks Coffee #08373,609 Peace St ,RALEIGH,NC
Papa's Pizza &amp; Subs,7713 Leadmine Road,RALEIGH,NC
CATHERINE'S COUNTRY COOKING,304 N MAIN ST ,HOLLY SPRINGS,NC
Six Forks Deli & Grill,210 E Six Forks  RD ,RALEIGH,NC
Uncorked Wine Bar,10511 Shawdowlawn DR ,RALEIGH,NC
Subway #1115,3901-107 Capital BLVD,RALEIGH,NC
Domino's #8925,1284 W WILLIAMS ST,APEX,NC
Abbotswood Assisted Living Dining Services,7900 CREEDMOOR RD,RALEIGH,NC
Murphy House Restaurant-Horse Facility,4601 Trinity Rd,RALEIGH,NC
Alpha Dawgs,6209 ROCK QUARRY RD,RALEIGH,NC
Carolina Ale House,2240 WALNUT ST ,CARY,NC
Axis,4700 CREEDMOOR RD ,RALEIGH,NC
SUSHI O,222-117 GLENWOOD AVE ,RALEIGH,NC
POLLO A LA BRAZA,4614 CAPITAL BLVD ,RALEIGH,NC
Jelly Beans Rest,1120 Buck Jones Rd ,RALEIGH,NC
Rush Lounge,7361 SIX FORKS RD ,RALEIGH,NC
Highway 55 Burgers Shakes &amp; Fries,1011 N Smithfield  RD ,KNIGHTDALE,NC
TARGET CAFE #2784,7129 OKELLY CHAPEL RD ,CARY,NC
Moe's Southwest Grill #283,10760 WAKEFIELD COMMONS DR ,WAKE FOREST,NC
DOMINIC'S NY PIZZERIA,2026 KILDAIRE FARM RD ,CARY,NC
Kroger #324 Deli ,2680 Timber Dr ,GARNER,NC
WHICH WICH #327,3301 VILLAGE MARKET  PL ,MORRISVILLE,NC
MCDAIDS IRISH PUB,2412 HILLSBOROUGH ST ,RALEIGH,NC
LEESVILLE TAP ROOM,13200 STRICKLAND  RD ,RALEIGH,NC
Jimmy John's #895,8204 Tryon Woods  DR ,RALEIGH,NC
Chipotle #3266,4421-120 Six Forks RD ,RALEIGH,NC
PHO &amp; CRAWFISH 79,3310 CAPITAL  BLVD ,RALEIGH,NC
TUPELO HONEY CAFE,425 OBERLIN ROAD,RALEIGH,NC
42ND STREET OYSTER BAR,2400 W TERMINAL BLVD ,Morrisville,NC
WENDY'S #6304,1809 N HARRISON AVE ,CARY,NC
Wake Forest Juice Bar,1040 FORESTVILLE RD ,RALEIGH,NC
Aubrey &amp; Peedi's Grill,38 N Main ST ,WENDELL,NC
Jumbo China Buffet,1625-101 Ronald DR ,RALEIGH,NC
DAME'S CHICKEN &amp; WAFFLES,823 BASS PRO LN ,CARY,NC
FEI Huang Restaurant at A&amp;C ,3210-131 S Wilmington St ,RALEIGH,NC
Carolina Fish Fry,1566 BENSON RD,GARNER,NC
WHISKEY KITCHEN,201 W MARTIN ST ,RALEIGH,NC
RESCO MINI MART,7200-A OLD STAGE RD ,RALEIGH,NC
The Coffee Chamber,903 N Smithfield RD ,KNIGHTDALE,NC
THE ROLESVILLE GRILL,420 S MAIN ST ,ROLESVILLE,NC
Capital City Club,411 FAYETTEVILLE STREET MALL,RALEIGH,NC
St. George Pizza &amp; Subs,7039  Knightdale  Blvd,Knightdale,NC
Royal India Restaurant,3901-103 Capital BLVD,RALEIGH,NC
TAQUERIA EL TORO,3615 JUNCTION  BLVD ,RALEIGH,NC
BOJANGLES,3025 WINSTON HILL DR ,CARY,NC
CICI'S PIZZA,1007 BEAVER CREEK COMMONS DR ,APEX,NC
Zaxby's #66301,2901 Hillsborough ST ,RALEIGH,NC
EL CERRO BAR &amp; GRILL,2217 AVENT FERRY RD ,RALEIGH,NC
HOOK &amp; CLEAVER MARKET,411 BROAD ST ,FUQUAY-VARINA,NC
The Q Shack IV,4120-135 Main At North Hills Mall ,RALEIGH,NC
HUMMUS CAFE,962-A AIRPORT BLVD.,MORRISVILLE,NC
Chef Mario,"2610 Wycliff RD, SUITE 23",RALEIGH,NC
TIR NA NOG,218 S Blount ST ,RALEIGH,NC
Craft Public House,1040 TRYON VILLAGE DR ,CARY,NC
Jimmy John's #791,1904-103 NW Maynard RD ,CARY,NC
BADA BEAN COFFEE &amp; THINGS,938 GATEWAY COMMONS CIR ,WAKE FOREST,NC
SUSHI THAI CARY,106 KILMAYNE DR ,CARY,NC
McCormick & Schmick's Seafood Restaurant,4325 Glenwood AVE ,RALEIGH,NC
JOSE AND SONS,327 W DAVIE ST ,RALEIGH,NC
TASTE OF CHINA,8753 HOLLY SPRINGS  RD ,APEX,NC
SAINTS AND SCHOLARS IRISH PUB,909 SPRING FOREST RD ,RALEIGH,NC
MCDONALD'S #27548,3494 KILDAIRE FARM RD ,CARY,NC
SUBWAY #881,5563 WESTERN BLVD ,RALEIGH,NC
ORGANIC FESTIVAL,5951 POYNER VILLAGE PARKWAY,RALEIGH,NC
El Dorado Mexican Restaurant,2811 Brentwood Rd,RALEIGH,NC
Woodland Terrace Independent Living Foodservices,300 KILDAIRE WOODS DR ,CARY,NC
SULTAN'S DELI,1459 BEAVER CREEK COMMONS DRIVE,APEX,NC
Deja Brew,5001 FALLS OF NEUSE RD ,RALEIGH,NC
Taylor's Convenience Store,10005 SIX FORKS RD ,RALEIGH,NC
Whole Foods Market Deli-Sushi-Cheese,102 B New Waverly Pl ,CARY,NC
RIVER PUB,10940 RAVEN RIDGE  RD ,RALEIGH,NC
WHICH WICH #182,8521 BRIER CREEK PKY ,RALEIGH,NC
Kroger #342 Deli ,1273 NW MAYNARD RD ,CARY,NC
MOZZETTI'S ITALIAN KITCHEN &amp; MARKET,10750 WAKEFIELD COMMONS DR ,RALEIGH,NC
HILTON GARDEN INN RESTAURANT,6412 CAPITAL  BLVD ,RALEIGH,NC
Kabuki Japanese Steak House,220 Nottingham Dr,CARY,NC
Benelux Cafe (at YMCA),1603 HILLSBOROUGH ST ,RALEIGH,NC
MAMA MIA'S PIZZERIA & RESTAURANT,7142 KNIGHTDALE BLVD ,KNIGHTDALE,NC
FREDDY'S FROZEN CUSTARD &amp; STEAKBURGERS #3207,221 GRAND HILL PL ,HOLLY SPRINGS,NC
RUDY'S PUB & GRILLE,780 W WILLIAMS ST ,APEX,NC
Raleigh Times Bar,14 E Hargett ST ,RALEIGH,NC
ZAYKA INDIAN CUISINE,10410-103 MONCREIFFE  RD ,RALEIGH,NC
HOOTERS OF RALEIGH,4206 WAKE FOREST RD ,RALEIGH,NC
Country Inn &amp; Suites Breakfast Area,201 Airgate DR,MORRISVILLE,NC
Wild Wing Cafe,7900 Brier Creek PKY,RALEIGH,NC
Johnny's Pizza #3,13654 Capital BLVD ,WAKE FOREST,NC
McLean's Hillbillies,1206 ARENDELL AVE ,ZEBULON,NC
McDonald's of Prestonwood,4801 SW Cary PKY ,CARY,NC
MOGE TEE,2304 Hillsborough ST ,RALEIGH,NC
AVIATOR SMOKEHOUSE,525 Broad  ST ,FUQUAY VARINA ,NC
New Asian Garden,13654 Capital BLVD ,WAKE FOREST,NC
BROOKSIDE MARKET &amp; DELI,1000 BROOKSIDE DR ,RALEIGH,NC
The Starbar,1731 Trawick RD ,RALEIGH,NC
Farina,8450-B100 HONEYCUTT RD ,RALEIGH,NC
NC Farm Bureau Cafeteria,5301 GLENWOOD AVE ,RALEIGH,NC
Flying Mayan #1,319 Fayetteville ST ,RALEIGH,NC
Jersey Mike's,701 N Main ST,FUQUAY-VARINA,NC
Holiday Inn Express &amp; Suites Foodservice,10450 Little Briar Creek LN ,RALEIGH,NC
Subway #37092,1018-I Shoppes at Midway Plantation ,KNIGHTDALE,NC
First China,6452 Tryon Rd,CARY,NC
Poole's Diner,426  S McDowell ST ,RALEIGH,NC
NOODLES &amp; COMPANY #858            ,2016 MARKET CENTER DR ,MORRISVILLE,NC
Cinebistro,525 NEW WAVERLY PL ,CARY,NC
The Third Place,1811 Glenwood Ave ,RALEIGH,NC
Starbucks,3101 EDWARDS MILL RD ,RALEIGH,NC
Roma's Italian,203 N HARRISON AVE ,CARY,NC
Moonlight Pizza Company,615 W Morgan St,RALEIGH,NC
FIESTA MEXICANA #6,428 VILLAGE PARK DR ,HOLLY SPRINGS,NC
CHRONIC TACOS,1000 FORESTVILLE RD ,WAKE FOREST,NC
MARCO POLLO,1871 LAKE PINE DR ,CARY,NC
BIG APPLE BAGELS,1141 FALLS RIVER  AVE ,RALEIGH,NC
CAFE TIRAMISU,6008 FALLS OF NEUSE RD ,RALEIGH,NC
OAKWOOD PIZZA BOX,610 N PERSON ST ,RALEIGH,NC
LOS GUANACOS,1431 GARNER STATION BLVD ,RALEIGH,NC
FAINTING GOAT BREWING COMPANY,330 S MAIN ST ,FUQUAY-VARINA,NC
Capri Restaurant,6325-17 Falls Of Neuse Rd ,RALEIGH,NC
THE GREAT,243 GRANDE HEIGHTS  DR ,CARY,NC
Fargo Cattle Company,1007 Shepard School RD ,ZEBULON,NC
Wendy's,8050 Ten Ten RD,RALEIGH,NC
DUNKIN DONUTS/BASKIN ROBBINS #339085,2727 CAPITAL BLVD ,RALEIGH,NC
AVIATOR TASTING ROOM,209 TECHNOLOGY PARK  LN ,FUQUAY VARINA,NC
Jordan Oaks,10820 Penny Rd ,CARY,NC
Lowes Foods #189 Deli ,3001 Widewaters Pky ,KNIGHTDALE,NC
WAFFLE HOUSE #378,3909 HILLSBOROUGH ST ,RALEIGH,NC
THE OAKZ,"510 GLENWOOD  AVE , STE. 10",RALEIGH,NC
William Peace University Cafeteria,15 E Peace St ,RALEIGH,NC
Applebee's Grill &amp; Bar,501 E Six Forks RD ,RALEIGH,NC
INTER-FAITH FOOD SHUTTLE @ INTERACT,1012 OBERLIN  RD ,RALEIGH,NC
TASTE,3048 MEDLIN DR ,RALEIGH,NC
HWY 55 BURGERS SHAKES & FRIES,7224 GB ALFORD HWY ,HOLLY SPRINGS,NC
PORT CITY JAVA TEXTILES,1000  MAIN CAMPUS  DR ,RALEIGH,NC
DESI MAZAA,212 GRANDE HEIGHTS DR ,CARY,NC
CARRABBA'S ITALIAN GRILL #3420,4821 CAPITAL BLVD ,RALEIGH,NC
EMBASSY SUITES ATRIUM BREAKFAST BAR,4700 CREEDMOOR RD ,RALEIGH,NC
TRAVINIA ITALIAN KITCHEN,1301 MARKET CENTER DR ,MORRISVILLE,NC
FIVE GUYS BURGERS AND FRIES,2400 JOHN BRANTLEY BLVD ,RALEIGH,NC
CYPRESS OF RALEIGH CLUBHOUSE,8801 CYPRESS LAKES DR ,RALEIGH,NC
RALLYPOINT SPORT GRILL,837 BASS PRO LN ,CARY,NC
TORERO'S MEXICAN RESTAURANT,3002 LELAND DR ,RALEIGH,NC
Tacos Mexico Restaurant,209 E Williams ST ,APEX,NC
ASHEE ETHIOPIAN CUISINE LLC,904 NE MAYNARD RD ,CARY,NC
TAKE 5 CAFE,4025 CENTREGREEN WAY,CARY,NC
NoRa Cafe,12333 STRICKLAND RD ,RALEIGH,NC
Wake Forest Hideout,1839 S MAIN ST,WAKE FOREST,NC
Jersey Mike's Subs,280  Meeting ST ,Cary,NC
GOLDEN CHINA,1324 N MAIN ST ,FUQUAY VARINA,NC
Vicious Fishes Apex,02237 OLD US HWY 1,APEX,NC
PLAZA CAFE,411 FAYETTEVILLE ST ,RALEIGH,NC
CHURCHILL'S,1622 GLENWOOD AVE ,RALEIGH,NC
Los Tres Magueyes,110 SW MAYNARD RD ,CARY,NC
RED ROBIN #688,10 CABELA DR ,GARNER,NC
Wendy's #2393,325 N MAIN ST,HOLLY SPRINGS,NC
KYOTO,12516 CAPITAL  BLVD ,WAKE FOREST,NC
Raleigh Crab House,4538 Capital BLVD ,RALEIGH,NC
China Wok,2753 NC Hwy 55,CARY,NC
KUNG FU TEA,966 HIGH HOUSE RD ,CARY,NC
HARRIS TEETER #118 STARBUCKS,5277 SUNSET LAKE RD ,HOLLY SPRINGS,NC
Grand Street Pizza,909 - 2 McKnight Rd,KNIGHTDALE,NC
CRAZY FIRE MONGOLIAN GRILL,3611 SPRING FOREST RD ,RALEIGH,NC
Tailgaters Sports Bar,2645-A E Millbrook RD ,RALEIGH,NC
VILLAGE DELI &amp; GRILL LAKE BOONE TRAIL,2500 WYCLIFF RD ,RALEIGH,NC
Pizza La Stella,219 FAYETTTEVILLE ST ,RALEIGH,NC
PIZZA SHACK,5621 LOUISBURG RD ,RALEIGH,NC
Camos Brothers Pizza,6087 CAPITAL BLVD ,RALEIGH,NC
FARINA NEIGHBORHOOD ITALIAN,8450 HONEYCUTT RD ,RALEIGH,NC
El Dorado,990 HIGH HOUSE RD,CARY,NC
LA MEXICANITA #2,225 N ARENDELL AVE ,ZEBULON,NC
Corelife Eatery,200-100 Crossroads BLVD ,CARY,NC
The New Oakwood Cafe,300 E Edenton ST ,RALEIGH,NC
Jersey Mike's #3176,242 Grand Hill PL ,HOLLY SPRINGS,NC
King Chef,4644 Capital BLVD ,RALEIGH,NC
Chick-fil-A #1749,1000 Valleystone DR ,CARY,NC
Bahama Breeze Restaurant,3309 Wake Forest Road ,RALEIGH,NC
Pho Sure,7451 Six Forks RD ,RALEIGH,NC
HYATT PLACE,710 CORPORATE CENTER DR ,RALEIGH,NC
PANERA BREAD #1650,1001 BEAVER CREEK COMMONS DR ,APEX,NC
Sheetz,1655 N Main Street,FUQUAY VARINA,NC
KANKI JAPANESE HOUSE OF STEAKS AND SUSHI,4325 Glenwood Ave ,RALEIGH,NC
BOULEVARD PIZZA,2925 WENDELL BLVD ,WENDELL,NC
International House of Pancakes #408,1313 HILLSBOROUGH ST ,RALEIGH,NC
Taco Bell #2836,3224 S Wilmington ST ,RALEIGH,NC
Chipotle Mexican Grill - Garner,4203 FAYETTEVILLE RD,RALEIGH,NC
BOULEVARD PIZZA,2925 WENDELL BLVD ,WENDELL,NC
PENN STATION #251,1013 MARKET CENTER DR ,MORRISVILLE,NC
Subway,2444 Old Apex Rd,CARY,NC
DAVE AND BUSTERS,1105 WALNUT ST ,CARY,NC
BJ's Warehouse Club #123,8811 Brier Creek Pky ,RALEIGH,NC
NISHIKI,1216 PARKSIDE MAIN ST ,CARY,NC
Curry House,2101 S MAIN ST,WAKE FOREST,NC
SCHIANO'S PIZZA PASTA WINGS,948 GATEWAY COMMONS CIRCLE,WAKE FOREST,NC
Windsor Point Restaurant,1221 BROAD ST,FUQUAY VARINA,NC
Wendy's,8209 CREEDMOOR RD ,RALEIGH,NC
DUNKIN' DONUTS #348417,3817 WESTERN BLVD ,RALEIGH,NC
WAKE FOREST RENAISSANCE CENTRE,405 S BROOKS ST ,WAKE FOREST,NC
CHRONIC TACOS OLIVE PARK,9424 FALLS OF NEUSE RD ,RALEIGH,NC
BigFoot Taphouse,222 GLENWOOD AVE,RALEIGH,NC
Wendy's #10543,181 GRAND HILL PL ,HOLLY SPRINGS,NC
Subway,4112 PLEASANT VALLEY RD ,RALEIGH,NC
Chubby's Tacos,1000 Forestville RD ,WAKE FOREST,NC
Culver's of Apex #730,1401 KELLY RD,APEX,NC
PIZZA HUT,11010 LAKE GROVE  BLVD ,MORRISVILLE,NC
Triangle Chicken House,9825-F CHAPEL HILL RD ,MORRISVILLE,NC
MCALISTERS DELI,4361 LASSITER@NORTH HILLS AVE ,RALEIGH,NC
CLOCKWORK,519 W NORTH ST ,RALEIGH,NC
RALPH E. CAPPS TEEN CENTER GRILL,721 N. RALEIGH BLVD.,RALEIGH,NC
Cary Towne Kitchen and Bar,2002 Kildaire Farm RD ,CARY,NC
CARIBOU COFFEE #301,8201-101  BRIER CREEK  PKY ,RALEIGH,NC
DIM SUM HOUSE,100 JERUSALEM DR ,MORRISVILLE,NC
THE RALEIGH GRANDE CINEMA,4840 GROVE BARTON RD ,RALEIGH,NC
Demario's,1155  Timber Dr E ,GARNER,NC
La Shish,908 NE MAYNARD RD,CARY,NC
The Twisted Fork,3571 Sumner BLVD ,RALEIGH,NC
Brooklyn Heights,605 Glenwood AVE ,RALEIGH,NC
CHICK-FIL-A #00585,400 FAYETTEVILLE ST ,RALEIGH,NC
Person Street Pharmacy,702 N Person St ,RALEIGH,NC
NILE CAFE,8204 TRYON WOODS DR ,CARY,NC
Bali Hai,9650 STRICKLAND RD,RALEIGH,NC
REAL McCOY'S,3325 Rogers RD ,WAKE FOREST,NC
China Fu,1121-103 Falls River AVE,RALEIGH,NC
Hilton North Raleigh Foodservice,3415 WAKE FOREST RD ,RALEIGH,NC
Linus &amp; Pepper's,126 S SALISBURY ST ,RALEIGH,NC
NAFKOT ETHIOPIAN RESTAURANT,2109-146 AVENT FERRY RD ,RALEIGH,NC
McDonald's #27549,8011 Brier Creek Pky,RALEIGH,NC
QDOBA MEXICAN GRILL #215,1005 BEAVER CREEK COMMONS ,APEX,NC
Rosemarie's Seafood Joint,14460-183 Falls of Neuse RD ,RALEIGH,NC
WOK ON FIRE,1216 PARKSIDE MAIN ST ,CARY,NC
New Eastern Buffet,9650 Strickland RD ,RALEIGH,NC
Jellybeans,10701 Common Oaks Dr,RALEIGH,NC
MCDONALDS #11523,1805 N HARRISON AVE,CARY,NC
Eastern China Chinese Restaurant,9585 Chapel Hill Rd,MORRISVILLE,NC
Crab du Jour Cajun Seafood Restaurant &amp; Bar,6320 PLANTATION CENTER DR,RALEIGH,NC
BOJANGLES #42,840 E CHATHAM ST ,CARY,NC
DOUBLE EAGLE AT HEDINGHAM,4801 HARBOUR TOWNE DR ,RALEIGH,NC
JERSEY MIKES ,14460 NEW FALLS OF NEUSE RD ,RALEIGH,NC
THE CORNER TAVERN &amp; GRILL,1301 NW MAYNARD  RD ,CARY,NC
THE PR AT THE POOLE,1509 MAIN CAMPUS DR ,RALEIGH,NC
MCDONALDS #4311,1001 MORRISVILLE CARPENTER RD ,MORRISVILLE,NC
UDUPI Cafe,590 E Chatham St ,CARY,NC
CHAR GRILL/SALSARITAS,1600 JOHN BRANTLEY BLVD ,RDU,NC
Crazy Fire Mongolian Grill,1270 BUCK JONES RD ,RALEIGH,NC
FAMOUS TOASTERY,52 EAGLE WING WAY ,GARNER,NC
FOUR BROTHERS PIZZA,3919 NEW BERN AVE ,RALEIGH,NC
SPRING CAFE,2900 SPRING FOREST RD ,RALEIGH,NC
NARA JAPANESE STEAKHOUSE,7256 GB ALFORD HIGHWAY,HOLLY SPRINGS,NC
MCDONALDS #33850,601 CORPORATE CENTER DR ,RALEIGH,NC
Bojangles #52,5856 TRYON RD,CARY,NC
TARGET CAFE #2721,3001 MARKET CENTER DR ,MORRISVILLE,NC
JOINT FORCES HEAD QUARTERS CAFE,1636 GOLD STAR DR ,RALEIGH,NC
42nd St Oyster Bar,508 W JONES ST ,RALEIGH,NC
JAMAICAN GRILLE,5500 Atlantic Springs  RD ,RALEIGH,NC
BEASLEY'S/CHUCK'S/FOX,237  S WILMINGTON ST ,RALEIGH,NC
SHEETZ 555,4010 CONVENIENCE LN ,CARY,NC
JAMAICA JERK MASTERS,3110-116 NEW BERN AVE.,RALEIGH,NC
Asali Desserts and Cafe,107 S Edinburgh DR ,CARY,NC
BAWARCHI,9601 CHAPEL HILL RD ,MORRISVILLE,NC
"CRISTO'S NY STYLE PIZZA, LLC",1302 E MILLBROOK RD ,RALEIGH,NC
Lin Hibachi Buffet,1420 E Broad ST ,FUQUAY-VARINA,NC
Co Noodle,101-120 Park at North Hills ST ,RALEIGH,NC
CAROLINA BARBECUE,733 US 70 HWY W ,GARNER,NC
TAZIKI'S,302 COLONADES  WAY ,CARY,NC
OLDE ENGLISH TEA ROOM &amp; GIFT SHOPPE,219 S WHITE ST,WAKE FOREST,NC
Mezeh Grill,2316 HILLSBOROUGH ST,RALEIGH,NC
TASU ASIAN BISTRO,525 NEW WAVERLY  PL ,CARY,NC
THE OAK,4035 LAKE BOONE  TRL ,RALEIGH,NC
Dean's Kitchen + Bar,1080 DARRINGTON DR ,CARY,NC
Wendy's,1809 N HARRISON AVE,CARY,NC
LATIN QUARTER,7335 SIX FORKS  RD ,RALEIGH,NC
FOUNDATION,213 FAYETTEVILLE  ST ,RALEIGH,NC
Hardee's #1204,8805 Six Forks RD ,RALEIGH,NC
CASHMERE,410-101 GLENWOOD AVE ,RALEIGH,NC
BURGER KING #6063,1299 N MAIN ST ,FUQUAY VARINA,NC
QUIZNOS,1 EXCHANGE PLAZA ,RALEIGH,NC
GODAVARI TRULY SOUTH INDIAN,100-108 JERUSALEM DR ,MORRISVILLE,NC
Chipotle  #2822,1081 PINE PLAZA DR ,APEX,NC
ZAXBY's,1341 N MAIN ST ,FUQUAY VARINA,NC
WORLD OF BEER,4208 SIX FORKS  RD ,RALEIGH,NC
FIVE GUYS BURGERS &amp; FRIES,"8107 CREEDMOOR RD, STE 100",RALEIGH,NC
Noodles &amp; Company #855,403 DANIELS ST ,RALEIGH,NC
CASE DINING HALL,240 JETER DR ,RALEIGH,NC
Wendy's,1343 KILDAIRE FARM RD ,CARY,NC
SUBWAY #35970,4500 FAYETTEVILLE RD ,RALEIGH,NC
Acacia Tree Asian Cuisine,101 KEYBRIDGE DR ,MORRISVILLE,NC
Goodberry's Creamery,1146 KILDAIRE FARM RD,CARY,NC
Ko-An,2800 RENAISSANCE PARK PL,CARY,NC
CARLIE C'S DELI #810,506 W GANNON AVE ,ZEBULON,NC
LA MADELINE,1115 WALNUT ST ,CARY,NC
NOODLES & COMPANY,200 CROSSROADS  BLVD ,CARY,NC
Jersey Mike's #3091,2345 TIMBER DR ,GARNER,NC
CHINA PEARL CHINESE RESTAURANT,2841 JONES FRANKLIN RD ,RALEIGH,NC
HARRIS TEETER #283 STARBUCKS,8101 FAYETTEVILLE RD ,FUQUAY-VARINA,NC
Brigs At The Crossing Restaurant,1225 NW MAYNARD RD ,CARY,NC
BB's Grill,2950  42 HWY ,WILLOW SPRING,NC
MY PLACE,2108 S MAIN ST ,RALEIGH,NC
SUBWAY #168,2808 1/2 Hillsborough St ,RALEIGH,NC
VINOS FINOS Y PICADAS,8450 HONEYCUTT RD ,RALEIGH,NC
DUNKIN DONUTS 348408,13600 NEW FALLS OF NEUSE RD ,RALEIGH,NC
THE HOP YARD,1141 FALLS RIVER AVE.,RALEIGH,NC
ALBARAKA DELI AND GRILL,3815 HILLSBOROUGH ST ,RALEIGH,NC
Dunkin #358977,2880 ROGERS RD,WAKE FOREST,NC
DANNY'S BARBEQUE,311 ASHVILLE AVE ,CARY,NC
TASTE OF JAMAICA,600 E CHATHAM ST ,CARY,NC
Murphy House Restaurant-Dorton Arena,1025 Blue Ridge Rd,RALEIGH,NC
Mi Rancho Mexican Restaurant,2549 S SAUNDERS ST ,RALEIGH,NC
Centro,106 S Wilmington ST ,RALEIGH,NC
JERSEY MIKE'S SUBS #3150,3608-100 DAVIS DR ,MORRISVILLE,NC
THE PIZZA DUDE,1763 W WILLIAMS ST ,APEX,NC
CHURCH'S CHICKEN,1401 NEW BERN AVE ,RALEIGH,NC
J. ALEXANDER'S,4600 CRABTREE VALLEY AVE ,RALEIGH,NC
HWY 55 BURGERS SHAKES & FRIES,3421 N MAIN ST ,FUQUAY VARINA,NC
Smithfield Chicken & Bar-B-Que #95,3578 Davis DR ,MORRISVILLE,NC
Wendy's #1161849,7200 SIX FORKS RD,RALEIGH,NC
Subway,6418 TRYON RD ,CARY,NC
Hong Kong Restaurant,12287 Capital BLVD ,WAKE FOREST,NC
SONO SUSHI BAR,319 FAYETTEVILLE ST ,RALEIGH,NC
THE LATIN CORNER,421 CHAPANOKE RD ,RALEIGH,NC
A Slice of NY Pizza,8301 Brier Creek PKY,RALEIGH,NC
WENDELL FALLS GROUNDS CAFE,320 VINTAGE POINT LN ,WENDELL,NC
Mustang Charlie's,1501 N SALEM ST ,APEX,NC
ESPIGA BAKERY,6320 CAPITAL BLVD #123,RALEIGH,NC
PUBLIX #1514 DELI,1030 FORESTVILLE RD ,WAKE FOREST,NC
WHICH WICH #192,4120 MAIN AT NORTH HILLS  ST ,RALEIGH,NC
COURTYARD BISTRO,3401 SUMNER BLVD ,RALEIGH,NC
TEXAS STEAKHOUSE AND SALOON,948 AIRPORT BLVD,MORRISVILLE,NC
WYE HILL KITCHEN &amp; BREWING,201 S BOYLAN AVE ,RALEIGH,NC
Frankie's Restaurant,11190 Fun Park DR ,RALEIGH,NC
Abyssinia Ethiopian Restaurant,2109-146 AVENT FERRY RD,RALEIGH,NC
THE 19TH HOLE,1527 TRYON RD ,RALEIGH,NC
Chen's Garden,523 N Main ST ,HOLLY SPRINGS,NC
DREAMSPORTS CENTER,1016 INVESTMENT BLVD ,APEX,NC
CASALINGA,4538 CAPITAL BLVD ,RALEIGH,NC
SONIC DRIVE IN #4809,12508 Capital BLVD ,WAKE FOREST,NC
QDOBA MEXICAN GRILL #60,424 E SIX FORKS RD ,RALEIGH,NC
Bruegger's Bagel Bakery #93-0683,8211 Brier Creek PKY ,RALEIGH,NC
CHARLIE'S KABOB GRILL,12235 CAPITAL BLVD ,WAKE FOREST,NC
CHIPOTLE #2066,9504 STRICKLAND ROAD,RALEIGH,NC
Red Robin #573,11420 Capital  BLVD ,WAKE FOREST,NC
Hampton Inn & Suites Food Service,600 GLENWOOD AVE ,RALEIGH,NC
MANHATTAN CAFE,320 S WILMINGTON  ST ,RALEIGH,NC
PISCO MAR,2502 1/2 HILLSBOROUGH  ST ,RALEIGH,NC
Orient Garden Restaurant of Morrisville NC,10285 Chapel Hill RD ,MORRISVILLE,NC
RICCI'S PIZZERIA,5217 SUNSET LAKE RD ,HOLLY SPRINGS,NC
ATRIUM,2600 FOUNDERS DR ,RALEIGH,NC
NC SUBS &amp; PIZZA,590 E CHATHAM ST ,CARY,NC
JIMMY JOHN'S #3436,2012 BOULDERSTONE WAY ,CARY,NC
KAMADO GRILLE,932 SPRINGFIELD COMMONS DR ,RALEIGH,NC
Wendy's #1344,6611 GLENWOOD AVE ,RALEIGH,NC
DOS TAQUITOS,6101 GLENWOOD AVE ,RALEIGH,NC
MY WAY TAVERN,301  W CENTER ST ,HOLLY SPRINGS,NC
Napper Tandy,126 N West ST ,RALEIGH,NC
ATRIA OAKRIDGE DINING,10810 SANDY OAK LN ,RALEIGH,NC
Subway #42679,10300 Chapel Hill RD ,MORRISVILLE,NC
Hardee's #1207,5639 Hillsborough ST ,RALEIGH,NC
Biscuitville #175 ,2820 NC HWY 55,CARY ,NC
Sophie's Grill and Bar,2734 NC 55 ,CARY,NC
Falls Tap Room,5009 FALLS OF NEUSE RD ,RALEIGH,NC
BALI-HAI,1571 HWY. 70 W ,GARNER,NC
Which Wich? #280,413 WOODBURN RD ,RALEIGH,NC
Cafe Helios,413 GLENWOOD AVE ,RALEIGH,NC
HIBACHI JAPAN #2,4001 WAKE FOREST  RD ,RALEIGH,NC
SUBWAY #42484,3429 N MAIN ST ,FUQUAY-VARINA,NC
Swagat Indian Cuisine,9549 Chapel Hill RD ,MORRISVILLE,NC
SHISH KABOB SIX FORKS STATION,8711 SIX FORKS RD ,RALEIGH,NC
HONEYBAKED HAM &amp; CAFE,14460-161 NEW FALLS OF NEUSE RD ,RALEIGH,NC
GARNER RD STOP N GO,2121 GARNER RD ,RALEIGH,NC
BOJANGLES #49,9919 FAYETTEVILLE ST ,RALEIGH,NC
HARRIS TEETER #236 STARBUCKS,7145  O'KELLY CHAPEL RD ,CARY,NC
AWAZ'E ETHIOPIAN/ERITREAN CUISINE,904 NE MAYNARD RD ,CARY,NC
MCDONALD'S #32242,7100 GB ALFORD HWY ,HOLLY SPRINGS,NC
CAMBRIA SUITES BARISTA BAR,300 AIRGATE DR ,MORRISVILLE,NC
Tropical Smoothie Cafe,817 Bass Pro LN ,CARY,NC
Pure Gold Club Drink Stand,301 N HARRISON AVE,CARY,NC
Tremor,410 GLENWOOD AVE ,RALEIGH,NC
McDonald's #28653,1409 Main St ,FUQUAY VARINA,NC
OAK CITY CAFE,3909 S WILMINGTON ST ,RALEIGH,NC
SAXBYS COFFEE #1081,2604 HILLSBOROUGH ST ,RALEIGH,NC
CHEF OF INDIA,748 E CHATHAM ST ,CARY,NC
CROSSROADS STADIUM 20 UNIT #1874,501 CAITBOO AVE ,CARY,NC
RALEIGH BEER GARDEN,614 GLENWOOD AVE ,RALEIGH,NC
El Cerro Mexican Restaurant,3470 KILDAIRE FARM RD,Cary,NC
SHEETZ #600,1019 MORRISVILLE PKY ,MORRISVILLE,NC
JIMMY JOHNS # 1027,8005-120 BRIER CREEK PKY ,RALEIGH,NC
Pizza Hut,1301 N MAIN ST ,FUQUAY VARINA,NC
Old Bar,861 W Morgan ST ,RALEIGH,NC
Harris Teeter #304 Wine Bar,4221 Corners PKY ,RALEIGH,NC
BRITINO'S,11200 CAPITAL BLVD ,WAKE FOREST,NC
MOE'S SOUTHWEST GRILL #100789,5020 ARCO ST ,CARY,NC
TGI Friday's,4209 Wake Forest RD ,RALEIGH,NC
SUGARLAND,2031 CAMERON ST ,RALEIGH,NC
CAFE LUCARNE,309 BLAKE ST ,RALEIGH,NC
Brixx Briercreek,8511 Briercreek PKY ,RALEIGH,NC
Holly's on Hargett,306 E HARGETT ST,RALEIGH,NC
Angus Barn,9401 Glenwood AVE ,RALEIGH,NC
Tripps Restaurant,1428 Garner Station BLVD ,RALEIGH,NC
BURGER KING #6563,12301 Capital BLVD ,WAKE FOREST,NC
Panda Express #2962,2915 Wake Forest RD ,RALEIGH,NC
WELCOME MART,3252 AUBURN KNIGHTDALE ROAD,RALEIGH,NC
Quiznos Sub,1440 Garner Station BLVD ,RALEIGH,NC
PINOT'S PALETTE,1553 BEAVER CREEK COMMONS DR ,APEX,NC
Bojangles # 5,3301 S WILMINGTON ST ,RALEIGH,NC
THE OAKS AT WHITAKER GLEN,501 E WHITAKER MILL RD ,RALEIGH,NC
DUNKIN' #347369,8710-100 GLENWOOD AVE ,RALEIGH,NC
ROYAL JAMES LOUNGE,108 E HARGETT ST ,RALEIGH,NC
Hong Kong #1 Chinese Restaurant,2720 NC HWY 55 ,CARY,NC
Taco Bell #020165,2101 WALNUT ST,CARY,NC
SUBWAY #17385,611 E CHATHAM ST ,CARY,NC
Thai 54,10290 Chapel Hill RD ,MORRISVILLE,NC
Quiznos Sub,3201 EDWARDS MILL RD ,RALEIGH,NC
SHUCKERS OYSTER BAR &amp; GRILL,3309 ROGERS RD ,WAKE FOREST,NC
SHEETZ #505,1895  S FRANKLIN ST ,WAKE FOREST,NC
CREDIT SUISSE CAFE,7033 Louis Stephens DR ,MORRISVILLE,NC
MCDONALD'S #5495,4980 CARY GLEN BLVD ,CARY,NC
CORTEZ SEAFOOD AND COCKTAILS,413-100 GLENWOOD AVE ,RALEIGH,NC
Starbucks Coffee # 8217,6282 GLENWOOD AVE ,RALEIGH,NC
Applebee's ,1480 N Main ST ,FUQUAY VARINA ,NC
THAI'S NOODLE,2101 GRACE PARK DR ,MORRISVILLE,NC
SMITHFIELD'S CHICKEN'N Bar-B-Q,7304 KNIGHTDALE  BLVD ,KNIGHTDALE,NC
TOSSED #13,4117 DAVIS DR ,MORRISVILLE,NC
HWY 55 OF APEX,802 PERRY RD ,APEX,NC
Zoe's Kitchen at North Hills,141-112 PARK AT NORTH HILLS ST ,RALEIGH,NC
TACO BELL #34556,4004 Capital BLVD ,RALEIGH,NC
TROPICAL SMOOTHIE CAFE #NC22,2028 KILDAIRE FARM RD ,CARY,NC
Glenwood Grill,2603-151 Glenwood Ave ,RALEIGH,NC
RALEIGH TAP ROOM,2400 JOHN BRANTLEY BLVD ,RALEIGH,NC
El Cuscatleco Restaurant,1383 SE MAYNARD RD ,CARY,NC
Outback Steakhouse #3459,5200 Capital BLVD ,RALEIGH,NC
MI CANCUN,324 GRAND HILL PL ,HOLLY SPRINGS,NC
SMASHBURGER,6679-105 FALLS OF NEUSE ROAD,RALEIGH,NC
Sultan Kabob House,3933 Western  BLVD,RALEIGH,NC
Jersey Mike's #3002-A,5910 Duraleigh RD ,RALEIGH,NC
Jersey Mike's #3005,957 High House RD ,CARY,NC
Wilson's Eatery,1053-C E Whitaker Mill RD ,RALEIGH,NC
CARIBOU COFFEE #306,109 SW MAYNARD RD ,CARY,NC
Shuckin' Shack,2340-100 Bale ST ,RALEIGH,NC
Hibachi Xpress,2470 WALNUT ST ,CARY,NC
DIXIE BELLE'S,1001 DAVIS  DR ,APEX,NC
Hibachi Flavor,2822-100 New Birch  DR ,RALEIGH,NC
MCDONALDS #11523,1805 N HARRISON AVE ,CARY,NC
Jersey Mike's #3009,2320-108 Bale ST ,RALEIGH,NC
MCDONALDS #3259,869 SE MAYNARD RD,CARY,NC
SHEETZ #598,1885 N BROAD ST ,FUQUAY-VARINA,NC
FRANK THEATRES,1140 PARKSIDE MAIN ST ,CARY,NC
Applebee's,8701 Brier Creek Pky,RALEIGH,NC
JERSEY MIKES #3131,6176 FALLS OF NEUSE RD ,RALEIGH,NC
WENDY'S #10533,4510 FAYETTEVILLE RD ,RALEIGH,NC
DOHERTY'S IRISH PUB &amp; RESTAURANT,5490 APEX PEAKWAY,APEX,NC
LOWES FOODS #185 DELI,1845 AVERSBORO RD ,GARNER,NC
MELLOW MUSHROOM,2125 S MAIN ST ,WAKE FOREST,NC
TELEFLEX CAFE,3015 CARRINGTON MILL BLVD.,MORRISVILLE,NC
THE GARDENS AT WAKEFIELD,12800 SPRUCE TREE  WAY ,RALEIGH,NC
Sheetz,13401 FALLS OF NEUSE RD,RALEIGH,NC
JASMIN MEDITERRANEAN BISTRO,1718 WALNUT ST ,CARY,NC
ALOFT RDU REFUEL,10020 SELLONA ST ,RALEIGH,NC
Los Tres Magueyes # 4,12400-101 Wake Union Ch. RD ,WAKE FOREST,NC
Boondinis,7403 SIX FORKS RD,RALEIGH,NC
Dunkin Donuts/Baskin Robbins 334786,5265 SIX FORKS RD ,RALEIGH,NC
Oliver Twist Tapas Lounge,8111-137 Creedmoor RD ,RALEIGH,NC
BARKING COW,2500 WYCLIFF  RD ,RALEIGH,NC
Sonic Drive-In #3975,700 Cayman AVE ,HOLLY SPRINGS,NC
NETSPORTS,3717 DAVIS DR ,MORRISVILLE,NC
LUMPYS ICE CREAM,306 E WAIT AVE ,WAKE FOREST,NC
ACC AMERICAN CAFE/LA TAPENADE,1600 JOHN BRANTLEY  BLVD ,RDU,NC
Perry's Steakhouse,4509 CREEDMOOR RD,RALEIGH,NC
Domino's #5577,1600 CROSS LINK RD,RALEIGH,NC
HYATT HOUSE H BAR,160 PARK AT NORTH HILLS  ST ,RALEIGH,NC
DEMARCO'S RESTAURANT &amp; BAR,3607 FALLS RIVER  AVE ,RALEIGH,NC
Wendy's #1582135,1001 AERIAL CENTER ,MORRISVILLE,NC
PEAK OF THE VINE,115 N SALEM ST ,APEX,NC
Fu Kee Express,6320 Capital Blv,RALEIGH,NC
Pizza Hut #9214,2026 KILDAIRE FARM ROAD,CARY,NC
THE REMEDY DINER,927-116 W MORGAN ST ,RALEIGH,NC
WINGATE BY WYNDHAM BREAKFAST,1542 MECHANICAL BLVD ,GARNER,NC
Zaxby's of Knightdale,6702 Knightdale  BLVD ,KNIGHTDALE,NC
Philly Steak And Subs,4701 ATLANTIC AVE,RALEIGH,NC
SiP Bistro,128 BASS LAKE RD ,HOLLY SPRINGS,NC
Lonestar Steakhouse,6601 Knightdale BLVD,KNIGHTDALE,NC
LaFarm Bakery &amp; Cafe W.F. West Cary,5055 Arco ST ,Cary,NC
Shortys,212 S White St,WAKE FOREST,NC
"WENDELL TAP ROOM, LLC.",25 N MAIN ST ,WENDELL,NC
Longhorn Steakhouse #277,1411 Beaver Creek Commons DR ,APEX,NC
CITY BARBECUE,1305 KILDAIRE FARM RD ,RALEIGH,NC
MCDONALD'S #34347,9698 FALLS OF NEUSE RD ,RALEIGH,NC
Bojangles #12,3808 WESTERN BLVD ,RALEIGH,NC
Applebee's AG 352,6609 Knightdale BLVD ,KNIGHTDALE,NC
La Cocina De Mama Greta,1604-101 N Market DR ,RALEIGH,NC
New Panda Chinese Restaurant,2660 TIMBER DR ,GARNER,NC
Hardee's #1189,100 Vandora Springs RD ,GARNER,NC
STARBUCKS- TALLEY,2610 CATES AVE ,RALEIGH,NC
Driftwood Cantina,8460 HONEYCUTT RD ,RALEIGH,NC
CIAGO'S ITALIAN BAR &amp; GRILL,522 ST MARY'S ST ,RALEIGH,NC
"ANDY'S BURGERS, SHAKES, &amp; FRIES ",239 TIMBER DR ,GARNER,NC
OFF THE HOOK SEAFOOD RESTAURANT,308 SOUTHTOWN CIR ,ROLESVILLE,NC
Boulevard Pizza,2925 Wendell BLVD ,WENDELL,NC
PEI WEI ASIAN DINER #282,1107 PINE PLAZA ,APEX,NC
Tropical Smoothie Cafe,409 Village Walk DR ,HOLLY SPRINGS,NC
JADE GARDEN CHINESE RESTUARANT,1207 HILLSBOROUGH ST ,RALEIGH,NC
Cold off the Press,416-100 W South ST ,RALEIGH,NC
Pei Wei Asian Diner,4408 Falls of Neuse RD ,RALEIGH,NC
COOL BREEZE,740 E CHATHAM ST ,CARY,NC
J &amp; S NEW YORK,2025 RENNAISANCE PARK PL ,CARY,NC
HADLEY'S,"317  W MORGAN  ST , STE 117",RALEIGH,NC
Pizza La Stella,1389 Kildaire Farm RD ,CARY,NC
Subway 10949,2859 Wendell BLVD ,WENDELL,NC
P.G. WERTH,927-116 W. MORGAN ST.,RALEIGH,NC
SUBWAY #37788,4137 DAVIS DR ,MORRISVILLE,NC
PIZZA HUT #9210,321  N MAIN ST ,HOLLY SPRINGS,NC
BIG SERGIO'S PIZZA OF APEX,2127 TEN TEN RD ,APEX,NC
WENDY'S #6300,1900 LAKE PINE DR ,APEX,NC
WAFFLE HOUSE #1161,3703 NEW BERN AVE ,RALEIGH,NC
FRESH LEVANT BISTRO,8450-106 HONEYCUTT RD ,RALEIGH,NC
Taco Bell #3421,1120 KILDAIRE FARM RD,CARY,NC
HIBACHI GRILL &amp; SUPREME BUFFET,3131 CAPITAL BLVD ,RALEIGH,NC
THE EGG&amp;I BREAKFAST &amp; LUNCH,1104 LEDSOME LN ,CARY,NC
LAS PALMAS IV,1849 S MAIN ST ,WAKE FOREST,NC
D.P. Dough,2109 AVENT FERRY RD ,RALEIGH,NC
ANGIE'S RESTAURANT,1340 W GARNER RD ,GARNER,NC
SLEEP INN FOODSERVICE,12401 WAKE UNION CHURCH RD ,WAKE FOREST,NC
MUM'S JAMAICAN RESTAURANT,3901-101 CAPITAL BLVD ,RALEIGH,NC
Moe's Southwest Grill #683,280 Meeting ST ,CARY,NC
COMFORT INN FUQUAY VARINA BREAKFAST,7616 PURFOY RD ,FUQUAY VARINA,NC
JERSEY MIKES SUBS #3132,2712 HILLSBOROUGH ST ,RALEIGH,NC
Vieni Ristobar,242 S MAIN ST,HOLLY SPRINGS,NC
Viva Mexican Kitchen,4112 PLEASANT VALLEY RD ,RALEIGH,NC
Siemens Cafeteria,7000 SIEMENS RD ,WENDELL,NC
PANERA BREAD #1641,4325 GLENWOOD AVE ,RALEIGH,NC
CHICK-FIL-A #792,6701 FALLS OF NEUSE RD ,RALEIGH,NC
Shaw University Cafeteria,118 E SOUTH ST ,RALEIGH,NC
Rex Hospital Cafeteria,4420 LAKE BOONE TRL,RALEIGH,NC
FRESHII,2316-106 HILLSBOROUGH ST ,RALEIGH,NC
LOCKED & LOADED GRILL,1125 HIGHWAY 70 W ,GARNER ,NC
CHIPOTLE #1946,1516 VILLAGE MARKET  PL ,MORRISVILLE,NC
SAN JOSE MEXICAN RESTAURANT,5811 POYNER VILLAGE  PKY ,RALEIGH,NC
Nancy's Pizzeria,8111-137 Creedmoor RD ,RALEIGH,NC
TRIANGLE MINI MART,10420 CHAPEL HILL  RD ,MORRISVILLE,NC
WENDY'S #11554,3701 NEW BERN AVE ,RALEIGH,NC
HAMPTON INN WAKE FOREST HOT BREAKFAST,12318 WAKE UNION CHURCH RD ,WAKE FOREST,NC
GINO'S PIZZA,6260 GLENWOOD AVE ,RALEIGH,NC
DUNKIN' #350292,1501 WERRINGTON  DR ,HOLLY SPRINGS,NC
Cafe Carolina On The Mall,150 FAYETTEVILLE STREET MALL ,RALEIGH,NC
GONZA TACOS Y TEQUILA,525 NEW WAVERLY PL ,CARY,NC
SUBWAY #57792,2736 NC HWY 55 ,CARY,NC
Pei Wei Asian Diner #108,10251 Little Brier Creek LN,RALEIGH,NC
JQ'S CORNER CAFE,2400 JOHN BRANTLEY BLVD ,RDU AIRPORT,NC
Tony's Pizza,8111 ROWLOCK  WAY ,RALEIGH,NC
HYATT PLACE NORTH RALEIGH-MIDTOWN FOODSERVICE,1105 Navaho DR ,RALEIGH,NC
Market Grill,1201 Agricultural St.,RALEIGH,NC
BURGER KING #17359,851 VILLAGE WALK DR ,HOLLY SPRINGS,NC
ANDYS BURGERS SHAKES &amp; FRIES,3504 DAVIS DR ,MORRISVILLE,NC
HARVEST SUNDRIES &amp; DELI,411 FAYETTEVILLE ST ,RALEIGH,NC
The Reserve at Mills Farm,1000 MILLS CHASE LOOP,APEX,NC
LongHorn Steakhouse #251,8121 Brier Creek PKY ,RALEIGH,NC
Tropical Smoothie Cafe,1264 W WILLIAMS ST,APEX,NC
STARBUCKS #16019,9441 STRICKLAND RD ,RALEIGH,NC
PHO SUPER 9,6401 TRIANGLE PLANTATION DR ,RALEIGH,NC
GREEK FIESTA,1400 BOULDERSTONE WAY ,CARY,NC
BUFFALO BROTHERS GARNER,7245 WHITE OAK RD ,GARNER,NC
IHOP #2130,7304 GB ALFORD HWY ,HOLLY SPRINGS,NC
SUBWAY #14347,150 Fayetteville  ST ,RALEIGH,NC
GREEK BASMA,7272 GB ALFORD HWY ,HOLLY SPRINGS,NC
ROLESVILLE DINER,411 S MAIN  ST ,ROLESVILLE,NC
SHERATON RALEIGH KITCHEN/JIMMY V'S OSTERIA &amp; BAR,421 S SALISBURY ST ,RALEIGH,NC
CORNERSTONE,603  GLENWOOD AVE ,RALEIGH,NC
BUKU,110 E DAVIE ST ,RALEIGH,NC
ELEVATION BURGER,8301 BRIER CREEK  PKY ,RALEIGH,NC
Pista House,6105 GRACE PARK  DR ,MORRISVILLE,NC
QUIZNO'S,2028 KILDAIRE FARM RD ,CARY,NC
BACK IN THE DAY CAFE,3470 KILDAIRE FARM  RD ,CARY,NC
Pizza Hut # 1101,3691 NEW BERN  AVE ,RALEIGH,NC
Chronic Taco Raleigh,9424 FALLS OF NEUSE RD ,RALEIGH,NC
JET'S PIZZA #7,6132 FALLS OF NEUSE RD ,RALEIGH,NC
The Loop Pizza Grill,1207-H KILDAIRE FARM RD ,CARY,NC
Cognito Bar & Grill,410 Glenwood AVE ,RALEIGH,NC
ON THE BORDER,3351 CYPRESS PLANTATION TRL ,RALEIGH,NC
DAIRY QUEEN GRILL &amp; CHILL,631 WALNUT  ST ,CARY,NC
Lucky 32,7307 TRYON RD ,CARY,NC
SPRING CAFE 2,2900-104 SPRING FOREST RD ,RALEIGH,NC
Cadence at Wake Forest Dining,3218  Heritage Trade DR ,WAKE FOREST,NC
MOD Pizza - Waverly,316 Colonades Way,CARY,NC
Chick-fil-A #1218,4111 Colonades WAY,CARY,NC
CiCi's Pizza #413,12516 Capital,WAKE FOREST,NC
GERMAN GRILLE,243  GRANDE HEIGHTS DR ,CARY,NC
ENRIGO ITALIAN BISTRO,575 New Waverly PL ,CARY,NC
SUBWAY #35970,4500 FAYETTEVILLE RD ,RALEIGH,NC
St. Augustine's University Cafeteria,1315 Oakwood Ave ,RALEIGH,NC
Hampton Inn &amp; Suites-Raleigh Midtown (Food Service),1229 WAKE TOWNE DR,RALEIGH,NC
Teriyakin,10970 Chapel Hill RD ,MORRISVILLE,NC
FLYING BURRITO,4800 GROVE BARTON RD ,RALEIGH,NC
Buku Wake Forest,1228 Heritage Link DR ,WAKE FOREST,NC
MOD Pizza #576,336 SEMBLER LN,CARY,NC
El Senor,2001 Widewater Pky ,KNIGHTDALE,NC
Alamo Drafthouse Cinema,2116-D New Bern AVE ,RALEIGH,NC
DUNKIN DONUTS #348561,8201 CREEDMOOR RD ,RALEIGH,NC
Smashed Waffles,2304 Hillsborough ST ,RALEIGH,NC
TEDDY'S PIZZA &amp; PASTA,5563 WESTERN BLVD ,RALEIGH,NC
Pho Super 9,6401 Triangle Plantation DR ,RALEIGH,NC
JOY LUCK CLUB OF GRAND ASIA MARKET,1253 BUCK JONES RD ,RALEIGH,NC
Alpaca Peruvian Charcoal Chicken,57 Cabela DR ,GARNER,NC
Bojangles # 31,10610 Durant Rd ,RALEIGH,NC
LaForesta Italian Cafe And Pizzeria,203 BROOKS ST,WAKE FOREST,NC
LIME FRESH #6331,8521 BRIER CREEK RD ,RALEIGH,NC
DUNKIN DONUTS #306810,3209 S WILMINGTON ST ,RALEIGH,NC
CHAMPA THAI &amp; SUSHI,8521 BRIER CREEK  PKY ,RALEIGH,NC
Panera Bread #1642,2234 Walnut  ST ,CARY,NC
HWY 55 BURGERS SHAKES &amp; FRIES,3421 N MAIN ST ,FUQUAY VARINA,NC
WHOLE FOODS #10338 PREPARED FOODS,8710 SIX FORKS RD ,RALEIGH,NC
SEASONS 52 #4547,4325-2100 GLENWOOD AVE ,RALEIGH,NC
Jersey Mikes Restaurant,4542 Capital BLVD ,RALEIGH,NC
Daily Taco,10970-122 CHAPEL HILL RD ,MORRISVILLE,NC
ROSALINI'S,6210 ROGERS  RD ,ROLESVILLE,NC
41 NORTH COFFEE CO.,41 N MAIN ST ,WENDELL,NC
CHICK-FIL-A #00585,400 FAYETTEVILLE ST ,RALEIGH,NC
MEDALLION DINING SERVICE,1995 NW CARY  PKY ,MORRISVILLE,NC
TACOS Y PUPUSAS LAS MARIAS,1600-107 RONALD DR ,RALEIGH,NC
FRESCA CAFE' AND GELATO,302 COLONADES  WAY ,RALEIGH,NC
Mac's Tavern,1014 Ryan Rd,CARY,NC
El Rodeo Restaurant,2404 Wake Forest Rd,RALEIGH,NC
ZAXBY'S #66201,1341 N MAIN ST ,FUQUAY VARINA,NC
METRO DINER #3002,6325-73 FALLS OF NEUSE RD ,RALEIGH,NC
CARY CRAB HOUSE,220 Crossroads BLVD ,CARY,NC
BIG MIKES BBQ,1222 NW MAYNARD ROAD,CARY,NC
OUTBACK STEAKHOUSE #3443,1289 KILDAIRE FARM RD ,CARY,NC
AC Hotel Raleigh North Hills Level 7,101 PARK AT NORTH HILLS ST ,RALEIGH,NC
COCINA MEXICANA LA PENA DE HOREB,2125 TEN TEN RD ,APEX,NC
Sonic Drive-In ,4648 Atlantic AVE ,RALEIGH,NC
Chick-fil-A #792,6701 FALLS OF NEUSE RD ,RALEIGH,NC
GROCERY BOY JR,1912 W GARNER RD ,RALEIGH,NC
Bean Sprouts Cafe,201 E Hargett ST ,RALEIGH,NC
MCDONALDS #15717,4121 BLUE RIDGE RD ,RALEIGH,NC
Cruizers 28,7220 Six Forks Rd ,RALEIGH,NC
Wendy's #1168180,10901 Forest Pines Dr ,RALEIGH,NC
CRAZY FIRE MONGOLIAN GRILL,13200 Strickland  RD ,RALEIGH,NC
THE STATE CLUB,2450 ALUMNI DR ,RALEIGH,NC
Burger King #866,3000 Capital Blv ,RALEIGH,NC
Walking Crab,1549 US 70 W ,GARNER,NC
MCDONALDS #34433,4980 CARY GLEN BLVD ,CARY,NC
Jumbo China,404-183 E SIX FORKS RD ,RALEIGH,NC
OAK CITY MEATBALL SHOPPE,180 E DAVIE ST ,RALEIGH,NC
ZAXBY'S #44901,101 GRAND HILL PL ,HOLLY SPRINGS,NC
CINELLI'S OF CARY,107 EDINBURGH SOUTH STE.  DR ,CARY,NC
1853 Grille,1025 BLUE RIDGE RD ,RALEIGH,NC
The Exchange Cafe,6933 LOUIS STEPHENS DR,MORRISVILLE,NC
Applebee's #7,11805 Retail Dr.,WAKE FOREST,NC
"Atrium Cafe, The","500 SAS Campus Dr,  Bldg R ",CARY,NC
LIQUID STATE,1908 HILLSBOROUGH ST ,RALEIGH,NC
Carolina Barbecue Of Garner,733 Us 70 Hwy W,GARNER,NC
BRIXX 700,1111 PARKSIDE MAIN ST.,CARY,NC
CAPITAL BUFFET,4011 Capital Blv ,RALEIGH,NC
Terra Bonum Salad Cafe,821 BASS PRO LN ,CARY,NC
BURGER FI,2052 RENAISSANCE PARK PL ,CARY,NC
HOLIDAY INN EXPRESS HOTEL & SUITES BREAKFAST,3741 THISTLE DOWN  DR ,RALEIGH,NC
WAFFLE HOUSE #2051,2237 AVENT FERRY RD ,RALEIGH,NC
Hampton Inn &amp; Suites Foodservice,111 Hampton Woods LN ,RALEIGH,NC
HIGHGROVE ESTATE,1613  S MAIN ST ,FUQUAY VARINA,NC
ROSATI'S PIZZA,3605 DAVIS  DR ,MORRISVILLE,NC
Barbecue Lodge,4600 Capital Blv,RALEIGH,NC
STARBUCKS #23309,1015 PARKSIDE MAIN ST.,CARY,NC
DUNKIN DONUTS OF CARY,3511 KILDAIRE FARM RD ,CARY,NC
BAD DADDY'S BURGER BAR,3300 VILLAGE MARKET PL ,MORRISVILLE,NC
Earth Fare The Healthy Supermarket Restaurant,10341 Moncreiffe RD,RALEIGH,NC
Sushi &amp; Thai Restaurant,2434 WYCLIFF RD,RALEIGH,NC
WOLVES DEN,1060 WILLIAM MOORE DR ,RALEIGH,NC
WINGS CAFE,1307  BUCK JONES RD ,RALEIGH,NC
ITALIAN KITCHEN,4005 WAKE FOREST RD ,RALEIGH,NC
BIRYANI XPRX,748-A E CHATHAM ST ,CARY,NC
Hardee's #1219,607 W Gannon AVE ,ZEBULON,NC
Taco Bell #34245,2304 Hillsborough ST ,RALEIGH,NC
Bogey's Bistro,2300 OLD MILBURNIE RD ,RALEIGH,NC
Taste Of China,1321 5TH AVE ,GARNER,NC
Sosta Cafe,130 E Davie ST,RALEIGH,NC
ZEERA INDIAN RESTAURANT,1311 E BROAD ST ,FUQUAY-VARINA,NC
TRIBECA TAVERN,500 LEDGESTONE WAY ,CARY,NC
CANTINA 18,433  DANIELS  ST ,RALEIGH,NC
TIJUANA FLATS,12102 BRADFORD GREEN SQUARE ,CARY,NC
BEEF O' BRADY'S,305 S MAIN ST ,FUQUAY VARINA,NC
CHUY'S #72,1035 PARKSIDE MAIN ST ,CARY,NC
CRISTO'S BISTRO,5217 SUNSET LAKE RD ,HOLLY SPRINGS,NC
AROMA KOREA,160 NE MAYNARD  RD ,CARY,NC
CHOPSTIX,5607 CREEDMOOR RD ,RALEIGH,NC
Tokyo House,7439 SIX FORKS RD ,RALEIGH,NC
Wasabi,"107 Edinburgh South, St 135 ",CARY,NC
Randy's Pizza,4129 Davis DR ,MORRISVILLE,NC
CITY BARBEQUE- GARNER,110 CABELA DR ,GARNER,NC
Los Tres Magueyes,411-J S Main St ,ROLESVILLE,NC
MAUDE'S GARDEN &amp; COFFEE,12333 STRICKLAND ROAD,RALEIGH,NC
BOJANGLES #15,5409 CAPITAL BLVD ,RALEIGH,NC
ARBY'S #6151,6308  CAPITAL BLVD ,RALEIGH,NC
BJ'S RESTAURANT,5707 DILLARD DR ,CARY,NC
SIMPLY CREPES CAFE &amp; CATERING,8470 HONEYCUTT RD ,RALEIGH,NC
Sweetberry Bowls Holly Springs,150 W HOLLY SPRINGS RD ,HOLLY SPRINGS,NC
B. GOOD,555-110 FAYETTEVILLE ST ,RALEIGH,NC
ARBYS #6657,9221 FAIRBANKS RD ,RALEIGH,NC
Moe's Southwest Grill ,4350-100 Lassiter @ North Hills DR ,RALEIGH,NC
DICKEY'S BARBECUE PIT #388,14460 NEW FALLS OF NEUSE RD ,RALEIGH,NC
WENDY'S #6322,1000 AERIAL CENTER PKY ,MORRISVILLE,NC
SHEETZ #537,2408 DIXIE FOREST RD ,RALEIGH,NC
Mimi's Cafe #118,1115 Walnut  ST ,CARY,NC
STARBUCKS #25115,180 CABELA DR ,GARNER,NC
Chick-Fil-A at North Hills,4154-114 Main at N Hills Street,RALEIGH,NC
Hibachi Sushi,2634 Timber DR ,GARNER,NC
SUSHI IWA APEX,2026 CREEKSIDE LANDING DR ,APEX,NC
Subway #1479,7494 Creedmoor RD,RALEIGH,NC
JERSEY MIKE'S SUBS #3151,6727 KNIGHTDALE BLVD ,KNIGHTDALE,NC
RED DRAGON,4051 Davis DR ,MORRISVILLE,NC
The Boulevard,3901 Capital BLVD ,RALEIGH,NC
A Slice of NY Pizza,2316-102 HILLSBOROUGH ST ,RALEIGH,NC
THE MATTHEWS HOUSE,317 W CHATHAM ST ,CARY,NC
Lepakshi,10970 CHAPEL HILL RD ,MORRISVILLE,NC
California Pizza Kitchen,5959 Triangle Town Center RD ,RALEIGH,NC
Apero,309 BLAKE ST ,RALEIGH,NC
BUFFALO BROTHERS,11735  RETAIL DR ,WAKE FOREST,NC
"ANDY'S BURGERS, SHAKES, & FRIES",11216-106 CAPITAL BLVD ,WAKE FOREST,NC
Taco Bell #3279,3821 WESTERN BLVD ,RALEIGH,NC
CHICK-FIL-A #1218,411 COLONADES WAY ,CARY,NC
Pruitt Health - Raleigh Dining,2420 Lake Wheeler RD,RALEIGH,NC
Burger King # 5460,6300 Capital Blv,RALEIGH,NC
CAPTAIN J'S INTERNATIONAL BUFFET,4420 Capital BLVD ,RALEIGH,NC
JD'S TAVERN,800 W WILLIAMS ST ,APEX,NC
WHITE STREET BREWING CO,218 S WHITE ST ,WAKE FOREST,NC
LOS TRES MAGUEYES,401 WAKE CHAPEL RD ,FUQUAY VARINA,NC
Ruby Tuesday's,1260 N Main St ,FUQUAY VARINA,NC
TENKO JAPAN,280 MEETING ST ,CARY,NC
Pharaoh's,4421 SIX FORKS RD ,RALEIGH,NC
BOJANGLES #46,1513 N ARENDELL AVE ,ZEBULON,NC
PAISAN'S,1275 NW MAYNARD RD ,CARY,NC
SAN JOSE MEX &amp; TEQUILA BAR,11201 GALLERIA AVE ,RALEIGH,NC
DICKEY'S BARBECUE PIT #127,200-100 CROSSROADS BLVD ,CARY,NC
TAIPEI AUTHENTIC CHINESE CUISINE,121 E CHATHAM ST ,CARY,NC
Chilis Bar And Grill,6324 GLENWOOD AVE ,RALEIGH,NC
Subway #2615,3416 POOLE RD ,RALEIGH,NC
GINGER ASIAN CUISINE,2048 KILDAIRE FARM RD ,CARY,NC
Dallas Fried Chicken,1101 E WILLIAMS ST ,APEX,NC
DUNKIN DONUTS #347837,3511 KILDAIRE FARM RD ,CARY,NC
First Citizens Operations Center Cafeteria,100  E Tryon  RD ,RALEIGH,NC
Mitchells Catering,1732 Capital BLVD ,RALEIGH,NC
C. GRACE,407 GLENWOOD AVE ,RALEIGH,NC
KRAFTY'S BURGERS &amp; BREWS,1177 TIMBER DR E ,GARNER,NC
Papa Johns,877 E Gannon AVE ,ZEBULON,NC
ANNAS PIZZERIA,138 S MAIN ST ,FUQUAY VARINA,NC
THE PHO PLACE,3607 FALLS RIVER  AVE ,RALEIGH,NC
BROOKSIDE PIZZA,1000 BROOKSIDE DR ,RALEIGH,NC
ORCHID JAPANESE RESTAURANT,7432 CREEDMOOR RD ,RALEIGH,NC
Capital Cabaret,6713 Mt Herman  RD ,MORRISVILLE,NC
HIBACHI ASIAN DINER,2004 NEW BERN AVE ,RALEIGH,NC
Woody's Sports Tavern &amp; Grill,8322 CHAPEL HILL RD,CARY,NC
RANDY'S PIZZA,2458 WYCLIFF RD ,RALEIGH,NC
Hardee's #1216,216 E Roosevelt AVE ,WAKE FOREST,NC
PETRA  GRILL,6091 CAPITAL BLVD ,RALEIGH,NC
Subway #41217,8410-140 Louisburg RD ,RALEIGH,NC
KFC/Long John Silvers # J120031,7040 Knightdale BLVD ,KNIGHTDALE,NC
HONG KONG CHINESE KITCHEN,5563 WESTERN  BLVD ,RALEIGH,NC
PENN STATION #320,700 CARY TOWNE BLVD ,CARY,NC
MAR-Y-SOL II,1310 CORPORATION PKY ,RALEIGH,NC
STARBUCKS COFFEE,4325 GLENWOOD AVE ,RALEIGH,NC
JERRY'S GRILL,813 E Whitaker Mill RD ,RALEIGH,NC
Rum Runners,208 E MARTIN ST ,RALEIGH,NC
Sakura Express,2811 Hillsborough St ,RALEIGH,NC
HAYASHI-YA JAPANESE CUISINE,8401 BRIER CREEK  PKY ,RALEIGH,NC
SCOTCHMAN #3195,503 W GANNON AVE ,ZEBULON,NC
St. Michael the Arch Angel Catholic Church,808 High House RD ,CARY,NC
DELTA CROWN SKY CLUB,2400 W TERMINAL BLVD ,MORRISVILLE,NC
Cracker Barrel #461,955 AIRPORT BLVD,MORRISVILLE,NC
DAE JANG KUM,101 KEYBRIDGE DR ,MORRISVILLE,NC
MILANO PIZZA,186 WAKELON ST ,ZEBULON,NC
Target Store #2111,1000 Shoppes @ Midway  DR ,KNIGHTDALE,NC
DUCK DONUTS,100 WRENN DR ,CARY,NC
PUBLIX #1466 DELI,1020 BRADFORD PLAZA WAY,CARY,NC
HIGHCRAFT BEER MARKET,2716 HWY. 55,CARY,NC
Casa Cubana,10901 Forest Pines DR ,RALEIGH,NC
ROADRUNNERS PIZZA,8420-120 LOUISBURG RD ,RALEIGH,NC
LONGLEAF CAFE,201 CABELA DRIVE,GARNER,NC
ITALIAN KITCHEN,4005 WAKE FOREST RD ,RALEIGH,NC
THE PHARMACY CAFE,702 PERSON ST ,RALEIGH,NC
Pure Juicery Bar,716 Slash Pine DR ,Cary,NC
Greek Fiesta at Crossroads,319 Crossroads BLVD ,RALEIGH,NC
Yemen Kitchen,117 SMALL PINES DR ,Raleigh,NC
Bonafide Bakeshop &amp; Cafe,1232 W WILLIAMS ST,APEX,NC
VIDRIO,500 GLENWOOD AVE ,RALEIGH,NC
Jimmy John's #1026,2904-106 Wake Forest  RD ,RALEIGH,NC
Life Cafe,1700 Regency PKY ,CARY,NC
QUIZNO'S #4242,4531  NEW BERN AVE ,RALEIGH,NC
Larry's Southern Kitchen,330 Tryon RD,RALEIGH,NC
CHICK-FIL-A,1460 N MAIN ST ,FUQUAY VARINA,NC
N.Y.  BAGELS &amp; DELI,929  HERITAGE LAKE  RD ,WAKE FOREST,NC
Ragazzi's,1514 US 70 HWY W ,GARNER,NC
G-58 CUISINE,10958 CHAPEL HILL RD ,MORRISVILLE,NC
Tasty 8's,121-108 Fayetteville Street,RALEIGH,NC
Quiznos Sub # 91,6605 Falls Of Neuse Rd ,RALEIGH,NC
Kwench Juice Cafe ,9660-142 Falls of Neuse RD ,RALEIGH,NC
Whole Foods Market Cafe,3540 WADE AVE ,RALEIGH,NC
NY Pizza,634 Holly Spring RD,HOLLY SPRINGS,NC
Brooklyn Boys Pizzeria,1260 NW Maynard RD ,CARY,NC
TROPICAL SMOOTHIE CAFE,2028 KILDAIRE FARM RD ,CARY,NC
Sawmill Tap Room,7701 LEAD MINE RD,RALEIGH,NC
AJ'S FOOD MART,6204 TEN TEN RD ,APEX,NC
Which Wich #770,2808-100 Rogers RD ,WAKE FOREST,NC
Chandelier Catering,1077 DARRINGTON DR,CARY,NC
SAINT JACQUES FRENCH CUISINE,6112 FALLS OF NEUSE RD ,RALEIGH,NC
The Winchester Pub &amp; Bottle Shop,6146 Falls of Neuse RD ,RALEIGH,NC
BIG AL'S BBQ,2920 FORESTVILLE  RD ,RALEIGH,NC
