name,address1,address2,borough_name,longitude,latitude
Rising Sun,61 Carter Lane,London,City and County of the City of London,-0.1013775424174498,51.51313633317557
Bojangles Brasserie,1 Old Church Road,Chingford,Waltham Forest,-0.0171908987974365,51.61804425364685
Steam Passage Tavern,44 Upper Street,London,Islington,-0.1051037367470915,51.53481511531683
Kew Gardens Hotel,"292 Sandycombe Road, Richmond",Kew,Richmond upon Thames,-0.2870625453469975,51.47627410360755
Corner Flag,472 Hornsey Road,Upper Holloway,Islington,-0.1222397588277619,51.56759005931915
Blue Posts,6 Bennet Street,London,City of Westminster,-0.1402953838234287,51.50700625134445
Duke of Cambridge,"Kneller Road, Twickenham",Whitton,Richmond upon Thames,-0.3524502998733813,51.45519741287825
Scenario,97 Stoke Newington Road,Stoke Newington,Hackney,-0.0749798134836865,51.554692308197886
Bridge House,13 Westbourne Terrace Road,Maida Vale,City of Westminster,-0.1845556912424851,51.52061310725376
Brewheadz,"Unit 16a, Rosebery Industrial Park",Tottenham,Haringey,-0.0576170634305064,51.59589761450554
Beehive,60-62 Carter Street,Walworth,Southwark,-0.0996954083463404,51.485681152581726
Workers Arms,"Bethnal Green Working Men's Club, 42-44 Pollard Row",Bethnal Green,Tower Hamlets,-0.063327896764365,51.527081973658895
Lamb,54 Holloway Road,Holloway,Islington,-0.1070077154757038,51.54869452257806
Northcote,2 Northcote Road,Battersea,Wandsworth,-0.1672316194921947,51.46056950173932
Bear,28 York Street,Twickenham,Richmond upon Thames,-0.327043543450528,51.44737382675354
White Swan,22 The Village,Charlton,Greenwich,0.0374408649131271,51.48179522349286
Pocket Watch,434 Uxbridge Road,Shepherds Bush,Hammersmith and Fulham,-0.2390917996244588,51.50663354105356
Gardeners Arms,119 Park Road,Uxbridge,Hillingdon,-0.4721044406142818,51.54690333116371
Old Eagle,251 Royal College Street,London,Camden,-0.1397171970037874,51.54311180403765
Hope,49 Norwood High Street,West Norwood,Lambeth,-0.1017758627805853,51.430696797393246
Loz Lounge,301 Cricklewood Broadway,Cricklewood,Brent,-0.2195900553518821,51.559953183197706
Road Trip Bar,243 Old Street,London,Hackney,-0.0842947208226123,51.52662629588417
Hop Poles,320 Baker Street,Enfield,Enfield,-0.0769679521199763,51.66342662343894
Gallery,190 Broadhurst Gardens,West Hampstead,Camden,-0.1900992366225937,51.54656154345388
Walnut Tree,857-861 High Road,Leytonstone,Waltham Forest,0.0122278026899429,51.56952370516946
Horse & Groom,7 Groom Place,London,City of Westminster,-0.1508461379666356,51.49947530919663
Millbank Lounge,DoubleTree by Hilton Hotel 30 John Islip Street,London,City of Westminster,-0.1269515356376419,51.493304819811705
Kings Arms,Leaves Green Rd,Keston,Bromley,0.0296454562106843,51.335203476856776
Slaughtered Lamb,34-35 Gt Sutton Street,London,Islington,-0.1014012127249472,51.52330752975176
Ahir LorenzoÃÂ¢ÃÂÃÂs,298 Nether Street,Finchley,Barnet,-0.1954911260976516,51.60272189134649
Drayton Arms,153 Old Brompton Road,South Kensington,Kensington and Chelsea,-0.1835719010776532,51.49064331505332
Hopper's Hut,1 Invicta Parade. Sidcup High Street,Sidcup,Bexley,0.1067559081175988,51.42448992923283
Tir Na Nog,107 Garratt Lane,Wandsworth,Wandsworth,-0.1909259840712416,51.452583054285576
Radicals & Victuallers,59 Upper Street,London,Islington,-0.1040017812451837,51.53600232302878
Muswell Hillbilly Taproom,14 Avenue Mews,London,Haringey,-0.1438941415149932,51.59072137646877
Volunteer,130-132 Plumstead High Street,Plumstead,Greenwich,0.0924595488918385,51.487139093672674
Prince William Henry,217 Blackfriars Bridge Road,London,Southwark,-0.1040347638359155,51.50537357586026
Four Thieves,51 Lavender Gardens,Battersea,Wandsworth,-0.162363557693896,51.46349685869534
Fatling,109 High Street,Hornchurch,Havering,0.2195900346324664,51.56268151322605
Barrio,45 Essex Road,London,Islington,-0.1003555173656651,51.53768787809447
Kings Arms,268 London Road,Mitcham,Merton,-0.1641984025469473,51.40661891790717
Crown & Sceptre,2A Streatham Hill,Streatham Hill,Lambeth,-0.1247562766689789,51.44496078511653
Beany Green,41 Broadgate Circle,London,City and County of the City of London,-0.0837628717939453,51.5186950467637
Boleyn Tavern,1 Barking Road,East Ham,Newham,0.0391612855840424,51.530650284589214
Browns,"3, Jerome Place, Charter Quay",Kingston,Kingston upon Thames,-0.3078881408395605,51.40924985482582
Rose & Crown,71-73 Torriano Avenue,Kentish Town,Camden,-0.1328918085555331,51.550251514147405
Naturalist,14 Woodberry Down,London,Hackney,-0.0927075235063914,51.57093511393974
California,267 Brighton Road,Belmont,Sutton,-0.1976942008205196,51.34384819188669
Kilkenny Tavern,131 Merton High Street,Merton,Merton,-0.1917140566230812,51.41549989857516
Oyster Shed,1 Angel Lane,London,City and County of the City of London,-0.0894133368136713,51.50974059163588
William Morris,"Swan Island, 2-4 King Street",Hammersmith,Hammersmith and Fulham,-0.2254846259255642,51.49302051832449
Wonder,1 Batley Road,Enfield,Enfield,-0.0854701482673698,51.663430644725935
Balls Brothers,38 St Mary Axe,London,City and County of the City of London,-0.0801860484952555,51.51497647379717
Alchemy,28-30 St George's Walk,Croydon,Croydon,-0.0980597949816018,51.37293916469844
Crown,360 Hornchurch Road,Hornchurch,Havering,0.1885777473254074,51.56555762055602
Beefeater,3 Riverside Way,Uxbridge,Hillingdon,-0.4897493613202216,51.54452413884426
Simmons,7 Camden High Street,London,Camden,-0.1392700827406099,51.534984298142206
G-A-Y,30 Old Compton Street,London,City of Westminster,-0.1300605074425183,51.51377691920806
Dar Marrakesh,422 Edgware Road,Maida Vale,City of Westminster,-0.1740037505726553,51.52314712837303
Biagio @ Bankside,32 Southwark Bridge Road,London,Southwark,-0.0955743384848373,51.506108805388784
Dundee Arms,339 Cambridge Heath Road,Bethnal Green,Tower Hamlets,-0.0561225144431129,51.52903992907918
Bell,617 Forest Road,Walthamstow,Waltham Forest,-0.016097079771913,51.59011338511085
Rising Sun,98 Harper Road,London,Southwark,-0.0931481197000699,51.494504678471344
Queen Elizabeth,58 Bagley Lane,Fulham,Hammersmith and Fulham,-0.1887183713873712,51.47454517853484
Elephant & Castle,119 Newington Causeway,London,Southwark,-0.0990546725169707,51.4969296889988
Earls Court Tavern,123 Earls Court Road,Earls Court,Kensington and Chelsea,-0.1947108213022063,51.49382784399871
Owl & The Pussycat,106 Northfield Avenue,Northfields,Ealing,-0.3169159011968785,51.50282973156271
Great Northern Railway Tavern,67 High Street,Hornsey,Haringey,-0.116548693396492,51.58799260326127
Portobello Star,171 Portobello Road,Notting Hill,Kensington and Chelsea,-0.2040800728712427,51.514205137535534
Ain't Nothin' But...,20 Kingly Street,London,City of Westminster,-0.1395330073317236,51.51298330733355
Horse & Groom,136 Main Road,Sidcup,Bexley,0.0938763537068589,51.42720286471232
Beer House,"by Platforms 10 & 11, Paddington Station Concourse",Paddington,City of Westminster,-0.1767499207096896,51.51647232905104
Lord Stanley,15 St Mary's Road,Plaistow,Newham,0.0247061501821073,51.53143155502195
Wandle,332 Garratt Lane,Earlsfield,Wandsworth,-0.1900000755906689,51.44360295915449
182,182-184 Preston Road,Wembley,Brent,-0.2945376390629349,51.57037283590196
Sourced Market,68-72 Wigmore Street,London,City of Westminster,-0.1501951461555584,51.51625441620013
Hare & Hounds,325 Purley Way,Croydon,Croydon,-0.1171398191871229,51.37225805026118
Fox & Hounds,57 Plumstead Common Road,Plumstead,Greenwich,0.0697697533536872,51.48230797232824
Whelans,341 Oxgate Lane,Cricklewood,Brent,-0.2332866605197145,51.566868678023226
Beefeater,Millington Road,Hayes,Hillingdon,-0.4283671089350352,51.50197549651649
Waitrose,1 Wharf Rd,London,Camden,-0.1234618883282669,51.53615339511961
Canonbury Tavern,"21 Canonbury Place,",London,Islington,-0.0972170829367522,51.54482204283551
Gordon Bennett,"75, Maple Road",Surbiton,Kingston upon Thames,-0.3084413951161348,51.39462648456528
McGoverns,60 High Road,Willesden,Brent,-0.228708273420759,51.54731263254858
Willow Walk,25 Wilton Road,London,City of Westminster,-0.1424272096015822,51.49534051089535
One Bell,170 Old Road,Crayford,Bexley,0.1746204600269476,51.453817795344015
Moranos,12 Station Parade,Canons Park,Harrow,-0.2959274546771051,51.60765715707079
Farr's school of Dancing,17-19 Dalston Lane,Hackney,Hackney,-0.0732966934369418,51.54638242940522
Lord Herbert,47 Herbert Road,Plumstead,Greenwich,0.06950239355917,51.47990260713775
Marquis of Granby,2 Rathbone Street,London,City of Westminster,-0.1348673099360306,51.51817894126482
Britannia,2 Plaistow Grove,Stratford,Newham,0.012743302692454,51.53413768346108
Footman,5 Charles Street,London,City of Westminster,-0.146068677370923,51.508554466809
White Horse,14 Worple Way,Richmond,Richmond upon Thames,-0.296178918177658,51.46155110641861
Gold Coast,224 Portland Road,South Norwood,Croydon,-0.0667354798343689,51.39241707835675
Central Station,37 Wharfdale Road,London,Islington,-0.1204308753286433,51.53342504861587
Sovereign of the Seas,109-111 Queensway,Petts Wood,Bromley,0.0718449473681403,51.389510065293074
Angel,62 St. Giles High Street,London,Camden,-0.1276848697765235,51.515474621946105
Stags Head,55 Orsman Road,London,Hackney,-0.0787612932634957,51.53614876956998
Simmons,61 Royal Mint Street,London,Tower Hamlets,-0.0704925162911481,51.51039285185256
Roseview Hotel,"2 Queens Avenue, Muswell Hill,",Muswell Hill,Haringey,-0.1447892475620432,51.592138340943926
Tichenham Inn,11 Swakeleys Road,Ickenham,Hillingdon,-0.4449402677939014,51.56445881043109
All Bar One,34 Shad Thames,London,Southwark,-0.0726557749977196,51.50318931779274
Old Ship,17 Barnes Street,Poplar,Tower Hamlets,-0.0398464611891309,51.51391327859761
Eagle,159 Farringdon Road,London,Islington,-0.110092438821638,51.52438311544386
Winsor House,Winsor Terrace,East Ham,Newham,0.0674114351830956,51.5151736298269
Sportsmans,58 Station Road,Harlesden,Brent,-0.2477466933132196,51.5338037854697
Lord Morpeth,402 Old Ford Road,Bow,Tower Hamlets,-0.0357932865441747,51.53441169006096
Ship,290 Westferry Road,Isle of Dogs,Tower Hamlets,-0.01860039364837,51.48806131245215
Moonbay,"1-2 Court Parade, East Lane",Wembley,Brent,-0.3188683036338592,51.562118138706616
Lord Raglan,158 Burrage Road,Plumstead,Greenwich,0.0732206943537445,51.48567327936861
Ariadnes Nectar,274 Latimer Road,North Kensington,Kensington and Chelsea,-0.2245747848853829,51.518644716070575
Racketeer,105 Kings Cross Road,London,Camden,-0.1159287571946853,51.52862264954856
Horsenden Hill Golf & Footgolf Centre,Woodland Rise,Greenford,Ealing,-0.3233137453692938,51.54910648988567
Signal,7 Devonshire Road,Forest Hill,Lewisham,-0.0539462122632794,51.43939954314976
Horse & Well,566/568 High Road,Woodford Green,Redbridge,0.0269669870892967,51.61735311045054
Angel & Crown,5 Church Street,Richmond,Richmond upon Thames,-0.3041208646153039,51.46050618603258
Wembley Tavern,121 Wembley Park Drive,Wembley,Brent,-0.2824990009485021,51.562050244906246
Two Brewers,109 Roman Way,Holloway,Islington,-0.1156868912775137,51.54634338882976
Fountain,1 Sixth Cross Road,Twickenham,Richmond upon Thames,-0.3589126590450551,51.438346650419206
Wellington,679 Green Lanes,Hornsey,Haringey,-0.101027486399877,51.58633044996104
Beef & Brew,33 Downham Road,London,Hackney,-0.0777948545904011,51.53889361316836
Jolly Farmers,354 Lewisham High Street,Lewisham,Lewisham,-0.015205137083132,51.45613313542433
Viaduct,221 Uxbridge Road,Hanwell,Ealing,-0.3420916602744545,51.5086736192918
Barrel Project,80 Druid Street,London,Southwark,-0.072572979092986,51.49934806333796
Engineer,65 Gloucester Avenue,London,Camden,-0.1508032962501214,51.54001368824371
Eagle,157 Chobham Road,Stratford,Newham,-0.0004485306910849,51.54930033151278
Gilpin's Bell,50-54 Fore Street,Upper Edmonton,Enfield,-0.0657669781927173,51.6096739335455
Alice,133 Houndsditch,London,City and County of the City of London,-0.0782317955737272,51.5151782513256
Three Tuns,1 Portman Mews South,London,City of Westminster,-0.1559433276236148,51.5145373930248
Willow Farm (Table Table),New Road,Wennington,Havering,0.2260767924378788,51.50667569642538
Park Tavern,164 Tollington Park,Finsbury Park,Islington,-0.1118301668890866,51.56773764325786
Mulberry Bush,89 Upper Ground,London,Lambeth,-0.1102568697539604,51.507533328523294
Flynns,117 High Road,Willesden,Brent,-0.2301232168094223,51.54690234097072
Pillars of Hercules,7 Greek Street,London,City of Westminster,-0.1310647733763395,51.51459327615262
Forest Tavern,173 Forest Lane,Forest Gate,Newham,0.0221845925153881,51.54936169804618
Brasserie Blanc,60 Threadneedle Street,London,City and County of the City of London,-0.0865448064417365,51.51422615317721
Turner's Old Star,14 Watts Street,London,Tower Hamlets,-0.0593645246792048,51.50536209611224
Royal George,85 Tanners Hill,Deptford,Lewisham,-0.0289726646539333,51.4716803103327
Badger Kelly's,"14 Station Parade, Kenton Lane",Belmont,Harrow,-0.3191686180653257,51.60089732891436
Narrow Boat,119 St Peter's Street,London,Islington,-0.0985415345645108,51.53277545641895
Islington Town House,13 Liverpool Road,London,Islington,-0.1071222220232663,51.533777580189216
Star,2 South Hill Ave,South Harrow,Harrow,-0.3516269554290304,51.56547785722835
Owl & Pussycat,34 Redchurch Street,Bethnal Green,Tower Hamlets,-0.0744743120395772,51.52429811119776
White Horse,31 Uxbridge Road,Shepherds Bush,Hammersmith and Fulham,-0.2275762204919581,51.50556987348477
Nags Head,53 Kinnerton Street,London,City of Westminster,-0.1570673033252834,51.50133579844439
Gladstone Arms,64 Lant Street,London,Southwark,-0.0946102927753502,51.50089532731697
Exhibit,12 Balham Station Road,Balham,Wandsworth,-0.1519357146902866,51.44328818899243
Ben's Canteen,422 Garratt Lane,Earlsfield,Wandsworth,-0.1870846123170795,51.440185633761615
Loose Box,51 Horseferry Road,London,City of Westminster,-0.1293027638862511,51.494637301112846
Birds,692 High Road,Leytonstone,Waltham Forest,0.0115513435632008,51.56858210345774
Masons Arms,58 Devonshire Street,London,City of Westminster,-0.1442164108023895,51.52221206727191
Electric Diner,191-193 Portobello Road,Notting Hill,Kensington and Chelsea,-0.2050658899729344,51.515524157863744
Gregorian,96 Jamaica Road,Bermondsey (East),Southwark,-0.0661332110619223,51.49763229571308
Marquis of Granby,41 Romney Street,London,City of Westminster,-0.1276966220233075,51.495160227834674
Moot Bar,"Unit 3, Chiswick Business Park, 566 Chiswick High Road",Chiswick,Hounslow,-0.2739280665453097,51.4938601654104
Brewers Fayre,2 New Road,Dagenham,Barking and Dagenham,0.1499432340003367,51.53081224881021
Queens Head,"144, Richmond Road",Kingston,Kingston upon Thames,-0.3013794242708938,51.4188045404556
012 Bar & Grill,108-110 The Grove,Stratford,Newham,0.0040521559310448,51.54406167412191
Virgin Queen,94 Goldsmiths Row,Bethnal Green,Hackney,-0.0642945650938768,51.53351858833729
Load of Hay - Galicja Restaurant,"330 Staines Road, Feltham",Bedfont (East),Hounslow,-0.4253551471097413,51.45471551703438
Earl Ferrers,22 Ellora Road,Streatham,Lambeth,-0.13265052832477,51.42358511597453
Ascott,144 Field End Road,Eastcote,Hillingdon,-0.4001629419596976,51.57865826368288
Royal Oak,86 St Anns Road,Harrow,Harrow,-0.3376760614638251,51.5816472627314
Man of Kent,2-4 Nunhead Green,Nunhead,Southwark,-0.0581859974729064,51.46529750834979
Red Lion,375 Hertford Road,Enfield,Enfield,-0.0444262286533971,51.663932185847216
Pub On The Park,19 Martello Street,Hackney,Hackney,-0.0581169921644165,51.54179743605732
White Swan,14 New Row,London,City of Westminster,-0.1256771174929898,51.51101813342815
Indo,133 Whitechapel Road,London,Tower Hamlets,-0.0661019840171075,51.517757454944594
Skinners Arms,114 Judd Street,London,Camden,-0.1247957345426927,51.52791039752452
Bombay Central,328 High Road,Harrow Weald,Harrow,-0.3394400004518868,51.604513255937775
All Bar One,1-3 Chicheley Street,London,Lambeth,-0.1169437714377839,51.5026319062128
White Horse,530 Bath Road,Longford Village,Hillingdon,-0.4906478216819787,51.48077171220125
Albion,2 Rainham Road,Rainham,Havering,0.1920027769823662,51.52332530963535
Bell,50 Middlesex Street,London,Tower Hamlets,-0.0754664028127059,51.51581631269078
World's End Market,459 Kings Road,Chelsea,Kensington and Chelsea,-0.1780419484489717,51.482652995764894
Toucan,19 Carlisle Street,London,City of Westminster,-0.1332918407632887,51.51511434370003
Red Lion & Sun,25 North Road,Highgate,Haringey,-0.1500977297975358,51.57305023417953
Shakespeare,57 Allen Road,Stoke Newington,Hackney,-0.0821276784449559,51.55554693028996
Balls Brothers,50 Buckingham Palace Road,London,City of Westminster,-0.1449677937709339,51.496990419159495
Parlour,5 Regent Street,Kensal Rise,Brent,-0.2168294041816667,51.52873386118928
Victoria,110 Grove Road,Bow,Tower Hamlets,-0.0396908461812705,51.5306190031847
Common Room,3-4 Grosvenor Parade,Ealing,Ealing,-0.2862740625176346,51.50959825012638
Walcot 1830,171 Kennington Road,Kennington,Lambeth,-0.1104772167190194,51.494200619124754
Magpie & Stump,18 Old Bailey,London,City and County of the City of London,-0.1024593824335934,51.51588764622559
Black Heart,3 Greenland Place,London,Camden,-0.1417976182801688,51.53877431304179
Ship,47 High Street,Croydon,Croydon,-0.1000655928889906,51.37203645689176
Wembley Stadium,Olympic Way,Wembley,Brent,-0.2796424507560817,51.55669389865153
Jolly Fisherman,108 North Street,Barking,Barking and Dagenham,0.0743987398048884,51.54112050214928
Prince Arthur,80-82 Eversholt Street,London,Camden,-0.1333914539687682,51.52994492791236
Five Bells,68/70 Streatham High Road,Streatham,Lambeth,-0.1281946788940344,51.43653555601878
Stage Door,30 Webber Street,London,Lambeth,-0.1075196519338487,51.50125720779106
Bunch of Grapes,2 St Thomas Street,London,Southwark,-0.0886174637999724,51.50465571459389
Broken Drum,308 Westwood Lane,Blackfen,Bexley,0.1032176444628744,51.45173033758464
Dr Butlers Head,Mason's Avenue,London,City and County of the City of London,-0.0902873721418066,51.51571701136704
Cellars,125 Newington Green Road,London,Islington,-0.086365661899155,51.550805169584656
Brown Bear,139 Leman Street,London,Tower Hamlets,-0.0693488329689097,51.512559243029344
Zerodegrees,29-31 Montpelier Vale,Blackheath,Lewisham,0.0080607050164893,51.46739186473473
Pratts & Payne,103 Streatham High Road,Streatham,Lambeth,-0.1300658695858234,51.42982085184368
Red Lion,Hackbridge Road,Wallington,Sutton,-0.157613353239898,51.37835061481042
Lighterman,3 Granary Square,King's Cross,Camden,-0.124459502902146,51.53643912724865
Market Tavern,1-4 Surrey Street,Croydon,Croydon,-0.1015692429479332,51.37285221348353
Smokehouse,63-69 Canonbury Road,London,Islington,-0.0990593481939504,51.54214518724854
Miller & Carter Woodford Green,393-395 High Road,Woodford Green,Redbridge,0.0211675438804008,51.60939564023493
King's Head,The Green,Winchmore Hill,Enfield,-0.1033149499001046,51.63466582052687
Clerk & Well,156 Clerkenwell Road,London,Camden,-0.1108898760892092,51.52218374327554
Toby Carvery,"Ground floor, The Brewery, Brewery Walk, Waterloo Road",Romford,Havering,0.1801446889649281,51.57598468304023
Norfolk Arms,28 Leigh Street,London,Camden,-0.1255452625771629,51.526510514163
Claret & Ale,"5 Bingham Corner, Lower Addiscombe Road",Addiscombe,Croydon,-0.0734383309676237,51.37999175377988
Woodhouse,230 Woodhouse Road,North Finchley,Barnet,-0.1627627338905178,51.61147598213212
London Fields Brewery tap room,365-366 Warburton Street,Hackney,Hackney,-0.0583749433634259,51.53844748768574
Star & Garter,62 Poland Street,London,City of Westminster,-0.136595010619742,51.513638101664775
Dutch House,148 High Road,South Tottenham,Haringey,-0.0723808714821714,51.58001778822255
Castle,140 Victoria Road,North Acton,Ealing,-0.2591041177867007,51.5225882105653
African Queen,315 Wellington Road South,Hounslow,Hounslow,-0.3759443363490604,51.46157712160117
Crooked Billet,84 Upper Clapton Road,Clapton,Hackney,-0.0569141873207814,51.56124663487852
Bridge Tavern,9 The Broadway,Mill Hill,Barnet,-0.2489537112627748,51.614268123358535
Tap East,"Montfichet Road, 7 International Square",Westfield Stratford City,Newham,-0.0088673328747527,51.54411984567341
All Bar One,175 Bishopsgate,London,City and County of the City of London,-0.0801557207396392,51.51843816646566
Essex House,,Chingford,Waltham Forest,0.0099880025634355,51.63389442001069
Drinkers Paradise (Off Licence),129 Castlehaven Road,London,Camden,-0.1441728945723185,51.545961094744406
Pride of Spitalfields,3 Heneage Street,Spitalfields,Tower Hamlets,-0.0703710787660773,51.51905981906137
Satay Bar,447 Coldharbour Lane,Brixton,Lambeth,-0.1144228489098977,51.46140471169311
Worlds End,88 Station Road,Hampton,Richmond upon Thames,-0.3665045251845878,51.41509063831023
Rusty Bike,588 Mile End Road,Bow,Tower Hamlets,-0.0326386561323354,51.525312273076
Greyhound,425 Ordnance Road,Enfield,Enfield,-0.0185069577230962,51.66972906293503
Locker Room,"The Broadway, 29-31 Joel Street",Northwood Hills,Hillingdon,-0.4092362361373535,51.601100955613184
Horseshoe,326 Eastcote Lane,South Harrow,Harrow,-0.3742754604960634,51.56154931994183
Tally Ho,749 High Road,North Finchley,Barnet,-0.1763497238704419,51.61373819778564
Simmons,374 North End Road,Fulham,Hammersmith and Fulham,-0.1994126854265437,51.48125647948551
Pasha Kitchen,78-80 Northfield Avenue,West Ealing,Ealing,-0.3183588124382717,51.50394749817215
Botanist,5 Broadgate Circle,London,City and County of the City of London,-0.0837628717939453,51.5186950467637
Windmill,40 Commonside West,Mitcham,Merton,-0.1615677946264154,51.40301654792829
Rising Sun,277/279 Richmond Road,Twickenham,Richmond upon Thames,-0.3134740639783594,51.453186276786965
Hole in the Wall,5 Mepham Street,London,Lambeth,-0.1131265630618475,51.503649690940506
Ballot Box,Horsenden Lane North,Perivale,Ealing,-0.3296063064084537,51.548998351145016
No.8,"305 High Road, Willesden Green",Willesden,Brent,-0.2389818686528988,51.54869022472621
Sir John Balcombe,21 Balcombe Street,London,City of Westminster,-0.161822040328414,51.523523417778776
Greenes,362 Neasden Lane North,Neasden,Brent,-0.2546948505699168,51.561343498853766
Southwark Brewing Co. Tap Room,46 Druid Street,London,Southwark,-0.0761513202879254,51.50059389878852
Domali Cafe Bar,38 Westow Street,Upper Norwood,Croydon,-0.0814079963600252,51.41963652972008
Morgan Arms,43 Morgan Street,Bow,Tower Hamlets,-0.0344764335600501,51.52715957196782
Windmill,6-8 Mill Street,London,City of Westminster,-0.1422667233283388,51.51238815358904
Eagle,15 Clifton Road,Maida Vale,City of Westminster,-0.1792779254590724,51.5253603620458
CafÃÂÃÂ© Cairo,88 Landor Road,Stockwell,Lambeth,-0.1235601506279956,51.463961401726245
Golden Anchor,16 Evelina Road,Peckham,Southwark,-0.0523661189032293,51.46943655792239
Bell & Gate,248/250 Collier Row Lane,Collier Row (Romford),Havering,0.1649430315547846,51.59471953920356
Man of Aran,424-426 Alexandra Avenue,Rayners Lane,Harrow,-0.370892557358776,51.5734444345445
William Blake,174-180 Old Street,London,Islington,-0.090439471441872,51.52517082654823
Gardeners Arms,107 London Road,Mitcham,Merton,-0.161697238895017,51.41018586936025
Bickley,Chislehurst Road,Chislehurst,Bromley,0.0558275769476724,51.40767856094799
Stadium Lounge,10 The Broadway,Wembley,Brent,-0.292325166435155,51.562409451036565
Graduate,107-109 Blackheath Road,Greenwich,Greenwich,-0.0153125376858211,51.473230396317405
Hop Pole,64 Putney Bridge Road,Wandsworth,Wandsworth,-0.1982061265297511,51.45960154868361
Clifton,96 Clifton Hill,St John's Wood,City of Westminster,-0.1845705012679568,51.53617958549649
Three Crowns,19 Babmaes Street,London,City of Westminster,-0.1347650792924861,51.50868999985336
Brownswood,271 Green Lanes,Finsbury Park,Hackney,-0.0928747246102526,51.56417541404428
Shakespeare,99 Buckingham Palace Road,London,City of Westminster,-0.144824953796854,51.49625075719116
King's Head,17 Hogarth Place,Earls Court,Kensington and Chelsea,-0.1929614718131351,51.49289264431286
George & Dragon,26 High Street,Downe,Bromley,0.0537225898803351,51.33620456110887
Sun Inn,17 Parkshot,Richmond,Richmond upon Thames,-0.3028946761122861,51.46329412813349
Visage 80s Bar,442-444 Cranbrook Road,Gants Hill,Redbridge,0.0675622036617716,51.57673552902277
Roma,14 New London Street,London,City and County of the City of London,-0.0794340876346588,51.511268149200745
Carpenter's Arms,91 Black Lion Lane,Hammersmith,Hammersmith and Fulham,-0.2426836627253308,51.49230821989029
All Bar One,127 Finsbury Pavement,London,Islington,-0.0877676341760639,51.52012733360408
Black Horse,63 Albert Road,Bexley,Bexley,0.149939949338787,51.44535201826003
Crown,116 Cloudesley Road,London,Islington,-0.1094360487365082,51.53639579887486
London's Pride,Terminal 2 Airside,Heathrow Airport,Hillingdon,-0.4495584934011519,51.46977708247814
Hoop & Grapes,47 Aldgate High Street,Tower Hill,City and County of the City of London,-0.0742508735742966,51.51422262014057
Moon on the Square,"30 The Centre, High Street",Feltham,Hounslow,-0.4109000776428128,51.44654444361697
Fitzroy Tavern,16A Charlotte Street,London,Camden,-0.1346007598748106,51.5187052737292
Mannions Prince Arthur,158 Broad Lane,South Tottenham,Haringey,-0.0642860744564261,51.58472241581624
Cock Tavern,315 Mare Street,Hackney,Hackney,-0.0554689202403421,51.54607002160969
Builders Arms,1 Kensington Court Place,Kensington,Kensington and Chelsea,-0.1882427154256246,51.49999599583676
Fountains Abbey,109 Praed Street,Paddington,City of Westminster,-0.1739292039794385,51.51636550411192
General Havelock,229 High Road / Hainault Street,Ilford,Redbridge,0.07705735785993,51.55992224810626
Yorkshire Grey,46 Langham Street,London,City of Westminster,-0.1413403193924399,51.51885721807319
Crown & Sceptre,34 Holland Road,West Kensington,Kensington and Chelsea,-0.2069366623523184,51.49762144588836
Holborn Whippet,25-29 Sicillian Avenue,London,Camden,-0.1213101874517946,51.518376280776856
Minories,64-73 Minories,London,City and County of the City of London,-0.0747470426780179,51.510660667850686
Coco Momo,79 Marylebone High Street,London,City of Westminster,-0.152183830533816,51.520890015472034
Great Harry,99 Parsonage Manor Way,Belvedere,Bexley,0.1483719214615646,51.47752170398464
Duke Of Edinburgh,83 Mayes Road,London,Haringey,-0.1129392928166846,51.594975646691104
Harold,51 Station Road / Arundel Road,Harold Wood,Havering,0.2345241973969159,51.59390935739018
Guard House,No. 1 Street,Woolwich,Greenwich,0.069097225781333,51.49226593098635
Scolt Head,107a Culford Road,London,Hackney,-0.0821474104556283,51.542723853919824
Landor,70 Landor Road,Stockwell,Lambeth,-0.1257634135989294,51.465705265765465
Audley,43 Mount Street,London,City of Westminster,-0.1514824723643578,51.5097370223392
Victoria Inn,77-79 Choumert Road,Peckham,Southwark,-0.0709479356861302,51.46754070932869
Cumberland Arms,29 North End Road,West Kensington,Hammersmith and Fulham,-0.2098259551805008,51.49411348440232
Charlton Park Rugby Football Club,60A Broad Walk,Kidbrooke,Greenwich,0.0346306780785466,51.46589977994914
Juno,134-135 Shoreditch High Street,London,Hackney,-0.078248427723078,51.526419380338574
Crown & Anchor,22 Neal Street,London,Camden,-0.1252395740210619,51.514302482981726
Royal Albert,42 Westow Hill,Upper Norwood,Croydon,-0.0814079963600252,51.41963652972008
Drapers Arms,25 High Street,Ealing,Ealing,-0.3049256018757802,51.51220718513
Birdcage,58 Stamford Hill,Stoke Newington,Hackney,-0.0726317833828732,51.56691069127783
Railway Telegraph,19 Brigstock Road,Thornton Heath,Croydon,-0.1015569668789778,51.39779797899061
Simmons,31 University Street,London,Camden,-0.1354961198898257,51.52360255320952
Forest Road Brewery Taproom,1348 Netil Road,South Hackney,Hackney,-0.0590062888920025,51.53750473456385
George & Vulture,63 Pitfield Street,London,Hackney,-0.083819727096088,51.529010575332826
Man on the Moon,"112 Headley Drive, New Addington",Croydon,Croydon,-0.0180498305174385,51.35214354247704
Jewel Bar,4-6 Glasshouse Street,London,City of Westminster,-0.1350132500348538,51.51037558467279
Earl Of Camden,55 Parkway,London,Camden,-0.1441718473437515,51.53819139074994
Cask & Glass,39 Palace Street,London,City of Westminster,-0.1402643500513998,51.49857059050034
Dacre Arms,11 Kingswood Place,Lewisham,Lewisham,0.0037812741548073,51.46107113363607
Devonshire Arms,7 Duke Street,London,City of Westminster,-0.1521004778418107,51.51618552779517
George,1 D'Arblay Street,London,City of Westminster,-0.1357407171473815,51.51479357967394
White Hart,2 Eltham High Street,Eltham,Greenwich,0.0494896757834504,51.45112643599372
Factory House,37 Leadenhall Street,London,City and County of the City of London,-0.0827440586104024,51.51241046867764
Willow,"16, The Triangle",Kingston,Kingston upon Thames,-0.2742153185779864,51.40876765611498
Horn Of Plenty,36 Globe Road,London,Tower Hamlets,-0.0464150491766446,51.5224129809081
Fishermans Arms,50 Old Oak Lane,Harlesden,Ealing,-0.2484597149154426,51.53063105827674
Czech & Slovak Club,74 West End Lane,West Hampstead,Camden,-0.1912593754939979,51.54531147729186
Bar Social,245 Lavender Hill,Battersea,Wandsworth,-0.1629120094572327,51.46417990116232
Geo Bar,163 Field End Road,Eastcote,Hillingdon,-0.399015211089325,51.57846275841692
Green Man Hotel,64 Dagmar Avenue,Wembley,Brent,-0.2894402261127001,51.55700795472598
Cambria,40 Kemerton Road,Camberwell,Lambeth,-0.0975040021894464,51.46461151607061
Bull,"Unit 1033, Southern Terrace, Westfield Shopping Centre",Shepherds Bush,Hammersmith and Fulham,-0.2241069480866832,51.50955509462842
Three Wishes,122-126 High Street,Edgware,Barnet,-0.2807590395382723,51.61237275924729
Olde Cock Tavern,22 Fleet Street,London,City and County of the City of London,-0.1104440277214806,51.513804304277045
Brunel,47 Swan Road,Rotherhithe,Southwark,-0.0509919838264668,51.50132037876835
Wallace,1023 Finchley Road,Golders Green,Barnet,-0.1984841019007794,51.57964828926302
Ship,41 Jews Row,Wandsworth,Wandsworth,-0.1878963340411637,51.462940924535935
Old Orchard,"Jacks Lane, off Park Lane",Harefield,Hillingdon,-0.4907112805792058,51.60347128295432
Hunter S,194 Southgate Road,London,Hackney,-0.0835073169623318,51.54605536101137
Watkin's Folly,"Empire House, 1 Empire Way",Wembley,Brent,-0.2825347587436899,51.56148425660283
White Horse,16 Newburgh Street,London,City of Westminster,-0.138639038555907,51.51334681825044
Olde Red Lion,17 Park Road,Cheam,Sutton,-0.2162974109454504,51.35952866140346
Mitre Hotel,291 Greenwich High Road,Greenwich,Greenwich,-0.009754104772919,51.48017761644455
Belushi's,15 Shepherds Bush Green,Shepherds Bush,Hammersmith and Fulham,-0.2195296637552776,51.50387431945114
Mitre,24 Craven Terrace,Paddington,City of Westminster,-0.1786672142122103,51.512491387583296
100 Wardour Street Bar & Lounge,100 Wardour Street,London,City of Westminster,-0.1339271419376853,51.51367662430318
Castle,38 Tooting High Street,Tooting,Wandsworth,-0.1674504856651783,51.428855274722224
Normanby,231 Putney Bridge Road,Putney,Wandsworth,-0.2105838097622334,51.46297444421649
Bar & Block,26- 30 York Way,London,Islington,-0.1223795494916776,51.53127101247707
Signal Box,"Unit 53, Euston Station",London,Camden,-0.1332707770769363,51.52866604088394
Lord Clyde,27 Clennam Street,London,Southwark,-0.095681981644766,51.50283718503231
Salisbury,"1 Grand Parade, Green Lanes",London,Haringey,-0.0993669428885403,51.58184327891768
O'Neill's,73-77 Euston Road,London,Camden,-0.1261696433635482,51.52885859985877
Craft Beer Cabin,210A Selhurst Road,South Norwood,Croydon,-0.0776085611563117,51.39775801313902
Barrel & Horn,204-206 High Street,Bromley,Bromley,0.0133921330928031,51.4059688377614
Society Bar,"Olympia Hilton Hotel, 380 Kensington High Street",West Kensington,Kensington and Chelsea,-0.2077884828653836,51.49647441336873
Royal George,133 Charing Cross Road,London,City of Westminster,-0.1308691140226192,51.5151477074694
Hansom Cab,86 Earls Court Road,Kensington,Kensington and Chelsea,-0.1971139268907623,51.49608599707312
Antoinette Hotel,Beaufort Road,Kingston,Kingston upon Thames,-0.3012238085469959,51.40166235957546
Golden Lion,25 King Street,London,City of Westminster,-0.1378683746767882,51.50609545083165
Great Queen Street,32 Great Queen Street,London,Camden,-0.1218307777330835,51.51518319925899
Hope & Anchor,128 Tottenham Lane,Hornsey,Haringey,-0.1164650342061863,51.5840795504684
Jerusalem Tavern,55 Britton Street,Farringdon,Islington,-0.1039344396290179,51.52166685943738
Brunswick House,30 Wandsworth Road,Vauxhall,Lambeth,-0.122877314723085,51.485874650328256
Mondo Tap House,86 Stewarts Road,Battersea,Wandsworth,-0.1394068209201757,51.47397998952607
Duke Of Cambridge,30 St Peter's Street,London,Islington,-0.0984080407102001,51.534248088494
Perseverance,112 Pritchards Road,Bethnal Green,Tower Hamlets,-0.0623628337970246,51.53418807772584
Starting Gate,Station Road,London,Haringey,-0.1196762044587828,51.59825817137902
Toll Gate,26-30 Turnpike Lane,Hornsey,Haringey,-0.1058744890981186,51.58987993410616
Great Harry,7-9 Wellington Street,Woolwich,Greenwich,0.0664771357033551,51.48975816972503
Distillery,186 Portobello Road,Notting Hill,Kensington and Chelsea,-0.2051875755048029,51.51646125316435
Rising Sun,64/68 High Street,Hornchurch,Havering,0.2170088521812821,51.56271234837204
Black Horse,"92, Wood Street",High Barnet,Barnet,-0.2041239794311485,51.653282913480254
Bread & Roses at The Chapel,308-312 GrayÃÂ¢ÃÂÃÂs Inn Road,London,Camden,-0.1189580603067427,51.52858133551401
On Broadway,765 Green Lanes,Winchmore Hill,Enfield,-0.0959515559263456,51.631758904578994
Crown & Anchor,19 Park Road,Bromley,Bromley,0.0216399830031556,51.40812908453971
Spread Eagle,8 Woodstock Street,London,City of Westminster,-0.147418314076182,51.51435809801421
London Beer Dispensary,389 Brockley Road,Brockley,Lewisham,-0.0371091308362498,51.4545504818409
O'Neill's,5 The Town,Enfield,Enfield,-0.0815057676598209,51.65184676000256
Old Jail,Jail Lane,Biggin Hill,Bromley,0.0523241949569479,51.3148607896255
White House,570 Hertford Road,Enfield,Enfield,-0.041559847430077,51.668704347287175
Leyton Technical,"265B High Road, Leyton",Leyton,Waltham Forest,-0.0081892707868303,51.55931494918356
Elliotts,5 High Street,Purley,Croydon,-0.1156984097642263,51.33840381152497
View 94,94 Point Pleasant,Wandsworth,Wandsworth,-0.2006065773156009,51.46225528554158
Winchmore,235 Winchmore Hill Road,Winchmore Hill,Enfield,-0.1119966410237843,51.63821394703854
Union Jack,225 Union Street,London,Southwark,-0.1022714806547006,51.50342060472361
King's Arms,425 New Kings Road,Fulham,Hammersmith and Fulham,-0.2098516627759135,51.46917725046902
Balabam,58 High Road,South Tottenham,Haringey,-0.0726903037375766,51.57747798028661
McGlynn's,1-5 Whidbourne Street,London,Camden,-0.1232888495393262,51.52844385418253
Bunga Bunga,37 Battersea Bridge Road,Battersea,Wandsworth,-0.1701843133203028,51.47889764168588
Coach & Horses,High Road,Ickenham,Hillingdon,-0.44310387000261,51.564578320398425
Castle,44 Commercial Road,London,Tower Hamlets,-0.0693254232111035,51.51481602651052
Prince Albert,163 Royal College Street,London,Camden,-0.1375395271588418,51.54064023807472
Chequers,121 North Street / Billet Lane,Hornchurch,Havering,0.2198401141503264,51.56693046203248
Underground Bar,34A King Street,Southall,Ealing,-0.3832092845060986,51.50040813062285
Whitewebbs House,Whitewebbs Lane,Enfield,Enfield,-0.0795912151663756,51.67833387996144
Traveller's Tavern,4 Elizabeth Street,London,City of Westminster,-0.1492580455105985,51.49315536209174
Aroma Lounge,96 Llanover Road,Wembley,Brent,-0.3023932122739137,51.56208790785525
Balls Brothers (Austin Friars),10-11 Austin Friars,London,City and County of the City of London,-0.0852720052842225,51.51570715808751
Refreshment Room,27 The Broadway,Stratford,Newham,0.0026311019390842,51.54092952378111
Jack Horner,235-236 Tottenham Court Road,London,Camden,-0.1321763725454993,51.51877461127643
Joe's Brasserie,130 Wandsworth Bridge Rd,Fulham,Hammersmith and Fulham,-0.1917962758090552,51.47245242365402
Scream Lounge,20 South End,Croydon,Croydon,-0.0992892427073364,51.366493216555774
Cleveland Arms,28 Chilworth Street,Paddington,City of Westminster,-0.1810499805790323,51.51490242261087
Sterling,30 St Mary Axe,London,City and County of the City of London,-0.0804372873329724,51.5144859907698
Bull,74-76 Market Place,Romford,Havering,0.1829509351452477,51.57943078905056
Greyhound [Harvester],900 High Road,Chadwell Heath,Redbridge,0.1204528800173844,51.56857020227943
Flask,77 Highgate West Hill,Highgate,Camden,-0.1504108794655836,51.57031246938803
Ninth Life,167 Rushey Green,Catford,Lewisham,-0.0194698319020714,51.44506308904053
Defector's Weld,170 Uxbridge Road,Shepherds Bush,Hammersmith and Fulham,-0.2230998180994096,51.505070512441606
Caxton Bar & Grill,St. Ermin's Hotel 2 Caxton Street,London,City of Westminster,-0.1339295432080405,51.498811692328175
Flying Horse,52 Wilson Street,London,Hackney,-0.0849705538080284,51.52048634841941
Market House,443 Coldharbour Lane,Brixton,Lambeth,-0.1137289750822108,51.46147448137798
Plough,297 Northfield Avenue,Ealing,Ealing,-0.312723556363904,51.4973560457486
Coach & Horses,391 High Road,Leyton,Waltham Forest,-0.0101786011391494,51.56100335448512
Anerley Arms,2 Ridsdale Road,Anerley,Bromley,-0.0663181011553139,51.41253582535206
Meeting,253 Southbury Road,Enfield,Enfield,-0.06218500873416,51.6496500203064
Spencer,237 Lower Richmond Road,Putney,Wandsworth,-0.2268913070040443,51.46826698940637
Tenpin Acton,"Royale Leisure Park, Western Avenue",Park Royal,Ealing,-0.2813164393300697,51.52529863454589
River Ale House,131 Woolwich Road,Greenwich,Greenwich,0.0144207852404669,51.48625773500024
Greyhound,1 Kensington Square,Kensington,Kensington and Chelsea,-0.1893074738534548,51.50075882953462
King's Head,9 Market Place,Enfield,Enfield,-0.0826402562734366,51.65271057003994
El Vino,30 New Bridge Street,London,City and County of the City of London,-0.1040371075664002,51.51260381086164
Leinster Arms,17 Leinster Terrace,Bayswater,City of Westminster,-0.182821913429672,51.511665551272095
Young Prince,448 Roman Road,Bow,Tower Hamlets,-0.0340103210229572,51.53195383495275
Shaker & Company,119 Hampstead Road,London,Camden,-0.1389641984435423,51.52799210927268
St Barts Brewery,64-66 West Smithfield,London,City and County of the City of London,-0.1005336507033116,51.51886904727306
Old Dispensary,325 Camberwell New Road,Camberwell,Southwark,-0.0959735040435227,51.475440997401854
Green Room,101 Upper Ground,London,Lambeth,-0.1102568697539604,51.507533328523294
White Bear,198 Kingsley Road,Hounslow,Hounslow,-0.3605968694140265,51.4760931130831
Northumberland Arms,141 Kings Cross Road,London,Camden,-0.1160763454738924,51.5295872432884
Park Tavern,212 Merton Road,Wandsworth,Wandsworth,-0.1989657323931219,51.45090821215898
Iron Duke,11 Avery Row,London,City of Westminster,-0.145944331614364,51.51268015224157
Frankie & Benny's,"Unit Fr2, 1st Floor, The Brewery",Romford,Havering,0.1801446889649281,51.57598468304023
Greyhound,"52 Church End, London",Hendon,Barnet,-0.2270580551347809,51.59120742510008
Metropolis,256A High Street,Bromley,Bromley,0.0119936669355653,51.40686514494168
Cutty Sark,4-6 Ballast Quay,Greenwich,Greenwich,4.242099118886996e-05,51.48650379189672
Kings Tun,153-157 Clarence Street,Kingston,Kingston upon Thames,-0.3008492896342638,51.41138710746132
Saxon King,198 Petersfield Ave / St Neots,Harold Hill,Havering,0.2370680602562451,51.60366327118979
Zoo Bar,13-17 Bear Street,London,City of Westminster,-0.1289556166606397,51.51084565656433
Marquis of Westminster,50 Warwick Way,London,City of Westminster,-0.1404786271515269,51.491892398147705
Bull,498 Streatham High Road,Streatham,Lambeth,-0.1283467148642758,51.41943372548101
Doggett's Coat & Badge,1 Blackfriars Bridge,London,Southwark,-0.1048291643899893,51.50845295012
Crown,128 Lower Mortlake Road,Richmond,Richmond upon Thames,-0.2914026786632568,51.4664814871984
Bung Hole Cellars,"57 High Holborn,",London,Camden,-0.1152891667196812,51.51827970440553
Rochester Castle,143-145 Stoke Newington High Street,Stoke Newington,Hackney,-0.0742094641208496,51.56132521955893
Bobbin,1-3 Lillieshall Road,Clapham,Lambeth,-0.1434426194920137,51.46607645856359
Flight Club,6 Sir Simon Milton Square,London,City of Westminster,-0.1437552375084095,51.49740288423489
Castle,34-35 Cowcross Street,London,Islington,-0.1042239165255848,51.52025068375681
Prince of Wales,28 Malden Road,Cheam,Sutton,-0.2177691999918244,51.36083699748957
Blue Zenzer,280 Watford Road,Northwick Park,Brent,-0.3232385408588829,51.57235085507757
Queens Ice & Bowl,17 Queensway,Bayswater,City of Westminster,-0.1873758115821884,51.51094465715472
Queen Adelaide,35 Putney Bridge Road,Wandsworth,Wandsworth,-0.2009063917154441,51.46048831062386
Henry's,"Unit 6 Charter Quay, 22ÃÂ¢ÃÂÃÂ28 High Street",Kingston,Kingston upon Thames,-0.3075633481913263,51.40830992266451
Claddagh Ring,10 Church Road,Hendon,Barnet,-0.2261330455194846,51.590123347506825
Queen's Head,73 High Street,Green St Green,Bromley,0.089239857687784,51.35293308317147
Chelsea Lodge,562 Kings Road,Fulham,Hammersmith and Fulham,-0.1874853552552076,51.479499041757066
Singer Tavern,1-5 City Road,London,Islington,-0.0868926526965046,51.52277489587274
Sky 23 at Hilton Metropole Hotel,225 Edgware Road,Paddington,City of Westminster,-0.1698980794396965,51.519486085335856
Two Brewers,114 Clapham High Street,Clapham,Lambeth,-0.1348214635715817,51.4631788857209
Kentish Belle,8 Pickford Lane,Bexleyheath,Bexley,0.1330662660235338,51.46432071612002
Pearl & Feathers,362 St John Street,London,Islington,-0.1048085279354934,51.52977443619554
Freedom,66 Wardour Street,London,City of Westminster,-0.1332995215957566,51.51281233016993
Thornhill Arms,148 Caledonian Road,London,Islington,-0.1169721349367491,51.53443072722083
Junction House,578 Kingsland Road,Hackney,Hackney,-0.0755093906024871,51.54521380190014
Upminster TapRoom,1b Sunnyside Gardens,Upminster,Havering,0.2516354962474903,51.55477751202411
Wilton Arms,71 Kinnerton Street,London,City of Westminster,-0.1570673033252834,51.50133579844439
2 Bridge Place,DoubleTree by Hilton 2 Bridge Place,London,City of Westminster,-0.1433912314202891,51.49395291180724
Venus Bar & Brasserie,12-14 Christchurch Road,Colliers Wood,Merton,-0.1777346880534989,51.41768452757214
Hackney Carriage,165 Station Road,Sidcup,Bexley,0.1019560623554984,51.43524188160511
White Lion,24 James Street,London,City of Westminster,-0.1241028430167719,51.51285446480484
Liberty Bounds,15 Trinity Square,Tower Hill,City and County of the City of London,-0.0785907018457415,51.50973455542877
Dion,"Paternoster House, 65 St Pauls Churchyard",London,City and County of the City of London,-0.0982687778659164,51.51441688673089
White Hart,158 High Street,Harlington,Hillingdon,-0.4357918518927221,51.48921568453039
Genuine Liquorette,"6 Rathbone Place,",London,City of Westminster,-0.1329560398114624,51.51662876859892
New Fairlop Oak,Fencepiece Road,Barkingside,Redbridge,0.0849970066062282,51.59407986427623
Cricketers,24 The Green,Richmond,Richmond upon Thames,-0.3065710967788978,51.46042469357136
Crown,153 Dovehouse Street,Chelsea,Kensington and Chelsea,-0.1732516373399255,51.49007835265297
Tankard,178 Walworth Road,Walworth,Southwark,-0.0983913752050268,51.49209881270826
Miller,96 Snowsfields,London,Southwark,-0.087573139746411,51.50206676439522
La Chandelle,3 Irving Street,London,City of Westminster,-0.1290168374815024,51.51005527266405
Phoenix,51 Moscow Road,Bayswater,City of Westminster,-0.1899306522365456,51.512297036324455
Cat & Fiddle,162 Rowan Road,West Drayton,Hillingdon,-0.4736586045467498,51.49701673049921
Wellington,351 Strand,London,City of Westminster,-0.1198309423826595,51.51124831018016
Harry Gordon's Bar & Kitchen,40 Duke Street,London,City of Westminster,-0.1516769890915439,51.51454218615408
Bishops Finger,9-10 West Smithfield,London,City and County of the City of London,-0.101904487318532,51.51848657196765
Brown Derby,336 Kennington Park Road,Kennington,Lambeth,-0.1130546439728184,51.48167029896342
Zigfrid,"11 Hoxton Square,",London,Hackney,-0.0817953069176235,51.527781427456894
Queens Larder,1 Queen Square,London,Camden,-0.1226711005354347,51.52138365989186
Greencoat Boy,2 Greencoat Place,London,City of Westminster,-0.1359339400443001,51.49629862664903
Best Western Palm Hotel,64-76 Hendon Way,Cricklewood,Barnet,-0.2042861633272665,51.56354177459568
Fine Line,1 Bow Churchyard,London,City and County of the City of London,-0.0944752536636296,51.51379774841013
Hamlet,10 Streatham High Road,Streatham,Lambeth,-0.1276473422182412,51.43760594528308
King's Head,10 Stafford Street,London,City of Westminster,-0.1412793274173864,51.50867650715989
Constitution,42 Churton Street,London,City of Westminster,-0.1392407914898772,51.4915130573908
Myddleton Arms,52 Canonbury Road,London,Islington,-0.0968706962663744,51.54137226473137
Bedford Tavern,16 Sydenham Road,Croydon,Croydon,-0.0944386170002009,51.38021847770861
White Swan,255-256 Upper Street,London,Islington,-0.1034525552942465,51.54574144898328
Beehive,"24 Little Bury Street,",Lower Edmonton,Enfield,-0.0780881752280883,51.63287048020217
Wheatsheaf,185 Baker Street,Enfield,Enfield,-0.0790569964695767,51.66018759961174
Victory Club,227 Selhurst Road,South Norwood,Croydon,-0.0803569572633128,51.397353508693314
Grenadier,18 Wilton Row,London,City of Westminster,-0.1547065392361376,51.50128069448149
Old China Hand,8 Tysoe Street,London,Islington,-0.1090425543190148,51.5267582642746
Allsop Arms,137 Gloucester Place,London,City of Westminster,-0.1601843337844353,51.52231071186929
Albany,240 Great Portland Street,London,City of Westminster,-0.1438829601634755,51.523321886176994
Railway Tavern,47 North Street,Carshalton,Sutton,-0.1664732169355964,51.370234168039474
Princess Alexandra,120 Park Road,Hornsey,Haringey,-0.1275436113629404,51.58284508661178
Charlotte,204 Union Street,London,Southwark,-0.1019116953493824,51.50375650878686
Sir Julian Huxley,152 Addington Road,Selsdon,Croydon,-0.0618956806536184,51.34365003058964
Lighthouse,441 Battersea Park Road,Battersea,Wandsworth,-0.1632550407383725,51.47249447635796
Sambrook's Brewery Tap Room,Unit 1 & 2 Yelverton Road,Battersea,Wandsworth,-0.176049476717288,51.47013127946639
Blueberry Bar & Kitchen,2-4 Paul Street,London,Hackney,-0.084045259885545,51.52261148348688
Gladstone,24 King & Queen Street,Walworth,Southwark,-0.0930844677622244,51.489125973166864
Knights Templar,95 Chancery Lane,London,Camden,-0.1119647741638598,51.51536655233629
Missouri Angel,14 Crosswall,London,City and County of the City of London,-0.0757112105762369,51.51171965888875
Green Man,57 Berwick Street,London,City of Westminster,-0.1367048325906911,51.5155373082731
Rambles,207 Lee High Road,Lewisham,Lewisham,0.0045059714882758,51.45888248431325
Market Hall Fulham,Fulham Broadway,Fulham,Hammersmith and Fulham,-0.1949453569336534,51.480594293638326
Jolly Gardeners,"36 Lower Richmond Road, London",Mortlake,Richmond upon Thames,-0.2686237361522058,51.46959168964569
Moon Under Water,28 Leicester Square,London,City of Westminster,-0.1292646907887901,51.51068871707272
Nightingale,97 Nightingale Lane,Balham,Wandsworth,-0.1573694670050885,51.45022617845329
Bulls Head,15 Strand On The Green,Chiswick,Hounslow,-0.2777648027638392,51.48417749671164
Hampshire Hog,227 King Street,Hammersmith,Hammersmith and Fulham,-0.2332968723268217,51.49253593549473
Ham Brewery Tap,"4/6 Ham Street, Richmond",Ham,Richmond upon Thames,-0.3116583575908043,51.436865918042365
Little Crown,495 New Cross Road,New Cross,Lewisham,-0.0270908350100542,51.47524580816168
London Cocktail Club,63 Worship Street,London,Hackney,-0.0841482971134525,51.52221748990492
Windsor Castle,114 Campden Hill Road,Kensington,Kensington and Chelsea,-0.1985888058384508,51.50654013851189
Builders Arms,13 Britten Street,Chelsea,Kensington and Chelsea,-0.1677463233446089,51.48906622804186
Fox & Hounds,29 Passmore Street,London,City of Westminster,-0.1548404745878074,51.49083328241549
Antelope,87 Maple Road,Surbiton,Kingston upon Thames,-0.3076854995088513,51.39524506698586
City Zebrano,32-38 Duke Place,London,City and County of the City of London,-0.0777041418927475,51.51436025332914
Understudy,"National Theatre, South Bank",London,Lambeth,-0.1140599837166313,51.50686612397561
Fox,79 Nuxley Road,Belvedere,Bexley,0.144595153207617,51.4811250993597
Nolans,33 Wilcox Road,South Lambeth,Lambeth,-0.1267420456178488,51.47978545728486
Stable,16-18 Whitechapel Rd,Whitechapel,Tower Hamlets,-0.0676441258817686,51.5167397340818
Melanzana,140 Westbridge Road,Battersea,Wandsworth,-0.1744043853991969,51.475276440057286
Barley Mow,82 Duke Street,London,City of Westminster,-0.1509355722377747,51.5129208090441
O'Neill's,33-37 Wardour Street,London,City of Westminster,-0.1322788916625121,51.51133926281288
Toolans,866 High Road,North Finchley,Barnet,-0.1763151118912485,51.61892620419423
Albion,2-4 New Bridge Street,London,City and County of the City of London,-0.1045487960904229,51.51381711285232
Crock of Gold,153 High Street,Ruislip,Hillingdon,-0.4225084537246685,51.57270189267636
Brent Valley Golf Course Bar,"Brent Valley Golf Course, Church Road",Hanwell,Ealing,-0.3382454499680227,51.51378084383428
Bluecoats,614 High Road,London,Haringey,-0.0683228521883486,51.5960745239993
John Snow,39 Broadwick Street,London,City of Westminster,-0.1366104213314928,51.513260652553605
Royal Standard,8 Sale Place,Paddington,City of Westminster,-0.1700022072872267,51.517967949654405
Foxlow,15-19 Bedford Hill,Balham,Wandsworth,-0.150519062463549,51.44451584579738
Bulls Head,39 Laud Street,Croydon,Croydon,-0.1009832407787295,51.369650236307706
Britannia,20 Monument Street,London,City and County of the City of London,-0.0857740079012564,51.50992404781832
Slug & Lettuce,4 St Johns Hill,Battersea,Wandsworth,-0.1683250413716282,51.463823940799074
Nell Gwynne,1-2 Bull Inn Court,London,City of Westminster,-0.1228753684738893,51.51046074411869
Nag's Head,9 Orford Road,Walthamstow,Waltham Forest,-0.0107548104315916,51.583512466704256
Old Kings Head,28 Holywell Row,London,Hackney,-0.0823166504448285,51.522924930460576
Star Of The East,805a Commercial Road,Poplar,Tower Hamlets,-0.0291582647958497,51.512439222514274
Peasant,240 St John Street,London,Islington,-0.1032631025020614,51.52602647776972
Windmill,224 St James's Road,Croydon,Croydon,-0.0933641309350024,51.38152294472848
Arens (Bar & Restaurant at the Woodman),Joel Street,Eastcote,Hillingdon,-0.4080181934899006,51.58927725376458
Wibbas Down Inn,6-12 Gladstone Road,Wimbledon,Merton,-0.2020793740805064,51.41815928905704
Richmond Vault Beer Cellar & Restaurant,5 Hill Street,Richmond,Richmond upon Thames,-0.3062799897210589,51.458954700225725
Pig & Whistle,92 Bramley Road,North Kensington,Kensington and Chelsea,-0.2174355803263186,51.51395922133293
Brouge,241 Hampton Road,Twickenham,Richmond upon Thames,-0.3499675920599412,51.43662937013916
Gate,Rickmansworth Road,Northwood,Hillingdon,-0.4371471117598337,51.61415477688
Sir Richard Steele,97 Haverstock Hill,London,Camden,-0.1586517037561401,51.54671074837246
Tudor Barn,"Well Hall Pleasaunce, Well Hall Road",Eltham,Greenwich,0.0497084829944033,51.45793918613682
Duke of Kendal,38 Connaught Street,Paddington,City of Westminster,-0.1656804954828033,51.51468107280328
Goat,66A Battersea Rise,Battersea,Wandsworth,-0.1664234382034561,51.46097952177925
Wishing Well,175 Church Lane,Kingsbury,Brent,-0.2625087840265689,51.5735991358744
Worlds End,174 Camden High Street,London,Camden,-0.1420347847919218,51.53861619985644
Red Lion,23 Crown Passage,London,City of Westminster,-0.1377335328754246,51.5058684919937
Lost Rivers Elephant,Elephant Road,London,Southwark,-0.0985139866215523,51.49399827504755
Draft House,238 Shepherds Bush Road,Hammersmith,Hammersmith and Fulham,-0.2242455572054342,51.49561862379728
Swan,"1 Evershed Walk, 119 Acton Lane",Acton Green,Ealing,-0.2656068253902408,51.49789201546977
Marquis of Wellington,21 Druid Street,London,Southwark,-0.0794601615562961,51.50277045318178
Barge House,46 De Beauvoir Crescent,London,Hackney,-0.0808493183669703,51.537244123417466
Lord Northbrook,116 Burnt Ash Road,Lee,Lewisham,0.0120924609130267,51.45102773905693
Doodle Bar,60 Druid Street,London,Southwark,-0.0761513202879254,51.50059389878852
7000 Jars of Beer,1 Crown Passage/ Unit H Crown Arcade,Kingston,Kingston upon Thames,-0.305415645287142,51.40961878344506
Bedford,77 Bedford Hill,Balham,Wandsworth,-0.1490200987612783,51.44208211998148
Morden Brook,Lower Morden Lane,Lower Morden,Merton,-0.2207576951842559,51.39085491243703
Owl & Hitchhiker,471 Holloway Road,London,Islington,-0.124028197629765,51.56059550845457
Crown Tavern,42 Clerkenwell Green,London,Islington,-0.1051803862808421,51.52325172795376
Funky Brownz,5 Tottenham Lane,Hornsey,Haringey,-0.1121178703634694,51.585880065813406
Bishop,27 Lordship Lane,East Dulwich,Southwark,-0.0749288060719041,51.45984532982746
Beehive,"333 Staines Road, Feltham",Bedfont,Hounslow,-0.4197168120078964,51.45543997339141
Fox & Hounds,66-68 Latchmere Road,Battersea,Wandsworth,-0.1628192744814355,51.466849264498
Edinboro Castle,57 Mornington Terrace,London,Camden,-0.14499380174418,51.53606412466642
V Bar,Terminal 5 Airside,Heathrow Airport,Hillingdon,-0.4872391389773695,51.47149256514529
Rookery,69 Clapham Common South Side,Clapham,Lambeth,-0.1428000700500535,51.45707359771248
Sultan,78 Norman Road,South Wimbledon,Merton,-0.1857082995567953,51.41862654288381
Pied Bull,Bulls Cross,Enfield,Enfield,-0.0593027580315156,51.67820717912788
Wild Card Brewery Taproom,"Unit 2, Lockwood Way",Walthamstow,Waltham Forest,-0.0422198575157582,51.59535389375479
Bat & Ball,"Unit 1110/1111, Westfield Centre",Stratford City,Newham,-0.0063195504829034,51.54433737187736
Beulah Spa,41 Beulah Hill,Upper Norwood,Croydon,-0.0928718555017451,51.41408639177499
Alma Tavern,127-129 Lower Addiscombe Road,Croydon,Croydon,-0.0819344714060955,51.3795737550482
Crayford Arms,37 Crayford High Street,Crayford,Bexley,0.1773986748765451,51.45230936510991
Coach & Horses,178 Stoke Newington High Street,Stoke Newington,Hackney,-0.0735477835712749,51.561278371870095
Beer House Waterloo,"Unit 4, Waterloo Mainline Railway Station",London,Lambeth,-0.1132337586770971,51.50314782082231
Park,56 Elder Road,West Norwood,Lambeth,-0.0982556446814312,51.42435371792104
Sportsman,78-102 The Broadway,Stratford,Newham,0.0019285283981927,51.54167892636549
Cloudwater Tap Room,73 Enid Street,Bermondsey (East),Southwark,-0.0722297942343251,51.49757984309672
White Hart,"The Terrace, Riverside",Barnes,Richmond upon Thames,-0.2545474197533854,51.47134354869471
Boaters Inn,"Canbury Gardens, Lower Ham Rd",Kingston,Kingston upon Thames,-0.3056025969542347,51.41894662824947
Stags Head,"24 Priests Bridge, London",East Sheen,Richmond upon Thames,-0.2526060404646504,51.46600002029767
North Pole,131 Greenwich High Road,Greenwich,Greenwich,-0.0147218408351341,51.47754597588651
Imperial Arms,577 Kings Road,Fulham,Hammersmith and Fulham,-0.188563617974223,51.47845457443653
Fox,Coulsdon Corner Fox Lane,Coulsdon,Croydon,-0.1088433372915158,51.29595442361849
La Familia Restaurant & Bar,99 High Street,Hampton Hill,Richmond upon Thames,-0.3577763910249199,51.42509406648588
Colonel Fawcett,1 Randolph Street,London,Camden,-0.1361839991097436,51.541697841148064
Bloomsbury,209 Staines Road,Twickenham,Richmond upon Thames,-0.352001510404514,51.44208035108559
Prince Regent,71 Marylebone High Street,London,City of Westminster,-0.1520575135464194,51.52151751342118
North Star,43 The Broadway,Ealing,Ealing,-0.3029145547292701,51.51358095231348
Horse & Groom,60 Streatham High Road,Streatham,Lambeth,-0.1281946788940344,51.43653555601878
Queen's Head,54 Windsor Street,Uxbridge,Hillingdon,-0.4805768600596172,51.54540382245
Duchess Of Kent,441 Liverpool Road,Holloway,Islington,-0.1085923875243661,51.54595936953962
Hermits Cave,28 Camberwell Church Street,Camberwell,Southwark,-0.091318687598217,51.47380054281954
Northumberland Arms,119 Tottenham Court Road,London,Camden,-0.1373071669992168,51.5233795274434
Hagen & Hyde,157 Balham High Road,Balham,Wandsworth,-0.1518368378355746,51.44431180787596
Rebel Inn,78a Streatham High Road,Streatham,Lambeth,-0.1285225879344335,51.435200868319214
Heist Bank,5 North Wharf Road,Paddington,City of Westminster,-0.1770724637710597,51.51850068977059
George Inn (Harvester),Epsom Road,Morden,Merton,-0.2038252222578989,51.391594757254296
Boston Arms,178 Junction Road,Upper Holloway,Islington,-0.1382100871293658,51.55812363610181
Captain Kidd,108 Wapping High Street,London,Tower Hamlets,-0.0600977882883692,51.50302713664555
Great Western,Dawley Road,Hayes,Hillingdon,-0.4305598165179532,51.49728387677739
Roisin Dubh,1 Fryent Way,Kingsbury,Brent,-0.2808606655133178,51.58443507114855
Prince of Wales,2 Cleveland Terrace,Paddington,City of Westminster,-0.1801321311983579,51.51695649730234
Merton Apprentice,"The Apprentice Shop, Merton Abbey Mills, Watermill Way",Colliers Wood,Merton,-0.1831701631258381,51.41299370220341
Forestdale Arms,"Forestdale Centre, Featherbed Lane",Croydon,Croydon,-0.0380245137837516,51.3508694783466
Brondes Age,328 Kilburn High Road,West Hampstead,Camden,-0.2016030937642134,51.545236674400975
Salusbury,50-52 Salusbury Road,Queen's Park,Brent,-0.2054915221568323,51.5354852857776
Hammersmith Ram,81 King Street,Hammersmith,Hammersmith and Fulham,-0.2278835426267229,51.49245427822365
Cherry Tree,Wood Lane,Dagenham,Barking and Dagenham,0.1346130287498719,51.552630161651145
Crook Log,Crook Log,Bexleyheath,Bexley,0.127245430276106,51.45896774742068
Prince of Wales,169-171 Lyham Road,Brixton,Lambeth,-0.1266086980288246,51.45349761183392
Running Horses,23 Erith High Street,Erith,Bexley,0.1810293912058491,51.48165792846115
Bar Rollerbowl,"City Pavilion (Downstairs), Collier Row Road",Collier Row (Romford),Barking and Dagenham,0.1474794624341583,51.59548079899458
Shakespeare's Head,29 Great Marlborough Street,London,City of Westminster,-0.1395775467316717,51.51365846692865
Welcome Inn,451 Lordship Lane,Wood Green,Haringey,-0.0946929491545626,51.598007790565184
Toby,801 Great Cambridge Road,Enfield,Enfield,-0.0593973580032877,51.65907303375434
Jamies,47 Ludgate Hill,London,City and County of the City of London,-0.1025707557890993,51.51390204190609
New Globe,359 Mile End Road,Bow,Tower Hamlets,-0.0363711452982069,51.524673349550326
Red Hand,36-38 Stoke Newington Road,London,Hackney,-0.0747650051183327,51.551577318516856
Orange Tree,45 Kew Road,Richmond,Richmond upon Thames,-0.3017283060021183,51.4640775807209
Three Blackbirds,118 Blendon Road,Bexley,Bexley,0.1225731910229803,51.44825187665195
Craft Beer Co.,168 High Holborn,London,Camden,-0.1252817009191882,51.51573300096805
Clissold Arms,105 Fortis Green,East Finchley,Haringey,-0.1544615941966333,51.590726118552176
Fairway,"Ruislip Golf Centre, Ickenham Rd",Ruislip,Hillingdon,-0.4329783942680082,51.57205091142623
Steam Wine Bar,1 St Georges Lane,London,City and County of the City of London,-0.0847337816567426,51.510329718968805
Roundhouse,Lodge Avenue / Porters Avenue,Dagenham,Barking and Dagenham,0.1135400475969946,51.54271481991514
Westbourne,101 Westbourne Park Villas,Bayswater,City of Westminster,-0.1944776518448237,51.519399357642186
Northern Soul,114 Junction Road,London,Islington,-0.1373332623597973,51.560870431797504
Zan Zi Bar,113 High Street,Edgware,Harrow,-0.2804385549994465,51.61129796902347
Railway,3 Victoria Road,Teddington,Richmond upon Thames,-0.3326628813785806,51.42388503137762
Plough,Church Road,Worcester Park,Kingston upon Thames,-0.2537714636722098,51.38487678579137
Chatsworth Bar,290 High Street,Acton,Ealing,-0.2768620597995383,51.508498209791526
Star & Garter,490 New Cross Road,New Cross,Lewisham,-0.0274641594805941,51.47493734088875
Clifton Arms,21 Clifton Road,South Norwood,Croydon,-0.0859824002485871,51.396213661534574
Courtfield,187 Earls Court Road,Earls Court,Kensington and Chelsea,-0.1922203136140472,51.49196397070627
Miller's Tap,219-221 High Street,Uxbridge,Hillingdon,-0.476622570266401,51.54505576336413
Mumbai Junction,231 Watford Rd,Sudbury,Brent,-0.3217463461302684,51.56820216487682
Bar Soho,23-25 Old Compton Street,London,City of Westminster,-0.1308765976745679,51.5132053985729
Hollywood Arms,45 Hollywood Road,Chelsea,Kensington and Chelsea,-0.1842928504665755,51.4862750558456
EDG bar & Lounge at Hilton Metropole Hotel,225 Edgware Road,Paddington,City of Westminster,-0.1698980794396965,51.519486085335856
Leadbelly's,"Unit C, Montreal House, Surrey Docks Road",Rotherhithe,Southwark,-0.048675798902343,51.49853905071003
Westminster Arms,9-10 Storey's Gate,London,City of Westminster,-0.1300806380457724,51.50062087743371
Queens Head,2 High Street,Chislehurst,Bromley,0.0678771469642167,51.4181861020253
Chelsea Pig,35 Old Church Street,Chelsea,Kensington and Chelsea,-0.172658912109991,51.48472747505485
Paya & Horse,189 Battersea Park Road,Battersea,Wandsworth,-0.1490702178028829,51.475733608337706
Railway Telegraph,112 Stanstead Road,Forest Hill,Lewisham,-0.0490930929760352,51.442196556515206
Caspari Lounge & Restaurant,55 High Street,Brentford,Hounslow,-0.3025276008465463,51.48444846474778
Edward Rayne,8-12 Coombe Lane,Raynes Park,Merton,-0.2290696667044418,51.40973954416329
Goldengrove,146-148 The Grove,Stratford,Newham,0.0040521559310448,51.54406167412191
Leefe Robinson VC,375 Uxbridge Road,Harrow Weald,Harrow,-0.3324442380934915,51.613352592502224
King's Arms,98 Kennington Lane,Kennington,Lambeth,-0.1081585026290007,51.49000859455019
Whole Foods Market,2-6 Fulham Broadway,Fulham,Hammersmith and Fulham,-0.1965080981683858,51.48004280958558
Crown,43 Monmouth Street,London,Camden,-0.1267526446877,51.51430866959755
Runway,High Street,Cowley,Hillingdon,-0.4815304248173594,51.52716194251703
Duke of York,107 Devonshire Road,Chiswick,Hounslow,-0.2551418577615161,51.4901111122802
Regent,21 Chestnut Grove,Balham,Wandsworth,-0.1539035421953984,51.44409255578598
Hour Glass,131 Beaconsfield Road,Walworth,Southwark,-0.0843396867722169,51.48640252717168
Alwyne Castle,83 St Pauls Road,London,Islington,-0.0985723591083138,51.54656162384608
Fleadh,278 Preston Road,Wembley,Brent,-0.2942924420879759,51.57306693450554
Prince,1 Finsbury Road,London,Haringey,-0.1163662920150877,51.60253041852575
Pannas,"City Pavillion (Upstairs), Collier Row Road",Collier Row (Romford),Barking and Dagenham,0.1474794624341583,51.59548079899458
Victoria Tavern,28 High Street,Plaistow,Newham,0.0218571574477649,51.5299340012775
Sultan,37 New Park Road,Brixton,Lambeth,-0.1242764037718172,51.44894591566732
Hillgate,24 Hillgate Street,Kensington,Kensington and Chelsea,-0.197720238592142,51.5081005094385
Dog & Duck,18 Bateman Street,London,City of Westminster,-0.1319971945832909,51.51399662296547
Affinity Brew Co. Tasting Room,7 Almond Road,Bermondsey (East),Southwark,-0.059540772225285,51.49172302493058
Bow Street Tavern,37 Bow Street,London,City of Westminster,-0.1213570864918375,51.51303534101294
Six Yard Box,"Unit 6, The Artworks, Elephant Road",London,Southwark,-0.0985298796159004,51.49396256164259
Crown & Crooked Billet,13 Cross Road,Woodford Bridge,Redbridge,0.0610952611116101,51.6073256302417
Central Bar,"West 12 Centre, Shepherds Bush Green",Shepherds Bush,Hammersmith and Fulham,-0.2195296637552776,51.50387431945114
Golden Crane,117 Avon Road,Cranham,Havering,0.2676798621285025,51.56874954227372
All Bar One,108 New Oxford Street,London,Camden,-0.1291755789642425,51.51673040856512
Rose & Crown,31 Mill Lane,Woodford Green,Redbridge,0.0209353699932874,51.60969639533482
Coach & Horses,29 Greek Street,London,City of Westminster,-0.1301679121804285,51.51326604594872
Marlborough Arms,36 Torrington Place,London,Camden,-0.1339118214756392,51.5218057984696
Princess Of Wales,146 Lea Bridge Road,Clapton,Hackney,-0.0467697260988176,51.56128504491068
Askew Pub & Kitchen,269 Uxbridge Road,Shepherds Bush,Hammersmith and Fulham,-0.2440371353647604,51.50656376898576
Philomena's,40 Great Queen Street,London,Camden,-0.1218307777330835,51.51518319925899
Bottle Shop,128 Druid Street,London,Southwark,-0.0731886829678428,51.499439121788846
William Butler Yeats,20 Fonthill Road,Finsbury Park,Islington,-0.1109931993244666,51.565997591731225
Dublin Castle,94 Parkway,London,Camden,-0.145674275395407,51.53741479298039
Henry's Cafe Bar,80 Piccadilly,London,City of Westminster,-0.1432603862413425,51.50673848102527
Asylum Tavern,40-42 Asylum Road,Peckham,Southwark,-0.0592600241154942,51.477986273312425
Duchess Belle,101 Battersea Park Road,Battersea,Wandsworth,-0.1430396263152373,51.47884864081381
Foxley Hatch,8-9 Russell Hill Road,Purley,Croydon,-0.1176298562765909,51.33927119193182
Pig & Butcher,80 Liverpool Road,London,Islington,-0.1064879159504556,51.53724750498933
Ale Bar,443 New Cross Road,New Cross,Lewisham,-0.0301905896577822,51.47582853373511
Corney & Barrow,25 Fenchurch Ave,London,City and County of the City of London,-0.0809661990580727,51.5128759663429
Red Lion,80 High Street South,East Ham,Newham,0.0556084281779049,51.530569917684325
Cinnamon Bazaar,28 Maiden Lane,London,City of Westminster,-0.1236600869774767,51.51065315430333
George Tavern,373 Commercial Road,London,Tower Hamlets,-0.0528858652379206,51.51434627981804
Grange Rochester Hotel Bar,69 Vincent Square,London,City of Westminster,-0.1363276973229139,51.49441641239049
Shortlands Tavern,5 Station Road,Bromley,Bromley,0.0042020939664687,51.404930239093744
7 Seasons,195 Hoxton Street,London,Hackney,-0.0803774331926532,51.53235343288007
Dirty Dicks,202-204 Bishopsgate,London,City and County of the City of London,-0.0797004269106184,51.517954093658616
Prince of Wales,150-151 Drury Lane,London,City of Westminster,-0.1217233383652239,51.51464191448508
Duke of Wellington,77 Wardour Street,London,City of Westminster,-0.1332336890794094,51.51230769021023
Tailor's Chalk,47-49 High Street,Sidcup,Bexley,0.1036542740779424,51.426173398950034
Bar & Block,66 Alie Street,Aldgate,Tower Hamlets,-0.0697507922607255,51.51395973429754
Retro Bar,2 George Court,London,City of Westminster,-0.1235785006031193,51.50913207529875
Fleet Place,1 Fleet Place,London,City and County of the City of London,-0.1035697822405915,51.51622034899221
Elements,"Novotel Hotel, 173-185 Greenwich High Road",Greenwich,Greenwich,-0.0147218408351341,51.47754597588651
Wright Brothers Oyster & Porter House,11 Stoney Street,London,Southwark,-0.0916307849965948,51.50564902290041
George IV,76 Willes Road,Kentish Town,Camden,-0.1449105020679987,51.54839178865574
TGI Fridays,"Enfield Retail Park, Great Cambridge Road (A10)",Enfield,Enfield,-0.0611720319495685,51.65136884772405
Globe,20 Morning Lane,Homerton,Hackney,-0.0537743614576168,51.54589801981597
Zebrano,14-16 Ganton Street,London,City of Westminster,-0.1393176969773501,51.51296190661614
Fox,28 Paul Street,London,Hackney,-0.0839385743637907,51.52377878817099
Hankies at Piccadilly West End Hotel,67 Shaftesbury Avenue,London,City of Westminster,-0.1318824202381028,51.51222322894625
Graces (Bar & Grill),1-3 Witham Rd,Birkbeck,Bromley,-0.0568184472065847,51.40391634552823
Fox & Anchor,115 Charterhouse Street,London,Islington,-0.1006380526948015,51.52051641064313
Shawl,25 High Street,Harlesden,Brent,-0.2479659171858249,51.53672963937069
Brewer's Arms,22 Brook Street,Erith,Bexley,0.1599919021273757,51.47230804188817
Chapel,48 Chapel Street,London,City of Westminster,-0.166733241709635,51.519688462282105
William Morris,807 Forest Road,Walthamstow,Waltham Forest,-0.0080840999966504,51.59111959729516
Warwick,1-3 Warwick Street,London,City of Westminster,-0.1372907039346644,51.51071752700105
Prince of Wales,138 Upper Richmond Road,Putney,Wandsworth,-0.2118552972461632,51.45990932205687
Anchor & Hope,36 The Cut,London,Lambeth,-0.1066482056240438,51.50350932293203
Mayfair Tavern,127 Upper Tooting Road,Tooting,Wandsworth,-0.1637449429638443,51.43193583126728
Tav,18 Hornsey High St,London,Haringey,-0.1207859622809522,51.587107365576536
Albion,78 Woolwich Church Street,Woolwich,Greenwich,0.0484641565551342,51.49218761935338
Hereford Arms,127 Gloucester Road,South Kensington,Kensington and Chelsea,-0.1813572879391608,51.493081977329474
Kingsfield Arms,111 Bessborough Road,Harrow,Harrow,-0.3431157920733944,51.574952895509256
Charlie's Bar,247 Barking Road,Plaistow,Newham,0.0178424981673082,51.52032692565204
Crosse Keys,7-12 Gracechurch Street,City of London,City and County of the City of London,-0.0846592589261058,51.51279250353671
Barrel Vault,"Unit 23, St Pancras International Station, Pancras Road",London,Camden,-0.1256269850203503,51.53048661016626
Kenley Hotel,62 Godstone Road,Kenley,Croydon,-0.1004750774826998,51.32565785681604
Blue Check,12-13 Empire Parade,Wembley,Brent,-0.2829060835524824,51.56120193866398
Barrowboy & Banker,6-8 Borough High Street,London,Southwark,-0.0887710105939303,51.50615101333809
Canons Bar,"Canons Hall, 1-17 Wemborough Road",Canons Park,Harrow,-0.3035957783724111,51.60650034485147
O'Briens,137 Uxbridge Road,West Ealing,Ealing,-0.3158691221701676,51.51128561973289
Three Compasses,62 High Street,Hornsey,Haringey,-0.1194469228871427,51.587373668695726
Centre Page,29-33 Knightrider Street,London,City and County of the City of London,-0.0985380069386028,51.51245183520941
Coppermill,205 Coppermill Lane,Walthamstow,Waltham Forest,-0.0405072474561947,51.5801102380367
Callow Ruscoe,152 Wandsworth Bridge Road,Fulham,Hammersmith and Fulham,-0.1917282146194437,51.47162405070753
Unicorn [Harvester],91 Main Road,Gidea Park,Havering,0.2005178021097048,51.58693532018485
Leather Bottle,277 Kingston Road,Merton Park,Merton,-0.2075539452313364,51.41240689982688
Powerleague Wembley,"Yellow Car Park, Engineers Way",Wembley,Brent,-0.2780793898038013,51.55873926412893
Rosemary Branch,2 Shepperton Road,London,Islington,-0.086933118210044,51.5376224104989
Crabtree,Rainville Road,Hammersmith,Hammersmith and Fulham,-0.223328380744951,51.48289813375339
Grove House,26 Camberwell Grove,Camberwell,Southwark,-0.0881936213388921,51.47208593962343
Red Lion & Pineapple,281 High Street,Acton,Ealing,-0.2769579723603133,51.5082478270856
Goat,250 High Street,Enfield,Enfield,-0.0472915157525805,51.64706490347311
Akari,196 Essex Road,London,Islington,-0.0958122017507856,51.5404737928116
Barley Mow,104 Horseferry Road,London,City of Westminster,-0.1312168887592912,51.49503651899408
Nelson Arms,15 Merton High Street,Merton,Merton,-0.1866820144837266,51.41582685429781
White Swan,26 Old Palace Lane,Richmond,Richmond upon Thames,-0.3103678343010175,51.46169345905989
St. James Tavern,45 Great Windmill Street,London,City of Westminster,-0.1341835942355252,51.51092893191467
Lucky Rover,"312, Hook Road, Hook",Chessington,Kingston upon Thames,-0.3068374855621086,51.36794882052516
Bull,4 Devonshire Row,London,City and County of the City of London,-0.0801915649232631,51.51690100278781
Prince Regent,81 Salmon Lane,Poplar,Tower Hamlets,-0.0365328636805527,51.51421757227065
Olde Black Bull,13 Broadway,Stratford,Newham,0.0026311019390842,51.54092952378111
Frankies Wine Bar,29 Station Lane,Hornchurch,Havering,0.2210838204406001,51.56076470579735
Lounge 101,101-3 High Street,Ruislip,Hillingdon,-0.4232734507564989,51.573530478421496
Wild Card Brewery Barrel Room,"Unit 7, Ravenswood Industrial Estate, Shernhall Street",Walthamstow,Waltham Forest,-0.0081112315949244,51.58389023786152
Sun Tavern,66 Long Acre,London,City of Westminster,-0.1225583857126774,51.513962841139104
Nags Head,231 Rye Lane,Peckham,Southwark,-0.0662870793232975,51.467445897314406
Memory Box,80-88 High Street,Croydon,Croydon,-0.1005368592805528,51.37106387499904
Lamb,73 Brighton Road,Surbiton,Kingston upon Thames,-0.3120230635913518,51.39221409852122
Three Tuns,36 Jewry Street,London,City and County of the City of London,-0.0768577179645594,51.51255681673029
Leather Exchange,15 Leathermarket Street,London,Southwark,-0.0845050413438018,51.50032605655639
Drift,"Heron Tower, 110 Bishopsgate",London,City and County of the City of London,-0.081179284748603,51.51637761822232
Queens,410 Green Street,Plaistow,Newham,0.0352701062601317,51.53424311617482
Sourced Market,7-21 Goswell Road,Barbican,Islington,-0.0975624347668813,51.52168055995925
Scarsdale Tavern,23a Edwardes Square,Kensington,Kensington and Chelsea,-0.1993692892486152,51.49771234472247
Crown & Anchor,246 Brixton Road,Brixton,Lambeth,-0.112972055331564,51.47110254754424
Dolphin,1 Rockingham Road,Uxbridge,Hillingdon,-0.4878437235037331,51.54414890210994
Crutched Friar,38 Crutched Friars,London,City and County of the City of London,-0.0787549290388591,51.51131097250881
County Arms,420 Hale End Road,Chingford,Waltham Forest,-0.0170213689828066,51.61265486831693
Shelverdine Goathouse,7-9 High Street,South Norwood,Croydon,-0.0763678571843584,51.3985469561116
Beer Box,"Peninsula Square, Greenwich Peninsula",Greenwich,Greenwich,0.0039701546003482,51.501823480149056
Sloe Bar & Cafe,Victoria Main Line Station Platforms 14-15,London,City of Westminster,-0.1443293284531723,51.49497494321386
Tappit Hen,21-23 St Swithens Lane,Bank,City and County of the City of London,-0.0888068390914526,51.51183500816016
Greyhound,109 Peckham High Street,Peckham,Southwark,-0.0683809563449753,51.47411717820877
Lamb & Flag,33 Rose Street,London,City of Westminster,-0.125520925945977,51.51166311471133
Railway Bell,87 George Lane,South Woodford,Redbridge,0.0282255502332792,51.59179224771514
Windmill,27 Tabernacle Street,London,Islington,-0.0864704517213339,51.52321763956519
Clarence Tavern,102 Stoke Newington Church Street,Stoke Newington,Hackney,-0.0791179329537873,51.56227807725276
Graphic Bar,4 Golden Square,London,City of Westminster,-0.1367456350930655,51.51206676961422
Chandos Arms,31 Colindale Avenue,Colindale,Barnet,-0.2558444535839792,51.5931129960306
Strongroom Bar & Kitchen,120-124 Curtain Road,London,Hackney,-0.0801254241838541,51.52600950973785
Hope,15 Tottenham Street,London,Camden,-0.135368292609905,51.52038112936018
Steam Engine,41-42 Cosser Street,London,Lambeth,-0.1124314989572808,51.49710976820676
All Bar One,48 Leicester Square,London,City of Westminster,-0.1309629808339202,51.51039205176332
Bricklayer's Arms,32 Waterman Street,Putney,Wandsworth,-0.2174706218561627,51.46616379657716
Brockley Brewery,31 Harcourt Road,Brockley,Lewisham,-0.0364462841950295,51.46228227163642
Union,35 Old Bailey,London,City and County of the City of London,-0.1025148837952091,51.51489933753547
Pawleyne Arms,156 High Street,Penge,Bromley,-0.0521291772057982,51.41411727195139
Rising Sun,137 Marsh Lane,Mill Hill,Barnet,-0.2418125440304511,51.62711931077692
Tapping The Admiral,77 Castle Road,London,Camden,-0.146927492327905,51.5456089462391
Millers,19 Caledonian Road,London,Islington,-0.1211751338650696,51.53145856567272
Montpelier,43 Choumert Road,Peckham,Southwark,-0.0709479356861302,51.46754070932869
Duke of Buckingham,"104, Villiers Road",Kingston,Kingston upon Thames,-0.2948091454230914,51.4025044418818
Wellington,81-83 Waterloo Road,London,Lambeth,-0.1116130116452782,51.50401202137422
Beer & Burger Store,"1A Arthouse, 1 York Way",London,Camden,-0.1226745165486588,51.53601490204922
Winchester,2 Essex Road,London,Islington,-0.1013556206120295,51.536526049241296
Little Fable,3 Fleet Place,London,City and County of the City of London,-0.104000491532311,51.5152201192352
Mendes (The Sheep Walk),14 Market Place,Acton,Ealing,-0.2710326811147915,51.50793585302685
Lord Stanley,51 Camden Park Road,London,Camden,-0.1297277046086345,51.5472155465029
Warwick Arms,160 Warwick Road,West Kensington,Kensington and Chelsea,-0.2029847460854844,51.4951689172748
Queens Theatre (Greene Room),Billet Lane,Hornchurch,Havering,0.2194390003829854,51.5652114006089
Founders Arms,52 Hopton Street,London,Southwark,-0.1020269244606202,51.5082637574038
Lock & Quay,"Willowtree Marina, West Quay Drive",Yeading,Hillingdon,-0.3838198062179975,51.52224098132232
Dove,19 Upper Mall,Hammersmith,Hammersmith and Fulham,-0.2365405729730742,51.49060636072856
Partridge,194 High Street,Bromley,Bromley,0.014278857896156,51.40520720523722
Haggerston,438 Kingsland Road,Hackney,Hackney,-0.0759389655027453,51.54152491603893
Lost Hour,217 Greenwich High Road,Greenwich,Greenwich,-0.0113778903843886,51.4789371688307
Cross Keys,31 Endell Street,London,Camden,-0.1248850367711282,51.51451264189996
Han,1 High Street,New Malden,Kingston upon Thames,-0.2571459851760459,51.403119311214994
Flynn's,418 Mare Street,Hackney,Hackney,-0.0547689600046607,51.54929577275056
Keg & Grill,1 South End,Croydon,Croydon,-0.098741311115926,51.36688900510577
Kitty Hawk,"11-13 South Pl, Finsbury Circus",London,City and County of the City of London,-0.0862229054199231,51.51846545723894
Jackalope,43 Weymouth Mews,London,City of Westminster,-0.1462074384722015,51.52004033734538
Venue 5,446 Field End Road,Ruislip,Hillingdon,-0.3898123555729419,51.56893064363537
Waterloo Tap,"Arch 147, Sutton Walk",London,Lambeth,-0.1201051587454682,51.49199024974828
Hardy's Free House,92 Trafalgar Road,Greenwich,Greenwich,0.0015313162994404,51.483996365185405
Ship,499 High Road,Tottenham,Haringey,-0.0699870955853523,51.592918619484
White Horse,45 Rupert Street,London,City of Westminster,-0.1337336667401029,51.51206384976317
Bangers,2 Wilson Street,London,City and County of the City of London,-0.0858792487058539,51.51909832832656
Mall Tavern,71-73 Palace Gardens Terrace,Kensington,Kensington and Chelsea,-0.1937425040012046,51.50811126488279
Flying Horse,6 Oxford Street,London,City of Westminster,-0.1308091166295308,51.51661256494307
Star Tavern,6 Belgrave Mews West,London,City of Westminster,-0.1555809012377523,51.49818297303857
Bridge Inn,457 London Road,Isleworth,Hounslow,-0.3358504557303757,51.4750970399201
Weavers Arms,98 Newington Green Road,London,Islington,-0.0869733295190929,51.54938528375894
Le Gothique,"Royal Victoria Patriotic Building, John Archer Way, Off Windmill Road",Wandsworth,Wandsworth,-0.1745322700559551,51.45330030103504
Ashbys,123 Uxbridge Road,West Ealing,Ealing,-0.3158691221701676,51.51128561973289
Wheatsheaf,6 Stoney Street,London,Southwark,-0.091048149064845,51.50510896855376
Pitcher & Piano,11 Bridge Street,Richmond,Richmond upon Thames,-0.3060509523228335,51.4581420625889
Pear Tree,14 Margravine Road,Hammersmith,Hammersmith and Fulham,-0.2149009059379277,51.48663701737671
Vagabond,"Nova Building, 77 Buckingham Palace Road",London,City of Westminster,-0.1441613031224928,51.4973373687271
Chamberlayne,83 Chamberlayne Road,Kensal Rise,Brent,-0.218619451795045,51.53384187415495
Crooked Billet,14-15 Crooked Billet,Wimbledon,Merton,-0.2282489939708025,51.42129157335864
Plough & Harrow,419 High Road,Leytonstone,Waltham Forest,0.0064737742843295,51.55812975111253
Mother Red Cap,665 Holloway Road,Upper Holloway,Islington,-0.1332726398630846,51.56490649273614
Fitzrovia Belle,174 Tottenham Court Road,London,Camden,-0.1356683730746107,51.52256213606072
Monument,18 Fish Street Hill,London,City and County of the City of London,-0.0862720306675812,51.51007605939489
Dalston Superstore,117 Kingsland High Street,Hackney,Hackney,-0.0755463249588904,51.54946789765237
Hallowed Belly,573 Garratt Lane,Earlsfield,Wandsworth,-0.1866069183953825,51.439530767414944
Doric Arch,"Euston Station Colonnade, 1 Eversholt Street",London,Camden,-0.1321572195268266,51.52804580605272
Finchley Tavern,686 High Road,North Finchley,Barnet,-0.1754767203915718,51.61281640410873
Ring,72 Blackfriars Road,London,Southwark,-0.1050920762676541,51.50316045289802
Whyte Lyon (Ye Olde),Farnborough Common,Locksbottom,Bromley,0.0572329226241444,51.36396732425988
26 Furnival Street,26 Furnival Street,London,City and County of the City of London,-0.1102795202772621,51.5167332966757
Builders Arms,"38 Field Lane, Twickenham",Teddington,Richmond upon Thames,-0.3304014098441195,51.42555237311329
Fire Station,150 Waterloo Road,London,Lambeth,-0.110653102833473,51.502485778375714
Duke of Cornwall,48 Fulham Palace Road,Hammersmith,Hammersmith and Fulham,-0.2237280142860212,51.49040405161157
Lighterman,109 Bastable Avenue / Charlton Crescent,Barking,Barking and Dagenham,0.1031679996148176,51.52857586635782
Jolly Fenman,64-68 Blackfen Road,Sidcup,Bexley,0.0921825433238963,51.4515141430921
Greenwich Pensioner,28 Bazeley Street,Poplar,Tower Hamlets,-0.0105664794574144,51.50979610238635
Bardens,36 Stoke Newington Road,Stoke Newington,Hackney,-0.0747650051183327,51.551577318516856
Crown Inn,School Road,Chislehurst,Bromley,0.0729580907786139,51.41065023746475
Old White Lion,121 Great North Road,East Finchley,Barnet,-0.1643650088046473,51.587149540060814
Kings Arms Bar & Hotel,19 Boston Manor Road,Brentford,Hounslow,-0.3108851515177457,51.48785141848375
Arkstar,"Arch 1,303 Holloway Road",London,Islington,-0.112796260804296,51.552762588914185
Heads + Tails,175 West End Lane,West Hampstead,Camden,-0.1913924089028024,51.54632069957105
General Eliott,St Johns Road,Uxbridge,Hillingdon,-0.4909488801292593,51.540960668402384
Cock,340 Kennington Road,Kennington,Lambeth,-0.1117799266491924,51.48673065841575
Good Intent,South End Road,South Hornchurch,Havering,0.2028987341919269,51.54061255404694
Grim's Dyke Hotel,Old Redding,Harrow Weald,Harrow,-0.344025557843951,51.61937074445492
Crown of Mitcham,Carshalton Road,Mitcham,Merton,-0.1590382378305503,51.39010833055982
Bread & Roses,68 Clapham Manor Street,Clapham,Lambeth,-0.1368788345392788,51.46639500464535
North By Northwest,188-190 New North Road,London,Islington,-0.0911098443287312,51.53774447315172
Cabbage Patch,67 London Road,Twickenham,Richmond upon Thames,-0.3294311640548953,51.44819921465854
JJ Moon's,56a Tooting High Street,Tooting,Wandsworth,-0.1690761074807454,51.42741482799376
Prince Alfred,139 Marlborough Road,Upper Holloway,Islington,-0.1236987631371313,51.56614762149126
City Pride,28 Farringdon Lane,London,Islington,-0.1066635760087608,51.52294294329791
Crown & Sugar Loaf,26 Bride Lane,London,City and County of the City of London,-0.1049911792271133,51.513923180487566
Abbey Arms,31 Wilton Road,Abbey Wood,Greenwich,0.1211273825327912,51.49030210067386
Crafty Winger,29/31 York Street,Twickenham,Richmond upon Thames,-0.3274116105041142,51.44754094288288
Liberty Bell (Beefeater),Mercury Gardens / Western Road,Romford,Havering,0.1865858194055581,51.577879219852456
Admiral Nelson,"123 Nelson Road, Whitton",Whitton,Richmond upon Thames,-0.360339111192328,51.452754260354645
Mitre,20 St Mary's Grove,Richmond,Richmond upon Thames,-0.2916127923972853,51.46316628884126
Gryphon,9 Vera Avenue,Winchmore Hill,Enfield,-0.0982703508031517,51.64263243985568
Hope,1 Bellevue Road,Wandsworth Common,Wandsworth,-0.1659742625251077,51.44560385667455
Jugged Hare,49 Chiswell Street,London,City and County of the City of London,-0.0906802548119059,51.52079530169491
Kanaloa,"18 Wine Office Court, Hill House, Shoe Lane",London,City and County of the City of London,-0.1065269899370914,51.51616020273183
Hemingway,84 Victoria Park Road,Homerton,Hackney,-0.0475730917727802,51.53745883589949
Gate,Richmond Hill,Richmond,Richmond upon Thames,-0.2966902858384232,51.45128901821935
Stag's Head,102 New Cavendish Street,London,City of Westminster,-0.1431852870134771,51.51992059759484
Freemasons Arms,32 Downshire Hill,Hampstead,Camden,-0.1695087562343615,51.556493646690775
Royal,185 Court Road,Mottingham,Greenwich,0.0510569414018243,51.439210409501655
Coach & Horses,173/175 Clapham Park Road,Clapham,Lambeth,-0.1312143721726753,51.459848094813296
Green Man,144a Essex Road,London,Islington,-0.0978545626652862,51.53922101985864
White Hart,106 High St,Orpington,Bromley,0.1025064703396096,51.37953032628271
Golden Lion,88 Royal College Street,London,Camden,-0.13485727114318,51.53781888460132
Konnigan's,344-346 Old York Road,Wandsworth,Wandsworth,-0.1887240562441016,51.45985121013022
Earl of Derby,155 Kilburn High Road,Kilburn,Brent,-0.1967494463470966,51.54069285211661
East Dulwich Tavern,1 Lordship Lane,East Dulwich,Southwark,-0.0749288060719041,51.45984532982746
Catcher In The Rye,317 Regents Park Road,Finchley,Barnet,-0.1959585407457021,51.59967168392964
Bridge Hotel,Western Avenue,Greenford,Ealing,-0.3455246737403026,51.53640967848439
Old Bank Of England,194 Fleet  Street,London,City and County of the City of London,-0.1109133709529835,51.51395574749127
