name,address2,ward_2018_name,ward_2018_code,longitude,latitude
Moloneys,Willesden,Willesden Green,E05000105,-0.2422595210683515,51.54897314734286
Porterhouse,London,St. James's,E05000644,-0.1229385087917403,51.51067758043296
La Familia Restaurant & Bar,Hampton Hill,Fulwell and Hampton Hill,E05000518,-0.3577763910249199,51.42509406648588
Philomena's,London,Holborn and Covent Garden,E05000138,-0.1218307777330835,51.51518319925899
Vaulty Towers,London,Bishop's,E05000416,-0.1118080294642228,51.50103855608173
Taproom,London,St. Mary's,E05000379,-0.1029933294828608,51.54083305342915
Savannah Lounge,Wembley,Wembley Central,E05000104,-0.2993588442721983,51.55252981565371
Callaghanns,Poplar,Lansbury,E05009325,-0.0142329489656249,51.51296986072408
Prince Regent,London,Marylebone High Street,E05000641,-0.1520575135464194,51.52151751342118
Station House,Acton,Acton Central,E05000170,-0.2633351178276366,51.508757401770296
Dacre Arms,Lewisham,Blackheath,E05000438,0.0037812741548073,51.46107113363607
Castle Inn,Ealing,Walpole,E05000192,-0.3054399042381145,51.506117705176464
Wheatsheaf,Tooting,Nightingale,E05000618,-0.1608764114496203,51.435299184379424
Ganley's Irish Bar,Morden,Merton Park,E05000466,-0.195677206015021,51.400678047875
Arch,Wembley,Tokyngton,E05000102,-0.2849207766655469,51.55289532611023
Hop & Vine,Ruislip,West Ruislip,E05000343,-0.4265108690884241,51.57589396296101
Bell Inn,London,Church Street,E05000634,-0.1657396835767907,51.52217289167316
Nordic Bar,London,West End,E05000649,-0.1355128566756179,51.517901436714325
Crown Tavern,London,Clerkenwell,E05000370,-0.1051803862808421,51.52325172795376
Coach & Horses,Barnes,Mortlake and Barnes Common,E05000525,-0.2495227349690971,51.47358878976296
Beehive,Brixton,Coldharbour,E05000420,-0.1142538842568218,51.46375810614098
Windmill,Acton,Acton Central,E05000170,-0.266047241835661,51.50678317896934
Sportsmans,Harlesden,Harlesden,E05000091,-0.2477466933132196,51.5338037854697
Tooting Tram & Social,Tooting,Graveney,E05000616,-0.1669577667441993,51.42678820662
SW9,Brixton,Ferndale,E05000421,-0.1156705198662722,51.463268300983
King & Queen,London,West End,E05000649,-0.1387349660132146,51.52018279989407
Duke,Wanstead,Wanstead Village,E05011255,0.0280884321433263,51.58222655186922
Orchard,Brockley,Brockley,E05000439,-0.0344024417686424,51.4639476647597
Roebuck,Richmond,"Ham, Petersham and Richmond Riverside",E05000519,-0.2982683093674341,51.4522021941375
Canonbury Tavern,London,Canonbury,E05000369,-0.0972170829367522,51.54482204283551
Masque Haunt,London,Bunhill,E05000367,-0.090439471441872,51.52517082654823
Guard House,Woolwich,Woolwich Riverside,E05000230,0.069097225781333,51.49226593098635
Crooked Well,Camberwell,Camberwell Green,E05011096,-0.0903994760536859,51.47339887951548
Junction House,Hackney,Dalston,E05009370,-0.0755093906024871,51.54521380190014
Lillie Langtry,Fulham,Fulham Broadway,E05000254,-0.1982647895374533,51.48626572531455
Prince George,Thornton Heath,Thornton Heath,E05011486,-0.0936321309084778,51.39823582945314
Bank Of Friendship,Highbury,Highbury West,E05000373,-0.0988218446790988,51.55857074363168
Nightingale on the Green,Wanstead,Wanstead Village,E05011255,0.0280884321433263,51.58222655186922
Rabbit Hole,Streatham,St. Leonard's,E05000428,-0.1295987630451883,51.4218817680881
Bull Tavern,Woolwich,Woolwich Common,E05000229,0.0695751960193572,51.48946072145234
Patch Bar,London,Farringdon Within,E05009304,-0.1016016302002673,51.51329283861646
Barge House,London,De Beauvoir,E05009371,-0.0808493183669703,51.537244123417466
Railway Tavern,Bromley,Bromley Town,E05000109,0.0162159400175724,51.4074041292851
Smokehouse,London,St. Mary's,E05000379,-0.0990593481939504,51.54214518724854
Saxon Horn,Rainham,Rainham and Wennington,E05000318,0.2115336445980789,51.52149283871056
Westbourne,Bayswater,Bayswater,E05000631,-0.1944776518448237,51.519399357642186
Locker Room,Northwood Hills,Northwood Hills,E05000336,-0.4092362361373535,51.601100955613184
Castle,London,Whitechapel,E05009336,-0.0693254232111035,51.51481602651052
Charles Lamb,London,St. Peter's,E05000380,-0.1022006093264975,51.53216029994457
Gem,London,West End,E05000649,-0.1384539360115044,51.51187806881054
Upminster TapRoom,Upminster,Upminster,E05000323,0.2516354962474903,51.55477751202411
Sekforde,London,Clerkenwell,E05000370,-0.1044719530286404,51.52399567370218
Cads,Paddington,Hyde Park,E05000636,-0.1719464638819215,51.51620872458235
Marquis of Granby,London,West End,E05000649,-0.1348673099360306,51.51817894126482
Bleeding Heart Tavern,London,Holborn and Covent Garden,E05000138,-0.1070564832929816,51.51937916263704
Sir Michael Balcon,Ealing,Ealing Common,E05000174,-0.2980683733145218,51.51329495657087
Nags Head,Welling,Falconwood & Welling,E05011226,0.1126168346037146,51.46202013047176
Swan,Stockwell,Larkhall,E05000425,-0.1225728261534826,51.471886162660354
Brunel,Rotherhithe,Rotherhithe,E05011112,-0.0509919838264668,51.50132037876835
Breakspear Arms,Ruislip Common,Harefield,E05000330,-0.4483870940129467,51.57933267305352
All Bar One,London,Bishopsgate,E05009292,-0.0801557207396392,51.51843816646566
Queens Head,Stratford,Stratford and New Town,E05000492,0.0041398115202817,51.53949188364011
Admiralty,London,St. James's,E05000644,-0.1286694541576997,51.50727997025858
Market House,Brixton,Coldharbour,E05000420,-0.1137289750822108,51.46147448137798
Town Of Ramsgate,London,St. Katharine's & Wapping,E05009330,-0.0620574950989499,51.5033652980008
Pannas,Collier Row (Romford),Chadwell Heath,E05000029,0.1474794624341583,51.59548079899458
Mitre Hotel,Greenwich,Greenwich West,E05000222,-0.009754104772919,51.48017761644455
Union Tavern,Maida Vale,Westbourne,E05000648,-0.2000502932278498,51.52283025290686
Bridge Wine Bar,Clapham,Clapham Town,E05000419,-0.1335919079172428,51.46579417634344
Horsenden Hill Golf & Footgolf Centre,Greenford,North Greenford,E05000183,-0.3233137453692938,51.54910648988567
Albany,London,Marylebone High Street,E05000641,-0.1438829601634755,51.523321886176994
Dice,Croydon,Fairfield,E05011468,-0.1005653947807726,51.37245823676616
Milan Bar,Croydon,Fairfield,E05011468,-0.1007875603579908,51.372992420212505
Marlborough Head,London,West End,E05000649,-0.1538415613424889,51.51340722447439
Rileys Sports Bar,London,St. James's,E05000644,-0.1317565321124723,51.50790471596901
Thornbury Castle,London,Bryanston and Dorset Square,E05000632,-0.1625382256530378,51.52077388877361
Wellington,London,St. James's,E05000644,-0.1198309423826595,51.51124831018016
Rocket,London,St. Pancras and Somers Town,E05000143,-0.1289026291086373,51.52830869482948
Bunch Of Grapes,Knightsbridge,Brompton & Hans Town,E05009389,-0.1669258340670329,51.4976683980744
Green Man,Kingsbury,Fryent,E05000090,-0.2670512410357521,51.58354889874265
Woodman Wine Bar,Carshalton,Carshalton Central,E05000558,-0.1611753380395215,51.365124225224136
Globe,Brentford,Brentford,E05000347,-0.310032194396507,51.49066282835766
Two Towers,West Norwood,Gipsy Hill,E05000422,-0.0877953251774444,51.427528769396105
White Swan,Charlton,Charlton,E05000216,0.0374408649131271,51.48179522349286
Railway,Lower Edmonton,Edmonton Green,E05000197,-0.0578985205603953,51.62415689058199
Best Western Palm Hotel,Cricklewood,Childs Hill,E05000045,-0.2042861633272665,51.56354177459568
Kings Arms,London,Bishop's,E05000416,-0.1097744534978935,51.50456693619518
Pig & Whistle,Wandsworth,Southfields,E05000624,-0.1967666123721533,51.441333081649006
Triple Crown,Richmond,North Richmond,E05000526,-0.3018011232870643,51.46560737197021
Bridge Tavern,Mill Hill,Mill Hill,E05000057,-0.2489537112627748,51.614268123358535
T E Dingwall Building,London,Camden Town with Primrose Hill,E05000130,-0.1456935184208356,51.54155173789911
Thames Rowing Club,Putney,Thamesfield,E05000625,-0.2211467411675688,51.47011344926321
Red House,Plaistow,Canning Town North,E05000477,0.0178424981673082,51.52032692565204
Cutty Sark,Thamesmead,Thamesmead Moorings,E05000228,0.1070486107304939,51.50706678871372
Castle,London,Barnsbury,E05000366,-0.108139951826481,51.53218430480179
All Bar One,London,Bishop's,E05000416,-0.1169437714377839,51.5026319062128
Shy Horse,Malden Rushett,Chessington South,E05000405,-0.3192727020005737,51.33866826780096
Three Horseshoes,Feltham,Hanworth Park,E05000354,-0.4198016803808417,51.436296872028215
Brookmill,Deptford,Brockley,E05000439,-0.023341233321352,51.47137862669189
Howling Hops Tap Room,Homerton,Bow East,E05009319,-0.0227393894919707,51.54250186438299
Comedy,London,St. James's,E05000644,-0.1323562356427748,51.51015345469894
Freedom,London,West End,E05000649,-0.1332995215957566,51.51281233016993
Resting Hare,London,King's Cross,E05000141,-0.1294414216584456,51.52641981889124
Bloomsbury Kitchen & Bar,London,Holborn and Covent Garden,E05000138,-0.1225869166872328,51.520626921938096
Earl Spencer,Wandsworth,Southfields,E05000624,-0.1994590939057417,51.44824493079809
Londesborough,Stoke Newington,Clissold,E05009369,-0.0812460308045495,51.55764576569321
Domali Cafe Bar,Upper Norwood,Crystal Palace & Upper Norwood,E05011467,-0.0814079963600252,51.41963652972008
Bridge House,Goodmayes,Goodmayes,E05011244,0.1102357062196061,51.56575078436011
White Hart,London,Bishop's,E05000416,-0.1106464251998368,51.505084579905855
Windsor Castle,East Finchley,East Finchley,E05000049,-0.1711380894536083,51.59355003927634
Grafton,London,Kentish Town,E05000139,-0.1450188320545787,51.54679280371297
Pig & Butcher,London,St. Mary's,E05000379,-0.1064879159504556,51.53724750498933
Bear,Noak Hill,Heaton,E05000314,0.2174565492437794,51.6160865169094
Willow Farm (Table Table),Wennington,Rainham and Wennington,E05000318,0.2260767924378788,51.50667569642538
Paradise by Way of Kensal Green,North Kensington,Queens Park,E05000098,-0.2162379545662156,51.52911155168096
Simmons,London,Bloomsbury,E05000129,-0.1388962794745103,51.52223569701875
We Anchor In Hope,Welling,East Wickham,E05011224,0.085602896436773,51.46630782095176
Plume of Feathers,Greenwich,Peninsula,E05000225,-0.0006125071577071,51.48207248116636
Tower Tavern,London,Marylebone High Street,E05000641,-0.1427368129291759,51.5206688849262
Boma Green (Bar & Restaurant),Fulham,Parsons Green and Walham,E05000260,-0.2021295783439396,51.47222458852514
Graphic Bar,London,West End,E05000649,-0.1367456350930655,51.51206676961422
Old Oak,West Kensington,North End,E05000258,-0.2034988215079993,51.4868585978659
Slug & Lettuce,Battersea,Northcote,E05000619,-0.1683250413716282,51.463823940799074
Vagabond,London,St. James's,E05000644,-0.1441613031224928,51.4973373687271
Rising Sun,Isleworth,Syon,E05000364,-0.3325961006252121,51.47549144741044
Alma,Sidcup,Sidcup,E05011230,0.1033243023467555,51.432141723200616
Sir Sydney Smith,London,Whitechapel,E05009336,-0.0684665138182196,51.50990983934172
Dundee Arms,Bethnal Green,St. Peter's,E05009331,-0.0561225144431129,51.52903992907918
Core Bar,London,Cordwainer,E05009300,-0.0926499715871746,51.51298570308864
Bojangles Brasserie,Chingford,Larkswood,E05000602,-0.0171908987974365,51.61804425364685
Timberyard,Twickenham,Twickenham Riverside,E05000531,-0.3294311640548953,51.44819921465854
Tank & Paddle,London,West End,E05000649,-0.1396201909077284,51.510844425032815
Red Barn,Bexleyheath,Barnehurst,E05011217,0.1583262820662222,51.46570188375115
Sway,London,Holborn and Covent Garden,E05000138,-0.1206762562190132,51.515569382167634
Flowers of the Forest,London,St. George's,E05011114,-0.1065005056665167,51.498731779453934
Burdock,London,Bunhill,E05000367,-0.0856713433318533,51.52164885791189
Bull & Gate,London,Kentish Town,E05000139,-0.141048275254113,51.550434961275215
Royal Vauxhall Tavern,Kennington,Prince's,E05000427,-0.1196817591368834,51.48652488856602
Lodge Tavern,Ealing,Ealing Common,E05000174,-0.3000360622423018,51.51386302471526
Slug @ Fulham,Fulham,Town,E05000264,-0.1985149800672936,51.48028048452935
King's Head,London,West End,E05000649,-0.1412793274173864,51.50867650715989
Phene,Chelsea,Royal Hospital,E05009403,-0.1676979134582737,51.48524358648861
Marksman,Bethnal Green,Weavers,E05009335,-0.0686995255074246,51.53096546738564
Fox @ Excel,Royal Docks,Canning Town South,E05000478,0.0250055246067436,51.50893509723794
Exmouth Arms,Clerkenwell,Clerkenwell,E05000370,-0.1089692713593892,51.52609162143978
Wallace,Golders Green,Garden Suburb,E05000052,-0.1984841019007794,51.57964828926302
Lock & Quay,Yeading,Yeading,E05000344,-0.3838198062179975,51.52224098132232
Salisbury,London,St. James's,E05000644,-0.1272137004827258,51.51079987263488
Miller & Carter,Bexley,Crayford,E05011222,0.1602553990405088,51.448031125607685
Frosty's,Kenton,Kenton East,E05000294,-0.3001669507209185,51.58734190089448
Railway,Blackheath,Blackheath,E05000438,0.0089612919077935,51.46560485598328
Toy Shop,Putney,Thamesfield,E05000625,-0.21502587227188,51.46498454806729
Woodman,Ruislip,West Ruislip,E05000343,-0.4404624220785722,51.58611562467353
BrewDog,London,West End,E05000649,-0.1371128074795628,51.51507616737109
Seven Dials Club,London,Holborn and Covent Garden,E05000138,-0.1257237261029833,51.5137436774139
Company Below,London,West End,E05000649,-0.1314680658473084,51.51459970078509
Mabel's Tavern,London,King's Cross,E05000141,-0.1274976731363871,51.527764702420384
Rosendale,Dulwich,Thurlow Park,E05000434,-0.0946444855290679,51.436822083547895
Golden Lion,Croydon,West Thornton,E05011488,-0.1162450125408235,51.38670396834442
Bell on the Green,Bedfont,Bedfont,E05000346,-0.438821126940957,51.45109183852325
All Bar One,London,North Bermondsey,E05011106,-0.0726557749977196,51.50318931779274
Powerleague Wembley,Wembley,Tokyngton,E05000102,-0.2780793898038013,51.55873926412893
Royal Oak,Kennington,Oval,E05000426,-0.1193204459855645,51.48620434989746
Wells,London,Hampstead Town,E05000135,-0.1733646675017287,51.558909776031726
John Salt,London,St. Mary's,E05000379,-0.1026024715915461,51.53913611271244
Good Intent,South Hornchurch,Elm Park,E05000308,0.2028987341919269,51.54061255404694
Telegraph,London,Coleman Street,E05009299,-0.0882868155262412,51.51564843935421
Birkbeck Tavern,Leytonstone,Cathall,E05000591,0.0006722093003529,51.55610663903836
Albion,Woolwich,Woolwich Riverside,E05000230,0.0484641565551342,51.49218761935338
Gardeners Arms,Mitcham,Figge's Marsh,E05000460,-0.161697238895017,51.41018586936025
Bodhran Bar,Hendon,West Hendon,E05000062,-0.2281912538176005,51.582492875164725
William Blake,London,Bunhill,E05000367,-0.090439471441872,51.52517082654823
Horn Of Plenty,London,Bethnal Green,E05009317,-0.0464150491766446,51.5224129809081
Dugout Sports Bar,Greenford,North Greenford,E05000183,-0.3393672799091311,51.54989217608338
Albert Arms,London,St. George's,E05011114,-0.1047522111458032,51.49746254103506
Moon Under Water,Norbury,Norbury & Pollards Hill,E05011472,-0.1215325281235876,51.40707654968999
Nightingale,Balham,Nightingale,E05000618,-0.1573694670050885,51.45022617845329
Marriott Hotel,Bexleyheath,Bexleyheath,E05011219,0.1521816739863354,51.45506823091505
Hope,Wandsworth Common,Nightingale,E05000618,-0.1659742625251077,51.44560385667455
Wrong 'Un,Bexleyheath,Bexleyheath,E05011219,0.1374124547181311,51.457820539354216
Avalon,Balham,Balham,E05000610,-0.1481696760562292,51.45065679055863
Slug & Lettuce,London,St. Katharine's & Wapping,E05009330,-0.0727772391950476,51.50679739378998
Alfred,Sydenham,Sydenham,E05000452,-0.0428568484055513,51.4258244252824
Corner Pin,Summerstown,Earlsfield,E05000612,-0.1859476704669964,51.43328855549221
Prince Arthur,London,Hoxton West,E05009378,-0.0852647199149655,51.527559400081536
Boston Arms,Upper Holloway,Junction,E05000376,-0.1382100871293658,51.55812363610181
Hawkes Cidery & Taproom,London,London Bridge & West Bermondsey,E05011104,-0.072572979092986,51.49934806333796
Queen Adelaide,Bethnal Green,St. Peter's,E05009331,-0.0586561595995639,51.53251706904978
Flying Horse,London,Hoxton East & Shoreditch,E05009377,-0.0849705538080284,51.52048634841941
Raven,Hammersmith,Ravenscourt Park,E05000261,-0.2447145131418477,51.49419109820401
Fitzrovia,London,Bloomsbury,E05000129,-0.1350017590573871,51.51982674671767
Colbert,London,Royal Hospital,E05009403,-0.1562719180996563,51.49284317862689
Italian Job,Notting Hill,Colville,E05009392,-0.2043189414773401,51.518390367006425
Winsor House,East Ham,Beckton,E05000475,0.0674114351830956,51.5151736298269
Dolphin,London,King's Cross,E05000141,-0.1246586790339367,51.5287894954942
Star By Hackney Downs,Clapton,Hackney Downs,E05009373,-0.0579656515440708,51.55416884020116
Camel & Artichoke,London,Bishop's,E05000416,-0.113394217706022,51.50065940706271
Prince George,Hackney,Dalston,E05009370,-0.0686260103486514,51.54462387821762
Prince of Peckham,Peckham,Rye Lane,E05011113,-0.0653611203390019,51.47333893221232
Axe,Stoke Newington,Stoke Newington,E05009385,-0.0721515286516348,51.56291005514982
Hillgate,Kensington,Campden,E05009390,-0.197720238592142,51.5081005094385
Browns Bar & Brasserie,London,West End,E05000649,-0.1437956047337021,51.51235840189237
Red Lion,London,West End,E05000649,-0.1390867724657242,51.51261652021877
Market Tavern,London,West End,E05000649,-0.1468296550391035,51.50613846195375
Prince Albert,Bexleyheath,Bexleyheath,E05011219,0.1527044967014519,51.45547230740127
Davy's at St James's,London,St. James's,E05000644,-0.1378683746767882,51.50609545083165
Market Hall Victoria,London,Warwick,E05000647,-0.1443403378680839,51.496476901007576
Fire Station,London,Bishop's,E05000416,-0.110653102833473,51.502485778375714
Lamb,London,Holborn and Covent Garden,E05000138,-0.1189288321783029,51.52299636851711
Mo-Bo's,Chingford,Chingford Green,E05000593,0.0099880025634355,51.63389442001069
Full Nelson,Deptford,Brockley,E05000439,-0.0256047487710896,51.47464523461418
Square Tavern,London,Regent's Park,E05000142,-0.1374176953573032,51.52632189916264
Owl & Hitchhiker,London,St. George's,E05000378,-0.124028197629765,51.56059550845457
Park Tavern,Eltham,Eltham South,E05000219,0.0544784376741308,51.45004086213268
Claret & Ale,Addiscombe,Addiscombe East,E05011462,-0.0734383309676237,51.37999175377988
Rising Sun,London,Bloomsbury,E05000129,-0.1333121998179736,51.51919736259385
O'Hanlon's,West Hendon,West Hendon,E05000062,-0.2388175437388654,51.57719428374962
Duke's Head,Crayford,Crayford,E05011222,0.1762153536561533,51.45345546078817
Grange,London,South Bermondsey,E05011116,-0.0760529818399834,51.49437829048882
Horseshoe,South Harrow,Roxbourne,E05000301,-0.3742754604960634,51.56154931994183
Globe Bar at Clayton Hotel,Chiswick,Turnham Green,E05000365,-0.2784325772036952,51.49245156938584
Old King's Head,London,London Bridge & West Bermondsey,E05011104,-0.0894685569823353,51.5046336105657
Country House,Earlsfield,Earlsfield,E05000612,-0.1893201134748162,51.4418748402076
Belgo Noord Baar,London,Haverstock,E05000136,-0.1498746616724325,51.54335332172966
Colonies,London,St. James's,E05000644,-0.1392513403129995,51.49868042092239
Grosvenor,Hanwell,Elthorne,E05000176,-0.3290668678085321,51.50624969967139
Starting Gate,London,Bounds Green,E05000267,-0.1196762044587828,51.59825817137902
Bishop,East Dulwich,Goose Green,E05011103,-0.0749288060719041,51.45984532982746
No 1 Duke Street,Richmond,South Richmond,E05000528,-0.3042552333774045,51.46154227492266
Green Man,London,St. Peter's,E05000380,-0.0978545626652862,51.53922101985864
La Fonda de Maria,Stockwell,Larkhall,E05000425,-0.1234169806442463,51.47096443622645
O'Neill's,Blackheath,Blackheath,E05000438,0.0080374327675751,51.46686168543806
Britannia,London,London Bridge & West Bermondsey,E05011104,-0.0874531464976408,51.50114754716392
Sports Bar & Grill,London,Bryanston and Dorset Square,E05000632,-0.162978238022441,51.52309189581313
Royal Horse Guardsman,Brentford,Syon,E05000364,-0.3000219586181842,51.4863725906441
Old Tea Warehouse,London,Aldgate,E05009289,-0.0788582076465576,51.51365076991614
Coach & Horses,Hounslow,Hounslow Central,E05000358,-0.3508194309399473,51.47169352600925
Fishermans Arms,Harlesden,East Acton,E05000175,-0.2484597149154426,51.53063105827674
White Hart,Barnes,Mortlake and Barnes Common,E05000525,-0.2545474197533854,51.47134354869471
Winchester,London,St. Peter's,E05000380,-0.1013556206120295,51.536526049241296
Craft Tooting,Tooting,Graveney,E05000616,-0.1665357793097186,51.42834637065911
Earl Haig,Bexleyheath,West Heath,E05011233,0.1405556278537693,51.47298833119938
Henry Addington,Canary Wharf,Canary Wharf,E05009323,-0.0220506733365006,51.50451368847349
Bar Social,Battersea,Shaftesbury,E05000623,-0.1629120094572327,51.46417990116232
Boathouse CafÃÂÃÂ© & Bar,Barking,Gascoigne,E05000032,0.0757344936001218,51.5318073056659
Anchor,Bexley,Blendon & Penhill,E05011221,0.1338472109088715,51.44527734982472
Marquis of Granby,London,St. James's,E05000644,-0.1276966220233075,51.495160227834674
Dove Free House & Kitchen,Hackney,London Fields,E05009381,-0.0615832999326986,51.53658518359283
Elm Tree,Elmers End,Clock House,E05000112,-0.0451175657925942,51.39879358075511
Sophie's,West Brompton,Stanley,E05009405,-0.1792047537890251,51.48672673817035
King's Head,Fulham,Palace Riverside,E05000259,-0.211137535957484,51.47090548019495
Belrose,Hampstead,Haverstock,E05000136,-0.1581352454269416,51.54699940113501
Millers,London,Caledonian,E05000368,-0.1211751338650696,51.53145856567272
Common Room,Ealing,South Acton,E05000188,-0.2862740625176346,51.50959825012638
Arkstar,London,Holloway,E05000375,-0.112796260804296,51.552762588914185
Brogue,Hanwell,Northfield,E05000182,-0.3256775519297868,51.49690314878532
King's Arms,Fulham,Palace Riverside,E05000259,-0.2098516627759135,51.46917725046902
Dean Swift,London,North Bermondsey,E05011106,-0.0735496884385525,51.50249359075033
Hope,London,Bloomsbury,E05000129,-0.135368292609905,51.52038112936018
Fox under the Hill,Woolwich,Kidbrooke with Hornfair,E05000223,0.0410774940483042,51.47356648191371
Queen's Head,London,Holborn and Covent Garden,E05000138,-0.1167997240440569,51.52079495634482
Victoria,Surbiton,St. Mark's,E05000412,-0.3073563791964269,51.39208384433969
Phoenix At Rainham,Rainham,Rainham and Wennington,E05000318,0.1898711386360084,51.51855407136824
Duke of Kendal,Paddington,Hyde Park,E05000636,-0.1656804954828033,51.51468107280328
Leinster Arms,Bayswater,Lancaster Gate,E05000638,-0.182821913429672,51.511665551272095
Old Bank,Bermondsey (East),South Bermondsey,E05011116,-0.0631352832017136,51.4925648524132
New Moon,Kenton,Kenton West,E05000295,-0.3036574638316134,51.58741935688543
Manor,Tooting,Tooting,E05000626,-0.172169959335557,51.42414472348789
Green Man,Hatton,Feltham North,E05000351,-0.4161621778377447,51.46540956136767
Five Bells,Chelsfield,Chelsfield and Pratts Bottom,E05000110,0.1274899267468256,51.35705551689024
Crooked Billet,Clapton,Lea Bridge,E05009380,-0.0569141873207814,51.56124663487852
Crafty Winger,Twickenham,Twickenham Riverside,E05000531,-0.3274116105041142,51.44754094288288
Road Trip Bar,London,Hoxton West,E05009378,-0.0842947208226123,51.52662629588417
Sun Inn,Richmond,South Richmond,E05000528,-0.3028946761122861,51.46329412813349
Railway Tavern,Woodford Green,Bridge,E05011236,0.0387476132318016,51.60785070444914
Rack & Tenter,London,Coleman Street,E05009299,-0.0890060297273463,51.51878063548367
Mawson Arms / Fox & Hounds,Chiswick,Chiswick Homefields,E05000348,-0.2492297343842573,51.48763997934708
Canterbury Arms,Walworth,Newington,E05011105,-0.103032397713016,51.48266866195461
Mansion House,Kennington,Prince's,E05000427,-0.1053627138589327,51.48934296329865
Windmill,Brixton,Brixton Hill,E05000417,-0.1224646934781739,51.454519426174784
Smith & Whistle,London,West End,E05000649,-0.1473234921688495,51.504977211550816
North Star,Chessington,Chessington North and Hook,E05000404,-0.3049409510169807,51.37185124413398
Dukes Meadows Cafe & Bar,Chiswick,Chiswick Homefields,E05000348,-0.2563486939333666,51.47357351358907
O'Neill's,Leytonstone,Leytonstone,E05000605,0.0144099655327404,51.570250596766975
Priory Arms,South Lambeth,Stockwell,E05000429,-0.1293144600878172,51.47498846828702
Halfway House,Belvedere,Belvedere,E05011218,0.1614134403078501,51.49048372739322
Haven Arms,Ealing,Ealing Broadway,E05000173,-0.2998297745619055,51.51707934583512
Mc & Sons,London,Borough & Bankside,E05011095,-0.1003505534486021,51.50387511888447
Albany,Twickenham,Twickenham Riverside,E05000531,-0.3320785227785161,51.44821894244562
White Lion,London,St. James's,E05000644,-0.1241028430167719,51.51285446480484
Union,London,Farringdon Within,E05009304,-0.1025148837952091,51.51489933753547
Beehive,Bedfont,Feltham North,E05000351,-0.4197168120078964,51.45543997339141
Flavours,Edgware,Burnt Oak,E05000044,-0.2706752373641021,51.60368209764642
Bar Sport,Bromley,Bromley Town,E05000109,0.014278857896156,51.40520720523722
Rugby Tavern,London,Holborn and Covent Garden,E05000138,-0.1172539020264861,51.52166555086344
Callaghans Sports Bar,London,Bloomsbury,E05000129,-0.1249748737565953,51.52390249848964
Essex House,Chingford,Chingford Green,E05000593,0.0099880025634355,51.63389442001069
Red Lion & Sun,Highgate,Highgate,E05000272,-0.1500977297975358,51.57305023417953
Nag's Head,Camberwell,Camberwell Green,E05011096,-0.0941916059722617,51.476733975583976
Cumberland Arms,West Kensington,Avonmore and Brook Green,E05000252,-0.2098259551805008,51.49411348440232
Golden Lion,Romford,Romford Town,E05000319,0.1791650602288954,51.57813420916818
Gilpin's Bell,Upper Edmonton,Upper Edmonton,E05000212,-0.0657669781927173,51.6096739335455
College Arms,London,Bloomsbury,E05000129,-0.1319124766576444,51.51993946387654
Three Kings,London,Clerkenwell,E05000370,-0.105960910791218,51.52320138308609
Royal Albert,Upper Norwood,Crystal Palace & Upper Norwood,E05011467,-0.0814079963600252,51.41963652972008
Slug & Lettuce,Romford,Romford Town,E05000319,0.183229186208281,51.575900354257726
Bow Street Tavern,London,St. James's,E05000644,-0.1213570864918375,51.51303534101294
Gow's,London,Broad Street,E05009295,-0.0834142216370875,51.517043682161216
Lamb,Surbiton,St. Mark's,E05000412,-0.3120230635913518,51.39221409852122
White Horse,Brixton,Brixton Hill,E05000417,-0.1200024052200485,51.45489362381665
Soho Theatre,London,West End,E05000649,-0.1327403374531267,51.51450305421096
Spartan Brewery Taproom,Bermondsey (East),South Bermondsey,E05011116,-0.059540772225285,51.49172302493058
Mill,Kingston,Grove,E05000408,-0.3080913981045701,51.407247393880205
J J Moons,Wembley,Wembley Central,E05000104,-0.2922426938816402,51.55343370326394
Editors Tap,London,Castle Baynard,E05009297,-0.1094957026367001,51.51477823025709
White Horse & Bower,London,St. James's,E05000644,-0.1312168887592912,51.49503651899408
Butcher's Hook & Cleaver,Smithfield,Farringdon Within,E05009304,-0.1005336507033116,51.51886904727306
Cheshire Cheese,London,St. James's,E05000644,-0.113084472094199,51.51268673844062
JJ Moon's,Tooting,Tooting,E05000626,-0.1690761074807454,51.42741482799376
Fairlop Waters (Dalton's & S/D),Barkingside,Aldborough,E05011234,0.0979915164592472,51.59502623562679
Blue Anchor,Hammersmith,Hammersmith Broadway,E05000256,-0.2318417954929875,51.48993312402144
Dolphin,Hackney,London Fields,E05009381,-0.0565861351441336,51.539478963982525
Sun,Clapham,Clapham Town,E05000419,-0.1408869691824912,51.46412951992444
Bistrotheque,Bethnal Green,St. Peter's,E05009331,-0.0564138566927543,51.53404459541606
General Havelock,Ilford,Ilford Town,E05011246,0.07705735785993,51.55992224810626
Simmons,London,Bloomsbury,E05000129,-0.1354961198898257,51.52360255320952
Erin's Hope,Kingsbury,Fryent,E05000090,-0.251540662723737,51.5871320901861
Summerfield,Lee,Grove Park,E05000445,0.0147574084914038,51.443230138789126
Lyttelton Arms,London,Regent's Park,E05000142,-0.1392700827406099,51.534984298142206
Crown (Bar & Cafe),Holloway,Holloway,E05000375,-0.1111200443456055,51.55144065568379
Sipping Room,Isle of Dogs,Canary Wharf,E05009323,-0.0226121901184635,51.50751781924165
Ship,Plumstead,Glyndon,E05000221,0.0794783907538388,51.48106602768639
Turner's Old Star,London,St. Katharine's & Wapping,E05009330,-0.0593645246792048,51.50536209611224
Duke of Sussex,London,Bishop's,E05000416,-0.110250720021315,51.50106743122007
Builders Arms,Croydon,Addiscombe West,E05011463,-0.0868298126559279,51.37934808871447
Goergio's Sports Bar & Grill,Walthamstow,High Street,E05000599,-0.0334117522661176,51.58097181108671
Bread & Roses,Clapham,Clapham Town,E05000419,-0.1368788345392788,51.46639500464535
Belle Vue,Clapham,Clapham Common,E05000418,-0.137810058914701,51.46155374991609
Shortlands Tavern,Bromley,Bromley Town,E05000109,0.0042020939664687,51.404930239093744
Two Tribes Taproom,London,Caledonian,E05000368,-0.1237573072754609,51.54264186872842
Grove,Balham,Balham,E05000610,-0.1513151055039118,51.44832335375871
Vinyl Bar,London,Bread Street,E05009293,-0.0974256538506535,51.51251472763624
Savoy Tap,London,St. James's,E05000644,-0.1194125771640135,51.510908871653
Park Fever,Hither Green,Lee Green,E05000447,-0.0005772775878654,51.45324079800466
Guildford Arms,Greenwich,Greenwich West,E05000222,-0.0162360212277211,51.474181282293074
Beer Box,Greenwich,Peninsula,E05000225,0.0039701546003482,51.501823480149056
Shakespeare,London,Cripplegate,E05009302,-0.0973850307425958,51.522478033751256
Golden Crane,Cranham,Cranham,E05000307,0.2676798621285025,51.56874954227372
Cambridge,London,West End,E05000649,-0.1295482594935103,51.513615876017525
Fox & Hounds,Plumstead,Woolwich Common,E05000229,0.0697697533536872,51.48230797232824
Windmill,London,Prince's,E05000427,-0.1205192466443169,51.493129971674406
Load of Hay - Galicja Restaurant,Bedfont (East),Bedfont,E05000346,-0.4253551471097413,51.45471551703438
Gregorian,Bermondsey (East),North Bermondsey,E05011106,-0.0661332110619223,51.49763229571308
Montys Bar & Lounge,London,Weavers,E05009335,-0.071699660337658,51.524117596792976
John Baird,Muswell Hill,Muswell Hill,E05000274,-0.1459943593442162,51.59019703270246
Crooked Billet,Bromley,Bromley Common and Keston,E05000108,0.0568124020047042,51.3898737690461
Prince Albert,Notting Hill,Pembridge,E05009400,-0.1976638172328778,51.50952947329296
Green Goose,Bow,Bow East,E05009319,-0.0281771007742446,51.53214378100945
Apple Tree,London,Holborn and Covent Garden,E05000138,-0.1121790221966424,51.5234275095152
Globe,Homerton,Homerton,E05009376,-0.0537743614576168,51.54589801981597
Olde Mitre,Hatton Garden,Holborn and Covent Garden,E05000138,-0.1073981145091826,51.51844043557917
Bell,Sydenham,Bellingham,E05000437,-0.0367750412283991,51.42911301534047
Anglesea Arms,Hammersmith,Ravenscourt Park,E05000261,-0.2359064379319176,51.49919377120607
Village Inn,Ealing,Cleveland,E05000171,-0.3127417235824388,51.52649189978557
TCR Lounge Bar,London,Bloomsbury,E05000129,-0.1354019243807039,51.522027331065225
Market Porter,London,Borough & Bankside,E05011095,-0.091048149064845,51.50510896855376
Queens Arms,High Barnet,Oakleigh,E05000058,-0.1883005240965218,51.64659227796115
Cabin,Paddington,Hyde Park,E05000636,-0.1767499207096896,51.51647232905104
Stormbird,Camberwell,St. Giles,E05011115,-0.0895662422865437,51.47404177800591
Edgar Wallace,London,St. James's,E05000644,-0.1128606314743298,51.51287198580312
Betjeman Arms,London,St. Pancras and Somers Town,E05000143,-0.1261216965841033,51.53142975647243
Steam Wine Bar,London,Bridge,E05009294,-0.0847337816567426,51.510329718968805
Brockley Brewery,Brockley,Brockley,E05000439,-0.0364462841950295,51.46228227163642
Hung Drawn & Quartered,London,Tower,E05009310,-0.0809998950028026,51.50967511330472
Anthologist,London,Walbrook,E05009312,-0.0911436951691106,51.514885638433206
Flowerpot,Walthamstow,Wood Street,E05000609,-0.0044615167629699,51.58812652316633
Leyton Star,Stratford,Cathall,E05000591,-0.0051104206624398,51.5545055236484
Cock Tavern,London,St. Pancras and Somers Town,E05000143,-0.1313231446029303,51.53116199458173
Toll Gate,Hornsey,Noel Park,E05000275,-0.1058744890981186,51.58987993410616
Manor Arms,Streatham,St. Leonard's,E05000428,-0.1327887858569992,51.42795781046518
Queen's Head,Green St Green,Chelsfield and Pratts Bottom,E05000110,0.089239857687784,51.35293308317147
Barretts,Cricklewood,Mapesbury,E05000095,-0.2172426612364849,51.55800210956325
George & Vulture,London,Hoxton West,E05009378,-0.083819727096088,51.529010575332826
Barrio East,London,Hoxton East & Shoreditch,E05009377,-0.078248427723078,51.526419380338574
Ravensbury,Mitcham,Cricket Green,E05000458,-0.1578583155762723,51.39765260673579
Savannah,London,Regent's Park,E05000142,-0.1359911185594958,51.526658950323935
Hoop & Toy,South Kensington,Brompton & Hans Town,E05009389,-0.1740013163804984,51.49474823343944
Famous Royal Oak,Muswell Hill,Muswell Hill,E05000274,-0.1415642048996702,51.58838245973178
Green W7,Hanwell,Elthorne,E05000176,-0.3393396339915969,51.507078999431904
Beehive,Lower Edmonton,Bush Hill Park,E05000194,-0.0780881752280883,51.63287048020217
Crown,Harmondsworth,Heathrow Villages,E05000331,-0.4782024645002712,51.48863205112107
North By Northwest,London,St. Peter's,E05000380,-0.0911098443287312,51.53774447315172
Cafe Provencal,Herne Hill,Dulwich Village,E05011100,-0.0993998088970441,51.45259186462978
Kentish Belle,Bexleyheath,Crook Log,E05011223,0.1330662660235338,51.46432071612002
Alice House,Queen's Park,Queens Park,E05000098,-0.2045630783022128,51.53489555404902
De Beauvoir Arms,London,Canonbury,E05000369,-0.0854704211121568,51.54086281793531
Merchants Tavern,London,Hoxton East & Shoreditch,E05009377,-0.0809408472956154,51.52547431592416
Marco's New York Italian,London,Holborn and Covent Garden,E05000138,-0.1230279192020419,51.52111958679343
Scenario,Stoke Newington,Shacklewell,E05009382,-0.0749798134836865,51.554692308197886
Selkirk,Tooting,Tooting,E05000626,-0.1679446864922077,51.42980724697873
UKAI,Notting Hill,Colville,E05009392,-0.2064134093200453,51.5179098302091
Prince of Wales,Heathrow Airport,Heathrow Villages,E05000331,-0.4473528536947876,51.45966718122641
Simmons,London,Bunhill,E05000367,-0.1013072161393307,51.52002365636721
Griffin,Brentford,Brentford,E05000347,-0.3032025194686094,51.487218982647775
Yates's,Romford,Romford Town,E05000319,0.1828736539474706,51.576311658040936
Ordnance Arms,St John's Wood,Abbey Road,E05000630,-0.1718168753946218,51.535990539412936
Lambo Bar & Restaurant,Cricklewood,Childs Hill,E05000045,-0.2076868169900042,51.56071616633786
Hoxton Pony,London,Hoxton East & Shoreditch,E05009377,-0.0800711685535195,51.52558596778509
Rose,Fulham,Parsons Green and Walham,E05000260,-0.189842267567531,51.4767117668211
Star,Wallington,Wallington North,E05000569,-0.1503419985751532,51.361959233739775
Queen Elizabeth,Fulham,Parsons Green and Walham,E05000260,-0.1887183713873712,51.47454517853484
Ninth Ward,London,Clerkenwell,E05000370,-0.1076185834194782,51.52250871512339
Black George,West Ealing,Walpole,E05000192,-0.3177518595278816,51.5110338525088
Etrusca,London,Regent's Park,E05000142,-0.138875561096241,51.534051791063405
Kohinur Restaurant & Bar,North Harrow,Headstone North,E05000292,-0.3623996493501549,51.58689590993188
Old Bull & Bush,Hampstead,Hampstead Town,E05000135,-0.1825566658567864,51.56754142996851
Lowlander,London,St. James's,E05000644,-0.1223729631759374,51.51461634344872
Elephant & Castle,Woolwich,Woolwich Riverside,E05000230,0.0682529508543351,51.490482257870376
Draft House Camden,London,Camden Town with Primrose Hill,E05000130,-0.1385511118181844,51.54129477183991
Joker,Croydon,South Croydon,E05011484,-0.0987208516519351,51.365647641777045
Craft Beer Co,London,Hoxton West,E05009378,-0.0862744020595197,51.52617303216021
Big Chill House,London,King's Cross,E05000141,-0.1202375388309796,51.53076909275103
Old Sergeant,Wandsworth,Earlsfield,E05000612,-0.1913100975979484,51.45124005995815
Dovecote,Chingford,Hatch Lane,E05000598,0.0084615797785754,51.62289573139968
St James of Bermondsey,Bermondsey (East),North Bermondsey,E05011106,-0.0660385300218462,51.49544550110927
Queen of Hoxton,London,Hoxton East & Shoreditch,E05009377,-0.0811622262787908,51.522267552439615
Wolf,Norwood Green,Norwood Green,E05000186,-0.3757155466457073,51.496806483008974
Royal Standard,Greenwich,Peninsula,E05000225,0.0037577440488877,51.48648534472543
Angel,Bermondsey (East),North Bermondsey,E05011106,-0.0590474893651156,51.50061769457041
Blue Zenzer,Northwick Park,Northwick Park,E05000096,-0.3232385408588829,51.57235085507757
Blacksmiths Arms,Rotherhithe,Surrey Docks,E05011117,-0.0338659585787762,51.50519807420589
Frankie & Benny's,Barking,Beckton,E05000475,0.0780194428509695,51.52435676415482
Lamb,Chiswick,Turnham Green,E05000365,-0.261745278610057,51.49184580442432
Bumpkin,Stratford,Stratford and New Town,E05000492,-0.0075465406346541,51.54299132380806
Eaglet,Holloway,Finsbury Park,E05000371,-0.1158916470068237,51.55953884734783
Olde Cheshire Cheese,Fleet Street,Castle Baynard,E05009297,-0.1073379706371351,51.51432977048688
Olde Cherry Tree,Southgate,Southgate,E05000208,-0.1240652691868878,51.625584338914855
Royal Oak,Surbiton,Berrylands,E05000401,-0.2951008620734985,51.385359480594815
Nell Gwynne,London,St. James's,E05000644,-0.1228753684738893,51.51046074411869
Wembley Tavern,Wembley,Tokyngton,E05000102,-0.2824990009485021,51.562050244906246
Cross Keys,Hammersmith,Ravenscourt Park,E05000261,-0.2426836627253308,51.49230821989029
Bo Peep,Chelsfield,Chelsfield and Pratts Bottom,E05000110,0.1375172728519524,51.35029868234211
Marylebone,London,Marylebone High Street,E05000641,-0.1521078952794454,51.51991760948097
Builders Arms,New Barnet,East Barnet,E05000048,-0.173133495595034,51.65065559565282
Manor Bar,Ruislip Manor,Manor,E05000334,-0.4123830395260659,51.57173806090336
Black Horse,Bexley,St. Mary's & St. James,E05011229,0.149939949338787,51.44535201826003
Angel & Crown,Richmond,South Richmond,E05000528,-0.3041208646153039,51.46050618603258
Hennesseys,Kingsbury,Kenton,E05000093,-0.2803928895189927,51.58459009277952
Island,Kensal Rise,Kensal Green,E05000092,-0.2265368679922301,51.53528372912557
Tir Na Nog,Wandsworth,Fairfield,E05000614,-0.1909259840712416,51.452583054285576
Bountiful Cow,London,Holborn and Covent Garden,E05000138,-0.1181832761143235,51.518703859136
George IV,Kentish Town,Kentish Town,E05000139,-0.1449105020679987,51.54839178865574
Hare & Hounds,Osterley,Osterley and Spring Grove,E05000363,-0.3392525623981009,51.491646629533776
Village,Walthamstow,Hoe Street,E05000601,-0.0117124171998116,51.58273737411047
Fox & Hounds,Battersea,Shaftesbury,E05000623,-0.1628192744814355,51.466849264498
Enkel Arms,London,Finsbury Park,E05000371,-0.1171305134152897,51.55888431586907
Harcourt,London,Bryanston and Dorset Square,E05000632,-0.1641601361489237,51.51951333115746
Admiral Nelson,Whitton,Whitton,E05000533,-0.360339111192328,51.452754260354645
Balls Brothers,London,Aldgate,E05009289,-0.0801860484952555,51.51497647379717
Waters Edge,Cowley Peachey,Yiewsley,E05000345,-0.4830524723395748,51.51996991619411
Crown & Crooked Billet,Woodford Bridge,Bridge,E05011236,0.0610952611116101,51.6073256302417
Rook's Nest,Hammersmith,Ravenscourt Park,E05000261,-0.2349419106723017,51.49395455630868
William Webb Ellis,Twickenham,Twickenham Riverside,E05000531,-0.3284403623895753,51.44774446141302
Claret Wine Bar,Cheam,Cheam,E05000560,-0.2168820311813262,51.35889909416255
Plough,Ruislip,Eastcote and East Ruislip,E05000329,-0.4316231347111916,51.58333608719022
Waldegrave Arms,Teddington,Teddington,E05000530,-0.3387768477105349,51.43258653996511
Brick Lane Brews,Custom House,Royal Docks,E05000491,0.0464361297185533,51.5041475103871
Grapes,Wandsworth,Fairfield,E05000614,-0.1907330562029967,51.45891998753165
Camberwell Arms,Camberwell,St. Giles,E05011115,-0.0895662422865437,51.47404177800591
George,Isle of Dogs,Blackwall & Cubitt Town,E05009318,-0.0119439717392191,51.49570948590242
Golden Goose,Camberwell,Vassall,E05000436,-0.1018108566842795,51.47739715983307
Grange Rochester Hotel Bar,London,Vincent Square,E05000646,-0.1363276973229139,51.49441641239049
George,Hayes,Hayes and Coney Hall,E05000119,0.0183130302880549,51.37989558609414
DoubleTree by Hilton Hotel London - West End,London,Holborn and Covent Garden,E05000138,-0.1218375012059133,51.52027320214184
Stokey,Stoke Newington,Clissold,E05009369,-0.0836658495115804,51.55670517141936
Victoria,Tottenham,Tottenham Hale,E05000281,-0.0678469703731541,51.5967411117409
Brown Cow,Fulham,Town,E05000264,-0.2067984852742638,51.47470609433088
Fountains Abbey,Paddington,Hyde Park,E05000636,-0.1739292039794385,51.51636550411192
Skehans,New Cross,Telegraph Hill,E05000453,-0.0485697066921775,51.46763776072047
Pride of Paddington,Paddington,Hyde Park,E05000636,-0.1767900504350482,51.51474636200384
Palmerston,East Dulwich,Goose Green,E05011103,-0.0747519570949639,51.45857442869618
Finchley Tavern,North Finchley,Woodhouse,E05000063,-0.1754767203915718,51.61281640410873
Craft Beer Co.,Aldgate,Aldgate,E05009289,-0.0784962497404225,51.513689798841725
Beech House,Hampton Hill,Fulwell and Hampton Hill,E05000518,-0.3548704607861081,51.42750819198143
Railway,Streatham,Streatham South,E05000431,-0.1342652333153152,51.41854790041317
Marlborough,Richmond,South Richmond,E05000528,-0.2967178130498407,51.45519219426305
Shaker & Company,London,Regent's Park,E05000142,-0.1389641984435423,51.52799210927268
Rumours,Worcester Park,Nonsuch,E05000561,-0.2390812358848132,51.37706704238679
White Ferry House,London,Churchill,E05000633,-0.1467911131467235,51.488979768097856
Bedford Arms,Fulham,Fulham Broadway,E05000254,-0.2093501620146665,51.481255742431095
Prince of Wales,Cheam,Cheam,E05000560,-0.2177691999918244,51.36083699748957
City Zebrano,London,Aldgate,E05009289,-0.0777041418927475,51.51436025332914
Pear Tree,Hammersmith,Fulham Reach,E05000255,-0.2149009059379277,51.48663701737671
Glyn Arms,Clapton,King's Park,E05009379,-0.0388348451233487,51.55590108742565
Crown & Sceptre,Shepherds Bush,Askew,E05000251,-0.2361575686675011,51.50313630988785
Royal George,Deptford,Brockley,E05000439,-0.0289726646539333,51.4716803103327
Surbiton Flyer,Surbiton,St. Mark's,E05000412,-0.3050666344081268,51.39259031885428
Old Blue Last,London,Hoxton East & Shoreditch,E05009377,-0.0799955965151529,51.52429877632273
BrewDog,London,Clerkenwell,E05000370,-0.1046016288764839,51.522262169357965
Market Cafe,Hackney,London Fields,E05009381,-0.0615832999326986,51.53658518359283
Tenpin Acton,Park Royal,East Acton,E05000175,-0.2813164393300697,51.52529863454589
Coopers Arms,Kilburn,Kilburn,E05000140,-0.1962256348394399,51.54081069670897
Picture Palace,Ponders End,Ponders End,E05000206,-0.0484902346647872,51.64338888470215
Northcote,Battersea,Northcote,E05000619,-0.1672316194921947,51.46056950173932
Masons Arms,London,West End,E05000649,-0.1425804304514231,51.51282477154483
Talbot Freehouse,Upper Edmonton,Haselbury,E05000201,-0.0767647735543699,51.61634749162389
Harvest Moon,Orpington,Orpington,E05000122,0.1014088122976663,51.3778414201261
Junction,Upminster,Upminster,E05000323,0.2504139581018629,51.5583802025802
Faber Fox,Crystal Palace,Gipsy Hill,E05000422,-0.0821024866282724,51.41988171786112
East way,London,Bishopsgate,E05009292,-0.0814997035403015,51.51732709813796
Telephone Exchange,London,London Bridge & West Bermondsey,E05011104,-0.0876247259184411,51.504963270897726
Sultan,South Wimbledon,Abbey,E05000455,-0.1857082995567953,51.41862654288381
Hope & Anchor,Hornsey,Hornsey,E05000273,-0.1164650342061863,51.5840795504684
Kings Arms,Keston,Darwin,E05000117,0.0296454562106843,51.335203476856776
Grapes,Limehouse,Limehouse,E05009326,-0.0329867487219828,51.50854664206313
Art House,Hornsey,Crouch End,E05000269,-0.1195510515705275,51.58205181635245
Castle,Harrow,Harrow on the Hill,E05000289,-0.3396448302804874,51.57199036843833
Jamies,London,Farringdon Within,E05009304,-0.1025707557890993,51.51390204190609
Bulls Head,Chiswick,Chiswick Riverside,E05000349,-0.2777648027638392,51.48417749671164
Night & Day,London,Holborn and Covent Garden,E05000138,-0.1241371200407972,51.52183876171775
Horse & Groom,Streatham,St. Leonard's,E05000428,-0.1281946788940344,51.43653555601878
Slug & Lettuce,Richmond,South Richmond,E05000528,-0.3073426511966222,51.4590240002598
Assembly House,London,Kentish Town,E05000139,-0.1403414605208008,51.55114317416167
Leconfield,Stoke Newington,Mildmay,E05000377,-0.0882247440359964,51.553254541220205
Pheasant Inn,Harlington,Heathrow Villages,E05000331,-0.4394438221315497,51.485190795203565
Pasha Kitchen,West Ealing,Walpole,E05000192,-0.3183588124382717,51.50394749817215
Henley Arms,Royal Docks,Royal Docks,E05000491,0.0583316324322752,51.50080079385644
Mother Kelly's,London,Prince's,E05000427,-0.1237137025517426,51.48795635752326
Rose of York,Richmond,"Ham, Petersham and Richmond Riverside",E05000519,-0.3001833643419394,51.45062929258894
Halfway House,Holloway,Finsbury Park,E05000371,-0.1158916470068237,51.55953884734783
Plough,Sipson,Heathrow Villages,E05000331,-0.4578444017916614,51.49348265431056
Lansdowne,London,Camden Town with Primrose Hill,E05000130,-0.1540913219742156,51.54179205415582
Fitzroy Tavern,London,Bloomsbury,E05000129,-0.1346007598748106,51.5187052737292
Olde Red Lion,Cheam,Cheam,E05000560,-0.2162974109454504,51.35952866140346
New Crown,Southgate,Southgate,E05000208,-0.130934096016664,51.63350827352989
Balls Brothers,London,St. James's,E05000644,-0.1449677937709339,51.496990419159495
Euston Tap,London,Regent's Park,E05000142,-0.1321515276217141,51.52712845694254
ZÃÂÃÂ³calo,Battersea,St. Mary's Park,E05000622,-0.175028891121224,51.47478257365772
Ahir LorenzoÃÂ¢ÃÂÃÂs,Finchley,West Finchley,E05000061,-0.1954911260976516,51.60272189134649
Royal Oak,Twickenham,Twickenham Riverside,E05000531,-0.3247355547410916,51.448698693449145
Bar One Twenty,Chingford,Chingford Green,E05000593,0.008736008093858,51.63335829676787
Boisdale,London,Bishopsgate,E05009292,-0.0797004269106184,51.517954093658616
Market Place,London,West End,E05000649,-0.1404294044364993,51.51645072086362
Herne Tavern,East Dulwich,Dulwich Hill,E05011099,-0.0623139285339892,51.45349523727887
Slug & Lettuce,Isle of Dogs,Canary Wharf,E05009323,-0.0238536875730751,51.50480489435387
Warwick,London,Warwick,E05000647,-0.1394434427614862,51.49255043302988
Maxwells,London,St. James's,E05000644,-0.1243975439217579,51.51094372360888
Sheaf,London,Borough & Bankside,E05011095,-0.0910139674970159,51.50489258604353
Crown,Hornchurch,Hylands,E05000315,0.1885777473254074,51.56555762055602
Clock House,Teddington,Teddington,E05000530,-0.3311253314861303,51.42739712521384
Walker's of Whitehall,London,St. James's,E05000644,-0.1271237353431638,51.507021488240646
Coombe Lodge,Croydon,South Croydon,E05011484,-0.0715274095133289,51.36253200540739
Montague Arms,Peckham,Telegraph Hill,E05000453,-0.0517038643413732,51.47349033202516
Wanstead Tap,Forest Gate,Cann Hall,E05000590,0.018918867030537,51.5554161179995
Dog & Fox,Wimbledon,Village,E05000472,-0.2176299829031144,51.4250963358954
Jolly Coopers,Hampton,Hampton,E05000520,-0.3612178186899312,51.41413551262058
Maxwell,Orpington,Orpington,E05000122,0.0946430222950964,51.372539991581135
Belgo,Bromley,Bickley,E05000106,0.0356368075582628,51.40373227354228
Shaftesbury,Richmond,North Richmond,E05000526,-0.2987780783043724,51.465986207833296
Secret Weapon,Stratford,Stratford and New Town,E05000492,0.0041398115202817,51.53949188364011
Bradleys Spanish Bar,London,West End,E05000649,-0.1326229102124789,51.51666842976996
Ship & Shovell,London,St. James's,E05000644,-0.1246224179890163,51.507575042121296
Caspari Lounge & Restaurant,Brentford,Syon,E05000364,-0.3025276008465463,51.48444846474778
One Kew Road,Richmond,South Richmond,E05000528,-0.3017283060021183,51.4640775807209
Fox Inn,Keston,Bromley Common and Keston,E05000108,0.0273100414787619,51.361359436427314
Weaver's Bar,High Barnet,Oakleigh,E05000058,-0.1861657138812071,51.646118689259566
Birchwood,Abbey Wood,Abbey Wood,E05000214,0.114509398591299,51.49764283000154
Pratts & Payne,Streatham,St. Leonard's,E05000428,-0.1300658695858234,51.42982085184368
County Arms,Wandsworth,Wandsworth Common,E05000627,-0.1742427331782469,51.45009436164205
Maynard Arms,Crouch End,Muswell Hill,E05000274,-0.1261185058882102,51.58169827767197
H G Wells,Worcester Park,Worcester Park,E05000572,-0.2326060852551221,51.37319262365882
Bat & Ball,Stratford City,Stratford and New Town,E05000492,-0.0063195504829034,51.54433737187736
London Welsh Centre,London,King's Cross,E05000141,-0.1170132512363227,51.525051956733705
Royal Oak,Green St Green,Chelsfield and Pratts Bottom,E05000110,0.0891732886400402,51.35146840337202
Moon on the Square,Feltham,Feltham West,E05000352,-0.4109000776428128,51.44654444361697
Jolly Sisters,Holloway,Caledonian,E05000368,-0.1131204110670748,51.54562766273168
All Bar One,Battersea,Northcote,E05000619,-0.1666439526621976,51.45942724064231
Two Brewers,Holloway,Caledonian,E05000368,-0.1156868912775137,51.54634338882976
Ashanti Lounge Bar,Battersea,Shaftesbury,E05000623,-0.1510740466875134,51.46641286344124
Metropolis,Bromley,Bromley Town,E05000109,0.0119936669355653,51.40686514494168
Bag O'Nails,London,St. James's,E05000644,-0.143085697356523,51.49863327988314
Exmouth Arms,London,Regent's Park,E05000142,-0.1368472932861195,51.52758081559335
Jolly Farmers,Enfield,Highlands,E05000202,-0.1077523844450024,51.65476358235109
Crown & Sceptre,South Croydon,South Croydon,E05011484,-0.0965341891966752,51.35947889962141
Simmons,Fulham,Fulham Broadway,E05000254,-0.1994126854265437,51.48125647948551
Two Chairmen,London,St. James's,E05000644,-0.1316272048540927,51.500501640852725
Scream Lounge,Croydon,Fairfield,E05011468,-0.0992892427073364,51.366493216555774
Long Pond,Eltham,Eltham North,E05000218,0.0595255054330126,51.45729043483392
Red Lion,Stoke Newington,Stoke Newington,E05009385,-0.0804329687661902,51.56222768705646
Princess,London,Hoxton East & Shoreditch,E05009377,-0.083601881747208,51.5256167822257
City Bar & Kitchen,London,Aldgate,E05009289,-0.0775832765646807,51.51517660674168
Slug & Lettuce,South Woodford,South Woodford,E05011252,0.0246059194730166,51.59383312439347
Sun & 13 Cantons,London,West End,E05000649,-0.136578494141446,51.512630655414895
Earl of Derby,Kilburn,Kilburn,E05000094,-0.1967494463470966,51.54069285211661
Exhibit,Balham,Balham,E05000610,-0.1519357146902866,51.44328818899243
Horatia,Holloway,Highbury East,E05000372,-0.1089574428784805,51.55037163873253
Signature Brew Taproom & venue,Haggerston,Haggerston,E05009375,-0.0753632570067082,51.5370551737337
Apatura Lounge Restaurant,Croydon,Fairfield,E05011468,-0.099166436562403,51.36703080175342
Montagu Pyke,London,West End,E05000649,-0.1298064494359692,51.51399768714674
Captain Cook,Fulham,Munster,E05000257,-0.2094726971568389,51.48106876794292
Roseview Hotel,Muswell Hill,Fortis Green,E05000270,-0.1447892475620432,51.592138340943926
Trinity Bar,Harrow,Greenhill,E05000288,-0.3337658481099998,51.57964046714977
Marquis of Wellington,London,London Bridge & West Bermondsey,E05011104,-0.0794601615562961,51.50277045318178
Harrow,London,Castle Baynard,E05009297,-0.1067487332691336,51.5128994034704
Cherry Tree,South Norwood,South Norwood,E05011485,-0.075540940005051,51.39735532501553
Coulsdon Manor Hotel,Coulsdon,Old Coulsdon,E05011474,-0.1250737679723207,51.317285504498
Speaker,London,St. James's,E05000644,-0.1323058835631536,51.49694233902651
Hoop & Grapes,Fleet Street,Farringdon Within,E05009304,-0.1049034188717453,51.51534262219347
Plough,Southall,Dormers Wells,E05000172,-0.3730167557007857,51.51352191859732
Redchurch Brewery,Bethnal Green,Lansbury,E05009325,0.0013167015812615,51.51524153216349
Bedford Tavern,Croydon,Fairfield,E05011468,-0.0944386170002009,51.38021847770861
Strongroom Bar & Kitchen,London,Hoxton East & Shoreditch,E05009377,-0.0801254241838541,51.52600950973785
Queens Arms,London,Warwick,E05000647,-0.1394434427614862,51.49255043302988
Davy's,London,Billingsgate,E05009291,-0.081638286459498,51.51094454549211
Finch's,London,Bunhill,E05000367,-0.0873969536335464,51.52174896483668
Old Fox & Hounds,Croydon,Fairfield,E05011468,-0.1037287842347561,51.37866054108407
Alma Tavern,Croydon,Addiscombe West,E05011463,-0.0819344714060955,51.3795737550482
Stag,Chiswick,Southfield,E05000191,-0.2645086730890768,51.4998721275737
Nags Head,London,Knightsbridge and Belgravia,E05000637,-0.1570673033252834,51.50133579844439
Castle,Tooting,Tooting,E05000626,-0.1674504856651783,51.428855274722224
Antelope,London,Royal Hospital,E05009403,-0.1558435414970244,51.49417635689935
Whyte Lyon (Ye Olde),Locksbottom,Farnborough and Crofton,E05000118,0.0572329226241444,51.36396732425988
Fox & Anchor,London,Bunhill,E05000367,-0.1006380526948015,51.52051641064313
Coco Momo,South Kensington,Queen's Gate,E05009401,-0.1834592040858561,51.49818642160518
Abbey Arms,Abbey Wood,Abbey Wood,E05000214,0.1211273825327912,51.49030210067386
Harrison's - Delicatessen & Vintners,Ealing,Cleveland,E05000171,-0.3163281243715588,51.5257970173594
Harvest Home,Croydon,Beddington North,E05000555,-0.1317035198538915,51.37203240259653
Anchor & Hope,Clapton,Springfield,E05009383,-0.0522603137934285,51.56785995552122
Orange Tree,Havering-Atte-Bower,Havering Park,E05000313,0.1812102282647444,51.6141939372052
Arab Boy,Putney,West Putney,E05000629,-0.2263141370087196,51.46272774445592
Lord Nelson,High Barnet,Underhill,E05000060,-0.2107683641531733,51.6523232560655
Bell & Crown,Chiswick,Chiswick Riverside,E05000349,-0.2825508061894216,51.4867476254197
Greyhound Hotel,Carshalton,Carshalton Central,E05000558,-0.1645466081118586,51.364880264008605
Westow House,Crystal Palace,Gipsy Hill,E05000422,-0.0793262531704626,51.41989018011323
White Mustache,London,Regent's Park,E05000142,-0.140581019931212,51.53076951468794
Clarence,London,St. James's,E05000644,-0.1267396684257847,51.506197016452006
Scolt Head,London,De Beauvoir,E05009371,-0.0821474104556283,51.542723853919824
Alexandra,Wimbledon,Hillside,E05000462,-0.2077727412608911,51.42188855153604
Ship,Mortlake,Mortlake and Barnes Common,E05000525,-0.2686105758690214,51.47146195678586
IBIS Hotel (Cafe Riviera),Barking,Gascoigne,E05000032,0.0717918203117526,51.534206131657065
Castle,East Dulwich,Goose Green,E05011103,-0.0742387390808157,51.45127276846144
Cock Tavern,Kilburn,Kilburn,E05000094,-0.1948490078306961,51.53879316576342
Belmullet Tavern,Greenford,Greenford Broadway,E05000177,-0.3574400141597429,51.5286638259627
Bridge Tap,London,Borough & Bankside,E05011095,-0.0906993060255874,51.50449178278932
Beehive,Kennington,Oval,E05000426,-0.1188030793301033,51.48512591892345
Happy Man,Finsbury Park,Woodberry Down,E05009387,-0.0893242115008855,51.57143754601899
Hungerford House Bar & Kitchen,London,St. James's,E05000644,-0.1220361485441284,51.5073897784933
Holiday Inn,Sutton,Sutton West,E05000567,-0.1966179608989685,51.36175421412528
Shaston Arms,London,West End,E05000649,-0.1382461255050504,51.51343950232172
DRFO,Finsbury Park,Brownswood,E05009367,-0.1003666304568938,51.56235470490717
Kiss Me Hardy,Colliers Wood,Colliers Wood,E05000457,-0.1789003636077283,51.41621881989829
Victoria,Hackney,Dalston,E05009370,-0.0702052748009972,51.54479379465919
Genuine Liquorette,London,West End,E05000649,-0.1329560398114624,51.51662876859892
All Bar One,Wimbledon,Hillside,E05000462,-0.2086768875724654,51.42267574583992
Bar Polski,London,Holborn and Covent Garden,E05000138,-0.1191145456603577,51.51744182204138
White Horse,Harrow,Harrow on the Hill,E05000289,-0.345817954311206,51.57009018824348
Lord Nelson,Wood Green,Woodside,E05000284,-0.1102842551435984,51.59807124997111
New Inn,Hayes,Hayes and Coney Hall,E05000119,0.0113020698829559,51.37599637210978
Babel,Battersea,Northcote,E05000619,-0.166466258783706,51.460269771753616
Park Tavern,Wandsworth,Southfields,E05000624,-0.1989657323931219,51.45090821215898
Old Nun's Head,Nunhead,Nunhead & Queen's Road,E05011108,-0.0596122070680771,51.46527617292698
All Bar One,London,Farringdon Within,E05009304,-0.1017892661981807,51.51397932697896
Claddagh Ring,Hendon,Hendon,E05000055,-0.2261330455194846,51.590123347506825
Bell,London,Dowgate,E05009303,-0.0895997552132064,51.51079577857792
Harvester,Chingford,Larkswood,E05000602,-0.0056495411874736,51.61704832209342
Brewhouse & Kitchen,Bethnal Green,Haggerston,E05009375,-0.0753617394658303,51.53230709596736
Coach & Horses,Isleworth,Syon,E05000364,-0.3201236176466018,51.47946804510013
Wolfgang's Beer Haus,Balham,Balham,E05000610,-0.1504484126238068,51.445908611522725
Duke of Edinburgh,Lee,Lee Green,E05000447,0.0105439117203716,51.456405040368246
Landor,Stockwell,Larkhall,E05000425,-0.1257634135989294,51.465705265765465
Prince Albert,Enfield,Enfield Lock,E05000199,-0.0401460223058185,51.67130653951504
Prince of Wales,London,St. James's,E05000644,-0.1217233383652239,51.51464191448508
Greenwich Union,Greenwich,Greenwich West,E05000222,-0.0098263252004681,51.47653672363711
Temple Brew House,London,St. James's,E05000644,-0.1128606314743298,51.51287198580312
Plough,Sutton,Stonecot,E05000563,-0.2016275826830512,51.38018528865479
2 Bridge Place,London,Warwick,E05000647,-0.1433912314202891,51.49395291180724
St Margarets Tavern,St. Margarets,St. Margarets and North Twickenham,E05000527,-0.3177848071905903,51.45416544356062
Tarmon,London,Caledonian,E05000368,-0.1164997991328072,51.539234245614246
Brigadiers,Cannon Street,Cordwainer,E05009300,-0.0914304002780146,51.51216550539864
Star & Garter,New Cross,Brockley,E05000439,-0.0274641594805941,51.47493734088875
Famous Cock Tavern,London,St. Mary's,E05000379,-0.1035152303096565,51.54527484854333
Blue Posts,London,St. James's,E05000644,-0.1402953838234287,51.50700625134445
New York Bar,London,St. James's,E05000644,-0.1431657281816828,51.498436707278366
Leefe Robinson VC,Harrow Weald,Harrow Weald,E05000290,-0.3324442380934915,51.613352592502224
Crown & Anchor,London,Holborn and Covent Garden,E05000138,-0.1252395740210619,51.514302482981726
Sutton Arms,Hornchurch,St. Andrew's,E05000320,0.2205317328944419,51.56127876733197
Union Jack,London,Borough & Bankside,E05011095,-0.1022714806547006,51.50342060472361
Slaughtered Lamb,London,Bunhill,E05000367,-0.1014012127249472,51.52330752975176
O'Riordans Tavern,Brentford,Brentford,E05000347,-0.2920462278851879,51.48781248884613
Refinery New Street Square,London,Castle Baynard,E05009297,-0.1084110015536708,51.515911819906215
Rivington Bar Grill,London,Hoxton East & Shoreditch,E05009377,-0.0819178854299506,51.52589498068828
Hawley Arms,London,Camden Town with Primrose Hill,E05000130,-0.1450064416867472,51.54213439654272
Parlez,Brockley,Brockley,E05000439,-0.0372871539935277,51.46415789486792
Bricklayers Arms,Tottenham,Northumberland Park,E05000276,-0.068474109517789,51.60612156269264
Prince Albert,Romford,Romford Town,E05000319,0.1769562830796665,51.57389451803704
Phoenix,London,St. James's,E05000644,-0.1420878220273038,51.49872538898968
Eleanor Arms,Bow,Bow East,E05009319,-0.0330425309007123,51.53500412237781
Draughts,Hackney,Haggerston,E05009375,-0.0753632570067082,51.5370551737337
New Inn,Ealing,Walpole,E05000192,-0.3063382966287734,51.50481776877772
Red Lion,Woolwich,Shooters Hill,E05000227,0.0602444497467383,51.47069513850531
Greenwich Tavern,Greenwich,Greenwich West,E05000222,-0.0077283881778395,51.48039501723382
George,Croydon,Fairfield,E05011468,-0.0985706633006132,51.37413452303796
Blind Beggar,London,Spitalfields & Banglatown,E05009333,-0.0576312594225826,51.52001842733436
Nell of Old Drury,London,St. James's,E05000644,-0.1204434840311136,51.51247214808651
Yard,Greenford,North Greenford,E05000183,-0.3368974727845794,51.55592720351904
Royal Star,London,Bunhill,E05000367,-0.0923581564163934,51.528241593445685
Refinery at Regent's Place,London,Regent's Park,E05000142,-0.1400030371129527,51.52585033221519
Lord Palmerston,London,Highgate,E05000137,-0.1406603902188472,51.55959229033235
Constitution,London,St. Pancras and Somers Town,E05000143,-0.1354180125898381,51.54032777222528
Grind,London,St. James's,E05000644,-0.1227937376178694,51.511043966198514
White Hart,London,Holborn and Covent Garden,E05000138,-0.1238963646361046,51.51612451921078
Black Horse,Biggin Hill,Biggin Hill,E05000107,0.0336801926273227,51.31511415728485
Double 6 Sports Bar,Wembley,Tokyngton,E05000102,-0.281455695202833,51.56216985472943
Corner Flag,Upper Holloway,Tollington,E05000381,-0.1222397588277619,51.56759005931915
White Horse,Fulham,Parsons Green and Walham,E05000260,-0.1991312809595548,51.47377029588922
Lincoln Arms,Enfield,Southbury,E05000207,-0.0654870919917405,51.64780706514357
Milford Arms,Isleworth,Hounslow Central,E05000358,-0.3457701028937546,51.47355579384798
Railway Hotel,Hornchurch,Hacton,E05000311,0.2191158323550504,51.554713697838366
Draft House Farringdon,London,Clerkenwell,E05000370,-0.1037028345742017,51.51926205252328
Mawbey Arms,South Lambeth,Oval,E05000426,-0.1257680119866092,51.47825013349984
Blue Boat,Hammersmith,Fulham Reach,E05000255,-0.225195783115449,51.48599289647572
Albion,South Norwood,South Norwood,E05011485,-0.0742609956177767,51.400103990799686
Workers Arms,Bethnal Green,St. Peter's,E05009331,-0.063327896764365,51.527081973658895
Luna,Croydon,Fairfield,E05011468,-0.1005502492753846,51.373519152752415
Blues Kitchen,London,Hoxton East & Shoreditch,E05009377,-0.0799723130001151,51.52656454334939
Bugle Horn,Charlton,Charlton,E05000216,0.0374408649131271,51.48179522349286
Chelsea Pig,Chelsea,Chelsea Riverside,E05009391,-0.172658912109991,51.48472747505485
Magpie,Liverpool Street,Bishopsgate,E05009292,-0.0792837849736251,51.517236842492224
Flag,Battersea,Latchmere,E05000617,-0.1594697305132152,51.4720934051851
King's Head,Roehampton,Roehampton and Putney Heath,E05000621,-0.2394695620753239,51.45044405780431
Signal,Forest Hill,Forest Hill,E05000444,-0.0539462122632794,51.43939954314976
Stage 3,Hackney,Hackney Central,E05009372,-0.0554689202403421,51.54607002160969
Midland Hotel,Hendon,West Hendon,E05000062,-0.2373540853987157,51.580697418118106
Maddens,East Finchley,East Finchley,E05000049,-0.1643741230383608,51.59086357132775
Dog & Duck,London,West End,E05000649,-0.1319971945832909,51.51399662296547
Bricklayer's Arms,London,Hoxton East & Shoreditch,E05009377,-0.0811217870666915,51.52631359353565
M Bar Victoria St,London,St. James's,E05000644,-0.1384420222030502,51.497327662791385
Lexington,London,Barnsbury,E05000366,-0.1118361150013628,51.53171329157253
Barley Mow,London,Hoxton East & Shoreditch,E05009377,-0.0806357417685698,51.5262157071321
Clapham North,Stockwell,Larkhall,E05000425,-0.128334174832204,51.466564670425214
Shacklewell Arms,Hackney,Shacklewell,E05009382,-0.0704285039597578,51.55281890572813
Eagle Ale House,Battersea,Northcote,E05000619,-0.1636836969587593,51.454992457865664
Prince Of Wales,Kilburn,Kilburn,E05000094,-0.1941138974727553,51.534051739037416
Effra Social,Brixton,Herne Hill,E05000423,-0.1134356721016753,51.45566939349602
Pied Bull,Enfield,Chase,E05000195,-0.0593027580315156,51.67820717912788
Pie & Pint Bar,Hayes,Hayes and Coney Hall,E05000119,0.0068956372064088,51.376107842704585
Hennessys,Ruislip Manor,Manor,E05000334,-0.4127916302394159,51.57243599955906
Lord Clyde,Hounslow,Hounslow Central,E05000358,-0.3594642952336743,51.46591575953192
Cut,London,Bishop's,E05000416,-0.1072918471053342,51.50327690619449
Thomas Neale,London,Shadwell,E05009332,-0.0566525052854327,51.51355447649204
Zelman Drinks,Finsbury Park,Finsbury Park,E05000371,-0.1058497323359068,51.56477252940479
Clissold Park Tavern,Stoke Newington,Highbury East,E05000372,-0.0906309345727589,51.55642321086832
White Horse,London,West End,E05000649,-0.138639038555907,51.51334681825044
Brewer's Arms,Erith,Northumberland Heath,E05011228,0.1599919021273757,51.47230804188817
Prince William Henry,London,Borough & Bankside,E05011095,-0.1040347638359155,51.50537357586026
Three Greyhounds,London,West End,E05000649,-0.130275772026786,51.51344761970889
Barrel & Horn,Bromley,Bromley Town,E05000109,0.0133921330928031,51.4059688377614
Coach House,Bexleyheath,Bexleyheath,E05011219,0.154728929839963,51.45505740828325
Greene Man,Chingford,Endlebury,E05000594,-0.0136067827255058,51.62602281178207
Bread & Roses at The Chapel,London,King's Cross,E05000141,-0.1189580603067427,51.52858133551401
Stanhope Arms,South Kensington,Courtfield,E05009393,-0.1821036927697882,51.494235619557
Copper Cow,Chiswick,Chiswick Riverside,E05000349,-0.2714095843205448,51.486557017008494
Duke of York,London,Bryanston and Dorset Square,E05000632,-0.1641831461339213,51.51750832564033
Bickley,Chislehurst,Chislehurst,E05000111,0.0558275769476724,51.40767856094799
Hamilton Hall,Liverpool Street,Bishopsgate,E05009292,-0.0821715514718507,51.518489160233024
Elgin,Maida Vale,Maida Vale,E05000640,-0.1858155610044216,51.53025471907782
Terroirs,London,St. James's,E05000644,-0.1254699085662788,51.5093961289892
T.Bird,London,Highbury West,E05000373,-0.0994455521598286,51.561260656863496
White Horse,Peckham,Rye Lane,E05011113,-0.0667341271669962,51.46538491383873
Kennington,Camberwell,Vassall,E05000436,-0.1058458115225258,51.479072098597705
Himalayan Club (Bar & Restaurant),Sudbury,Sudbury,E05000101,-0.3168229581967948,51.55654943189428
Hope,Carshalton,Carshalton Central,E05000558,-0.1671236099669974,51.367258717785575
Richmond Vault Beer Cellar & Restaurant,Richmond,South Richmond,E05000528,-0.3062799897210589,51.458954700225725
Althorp,Wandsworth Common,Nightingale,E05000618,-0.1668160013279439,51.44470874113618
New Inn,Ham,"Ham, Petersham and Richmond Riverside",E05000519,-0.3048557671053741,51.4371723554975
Browns Bar & Brasserie,London,St. James's,E05000644,-0.1273810180917801,51.51128815159206
Scottish Stores,London,Caledonian,E05000368,-0.1207015041441927,51.53140601689638
Lost Rivers Elephant,London,North Walworth,E05011107,-0.0985139866215523,51.49399827504755
Bricklayers Arms,West Norwood,Gipsy Hill,E05000422,-0.09150071201588,51.43008921282893
Jameson,West Kensington,Avonmore and Brook Green,E05000252,-0.216205854109215,51.4971153136916
Plough,Battersea,Fairfield,E05000614,-0.173796732195811,51.46127441599603
Fox & Firkin,Lewisham,Lewisham Central,E05000448,-0.0139753665816253,51.45727239649288
Brown Dog,Barnes,Mortlake and Barnes Common,E05000525,-0.2521127935878078,51.469490805331134
Crown & Pepper,Croydon,Fairfield,E05011468,-0.0998651196801821,51.36889468151527
Sun,Carshalton,Carshalton Central,E05000558,-0.1642252457579996,51.3675281394344
Eva Hart,Chadwell Heath,Chadwell,E05011237,0.1299957529472294,51.57051978628365
Draft House Old Street,London,Bunhill,E05000367,-0.0891052580310248,51.5260483530386
Brewers Bar,Hackney,Shacklewell,E05009382,-0.0704285039597578,51.55281890572813
White Hart,Eltham,Eltham South,E05000219,0.0494896757834504,51.45112643599372
Golden Lion,Sydenham,Sydenham,E05000452,-0.0486246480711305,51.42549794176137
Rose,Bexleyheath,Bexleyheath,E05011219,0.1407841132060087,51.45696762455355
Sky 23 at Hilton Metropole Hotel,Paddington,Hyde Park,E05000636,-0.1698980794396965,51.519486085335856
Mr Fogg's House of Botanicals,London,West End,E05000649,-0.1365395151940972,51.51887997157522
Worker's Cafe,Dalston,London Fields,E05009381,-0.0759389655027453,51.54152491603893
Allsop Arms,London,Bryanston and Dorset Square,E05000632,-0.1601843337844353,51.52231071186929
Half Moon,Putney,Thamesfield,E05000625,-0.2201046348439764,51.46729191252553
Prince,Stoke Newington,Stoke Newington,E05009385,-0.0783619037748309,51.56001751997793
Prince Albert,London,Camden Town with Primrose Hill,E05000130,-0.1375395271588418,51.54064023807472
Beaufort,Colindale,Colindale,E05000046,-0.2429647959582585,51.59651812911165
Clarence,West Kensington,North End,E05000258,-0.2052308084955602,51.48860270835696
Lighthouse,Battersea,Latchmere,E05000617,-0.1632550407383725,51.47249447635796
Rose & Crown,Ealing,Ealing Common,E05000174,-0.3055366997871232,51.50389795543497
Northumberland Arms,Brentford,Syon,E05000364,-0.3127353179939223,51.48221267005962
Leyton Technical,Leyton,Leyton,E05000604,-0.0081892707868303,51.55931494918356
Beaconsfield,West Kensington,Avonmore and Brook Green,E05000252,-0.2130919190545603,51.4971668326424
Belushi's,Greenwich,Greenwich West,E05000222,-0.0147218408351341,51.47754597588651
Alexander Pope,Twickenham,South Twickenham,E05000529,-0.3330875797061937,51.4402751002599
Railway Tavern,Sydenham,Bellingham,E05000437,-0.0338013171144168,51.428011004067145
Kew Gardens Hotel,Kew,Kew,E05000524,-0.2870625453469975,51.47627410360755
Actress,East Dulwich,Goose Green,E05011103,-0.0713741565954097,51.458114200847646
Gold Coast,South Norwood,Woodside,E05011489,-0.0667354798343689,51.39241707835675
Hackney Pearl,Homerton,Hackney Wick,E05009374,-0.0261514467178957,51.54430384813332
Prince of Wales,Clapham,Clapham Town,E05000419,-0.1417354685189703,51.464151962894704
Wilton's Music Hall Mahogany Bar,Shadwell,Whitechapel,E05009336,-0.0669379464919062,51.51061305309453
Sherlock Holmes,London,St. James's,E05000644,-0.1251785160692055,51.50736810655056
Globe,London,Coleman Street,E05009299,-0.0887354325359972,51.51767012188468
Old Dairy,London,Tollington,E05000381,-0.1169512602563175,51.57091342506133
House of Hammerton,London,St. Mary's,E05000379,-0.1068992606293463,51.54818019300176
Bridge House,Penge,Crystal Palace,E05000116,-0.0606196545860047,51.41806214045861
All Bar One,London,Bishopsgate,E05009292,-0.0790880690013505,51.5157228603521
Kings Arms,Chelsea,Redcliffe,E05009402,-0.1809543248544484,51.48619634302621
Prince Edward,Homerton,Homerton,E05009376,-0.041924720358364,51.54542220858863
Carpenters Arms,London,St. Peter's,E05009331,-0.0552690956421931,51.52301875139314
Roebuck,London,Chaucer,E05011098,-0.0907042863752689,51.49816994777829
Bridge Park Hotel,Harlesden,Stonebridge,E05000100,-0.2607902334214792,51.54150653265139
Tipperary,London,Castle Baynard,E05009297,-0.1076065397228074,51.51410928380876
Big Easy,London,St. James's,E05000644,-0.1229385087917403,51.51067758043296
Old Hat,West Ealing,Elthorne,E05000176,-0.3246707799430066,51.51020662965398
Lizard Lounge,South Woodford,South Woodford,E05011252,0.0246059194730166,51.59383312439347
Bird in Hand,Bromley Common,Bromley Common and Keston,E05000108,0.0426699132711901,51.37438391199831
Bull,Romford,Romford Town,E05000319,0.1829509351452477,51.57943078905056
Railway Tavern,Carshalton,The Wrythe,E05000568,-0.1664732169355964,51.370234168039474
Beehive,London,Hoxton West,E05009378,-0.0871833207023034,51.53131368848614
Star Of Kings,London,Caledonian,E05000368,-0.1219395631408329,51.53670457329718
Tanyard Lane,Bexley,St. Mary's & St. James,E05011229,0.1500167314636172,51.44178041342071
Flannery's Bar,Wembley,Wembley Central,E05000104,-0.2997896379451409,51.55219433282024
Gipsy Queen,Kentish Town,Gospel Oak,E05000134,-0.1547087448271428,51.55076744981949
Lord's Tavern,St John's Wood,Regent's Park,E05000643,-0.1736074339169878,51.52836568835181
Martello Hall,Hackney,London Fields,E05009381,-0.0565861351441336,51.539478963982525
Fat Walrus,New Cross,Brockley,E05000439,-0.0343827002326696,51.47411832550012
Tall House,London,Borough & Bankside,E05011095,-0.0998222560923122,51.5058359800185
Boisdale,London,West End,E05000649,-0.157052236657792,51.51277426911591
Moon & Stars,Penge,Penge and Cator,E05000123,-0.0505200133365835,51.41239085166517
Maggies Bar,Kensal Rise,Queens Park,E05000098,-0.219849649122431,51.53483174567411
White Bear,Kennington,Prince's,E05000427,-0.1080502981047868,51.48670651951157
Bolton,Earls Court,Earl's Court,E05009395,-0.1908084543213828,51.489783965186405
Black Dog Beer House,Brentford,Syon,E05000364,-0.3022676127837949,51.485631737263965
White Swan,London,Farringdon Without,E05009305,-0.109408078969414,51.516197675730375
Woodin's Shades,London,Bishopsgate,E05009292,-0.0792683364473905,51.51828873452335
Lamb,Plaistow,Plaistow North,E05000489,0.021665754700704,51.53375025334404
Harry Gordon's Bar & Kitchen,London,Marylebone High Street,E05000641,-0.1516769890915439,51.51454218615408
Cricketers,Woodford Green,Churchfields,E05011238,0.0189296522902646,51.60192530011794
All Bar One,London,Holborn and Covent Garden,E05000138,-0.1192287880109209,51.51641848027987
Volunteer,Tottenham,Tottenham Hale,E05000281,-0.0645512546122806,51.59037405928303
Tankard,Kennington,Prince's,E05000427,-0.1104772167190194,51.494200619124754
Green Gate,South Tottenham,West Green,E05000282,-0.0985074990809817,51.58756653454045
Garden Bar & Grill,North Kensington,Notting Dale,E05009399,-0.2179993708239549,51.51243904212193
Smiths of Smithfield,London,Clerkenwell,E05000370,-0.1023911068142376,51.51960954487821
Plough & Harrow,Welling,Falconwood & Welling,E05011226,0.1004603759693194,51.46346160744864
Devonshire Arms,London,Camden Town with Primrose Hill,E05000130,-0.1427207396542129,51.54089322038877
Jolly Fenman,Sidcup,Blackfen & Lamorbey,E05011220,0.0921825433238963,51.4515141430921
Tarragon,Battersea,Shaftesbury,E05000623,-0.1517669898100553,51.46601012580687
Spaniards,Hampstead,Garden Suburb,E05000052,-0.1742307797321335,51.56970522677887
Rose & Crown,Heston,Heston East,E05000356,-0.3731213542230718,51.48631224908611
Huxleys,Heathrow Airport,Heathrow Villages,E05000331,-0.4872391389773695,51.47149256514529
Bar & Block,London,Caledonian,E05000368,-0.1223795494916776,51.53127101247707
Cinnamon Bazaar,London,St. James's,E05000644,-0.1236600869774767,51.51065315430333
Monty's Bar,Hornchurch,St. Andrew's,E05000320,0.2191154139292336,51.56834708262816
Pittcue,London,Bishopsgate,E05009292,-0.0781454645199272,51.51654372645864
Imperial Arms,Fulham,Parsons Green and Walham,E05000260,-0.188563617974223,51.47845457443653
Gallery,West Hampstead,West Hampstead,E05000145,-0.1900992366225937,51.54656154345388
Hare & Hounds,East Sheen,East Sheen,E05000517,-0.2648083732871512,51.46503004386154
Carpenters Arms,Stratford,Stratford and New Town,E05000492,-0.0054726185440128,51.53765039269097
