name,address1,address2,borough_name,longitude,latitude
Camden Head,2 Camden Walk,London,Islington,-0.1030623203732221,51.53570835973557
Great Western,Dawley Road,Hayes,Hillingdon,-0.4305598165179532,51.49728387677739
Olde Swiss Cottage,98 Finchley Road,Hampstead,Camden,-0.1744997252870194,51.5424530551717
Cockpit,7 St Andrew's Hill,London,City and County of the City of London,-0.1012845744746751,51.51294597926421
Coach & Horses,12 High Street,Carshalton,Sutton,-0.1611753380395215,51.365124225224136
Union Bar & Grill,4 Sheldon Square,Paddington,City of Westminster,-0.1804285961060286,51.5192812006519
Radicals & Victuallers,59 Upper Street,London,Islington,-0.1040017812451837,51.53600232302878
Gowlett SE15,62 Gowlett Road,Peckham,Southwark,-0.070214026698933,51.46309513958624
Carpenter's Arms,73 Cheshire Street,Bethnal Green,Tower Hamlets,-0.0666268934125645,51.524078976285146
Bulstrode,55 Lampton Road,Hounslow,Hounslow,-0.3665889001283269,51.47040357381947
Molly Bloom's,525 Kingsland Road,Hackney,Hackney,-0.076099558371606,51.54558320125922
Boaters Inn,"Canbury Gardens, Lower Ham Rd",Kingston,Kingston upon Thames,-0.3056025969542347,51.41894662824947
Toy Shop,32 High Street,Putney,Wandsworth,-0.21502587227188,51.46498454806729
Salutation,154 King Street,Hammersmith,Hammersmith and Fulham,-0.2330083756185976,51.492918272760505
Village Inn,104 Nuxley Road,Belvedere,Bexley,0.1434335646485874,51.48000423338254
Charles Lamb,16 Elia Street,London,Islington,-0.1022006093264975,51.53216029994457
Devonshire Arms,7 Duke Street,London,City of Westminster,-0.1521004778418107,51.51618552779517
Eastbrook,Dagenham Road / Rainham Road South,Dagenham,Barking and Dagenham,0.1644882109924755,51.55233503033746
Green Man Hotel,64 Dagmar Avenue,Wembley,Brent,-0.2894402261127001,51.55700795472598
Railway,"2 Greyhound Lane,",Streatham,Lambeth,-0.1342652333153152,51.41854790041317
Dado54,54 Farringdon Street,London,Islington,-0.1058601867072443,51.52111343968964
Maynard Arms,70 Park Road,Crouch End,Haringey,-0.1261185058882102,51.58169827767197
Bonnie's,28-30 Bromley Hill,Bromley,Lewisham,-0.0016269612308863,51.420947257624455
Whispering Moon,25 Ross Parade,Wallington,Sutton,-0.149217159877513,51.36028679195963
Cinnamon Bazaar,28 Maiden Lane,London,City of Westminster,-0.1236600869774767,51.51065315430333
Hussar,495-497 Staines Road,Hounslow,Hounslow,-0.3872682381682873,51.46336107545638
Beer & Burger Store,"1A Arthouse, 1 York Way",London,Camden,-0.1226745165486588,51.53601490204922
Spread Eagle,8 Woodstock Street,London,City of Westminster,-0.147418314076182,51.51435809801421
Patrick's Bar,5 High Street,Beckenham,Bromley,-0.0251281292226377,51.41062588050129
Aces & Eights,156-158 Fortess Road,Tufnell Park,Camden,-0.1386656699543999,51.55615248289977
Kiln Theatre Bar,269 Kilburn High Road,Kilburn,Brent,-0.2003935886209495,51.54372535598836
Flowerpot,128 Wood Street,Walthamstow,Waltham Forest,-0.0044615167629699,51.58812652316633
Bridge Wine Bar,8 Voltaire Road,Clapham,Lambeth,-0.1335919079172428,51.46579417634344
Crown,360 Hornchurch Road,Hornchurch,Havering,0.1885777473254074,51.56555762055602
Curtains Up,28a Comeragh Road,West Kensington,Hammersmith and Fulham,-0.2082499368824267,51.489485185406096
Fen,Fenchchurch Street Station Concourse,London,City and County of the City of London,-0.07908166417434,51.51176596441618
Boathouse,Brewhouse Lane,Putney,Wandsworth,-0.21277143834429,51.46520202078988
Tia Maria,126 South Lambeth Road,South Lambeth,Lambeth,-0.124845657314727,51.48072635642002
Canopy Beer Company Tap Room,"Arch 1127 Bath Factory Estate, 41 Norwood Road",Herne Hill,Southwark,-0.100074210224702,51.4505614239106
Cut,"Young Vic, 66 The Cut",London,Lambeth,-0.1072918471053342,51.50327690619449
Mayfair Exchange,34 Brook Street,London,City of Westminster,-0.14697895466583,51.51311016572589
Horseshoe,28 Heath Street,London,Camden,-0.1784381236366671,51.5557783187223
Parlour,5 Regent Street,Kensal Rise,Brent,-0.2168294041816667,51.52873386118928
Dartmouth Castle,26 Glenthorne Road,Hammersmith,Hammersmith and Fulham,-0.2286064766842631,51.494614436012704
Dirty Martini,124-127 Minories,London,City and County of the City of London,-0.0758840460466044,51.51240594277672
Gate,Rickmansworth Road,Northwood,Hillingdon,-0.4371471117598337,51.61415477688
Nicholas Nickleby,6 Ferme Park Road,Finsbury Park,Haringey,-0.1129905276978908,51.57491433011199
Tudor Rose,270 Coulsdon Road,Coulsdon,Croydon,-0.119081656726879,51.304824275504224
Queen's Head,73 High Street,Green St Green,Bromley,0.089239857687784,51.35293308317147
Pocket Watch,434 Uxbridge Road,Shepherds Bush,Hammersmith and Fulham,-0.2390917996244588,51.50663354105356
Hereford Arms,127 Gloucester Road,South Kensington,Kensington and Chelsea,-0.1813572879391608,51.493081977329474
Britannia,94 Ironmonger Row,London,Islington,-0.0942191484914832,51.52683303561599
Old Thameside Inn,Pickfords Wharf,London,Southwark,-0.091891999198531,51.50698420098649
Vintry,Sherborne La,London,City and County of the City of London,-0.0886369227721901,51.51141857322561
Beefeater,Millington Road,Hayes,Hillingdon,-0.4283671089350352,51.50197549651649
Slug & Lettuce,10 Park Lane,Croydon,Croydon,-0.0973061207204164,51.3737902437677
Old Mill,1 Old Mill Road,Plumstead,Greenwich,0.0859945136833829,51.48151683240575
Hare & Hounds,282 Lea Bridge Road,Leyton,Waltham Forest,-0.0278753860923708,51.56914361981846
Kings Tun,153-157 Clarence Street,Kingston,Kingston upon Thames,-0.3008492896342638,51.41138710746132
Royal Oak,2 Regency Street,London,City of Westminster,-0.132497301563828,51.49402275061104
Takeover,12-13 Greek Street,London,City of Westminster,-0.1308723286505227,51.5143653918696
Crown & Sugar Loaf,26 Bride Lane,London,City and County of the City of London,-0.1049911792271133,51.513923180487566
Charlotte,204 Union Street,London,Southwark,-0.1019116953493824,51.50375650878686
Bridge Hotel,Western Avenue,Greenford,Ealing,-0.3455246737403026,51.53640967848439
Coin Laundry,70 Exmouth Market,London,Islington,-0.1080272443010402,51.52621132305536
Slug & Lettuce,150-156 High Street,Beckenham,Bromley,-0.027063240960206,51.40776274230457
East Dulwich Tavern,1 Lordship Lane,East Dulwich,Southwark,-0.0749288060719041,51.45984532982746
Grange Rochester Hotel Bar,69 Vincent Square,London,City of Westminster,-0.1363276973229139,51.49441641239049
Crown & Sceptre,86 Great Titchfield Street,London,City of Westminster,-0.1406568290414939,51.5193589706676
Rivington Bar Grill,28-30 Rivington Street,London,Hackney,-0.0819178854299506,51.52589498068828
Royal Oak,86 St Anns Road,Harrow,Harrow,-0.3376760614638251,51.5816472627314
Duke of Wellington,77 Wardour Street,London,City of Westminster,-0.1332336890794094,51.51230769021023
Surprise,107 Upper Shirley Road,Croydon,Croydon,-0.0534504859483829,51.3677544747241
Railway,100 West End Lane,West Hampstead,Camden,-0.1909260258092378,51.54607970163951
Shop,75 Chamberlayne Road,Kensal Rise,Brent,-0.218619451795045,51.53384187415495
Clayton Crown Hotel,142-152 Cricklewood Broadway,Cricklewood,Barnet,-0.21488168684945,51.55677018482407
Be-bop-a-lula,68 Green Lanes,Stoke Newington,Hackney,-0.0885182721362457,51.554167585590925
Dalston Eastern Curve Garden Cafe,13 Dalston Lane,Hackney,Hackney,-0.0732966934369418,51.54638242940522
Beehive,227 High Street,Brentford,Hounslow,-0.3062842554271533,51.48373838550005
George & Vulture,63 Pitfield Street,London,Hackney,-0.083819727096088,51.529010575332826
Waterway,"Browning House, 54 Formosa Street",Maida Vale,City of Westminster,-0.1877577237752409,51.52273991743503
Albert Arms,1 Gladstone Street,London,Southwark,-0.1047522111458032,51.49746254103506
Junction,8 Gayton Road,Harrow,Harrow,-0.3325387014001605,51.57965002803809
Red Lion,31 High Street,High Barnet,Barnet,-0.1996763428812019,51.652792154671246
Old Jail,Jail Lane,Biggin Hill,Bromley,0.0523241949569479,51.3148607896255
Prince Arthur,49 Brunswick Place,London,Hackney,-0.0852647199149655,51.527559400081536
Simpsons Tavern,38 1/2 Cornhill,London,City and County of the City of London,-0.0859885050997608,51.51305701386372
Prince of Wales,117 Ewell Road,Surbiton,Kingston upon Thames,-0.2975778600121639,51.38948718616307
Overdraft Tavern,200-202 High Street,East Ham,Newham,0.0515171785118119,51.53898682984526
Golden Lion,144 Stanley Road,Croydon,Croydon,-0.1162450125408235,51.38670396834442
Mere Scribbler,426-428 Streatham High Road,Streatham,Lambeth,-0.1290332810892448,51.421288209446274
Vanbrugh,91 Colomb Street,Greenwich,Greenwich,0.0074361551657496,51.48366164380668
Asparagus,1-13 Falcon Road,Battersea,Wandsworth,-0.1713336101884624,51.46995891462015
Greyhound,425 Ordnance Road,Enfield,Enfield,-0.0185069577230962,51.66972906293503
Simmons,61 Royal Mint Street,London,Tower Hamlets,-0.0704925162911481,51.51039285185256
No 1 Duke Street,1a Duke Street,Richmond,Richmond upon Thames,-0.3042552333774045,51.46154227492266
Sun of Camberwell,61-63 Coldharbour Lane,Camberwell,Lambeth,-0.0957240803655163,51.46967255176423
Toby Carvery,"415 Brighton Road, Croydon",South Croydon,Croydon,-0.0974436470728971,51.35555483657576
Lord Nelson,14 West End Lane,High Barnet,Barnet,-0.2107683641531733,51.6523232560655
Baltic,74 Blackfriars Road,London,Southwark,-0.1050920762676541,51.50316045289802
Hawkins Forge,110 Battersea Rise,Battersea,Wandsworth,-0.1686630968611792,51.46077171820835
Aroma,171 Yeading Lane,Yeading,Hillingdon,-0.3999842235766773,51.5241442055325
Pinner Arms,Whittington Way,Pinner,Harrow,-0.380099914108584,51.58560396234795
J J Moons,12 Victoria Road,Ruislip Manor,Hillingdon,-0.4135639856116876,51.57346257714244
Masons Arms,38 Maddox Street,London,City of Westminster,-0.1425804304514231,51.51282477154483
Moo Cantina Argentina,43 Vauxhall Bridge Road,London,City of Westminster,-0.1345578502151692,51.49083615265285
Crown Inn,407 London Road,Mitcham,Merton,-0.1721924981212283,51.39797592776114
Cleveland Arms,28 Chilworth Street,Paddington,City of Westminster,-0.1810499805790323,51.51490242261087
Understudy,"National Theatre, South Bank",London,Lambeth,-0.1140599837166313,51.50686612397561
Suttons Radio,139-141 Lewisham High Street,Lewisham,Lewisham,-0.0108067322794109,51.4602942555661
Big Easy,12 Maiden Lane,London,City of Westminster,-0.1229385087917403,51.51067758043296
Annie Twomey's,168 Ballards Lane,Finchley,Barnet,-0.1876186473041983,51.60532519219638
Rumours,25-27 Central Road,Worcester Park,Sutton,-0.2390812358848132,51.37706704238679
Factory House,37 Leadenhall Street,London,City and County of the City of London,-0.0827440586104024,51.51241046867764
Lincoln Lounge,52 York Way,London,Islington,-0.122131564945215,51.53274185299307
Tide End Cottage,8 Ferry Road,Teddington,Richmond upon Thames,-0.3237005068576035,51.42942230632162
Salt Bar,1 Roxeth Hill,South Harrow,Harrow,-0.3454435138658187,51.56927560502387
Marquis of Granby,41 Romney Street,London,City of Westminster,-0.1276966220233075,51.495160227834674
Plough,381 Lordship Lane,East Dulwich,Southwark,-0.0747988338659534,51.44993303999963
Walcot 1830,171 Kennington Road,Kennington,Lambeth,-0.1104772167190194,51.494200619124754
Rose & Crown,31 Mill Lane,Woodford Green,Redbridge,0.0209353699932874,51.60969639533482
Wheatsheaf,6 Stoney Street,London,Southwark,-0.091048149064845,51.50510896855376
Angel & Crown,5 Church Street,Richmond,Richmond upon Thames,-0.3041208646153039,51.46050618603258
De Burgh Arms,High Street,Yiewsley,Hillingdon,-0.4736652697972786,51.51017245995928
Marquis,52 Chandos Place,London,City of Westminster,-0.1257572140484086,51.509769422492106
Bourne & Hollingsworth,28 Rathbone Place,London,Camden,-0.1342293977251225,51.51791700121304
Merchants Tavern,35-42 Charlotte Road,London,Hackney,-0.0809408472956154,51.52547431592416
Pineapple,53-55 Hercules Road,London,Lambeth,-0.1137091787371389,51.49722025183728
Civil Engineer,500 Ruislip Road,Greenford,Ealing,-0.3759215739884985,51.5323381857313
Merchant of Battersea,23-25 Battersea Rise,Battersea,Wandsworth,-0.1634493490275209,51.460834059388645
Marksman,254 Hackney Road,Bethnal Green,Tower Hamlets,-0.0686995255074246,51.53096546738564
Iron Horse,122 Station Road,Sidcup,Bexley,0.1025696128052599,51.434817200402144
Balls Brothers (Austin Friars),10-11 Austin Friars,London,City and County of the City of London,-0.0852720052842225,51.51570715808751
Barrio East,141-143 Shoreditch High Street,London,Hackney,-0.078248427723078,51.526419380338574
Palm Tree,127 Grove Road,Bow,Tower Hamlets,-0.0389322004404992,51.52914953004353
Clarence,53 Whitehall,London,City of Westminster,-0.1267396684257847,51.506197016452006
Tank & Paddle,17 Heddon Street,London,City of Westminster,-0.1396201909077284,51.510844425032815
Castle,225 Portobello Road,Notting Hill,Kensington and Chelsea,-0.2055248863579123,51.51631353904313
Earl Ferrers,22 Ellora Road,Streatham,Lambeth,-0.13265052832477,51.42358511597453
New Moon,25-26 Kenton Park Parade,Kenton,Harrow,-0.3036574638316134,51.58741935688543
Crutched Friar,38 Crutched Friars,London,City and County of the City of London,-0.0787549290388591,51.51131097250881
Flying Horse,6 Oxford Street,London,City of Westminster,-0.1308091166295308,51.51661256494307
Brunswick House,30 Wandsworth Road,Vauxhall,Lambeth,-0.122877314723085,51.485874650328256
Sheephaven Bay,2 Mornington Street,London,Camden,-0.1420719390634136,51.5352265371673
Brew By Numbers Brewery Tap Room,79 Enid Street,Bermondsey (East),Southwark,-0.0722297942343251,51.49757984309672
George,32 King Street,Twickenham,Richmond upon Thames,-0.3287482069866979,51.446408996931375
Occasional Half,67-77 Green Lanes,Palmers Green,Enfield,-0.1100712404829765,51.610162615985935
Butchers Arms,148 High Street,High Barnet,Barnet,-0.201378729563421,51.65580372551496
Round Table,26-27 St Martin's Court,London,City of Westminster,-0.1275844680755414,51.51089571906815
Canons Bar,"Canons Hall, 1-17 Wemborough Road",Canons Park,Harrow,-0.3035957783724111,51.60650034485147
Gem,10 Beak Street,London,City of Westminster,-0.1384539360115044,51.51187806881054
Jugged Hare,49 Chiswell Street,London,City and County of the City of London,-0.0906802548119059,51.52079530169491
Worker's Cafe,404 Kingsland Road,Dalston,Hackney,-0.0759389655027453,51.54152491603893
Thyme,"Premier Inn, 217-221 Haverstock Hill",Hampstead,Camden,-0.1671834155727855,51.551538447838354
Doric Arch,"Euston Station Colonnade, 1 Eversholt Street",London,Camden,-0.1321572195268266,51.52804580605272
Fizz Sports Bar,217 Kenton Road,Kenton,Brent,-0.3143612743012594,51.58332911399558
George,40 Tower Bridge Road,London,Southwark,-0.0832112739364834,51.49544879604157
Bloated Mallard,147 High Street,Hampton Hill,Richmond upon Thames,-0.3566395983405909,51.4263100704454
Scarsdale Tavern,23a Edwardes Square,Kensington,Kensington and Chelsea,-0.1993692892486152,51.49771234472247
Milan Bar,16 High Street,Croydon,Croydon,-0.1007875603579908,51.372992420212505
Feathers,18-20 Broadway,London,City of Westminster,-0.1328848468033547,51.49934362194665
Bat & Ball,"Unit 1110/1111, Westfield Centre",Stratford City,Newham,-0.0063195504829034,51.54433737187736
Brewhouse & Kitchen,Torrens Street,London,Islington,-0.1050527695936668,51.5322243978205
Spread Eagle,141 Albert Street,London,Camden,-0.1445165245969131,51.53716268083947
Brave Sir Robin,29 Crouch Hill,London,Islington,-0.1169512602563175,51.57091342506133
Oyster Shed,1 Angel Lane,London,City and County of the City of London,-0.0894133368136713,51.50974059163588
KTM ROX,49 High Street,Feltham,Hounslow,-0.4111333633040815,51.443553250153954
Court,108a Tottenham Court Road,London,Camden,-0.1369923393974212,51.52296985614671
Funky Brownz,"Belmont Circle, Kenton Lane",Belmont,Harrow,-0.3185912968661744,51.601671407236864
Nell Gwynne,1-2 Bull Inn Court,London,City of Westminster,-0.1228753684738893,51.51046074411869
Roebuck,122 Chiswick High Road,Chiswick,Hounslow,-0.25291320179371,51.49301853956277
Jam Tree,541 Kings Road,Fulham,Hammersmith and Fulham,-0.187577966496247,51.47897890214634
Royal Oak,High Street,Green St Green,Bromley,0.0891732886400402,51.35146840337202
Cally,427 Caledonian Road,Holloway,Islington,-0.1182324678612121,51.546519165295976
Bull's Head Hotel,Royal Parade,Chislehurst,Bromley,0.0753733126072135,51.41158770425702
Knights Bar,Simpsons in the Strand 100 Strand,London,City of Westminster,-0.1206954982318868,51.51055173762729
Virgin Queen,94 Goldsmiths Row,Bethnal Green,Hackney,-0.0642945650938768,51.53351858833729
Henley Arms,268 Albert Road,Royal Docks,Newham,0.0583316324322752,51.50080079385644
Stag's Head,102 New Cavendish Street,London,City of Westminster,-0.1431852870134771,51.51992059759484
Clock House,69 High Street,Teddington,Richmond upon Thames,-0.3311253314861303,51.42739712521384
Tabernacle,34-35 Powis Square,Notting Hill,Kensington and Chelsea,-0.2015459660861366,51.51670223485792
Marylebone,93 Marylebone High Street,London,City of Westminster,-0.1521078952794454,51.51991760948097
Ship,116 Wardour Street,London,City of Westminster,-0.1341694960860811,51.51409414435
Chelsea Pig,35 Old Church Street,Chelsea,Kensington and Chelsea,-0.172658912109991,51.48472747505485
Artful Dodger,47 Royal Mint Street,London,Tower Hamlets,-0.0704925162911481,51.51039285185256
King's Arms,94-96 Wandsworth High Street,Wandsworth,Wandsworth,-0.1942240637939918,51.45727414304629
Wingmans,332 Kilburn High Road,Kilburn,Camden,-0.2016030937642134,51.545236674400975
Botwell Inn,25-29 Coldharbour Lane,Hayes,Hillingdon,-0.4165203210052849,51.50830854744965
Angies,127-129 High Street,Harlesden,Brent,-0.2434195590160081,51.53533979499112
Swan,7 Cosmo Place,London,Camden,-0.1226936399762707,51.52118618013158
Windmill,86 The Cut,London,Lambeth,-0.1079941972428773,51.50301845472087
Revolution,140-144 Leadenhall Street,London,City and County of the City of London,-0.083053538268208,51.51362055459188
Stonhouse,165 Stonhouse Street,Clapham,Lambeth,-0.1369165087784807,51.46440822090261
Catford Constitutional Club,Catford Broadway,Catford,Lewisham,-0.0224465660195575,51.44511333313545
Brass Monkey,250 Vauxhall Bridge Road,London,City of Westminster,-0.1402483186881058,51.49401102771257
Sourced Market,7-21 Goswell Road,Barbican,Islington,-0.0975624347668813,51.52168055995925
Founders Arms,52 Hopton Street,London,Southwark,-0.1020269244606202,51.5082637574038
Bell & Gate,248/250 Collier Row Lane,Collier Row (Romford),Havering,0.1649430315547846,51.59471953920356
Moon On The Hill,373-375 Station Road,Harrow,Harrow,-0.3342773147865256,51.57946787482193
Lillie Langtry,19 Lillie Road,Fulham,Hammersmith and Fulham,-0.1982647895374533,51.48626572531455
Star,89 Manor Road,Wallington,Sutton,-0.1503419985751532,51.361959233739775
Fox,Green Lane,Hanwell,Ealing,-0.3434089642909582,51.50414206391436
Steak & Co,152 Gloucester Road,South Kensington,Kensington and Chelsea,-0.1820883133896934,51.4931742448216
Burger & Lobster,29 Clarges Street,London,City of Westminster,-0.145487422901083,51.50689961262152
Walker Ground,Waterfall Road,Southgate,Enfield,-0.1304801294792155,51.62487737223165
Stanhope Arms,97 Gloucester Road,South Kensington,Kensington and Chelsea,-0.1821036927697882,51.494235619557
Crown & Two Chairmen,32 Dean Street,London,City of Westminster,-0.1324499430216291,51.51385095558671
Woodin's Shades,212 Bishopsgate,London,City and County of the City of London,-0.0792683364473905,51.51828873452335
Terroirs,5 William IV Street,London,City of Westminster,-0.1254699085662788,51.5093961289892
Marquis of Wellington,21 Druid Street,London,Southwark,-0.0794601615562961,51.50277045318178
Famous Cock Tavern,259 Upper Street,London,Islington,-0.1035152303096565,51.54527484854333
Britannia,2 Plaistow Grove,Stratford,Newham,0.012743302692454,51.53413768346108
Harrow,Billet Road / Rose Lane,Marks Gate (Chadwell Heath),Barking and Dagenham,0.1361370771322261,51.58885286045634
Old Fox & Hounds,1 London Road,Croydon,Croydon,-0.1037287842347561,51.37866054108407
Canonbury Tavern,"21 Canonbury Place,",London,Islington,-0.0972170829367522,51.54482204283551
Common Room,3-4 Grosvenor Parade,Ealing,Ealing,-0.2862740625176346,51.50959825012638
Refreshment Room,27 The Broadway,Stratford,Newham,0.0026311019390842,51.54092952378111
Bricklayers Arms,1 Hamilton Road,West Norwood,Lambeth,-0.09150071201588,51.43008921282893
Greyhound,1 Kensington Square,Kensington,Kensington and Chelsea,-0.1893074738534548,51.50075882953462
Plume of Feathers,19 Park Vista,Greenwich,Greenwich,-0.0006125071577071,51.48207248116636
Anchor & Hope,36 The Cut,London,Lambeth,-0.1066482056240438,51.50350932293203
Bar One,7-9 Leytonstone Road,Stratford,Newham,0.0055028150632451,51.546878553414544
Rose & Crown,65 Union Street,London,Southwark,-0.0950060441674194,51.50384239152969
Two Towers,201 Gipsy Road,West Norwood,Lambeth,-0.0877953251774444,51.427528769396105
Prince of Peckham,1 Clayton Road,Peckham,Southwark,-0.0653611203390019,51.47333893221232
Taproom SE18,15 Major Draper Street,Woolwich,Greenwich,0.0708739996312131,51.49300794969275
Sophie's,42-44 Great Windmill Street,London,City of Westminster,-0.1344661281832672,51.5110683164793
Misty Moon,27 Green Lane,Northwood,Hillingdon,-0.4259230279084637,51.61210767032373
Joiners,51 Ballards Lane,Finchley,Barnet,-0.1915112170217728,51.60330804261582
Half Moon,10 Half Moon Lane,Herne Hill,Southwark,-0.0993998088970441,51.45259186462978
Bar Soho,23-25 Old Compton Street,London,City of Westminster,-0.1308765976745679,51.5132053985729
Hudson Bay,1-5 Upton Lane,Forest Gate,Newham,0.0263327131838613,51.54500951054028
Eden Park,422 Upper Elmers End Road,Eden Park,Bromley,-0.0269212923802786,51.38967590709043
Sussex Arms,21 London Street,Paddington,City of Westminster,-0.1744728978100948,51.5153847736901
Market House,443 Coldharbour Lane,Brixton,Lambeth,-0.1137289750822108,51.46147448137798
Brunel,47 Swan Road,Rotherhithe,Southwark,-0.0509919838264668,51.50132037876835
Dolphin Tavern,44 Red Lion Street,London,Camden,-0.1175448721299007,51.51985368309065
Jugged Hare,172 Vauxhall Bridge Road,London,City of Westminster,-0.1387356835833037,51.4933035842308
Vaulty Towers,34 Lower Marsh,London,Lambeth,-0.1118080294642228,51.50103855608173
Brasserie Blanc,60 Threadneedle Street,London,City and County of the City of London,-0.0865448064417365,51.51422615317721
Chelsfield,1 Windsor Drive,Chelsfield,Bromley,0.1053236802620418,51.35635018712361
Village Soho,81 Wardour Street,London,City of Westminster,-0.1333589019847635,51.512417595448674
Black Horse,254 Tabard Street,London,Southwark,-0.0881095419133505,51.496481999254605
Village Inn,402-408 Rayners Lane,Rayners Lane,Harrow,-0.3708418531562379,51.57687887878549
Robin Hood,240 The Ridgeway,Enfield,Enfield,-0.1282735327363117,51.67707903596421
Britannia,44 Kipling Street,London,Southwark,-0.0874531464976408,51.50114754716392
Queen's Head,12 Sutton Lane North,Chiswick,Hounslow,-0.2701493243378604,51.48902941538498
Dutch Courage,26 Upper Richmond Road,Putney,Wandsworth,-0.2042427870516258,51.45690635842008
Lord Aberconway,73 Old Broad Street,London,City and County of the City of London,-0.0828289532983174,51.51690821052758
St John,26 St John Street,London,Islington,-0.1014245204706001,51.52032231668091
All Bar One,34 Shad Thames,London,Southwark,-0.0726557749977196,51.50318931779274
Han,1 High Street,New Malden,Kingston upon Thames,-0.2571459851760459,51.403119311214994
Asylum Tavern,40-42 Asylum Road,Peckham,Southwark,-0.0592600241154942,51.477986273312425
Willow Walk,25 Wilton Road,London,City of Westminster,-0.1424272096015822,51.49534051089535
Hare,Brookshill,Harrow Weald,Harrow,-0.3429703187856964,51.62057882121472
Thirsty Eddie's,412 High Road,Wembley,Brent,-0.2917249925637695,51.553776885784906
Ship,68 Borough Road,London,Southwark,-0.0968584424568011,51.499501975635546
One Under Lime,1 Leadenhall Place,London,City and County of the City of London,-0.0828263777392511,51.51285245820411
Circle Lounge,"12-13 Station Parade, Kenton Lane",Belmont,Harrow,-0.3191686180653257,51.60089732891436
Arkstar,"Arch 1,303 Holloway Road",London,Islington,-0.112796260804296,51.552762588914185
Golden Lion,57 Fulham High Street,Fulham,Hammersmith and Fulham,-0.210062886157497,51.47003478078979
Cellars,125 Newington Green Road,London,Islington,-0.086365661899155,51.550805169584656
Rocket,"16 Brewhouse Lane,",Putney,Wandsworth,-0.2131946719372569,51.46542429342753
White Horse,94 Brixton Hill,Brixton,Lambeth,-0.1200024052200485,51.45489362381665
Market Place,11 Market Place,London,City of Westminster,-0.1404294044364993,51.51645072086362
Mill,"58-62, High Street",Kingston,Kingston upon Thames,-0.3080913981045701,51.407247393880205
Audley,43 Mount Street,London,City of Westminster,-0.1514824723643578,51.5097370223392
Jolly Fisherman,108 North Street,Barking,Barking and Dagenham,0.0743987398048884,51.54112050214928
Robin Hood,52 West Street,Sutton,Sutton,-0.1962342308426393,51.363843610646455
Royal Oak,219 Kings Head Hill,Chingford,Waltham Forest,-0.0104461465043171,51.6345300342565
Camberwell Arms,65 Camberwell Church Street,Camberwell,Southwark,-0.0895662422865437,51.47404177800591
Racehorse,17 West Street,Carshalton,Sutton,-0.1673425441078721,51.36645277788884
Loading,174 Goldhawk Road,Shepherds Bush,Hammersmith and Fulham,-0.232709229999644,51.50139380449954
Blackbird,209 Earls Court Road,Earls Court,Kensington and Chelsea,-0.1922203136140472,51.49196397070627
Grove,83 Hammersmith Grove,Hammersmith,Hammersmith and Fulham,-0.2276373753596771,51.49768426845666
Downham Tavern,419 Downham Way,Grove Park,Lewisham,0.0131361724768242,51.427628268013926
Small Beer,"22 Topsfield Parade, Tottenham Lane",Hornsey,Haringey,-0.1223508783711777,51.581008571101925
Old Blue Last,38 Great Eastern Street,London,Hackney,-0.0799955965151529,51.52429877632273
Orchard Tavern,136 Askew Road,Shepherds Bush,Hammersmith and Fulham,-0.242316370777812,51.50185286246292
White Hart Hotel,1 High Street,Hampton Wick,Richmond upon Thames,-0.3110722110406574,51.41220035486871
Festio,236 Green Lanes,Palmers Green,Enfield,-0.1089332378635016,51.61704147235003
Glory,281 Kingsland Road,Bethnal Green,Hackney,-0.077101507638525,51.53584276111115
Globe,83 Moorgate,London,City and County of the City of London,-0.0887354325359972,51.51767012188468
Michael's Den,21 Halliford Street,London,Islington,-0.089572432438546,51.54002151860729
Tuttons,11-12 Russell Street,London,City of Westminster,-0.1216053043765536,51.51225694720655
Rising Sun,407 London Road,Isleworth,Hounslow,-0.3325961006252121,51.47549144741044
Fountain,125 West Green Road,South Tottenham,Haringey,-0.0783057828937968,51.58498002686734
Tommy Flynn's,504 Holloway Road,Holloway,Islington,-0.1204213166578748,51.55884717940073
Leigham Well,1 Wellfield Road,Streatham,Lambeth,-0.1257123600536672,51.42933761921214
Cavalier,67 Russell Lane,Whetstone,Barnet,-0.1579209098135188,51.62974444809969
Imperial Arms,577 Kings Road,Fulham,Hammersmith and Fulham,-0.188563617974223,51.47845457443653
River Ale House,131 Woolwich Road,Greenwich,Greenwich,0.0144207852404669,51.48625773500024
Union,35 Old Bailey,London,City and County of the City of London,-0.1025148837952091,51.51489933753547
All Bar One,289-293 Regent Street,London,City of Westminster,-0.1427757918504659,51.51652386568556
Adriatico,12-14 Mitre Street,London,City and County of the City of London,-0.0787039665872633,51.51389104421813
Wheatsheaf,2 Upper Tooting Road,Tooting,Wandsworth,-0.1608764114496203,51.435299184379424
King William IV,77 Hampstead High Street,London,Camden,-0.1762287307877123,51.55547422325439
Obia Bar & Grill,49c South End,Croydon,Croydon,-0.0987208516519351,51.365647641777045
Green Man,Putney Heath,Putney,Wandsworth,-0.2212100147748138,51.45292931155164
Spice Rack Lounge,35 Church Road,Stanmore,Harrow,-0.3123278433073908,51.61753421401583
Old Ship,17 Barnes Street,Poplar,Tower Hamlets,-0.0398464611891309,51.51391327859761
Hour Glass,131 Beaconsfield Road,Walworth,Southwark,-0.0843396867722169,51.48640252717168
Case Is Altered,Eastcote High Road,Eastcote,Hillingdon,-0.4047462204182941,51.58954760991708
Wells,30 Well Walk,London,Camden,-0.1733646675017287,51.558909776031726
George IV,7 Ida Street,Poplar,Tower Hamlets,-0.0115361839945186,51.51201585832635
Sun & Woolpack,640 Hertford Road,Enfield,Enfield,-0.0407658982472555,51.67135285828918
Captain Morgans,9 Clayton Road,Hayes,Hillingdon,-0.4211023590172924,51.50456654928422
Stane Street Syndicate,196 Clapham High Street,Clapham,Lambeth,-0.138043433731716,51.4621869440256
Lock Tavern,35 Chalk Farm Road,London,Camden,-0.1482480612320958,51.54292299466098
Harcourt,32 Harcourt Street,London,City of Westminster,-0.1641601361489237,51.51951333115746
Harrow,130 Hornchurch Road,Hornchurch,Havering,0.2048905647415112,51.56482937898171
Wheatsheaf,6 Windus Road,Stoke Newington,Hackney,-0.0711918288678983,51.5658168727393
Flannery's Bar,610-612 High Road,Wembley,Brent,-0.2997896379451409,51.55219433282024
Rosendale,65 Rosendale Road,Dulwich,Lambeth,-0.0946444855290679,51.436822083547895
Draft House Northcote,94 Northcote Road,Battersea,Wandsworth,-0.1659790491213983,51.45733952046909
Chiquito,1 The Old Dairy,South Ruislip,Hillingdon,-0.4000571786279249,51.55907115331028
Black Lion,"58, Brighton Road",Surbiton,Kingston upon Thames,-0.3103665053014808,51.391920446371536
Estrela Bar,111-115 South Lambeth Rd,South Lambeth,Lambeth,-0.1233070582539492,51.47926291715204
Steam Passage Tavern,44 Upper Street,London,Islington,-0.1051037367470915,51.53481511531683
Pilots,Terminal 3 Airside Level 1,Heathrow Airport,Hillingdon,-0.4582624693316282,51.47083620968938
Ealing Park Tavern,222 South Ealing Road,South Ealing,Ealing,-0.3060236707311224,51.4958207147719
Backyard Bar & Kitchen,231 Cambridge Heath Rd,Bethnal Green,Tower Hamlets,-0.0557439873038729,51.52675854409311
Salmon & Ball,502 Bethnal Green Road,Bethnal Green,Tower Hamlets,-0.0572455814916214,51.52704423321393
Lore of the Land,4 Conway Street,London,Camden,-0.1396087586277292,51.5220851295593
Fox,Coulsdon Corner Fox Lane,Coulsdon,Croydon,-0.1088433372915158,51.29595442361849
Apple Tree,45 Mount Pleasant,London,Camden,-0.1121790221966424,51.5234275095152
Swan,789 Harrow Road,Sudbury,Brent,-0.3171823913926431,51.55579920177392
Barge House,46 De Beauvoir Crescent,London,Hackney,-0.0808493183669703,51.537244123417466
Skylark,34-36 South End,Croydon,Croydon,-0.0992486913806189,51.36573714806905
Hercules Pillars,18 Great Queen Street,London,Camden,-0.1207294009040556,51.51602886346584
Curzon Cinema,99 Shaftesbury Avenue,London,City of Westminster,-0.1304610772595571,51.51279410423693
Three Tuns,1 Portman Mews South,London,City of Westminster,-0.1559433276236148,51.5145373930248
Bull Inn,Main Road,St Paul's Cray,Bromley,0.117715051493822,51.40390511796747
Three Greyhounds,25 Greek Street,London,City of Westminster,-0.130275772026786,51.51344761970889
Queen's Head,144 Stockwell Road,Stockwell,Lambeth,-0.1178031384326393,51.46707054423221
Dovetail,9 Jerusalem Passage,London,Islington,-0.1039717940557057,51.5231962297053
Mulberry Bush,89 Upper Ground,London,Lambeth,-0.1102568697539604,51.507533328523294
Brown Dog,28 Cross Street,Barnes,Richmond upon Thames,-0.2521127935878078,51.469490805331134
Old Tigers Head,351 Lee High Road,Lee,Lewisham,0.0091769135960581,51.45739969012416
Slatterys,69 Camden Road,London,Camden,-0.138054073857657,51.54251888707018
Ryan's N16,181 Stoke Newington Church Street,Stoke Newington,Hackney,-0.0827581662235624,51.56114167713682
Coach & Horses,862 High Road,Tottenham,Haringey,-0.0678017349105043,51.60699174399908
Bierschenke,"4 London Wall Buildings, Blomfield Street",London,City and County of the City of London,-0.0853109935177548,51.51718259847053
California,267 Brighton Road,Belmont,Sutton,-0.1976942008205196,51.34384819188669
Bricklayers Arms,31 Gresse Street,London,Camden,-0.1333998261395764,51.51775992086964
Forest Tavern,173 Forest Lane,Forest Gate,Newham,0.0221845925153881,51.54936169804618
Royal Forest Hotel,4 Rangers Road,Chingford,Waltham Forest,0.017568639221478,51.63441195864806
Bulls Head,39 Laud Street,Croydon,Croydon,-0.1009832407787295,51.369650236307706
TJ's Sports Bar,108 High Street,Wealdstone,Harrow,-0.3352045760001753,51.59634195780817
Corner Pin,10 Summerstown,Summerstown,Wandsworth,-0.1859476704669964,51.43328855549221
Pawleyne Arms,156 High Street,Penge,Bromley,-0.0521291772057982,51.41411727195139
Case Is Altered,Old Redding,Harrow Weald,Harrow,-0.3477701493418498,51.62047565699497
Railway,390 Oldfield Lane North,Greenford,Ealing,-0.344901533766219,51.5432530466811
Saxon King,198 Petersfield Ave / St Neots,Harold Hill,Havering,0.2370680602562451,51.60366327118979
Players Bar & Kitchen,Villiers Street,London,City of Westminster,-0.1240969616492148,51.50808821807976
Chalkpit,"The High Parade, 20-21 Streatham High Rd",Streatham,Lambeth,-0.1278419394518334,51.434605462012655
Guildford Arms,55 Guildford Grove,Greenwich,Greenwich,-0.0162360212277211,51.474181282293074
Sutton Arms,16 Great Sutton Street,London,Islington,-0.100347715532851,51.52333542642986
Tapestry Tapas Bar,"1 Lower Richmond Road, London",Mortlake,Richmond upon Thames,-0.2690152180889054,51.46913884309719
Royal Oak,355 Kennington Lane,Kennington,Lambeth,-0.1193204459855645,51.48620434989746
Gloucester,187 Sloane Street,London,Kensington and Chelsea,-0.1594428373365443,51.499952254900144
indiebeer,322 Holloway Road,Holloway,Islington,-0.1146568438689639,51.5548608286567
Powerleague Wembley,"Yellow Car Park, Engineers Way",Wembley,Brent,-0.2780793898038013,51.55873926412893
Mitre,81 Dawes Road,Fulham,Hammersmith and Fulham,-0.2036445787903376,51.48021528193557
Crown Rivers,Terminal 5 Airside Level 1,Heathrow Airport,Hillingdon,-0.4872391389773695,51.47149256514529
White Haus,17 Farringdon Street,Farringdon,City and County of the City of London,-0.1043415367965268,51.51568426254168
Horse & Groom,128 Great Portland Street,London,City of Westminster,-0.1423804317603571,51.51986289137757
Planet Hollywood,57-60 Haymarket,London,City of Westminster,-0.1324749411157703,51.50901326854248
Perseverance,11 Shroton Street,London,City of Westminster,-0.1666317323039741,51.52257352106738
Hollydale Tavern,115 Hollydale Road,Peckham,Southwark,-0.0559857032955153,51.468966090040645
Golden Fleece,166 Capel Road,Manor Park,Newham,0.0450818291661224,51.554665765560095
Hangar,37 The Oval,Sidcup,Bexley,0.1024386076549569,51.44511650639186
Market Porter,9 Stoney Street,London,Southwark,-0.091048149064845,51.50510896855376
White Hart,96 Church Road,Upper Norwood,Croydon,-0.0808402592838895,51.41773873294591
Biagio @ Bankside,32 Southwark Bridge Road,London,Southwark,-0.0955743384848373,51.506108805388784
Square Tavern,"26 Tolmers Square,",London,Camden,-0.1374176953573032,51.52632189916264
Cavendish Arms,128 Hartington Road,South Lambeth,Lambeth,-0.127666751427365,51.47654488071828
Ship,11 Talbot Court,City of London,City and County of the City of London,-0.084775623905908,51.5110498197513
Piano Works,113-117 Farringdon Road,London,Islington,-0.1110536206422488,51.52554067502192
Wood House,39 Sydenham Hill,Sydenham,Southwark,-0.0727449585344829,51.43274082332287
Rose & Crown,"55 High Street, Wimbledon Village",Wimbledon,Merton,-0.220570878589626,51.42604027849203
Forest Road Brewery Taproom,1348 Netil Road,South Hackney,Hackney,-0.0590062888920025,51.53750473456385
Lordship,211 Lordship Lane,East Dulwich,Southwark,-0.0767049482805986,51.45491942265435
Greyhound [Harvester],900 High Road,Chadwell Heath,Redbridge,0.1204528800173844,51.56857020227943
Haggerston,438 Kingsland Road,Hackney,Hackney,-0.0759389655027453,51.54152491603893
Three Magpies,Bath Road,Heathrow,Hillingdon,-0.4508464116081243,51.48107079437416
Nambucca,596 Holloway Road,Holloway,Islington,-0.1227387619418693,51.55967562930524
Callaghans Sports Bar,Coram Street,London,Camden,-0.1249748737565953,51.52390249848964
Union,88-90 George Street,London,City of Westminster,-0.156938795055051,51.51736774806346
Charcoal,299 Main Road,Sidcup,Bexley,0.0857675128473858,51.43045906445813
Cask Pub & Kitchen,6 Charlwood Street,London,City of Westminster,-0.1372846427694419,51.49108632594291
Wine Lodge,145 Fenchurch Street,London,City and County of the City of London,-0.0824869721220618,51.5116688599998
Riding House Cafe,43-51 Great Titchfield Street,London,City of Westminster,-0.1406978412810527,51.51835243734404
Victoria & Albert Bars,Marylebone Station,London,City of Westminster,-0.162978238022441,51.52309189581313
British Oak,109 Old Dover Road,Kidbrooke,Greenwich,0.0261323222067122,51.476217818698686
Mother Kelly's,"Arch 76, 89 Albert Embankment",London,Lambeth,-0.1237137025517426,51.48795635752326
White Hart,106 High St,Orpington,Bromley,0.1025064703396096,51.37953032628271
Gipsy Moth,60 Greenwich Church Street,Greenwich,Greenwich,-0.0098174540667289,51.48169848868972
Four Sisters,25 Canonbury Lane,London,Islington,-0.1020658275514162,51.54302123623179
Prince of Wales,154 Mottingham Road,Mottingham,Bromley,0.0477256299405079,51.433576097855656
Craft Beer Co.,29-31 Mitre Street,Aldgate,City and County of the City of London,-0.0784962497404225,51.513689798841725
Afrikiko,871 Old Kent Road,Peckham,Southwark,-0.0567711484164304,51.47995942948503
Fentiman Arms,64 Fentiman Road,South Lambeth,Lambeth,-0.1188918977139354,51.48121552653917
Bird in Hand,62 Gravel Road,Bromley Common,Bromley,0.0426699132711901,51.37438391199831
Danson Stables,Danson Park,Bexleyheath,Bexley,0.1226055635498095,51.45576942101755
Queen's Head,31 High Street,Pinner,Harrow,-0.3808584211140064,51.59431019465816
King's Arms,425 New Kings Road,Fulham,Hammersmith and Fulham,-0.2098516627759135,51.46917725046902
Old Red Lion,72 High Holborn,London,Camden,-0.1171285260422448,51.51806643511002
Perry Hill,78-80 Perry Hill,Catford,Lewisham,-0.0350338159976289,51.4351630147407
Red Lion,10 North Road,Bromley,Bromley,0.0218797492195632,51.40997747824189
Hop Poles,320 Baker Street,Enfield,Enfield,-0.0769679521199763,51.66342662343894
Beehive,"333 Staines Road, Feltham",Bedfont,Hounslow,-0.4197168120078964,51.45543997339141
Bankers Draft,80 Eltham High Street,Eltham,Greenwich,0.0532618139116694,51.4505118311594
Durell Arms,704 Fulham Road,Fulham,Hammersmith and Fulham,-0.2078533767755565,51.47387690179769
Dr Butlers Head,Mason's Avenue,London,City and County of the City of London,-0.0902873721418066,51.51571701136704
Anglesey Arms,90 Palace Road,Bromley,Bromley,0.0208942299546135,51.408825391898354
Abbey Tap,14 The Broadway,Stratford,Newham,0.00034745050011,51.54048290972626
Burdock,"Montcalm Royal London House Hotel, 22-25 Finsbury Square",London,Islington,-0.0856713433318533,51.52164885791189
Ace Cafe London,"Ace Corner, North Circular Road",Stonebridge,Brent,-0.2786397494961942,51.54045671459321
Compton Cross,2 Old Compton Street,London,City of Westminster,-0.1300605074425183,51.51377691920806
Star,Leatherhead Road,Leatherhead Common,Kingston upon Thames,-0.3274013978987725,51.32715751096081
eEbria Taproom,15 Almond Road,Bermondsey (East),Southwark,-0.059540772225285,51.49172302493058
Brewers Inn,147 East Hill,Wandsworth,Wandsworth,-0.1883670604949258,51.45686909114724
Roebuck,50 Great Dover Street,London,Southwark,-0.0907042863752689,51.49816994777829
Duchess Of Kent,72 Prebend Street,London,Islington,-0.093214130599098,51.53776973763564
London Wall (Bar & Kitchen),150 London Wall,London,City and County of the City of London,-0.0960666931222727,51.5177983976545
J J Moons,551 - 553 Kingsbury Road,Kingsbury,Brent,-0.2803928895189927,51.58459009277952
Stewart Arms,26 Norland Road,Notting Hill,Kensington and Chelsea,-0.2160858177191024,51.5057194417272
Basing House,25 Kingsland Road,Bethnal Green,Hackney,-0.0781776434263584,51.52844155359336
Crocker's Folly,24 Aberdeen Place,St John's Wood,City of Westminster,-0.1754636754248002,51.52557088124004
Cock & Lion,62 Wigmore Street,London,City of Westminster,-0.1497870976379397,51.51636488562712
Beech Tree,75 Wellington Road,St Mary Cray,Bromley,0.1112420374048779,51.38479564386403
Park Tavern,212 Merton Road,Wandsworth,Wandsworth,-0.1989657323931219,51.45090821215898
Royal Oak,54 Charlton Lane,Charlton,Greenwich,0.0391663765468609,51.48786233236974
Red Lion,6 Red Lion Place,Woolwich,Greenwich,0.0602444497467383,51.47069513850531
Rabbit Hole,151-153 Greyhound Lane,Streatham,Lambeth,-0.1295987630451883,51.4218817680881
Fox Inn,Heathfield Road,Keston,Bromley,0.0273100414787619,51.361359436427314
Northumberland Arms,119 Tottenham Court Road,London,Camden,-0.1373071669992168,51.5233795274434
Nags Head,10 James Street,London,City of Westminster,-0.1237069509292951,51.51301899508324
Parish,120 Wembley Park Drive,Wembley,Brent,-0.2831161424256857,51.56175353914475
Sir Sydney Smith,22 Dock Street,London,Tower Hamlets,-0.0684665138182196,51.50990983934172
Hung Drawn & Quartered,26-27 Great Tower Street,London,City and County of the City of London,-0.0809998950028026,51.50967511330472
Bowler,32 Bowling Green Lane,London,Islington,-0.1079710038624594,51.524438847193935
Warwick Castle,6 Warwick Place,Maida Vale,City of Westminster,-0.183732448396697,51.5221021355836
Simmons,7 Camden High Street,London,Camden,-0.1392700827406099,51.534984298142206
Brigadiers,1-5 Bloomberg Arcade,Cannon Street,City and County of the City of London,-0.0914304002780146,51.51216550539864
Crown & Greyhound,73 Dulwich Village,Dulwich,Southwark,-0.0848210487780289,51.44877534062756
Craft Beer Co.,576 Commercial Road,Limehouse,Tower Hamlets,-0.0401764526849262,51.51260584936271
Belgo,242 The Glades,Bromley,Bromley,0.0356368075582628,51.40373227354228
Blakesley Arms,53 Station Road,Manor Park,Newham,0.0468641832690207,51.55163105297012
Dublin Castle,94 Parkway,London,Camden,-0.145674275395407,51.53741479298039
Fleet Place,1 Fleet Place,London,City and County of the City of London,-0.1035697822405915,51.51622034899221
Victoria,68-70 Page's Walk,London,Southwark,-0.0806973914781175,51.4945893179711
Castle,34-35 Cowcross Street,London,Islington,-0.1042239165255848,51.52025068375681
Graces (Bar & Grill),1-3 Witham Rd,Birkbeck,Bromley,-0.0568184472065847,51.40391634552823
Lamplighter,66 Staines Road,Hounslow,Hounslow,-0.3693167324006771,51.466988438834846
Hamlet,10 Streatham High Road,Streatham,Lambeth,-0.1276473422182412,51.43760594528308
Albert Tavern,65 Harrington Road,South Norwood,Croydon,-0.0669217321758972,51.397204242605895
George Staples,273 Blackfen Road,Blackfen,Bexley,0.1005882205317304,51.45120194053276
Lemon Tree,4 Bedfordbury,London,City of Westminster,-0.1257358012925063,51.509939942406
Cherry Tree,Wood Lane,Dagenham,Barking and Dagenham,0.1346130287498719,51.552630161651145
Windmill,50 High Street,Acton,Ealing,-0.266047241835661,51.50678317896934
Junction,70 Station Road,Upminster,Havering,0.2504139581018629,51.5583802025802
Sussex Arms,15 Staines Road,Twickenham,Richmond upon Thames,-0.3460585988687264,51.4440738300904
Reliance,336 Old Street,London,Hackney,-0.0815854909969484,51.52659995755643
Old Rose & Crown,1 Crooms Hill,Greenwich,Greenwich,-0.0076865551503729,51.47871263753628
Coach & Horses,42 Wellington Street,London,City of Westminster,-0.1206473399023738,51.51242145787959
Lansdowne,"90 Gloucester Avenue,",London,Camden,-0.1540913219742156,51.54179205415582
Greenwich Yacht Club,"Pear Tree Wharf, 1 Pear Tree Way",Greenwich,Greenwich,0.0186010131803475,51.495448422070815
Islington Cafe Bar,1 Tolpuddle Street,London,Islington,-0.1111725863545863,51.53415762056804
White Hart,2 Eltham High Street,Eltham,Greenwich,0.0494896757834504,51.45112643599372
Bootlaces,596 Lea Bridge Road,Leyton,Waltham Forest,-0.0137644137736244,51.574400180687554
Bolingbroke,174 Northcote Rd.,Battersea,Wandsworth,-0.1640355220293448,51.453756964678966
Waterfront,"Baltimore House, Juniper Drive, Battersea Reach",Wandsworth,Wandsworth,-0.1854124330347286,51.464224461283386
Chequers,145 High Street,Walthamstow,Waltham Forest,-0.0255513790773804,51.583825363754855
Caravan,11-13 Exmouth Street,London,Islington,-0.1100000803063458,51.52556866984963
Patch Bar,58-60 Carter Street,London,City and County of the City of London,-0.1016016302002673,51.51329283861646
Vineyard,178-179 Upper Street,London,Islington,-0.1031297963442468,51.54136582705793
Coach & Horses,178 Stoke Newington High Street,Stoke Newington,Hackney,-0.0735477835712749,51.561278371870095
Brewhouse & Kitchen,397-400 Geffrye Street,Bethnal Green,Hackney,-0.0753617394658303,51.53230709596736
Tankard,111 Kennington Road,Kennington,Lambeth,-0.1104772167190194,51.494200619124754
York Arms,310 Oakleigh Road North,Whetstone,Barnet,-0.1588411848679254,51.62521775659496
Whippet Inn,64-66 Chamberlayne Road,Kensal Rise,Brent,-0.2180148834206084,51.53233992198701
London Beer Dispensary,389 Brockley Road,Brockley,Lewisham,-0.0371091308362498,51.4545504818409
Everest Lounge,60 Peel Road,Wealdstone,Harrow,-0.3317612259402557,51.594170802473
Victoria,451 Queensbridge Road,Hackney,Hackney,-0.0702052748009972,51.54479379465919
Piccolino,11 Exchange Square,London,City and County of the City of London,-0.0816528601279912,51.52019827419248
Greenwich Tavern,1 King William Walk,Greenwich,Greenwich,-0.0077283881778395,51.48039501723382
Coach & Horses,391 High Road,Leyton,Waltham Forest,-0.0101786011391494,51.56100335448512
182,182-184 Preston Road,Wembley,Brent,-0.2945376390629349,51.57037283590196
Cutty Sark,4-6 Ballast Quay,Greenwich,Greenwich,4.242099118886996e-05,51.48650379189672
Pannas,"City Pavillion (Upstairs), Collier Row Road",Collier Row (Romford),Barking and Dagenham,0.1474794624341583,51.59548079899458
Hare & Hounds,325 Purley Way,Croydon,Croydon,-0.1171398191871229,51.37225805026118
Five Bells,High Street,Harmondsworth,Hillingdon,-0.4781988960105055,51.48917154362936
Shambles Bar & Restaurant,83 High Street,Teddington,Richmond upon Thames,-0.3295725716978354,51.42737499503741
Albany,240 Great Portland Street,London,City of Westminster,-0.1438829601634755,51.523321886176994
Freemasons Arms,32 Downshire Hill,Hampstead,Camden,-0.1695087562343615,51.556493646690775
Green,172-174 Uxbridge Road,Shepherds Bush,Hammersmith and Fulham,-0.2255055807968494,51.50545763833666
Beehive,197 St Johns Hill,Battersea,Wandsworth,-0.178417506214356,51.45983549555952
26 Furnival Street,26 Furnival Street,London,City and County of the City of London,-0.1102795202772621,51.5167332966757
Castle,280 Crystal Palace Road,East Dulwich,Southwark,-0.0742387390808157,51.45127276846144
Boisdale,12 North Row,London,City of Westminster,-0.157052236657792,51.51277426911591
O'Neill's,27-29 East St,Bromley,Bromley,0.0156686453574164,51.406730085334
Birds,692 High Road,Leytonstone,Waltham Forest,0.0115513435632008,51.56858210345774
Olde Red Lion,17 Park Road,Cheam,Sutton,-0.2162974109454504,51.35952866140346
St James's Cafe,St James's Park,London,City of Westminster,-0.1301835919817243,51.50303257132818
Andover Arms,57 Aldensley Road,Hammersmith,Hammersmith and Fulham,-0.2327851238376444,51.49682669927619
Cask & Glass,39 Palace Street,London,City of Westminster,-0.1402643500513998,51.49857059050034
Old George,379 Bethnal Green Road,Bethnal Green,Tower Hamlets,-0.0595039948360324,51.52716258887851
Queen Elizabeth,58 Bagley Lane,Fulham,Hammersmith and Fulham,-0.1887183713873712,51.47454517853484
Dogstar,389 Coldharbour Lane,Brixton,Lambeth,-0.1122666945253602,51.46167575768152
Station 31,299-301 Harrow Road,Wembley,Brent,-0.2852769012384194,51.55263074821336
Blacksmith's Arms,Cudham Lane South,Cudham,Bromley,0.0741062266036546,51.31768762391994
Willow Farm (Table Table),New Road,Wennington,Havering,0.2260767924378788,51.50667569642538
Bush Theatre Library Bar,7 Uxbridge Rd,Shepherds Bush,Hammersmith and Fulham,-0.2254503430222903,51.50502515702164
South Beats,282 High Street,Croydon,Croydon,-0.0994546250971756,51.36805167963892
Angel,3-5 Islington High Street,London,Islington,-0.1065479122675697,51.53232947731802
George,29 Hayes Street,Hayes,Bromley,0.0183130302880549,51.37989558609414
Triple Crown,15 Kew Foot Road,Richmond,Richmond upon Thames,-0.3018011232870643,51.46560737197021
Gordon Arms,47 Park Road,Chislehurst,Bromley,0.0686235772205971,51.419108183327296
Red Lion,"2 Castelnau, London",Barnes,Richmond upon Thames,-0.2382510248963453,51.47687327426286
Three Compasses,99 Dalston Lane,Hackney,Hackney,-0.067904185955679,51.548388889877074
Royal Sovereign,64 Northwold Road,Clapton,Hackney,-0.0624372789795938,51.56266895071565
Baxters Court,282-284 Mare Street,Hackney,Hackney,-0.0549504804533086,51.54503625614922
Flight Club,6 Sir Simon Milton Square,London,City of Westminster,-0.1437552375084095,51.49740288423489
Coal Hole,91-92 Strand,London,City of Westminster,-0.1214876274691683,51.51021370899672
All Bar One,19 Henrietta Street,London,City of Westminster,-0.1242476148660124,51.510734493078566
Sutton Arms,14/16 Station Lane,Hornchurch,Havering,0.2205317328944419,51.56127876733197
York,82 Islington High Street,London,Islington,-0.1055075759723101,51.53307705871038
Beer Asylum,"No. 1 Red Lion Parade, Bridge Street",Pinner,Harrow,-0.3825407197759533,51.59450426040432
Firefly,"3 Station Parade, Balham High Rd",Balham,Wandsworth,-0.1533849404594099,51.44232180694127
Prince of Greenwich,72 Royal Hill,Greenwich,Greenwich,-0.0098263252004681,51.47653672363711
Stockton,2 Deptford High Street,Deptford,Lewisham,-0.0255064169951713,51.475587832538274
Sydney Arms,70 Sydney Street,Chelsea,Kensington and Chelsea,-0.1692513899473279,51.48853218678443
Plumbers Arms,14 Lower Belgrave Street,London,City of Westminster,-0.1478971273837102,51.496874846882726
Pommelers Rest,196-198 Tower Bridge Road,London,Southwark,-0.0770543451213015,51.50241625724072
All Bar One,48 Leicester Square,London,City of Westminster,-0.1309629808339202,51.51039205176332
Fox,39 Church Street,Twickenham,Richmond upon Thames,-0.3270701704952122,51.44664582885849
Willoughby Arms,47 Willoughby Road,Kingston,Kingston upon Thames,-0.2921101294245852,51.41552244458777
Draft House Farringdon,55 Charterhouse Street,London,Islington,-0.1037028345742017,51.51926205252328
Woodhouse,230 Woodhouse Road,North Finchley,Barnet,-0.1627627338905178,51.61147598213212
Clery's Clock Bar,225 - 227 Edgware Road,Kingsbury,Brent,-0.25282076170665,51.58838307719603
Brew Club Tap Room,"Unit 9, Tram Depot, 38-40 Upper Clapton Road",Clapton,Hackney,-0.0554991350903759,51.55991923871824
Blue Eyed Maid,173 Borough High Street,London,Southwark,-0.0917620019633111,51.50285440964634
Simmons,374 North End Road,Fulham,Hammersmith and Fulham,-0.1994126854265437,51.48125647948551
Chandos,29 St. Martins Lane,London,City of Westminster,-0.1266837386038429,51.5100180346573
Prince Regent,81 Salmon Lane,Poplar,Tower Hamlets,-0.0365328636805527,51.51421757227065
Hare & Hounds,229 Ruislip Road,Greenford,Ealing,-0.3671296171816653,51.531847490846125
Oyster Rooms,"Unit 3, First Floor, Fulham Broadway Shopping Centre",Fulham,Hammersmith and Fulham,-0.1965080981683858,51.48004280958558
Franklins,157 Lordship Lane,East Dulwich,Southwark,-0.0758639607708646,51.45609267502325
Blue Posts,18 Kingly Street,London,City of Westminster,-0.1398673218783808,51.51326738348226
Exmouth Arms,23 Exmouth Market,Clerkenwell,Islington,-0.1089692713593892,51.52609162143978
Drayton Park,66 Drayton Park,Highbury,Islington,-0.1048988154503336,51.5539750599244
Clock House,196a Peckham Rye,East Dulwich,Southwark,-0.0664850160869985,51.45969730450294
Rambles,207 Lee High Road,Lewisham,Lewisham,0.0045059714882758,51.45888248431325
Three Compasses,62 High Street,Hornsey,Haringey,-0.1194469228871427,51.587373668695726
Duchy Arms,63 Sancroft Street,Kennington,Lambeth,-0.1128572009436127,51.48889725816594
Manor,196 Tooting High Street,Tooting,Wandsworth,-0.172169959335557,51.42414472348789
Windsor Castle,3 Lanark Place,Maida Vale,City of Westminster,-0.1788558145425095,51.52546172174378
Swan,"1 Evershed Walk, 119 Acton Lane",Acton Green,Ealing,-0.2656068253902408,51.49789201546977
Drake & Morgan (Kings Cross),6 Pancras Square,London,Camden,-0.1250425457582237,51.53348084568618
Tarragon,43 Lavender Hill,Battersea,Wandsworth,-0.1517669898100553,51.46601012580687
Sloe Bar & Cafe,Victoria Main Line Station Platforms 14-15,London,City of Westminster,-0.1443293284531723,51.49497494321386
Chelsea Potter,119 Kings Road,Chelsea,Kensington and Chelsea,-0.1660448204877476,51.48839216039996
Thirsty Scholar,1 Park Crescent,London,City of Westminster,-0.1444094090223319,51.5234920830309
Bow Bells,116 Bow Road,Bow,Tower Hamlets,-0.0203020823412797,51.527883613431165
Sydney Arms,Old Perry Street,Chislehurst,Bromley,0.0866915838382633,51.415073685462005
Candlemaker,"Walbrook Building, 99 Cannon Street",London,City and County of the City of London,-0.0902667152032445,51.511732893837824
Prince of Wales,38 Old Town,Clapham,Lambeth,-0.1417354685189703,51.464151962894704
Winsor House,Winsor Terrace,East Ham,Newham,0.0674114351830956,51.5151736298269
Crown,210 Chiswick High Road,Chiswick,Hounslow,-0.2581796008745085,51.49280009215258
Thirsty Bear,62 Stamford Street,London,Southwark,-0.1077467737295718,51.50725005794747
Prince of Wales,8 Kensington Church Street,Kensington,Kensington and Chelsea,-0.1908216154190809,51.50254475695375
Duke of Cambridge,228 Battersea Bridge Road,Battersea,Wandsworth,-0.1659586279209117,51.472581754853366
Beech House,92 High Street,Hampton Hill,Richmond upon Thames,-0.3548704607861081,51.42750819198143
Signal,7 Devonshire Road,Forest Hill,Lewisham,-0.0539462122632794,51.43939954314976
Copper Cow,2 Fauconberg Road,Chiswick,Hounslow,-0.2714095843205448,51.486557017008494
Long Pond,110 Westmount Road,Eltham,Greenwich,0.0595255054330126,51.45729043483392
Ice Wharf,28 Jamestown Road,London,Camden,-0.1474218937982387,51.5401851698214
Pratts & Payne,103 Streatham High Road,Streatham,Lambeth,-0.1300658695858234,51.42982085184368
Festival Square,"Basement, Royal Festival Hall, Belvedere Road",London,Lambeth,-0.1168000037103364,51.50576806771635
Pipe Major,1 Yewtree Avenue / Rainham Road South,Dagenham,Barking and Dagenham,0.165755505327915,51.54590858198748
Red House,299 Barking Road,Plaistow,Newham,0.0178424981673082,51.52032692565204
Beehive,104 Empson Street,Bow,Tower Hamlets,-0.0123924329363756,51.52180570070976
Watchman,184 High Street,New Malden,Kingston upon Thames,-0.2551994914503802,51.39910656019209
Lazy Bones,"Unit 5, 19-25 Cowcross Street",London,Islington,-0.1036901908006584,51.52026004314818
Huntsman & Hounds,70 Elsted Street,Walworth,Southwark,-0.0862544106651335,51.49021075043604
Brasserie Blanc,"Goldhurst House, Parr's Way",Hammersmith,Hammersmith and Fulham,-0.2263413934369497,51.48727818732696
Bridge Lounge,186 Tooley Street,London,Southwark,-0.0794598179107532,51.503121164080994
Windsor Castle,"The Walks, off Church Lane, London",East Finchley,Barnet,-0.1711380894536083,51.59355003927634
Bedford Arms,204 Dawes Rd,Fulham,Hammersmith and Fulham,-0.2093501620146665,51.481255742431095
Highgate,385 Archway Road,Highgate,Haringey,-0.1489885728580085,51.578329305565205
Railway Bell,14 Cawnpore Street,Gipsy Hill,Lambeth,-0.082734811396766,51.42264387350132
Pig & Butcher,80 Liverpool Road,London,Islington,-0.1064879159504556,51.53724750498933
O'Neill's,Station Road,Ilford,Redbridge,0.0712559984726691,51.55925145509396
King & Queen,1-2 Foley Street,London,City of Westminster,-0.1387349660132146,51.52018279989407
Sun Inn,17 Parkshot,Richmond,Richmond upon Thames,-0.3028946761122861,51.46329412813349
Chancery,90 Bromley Road,Beckenham,Bromley,-0.0179978702278738,51.40691739600975
Duke of York,107 Devonshire Road,Chiswick,Hounslow,-0.2551418577615161,51.4901111122802
Simmons,32 Caledonian Road,London,Islington,-0.120614280856445,51.53177332222713
Railway Tavern,38 Bexley High Street,Bexley,Bexley,0.1490877289485956,51.44130283270746
K K Mccools,265 West Green Road,South Tottenham,Haringey,-0.0889038265604639,51.58628632060334
Artillery Arms,102 Bunhill Row,London,Islington,-0.0902652860825907,51.52347736115049
Castle,15 Grosvenor Rise East,Walthamstow,Waltham Forest,-0.0109772957064508,51.58072859417592
Elephants Head,43 Lower Clapton Road,Clapton,Hackney,-0.0527537254674846,51.5508899940714
White Mustache,"7 Stanhope Parade, Stanhope Street",London,Camden,-0.140581019931212,51.53076951468794
Haunt,182 Stoke Newington Road,Stoke Newington,Hackney,-0.0742222808863852,51.556235588716966
Princess Of Wales,22 Chalcot Road,London,Camden,-0.1537200944757622,51.54027544372922
Flask,14 Flask Walk,Hampstead,Camden,-0.1769399977724366,51.55680717742022
Harrow,269-271 Station Road,Harrow,Harrow,-0.3320657037103102,51.58310536224066
Metropolitan Bar,"7 Station Approach, Marylebone Road",London,City of Westminster,-0.1559992193254057,51.52278455982761
Ashburnham Arms,25 Ashburnham Grove,Greenwich,Greenwich,-0.0162801275402041,51.47581873368879
Kings Arms,11a Buckfast Street,Bethnal Green,Tower Hamlets,-0.0662551127488165,51.5253677865468
Clissold Park Tavern,177 Green Lanes,Stoke Newington,Islington,-0.0906309345727589,51.55642321086832
New Cross Turnpike,55 Bellegrove Road,Welling,Bexley,0.1043898211156548,51.462815590867926
Swan,22 High Street,Hampton Wick,Richmond upon Thames,-0.3110309974745299,51.41292814931983
Liberty Bell (Beefeater),Mercury Gardens / Western Road,Romford,Havering,0.1865858194055581,51.577879219852456
Olde Black Bull,13 Broadway,Stratford,Newham,0.0026311019390842,51.54092952378111
Ku Bar,25 Frith Street,London,City of Westminster,-0.1309962367786148,51.51309939216855
Satay Bar,447 Coldharbour Lane,Brixton,Lambeth,-0.1144228489098977,51.46140471169311
Belushi's,28 Hammersmith Broadway,Hammersmith,Hammersmith and Fulham,-0.2243002772754927,51.4934702126128
Crooked Billet,84 Upper Clapton Road,Clapton,Hackney,-0.0569141873207814,51.56124663487852
Clapham Tap,128 Clapham Manor Street,Clapham,Lambeth,-0.1356168692508794,51.46450446818275
Queens Arms,1 Kilburn High Road,London,City of Westminster,-0.1901382600846048,51.53504261209336
Alma,10 Alma Road,Sidcup,Bexley,0.1033243023467555,51.432141723200616
Cads,34 Norfolk Place,Paddington,City of Westminster,-0.1719464638819215,51.51620872458235
Sir Richard Steele,97 Haverstock Hill,London,Camden,-0.1586517037561401,51.54671074837246
Railway Hotel,"Red Lodge Road,",West Wickham,Bromley,-0.0131435877349471,51.38022596702025
Lord Clyde,27 Clennam Street,London,Southwark,-0.095681981644766,51.50283718503231
Davy's,"Unit 8, Plantation Place, Mincing Lane",London,City and County of the City of London,-0.081638286459498,51.51094454549211
Colonies,25 Wilfred Street,London,City of Westminster,-0.1392513403129995,51.49868042092239
Royal Albion,58 Hibernia Road,Hounslow,Hounslow,-0.3689373510062423,51.46430344044175
Bird In Hand,100 Tottenhall Road,Palmers Green,Enfield,-0.1015267333667047,51.61106774152722
Lamb & Flag,24 James Street,London,City of Westminster,-0.1504226301895163,51.51490909975218
Rack & Tenter,Tenter House 45 Moorfields,London,City and County of the City of London,-0.0890060297273463,51.51878063548367
Mrs Fogg's Maritime Club & Distillery,37 Broadgate Circle,London,City and County of the City of London,-0.0837628717939453,51.5186950467637
Gander,2 St. Dunstan's Hill,West Sutton,Sutton,-0.2095999544879943,51.37105391468865
Calthorpe Arms,252 Grays Inn Road,London,Camden,-0.1159620175510566,51.52467536850442
Arab Boy,289 Upper Richmond Road,Putney,Wandsworth,-0.2263141370087196,51.46272774445592
Wandle Arms,90 Waddon New Road,Croydon,Croydon,-0.1082880173928972,51.37403098519846
Elbow Room,503-505 High Road,Tottenham,Haringey,-0.0699870955853523,51.592918619484
Lost & Co,339 Battersea Park Road,Battersea,Wandsworth,-0.1566246484667959,51.47409004560275
Castle,38 Tooting High Street,Tooting,Wandsworth,-0.1674504856651783,51.428855274722224
Wembley Stadium,Olympic Way,Wembley,Brent,-0.2796424507560817,51.55669389865153
Gardeners Arms,119 Park Road,Uxbridge,Hillingdon,-0.4721044406142818,51.54690333116371
Red Lion Hotel,100 High Street,Southall,Ealing,-0.3714083750798559,51.51053211106835
Hemingway's,57 High Street,Wimbledon,Merton,-0.2185918092698489,51.42551562189461
Inn on the Park,Ewell Road,Cheam,Sutton,-0.222217722975726,51.355383116653
Cock Tavern,360 North End Road,Fulham,Hammersmith and Fulham,-0.1994126854265437,51.48125647948551
Lord Stanley,51 Camden Park Road,London,Camden,-0.1297277046086345,51.5472155465029
Optimist Tavern,Little Gaynes Lane / Hacton Lane,Upminster,Havering,0.2338566070554515,51.548768271184656
Jolly Butchers,168 Baker Street,Enfield,Enfield,-0.0798957514411371,51.65949991289553
Ship,3 Hart Street,London,City and County of the City of London,-0.0799263622784525,51.510871544271325
Millbank Lounge,DoubleTree by Hilton Hotel 30 John Islip Street,London,City of Westminster,-0.1269515356376419,51.493304819811705
Lots Road Pub & Dining Rooms,114 Lots Road,Chelsea,Kensington and Chelsea,-0.1836320192187084,51.47825240048622
Rotunda (Bar & Restaurant),"Kings Place, 90 York Wa",London,Islington,-0.121968909358482,51.53424103633967
Earlsfield,511 Garratt Lane,Earlsfield,Wandsworth,-0.1881860995914228,51.44253178892654
Crate Brewery & Pizzeria,"Unit 7, White Building, Queen's Yard, White Post Lane",Hackney Wick,Tower Hamlets,-0.0227393894919707,51.54250186438299
Swan,46 Hammersmith Broadway,Hammersmith,Hammersmith and Fulham,-0.2250639615127582,51.49309508748576
Heads + Tails,175 West End Lane,West Hampstead,Camden,-0.1913924089028024,51.54632069957105
Toolans,866 High Road,North Finchley,Barnet,-0.1763151118912485,51.61892620419423
Mas Q Menos,70 Mark Lane,London,City and County of the City of London,-0.0795989701200002,51.51145969831526
Deuce Lounge,20-22 London Road,Barking,Barking and Dagenham,0.0779294988697936,51.53821629973498
Great Eastern,1 Glenaffric Avenue,Isle of Dogs,Tower Hamlets,-0.0063850130889083,51.488735556526464
Horse & Groom,136 Main Road,Sidcup,Bexley,0.0938763537068589,51.42720286471232
Dog & Duck,18 Bateman Street,London,City of Westminster,-0.1319971945832909,51.51399662296547
Jamies,36 Tudor Street,London,City and County of the City of London,-0.1070319641605377,51.51197771797058
All Bar One,58 Kingsway,London,Camden,-0.1192287880109209,51.51641848027987
Village Inn,66 Boston Road,Hanwell,Ealing,-0.33694261203488,51.50563322628976
Tracks&records,94-98 Middlesex Street,London,Tower Hamlets,-0.0766179412687353,51.51687837259047
Loz Lounge,301 Cricklewood Broadway,Cricklewood,Brent,-0.2195900553518821,51.559953183197706
Jolly Butchers,204 Stoke Newington High Street,London,Hackney,-0.0731763342136899,51.56289993385411
Tabard,2 Bath Road,Chiswick,Hounslow,-0.2534648373600031,51.49592236727413
Fare Bar + Canteen,11 Old Street,Old Street,Islington,-0.0980444510773114,51.52360383258343
Goose,143 South Street,Romford,Havering,0.184015352878315,51.57453676378191
Phoenix,14 Palace Street,London,City of Westminster,-0.1420878220273038,51.49872538898968
Gate,Richmond Hill,Richmond,Richmond upon Thames,-0.2966902858384232,51.45128901821935
Royal Oak,250 St Johns Way,Upper Holloway,Islington,-0.1279528036920446,51.57007334056578
Kings Arms,23 Poland Street,London,City of Westminster,-0.1371375792890153,51.51517548059015
Beer Rebellion,129 Queens Road,Peckham,Southwark,-0.0571267918136712,51.4736253450318
Perseverance,112 Pritchards Road,Bethnal Green,Tower Hamlets,-0.0623628337970246,51.53418807772584
Dove,19 Upper Mall,Hammersmith,Hammersmith and Fulham,-0.2365405729730742,51.49060636072856
Bountiful Cow,51 Eagle Street,London,Camden,-0.1181832761143235,51.518703859136
Tony's Bar,356-360 High Road,Willesden,Brent,-0.2413537858765347,51.54889663602286
Grim's Dyke Hotel,Old Redding,Harrow Weald,Harrow,-0.344025557843951,51.61937074445492
Bergen House,47 Newington Green,Newington Green,Islington,-0.0860184003427337,51.55151890697432
Volunteer,245-247 Baker Street,London,City of Westminster,-0.1585153670701705,51.52366040331332
Beach Road Cafe Bar,23 Hesterman Way,Croydon,Croydon,-0.1245007030490682,51.378122348493775
KuPP,"Unit 53, 5 Merchant Square",Paddington,City of Westminster,-0.1731863945600757,51.51871900839574
Star,2 South Hill Ave,South Harrow,Harrow,-0.3516269554290304,51.56547785722835
Clapton Hart,231 Lower Clapton Road,Clapton,Hackney,-0.0560683126099119,51.556718294423
Faltering Fullback,19 Perth Road,Finsbury Park,Haringey,-0.1085743416663959,51.56865634167803
Chequers,177 Southborough Lane,Bromley,Bromley,0.0451869926146715,51.39025701559228
Duke of Sussex,77 Friary Road,Peckham,Southwark,-0.065369945874446,51.47925638405209
Hungerford Arms,240 Commercial Road,London,Tower Hamlets,-0.0582436530865413,51.5144351474905
Woolpack,98 Bermondsey Street,London,Southwark,-0.0821070267066297,51.5008174113698
McQueen,5561 Tabernacle Street,London,Islington,-0.0858535039052174,51.52417877761204
Prince of Wales,51 St Georges Road,London,Southwark,-0.1046605955723659,51.49585135739984
O'Briens,137 Uxbridge Road,West Ealing,Ealing,-0.3158691221701676,51.51128561973289
Taps,29 Silver Street,Enfield,Enfield,-0.0803767539551879,51.6529073917477
Angel,62 St. Giles High Street,London,Camden,-0.1276848697765235,51.515474621946105
Hanover Arms,326 Kennington Park Road,Kennington,Lambeth,-0.1130546439728184,51.48167029896342
Bonds,11 Dering Street,London,City of Westminster,-0.1458917585607839,51.51397427002736
Balls Brothers (Mark Lane),"2 Minster Court, Mark Lane",London,City and County of the City of London,-0.0807563327848199,51.51066931547907
George,17-21 George Street,Croydon,Croydon,-0.0985706633006132,51.37413452303796
St. James Tavern,45 Great Windmill Street,London,City of Westminster,-0.1341835942355252,51.51092893191467
Moon Under Water,1327 London Road,Norbury,Croydon,-0.1215325281235876,51.40707654968999
Wrong 'Un,234-236 Broadway,Bexleyheath,Bexley,0.1374124547181311,51.457820539354216
Ruislip Social Club,Grosvenor Vale,Ruislip,Hillingdon,-0.4195047913943606,51.56901956513558
Jolly Gardeners,214 Garratt Lane,Earlsfield,Wandsworth,-0.1895592980593567,51.44674363499583
Royal Oak,38 New Road,Brentford,Hounslow,-0.3032930992662124,51.48865912149454
7000 Jars of Beer,1 Crown Passage/ Unit H Crown Arcade,Kingston,Kingston upon Thames,-0.305415645287142,51.40961878344506
Star Of Kings,126 York Way,London,Islington,-0.1219395631408329,51.53670457329718
Whittington Stone,53 Highgate Hill,Upper Holloway,Islington,-0.1387671279951431,51.56744869472972
King George V,645 Cranbrook Road,Gants Hill,Redbridge,0.0708532380688983,51.57833214587689
Riverside,"Hamilton House, 5 St George Wharf",Vauxhall,Lambeth,-0.1261267007575068,51.48566582812531
Rose,123 Snowsfields,London,Southwark,-0.0855364802837369,51.50218641583003
Randall Tavern,"Fieldway, New Addington",Croydon,Croydon,-0.0201940175144548,51.354706776842434
Marquis Of Lorne,49 Dalyell Road,Stockwell,Lambeth,-0.1194176273854426,51.465972355731296
Drayton Court Hotel,2 The Avenue,West Ealing,Ealing,-0.3192735619871636,51.514715586432416
Eltham GPO,4 Passey Place,Eltham,Greenwich,0.0537401567542171,51.44994589062786
Dundee Arms,339 Cambridge Heath Road,Bethnal Green,Tower Hamlets,-0.0561225144431129,51.52903992907918
Coronet,338-346 Holloway Road,London,Islington,-0.1146568438689639,51.5548608286567
Whyte Lyon (Ye Olde),Farnborough Common,Locksbottom,Bromley,0.0572329226241444,51.36396732425988
Windsor,2 New London Street,London,City and County of the City of London,-0.0794340876346588,51.511268149200745
Hour Glass,279-283 Brompton Road,South Kensington,Kensington and Chelsea,-0.1685533756771731,51.49408775493474
Cat & Mutton,76 Broadway Market,Hackney,Hackney,-0.0615832999326986,51.53658518359283
Attic,8 Hanger Green,Ealing,Ealing,-0.2848787568201808,51.52678955034765
Rusty Bucket,11 Court Yard,Eltham,Greenwich,0.0520923647701708,51.45010965414279
Guinea,30 Bruton Place,London,City of Westminster,-0.145000419213891,51.51108251260524
Connolly's,450 Chiswick High Road,Chiswick,Hounslow,-0.2681704491642818,51.49297497716209
Cat's Back,86-88 Point Pleasant,Wandsworth,Wandsworth,-0.199760650319359,51.46180166187121
Phoenix,37 Cavendish Square,London,City of Westminster,-0.1435585815395562,51.51605964397864
Vine,86 Highgate Road,London,Camden,-0.1447781859757928,51.55518812782582
Bag O'Nails,6 Buckingham Palace Road,London,City of Westminster,-0.143085697356523,51.49863327988314
Anchor,165 Lewisham Road,Lewisham,Lewisham,-0.0106737630868814,51.46566972610383
Barrio,30 Acre Lane,Brixton,Lambeth,-0.1174727703205531,51.46110302215718
Grapes,16 Shepherd Market,London,City of Westminster,-0.1463040976422104,51.506660726715744
Namaste Lounge,66 Joel Street,Northwood Hills,Hillingdon,-0.4102007718421733,51.59953132935704
Manor of Walworth,140-142 Walworth Road,Walworth,Southwark,-0.0983913752050268,51.49209881270826
Mawson Arms / Fox & Hounds,110 Chiswick Lane South,Chiswick,Hounslow,-0.2492297343842573,51.48763997934708
Saints & Sinners,482 London Road,Croydon,Croydon,-0.1107792385172668,51.38750633051695
Good Yarn,132 High Street,Uxbridge,Hillingdon,-0.4805422438409898,51.54774135997982
Builders Arms,302 High Street,Stratford,Newham,-0.001756535521065,51.53854039726035
Allegory,"1A Principal Place, Worship Street",London,Hackney,-0.0805275945997157,51.52193342225797
Old Brewery,"The Pepys Building, The Old Royal Naval College",Greenwich,Greenwich,-0.0090216980492913,51.48277311840746
Town Of Ramsgate,62 Wapping High Street,London,Tower Hamlets,-0.0620574950989499,51.5033652980008
Betjeman Arms,"Upper Level Concourse (SE corner), Unit 53, St Pancras International Station,",London,Camden,-0.1261216965841033,51.53142975647243
Genuine Liquorette,"6 Rathbone Place,",London,City of Westminster,-0.1329560398114624,51.51662876859892
Six Bells,211 High Street,Acton,Ealing,-0.2725810908823071,51.50738313584033
Half Moon,93 Lower Richmond Road,Putney,Wandsworth,-0.2201046348439764,51.46729191252553
Big Chill House,257-259 Pentonville Road,London,Camden,-0.1202375388309796,51.53076909275103
Double 6 Sports Bar,125 Wembley Park Drive,Wembley,Brent,-0.281455695202833,51.56216985472943
East Hill,21 Alma Road,Wandsworth,Wandsworth,-0.1857473838957665,51.45868111843521
Jolly Anglers,33 Station Road,Wood Green,Haringey,-0.1115518190436311,51.59675179708516
Timberyard,53-57 London Road,Twickenham,Richmond upon Thames,-0.3294311640548953,51.44819921465854
Lodge Tavern,53 The Mall,Ealing,Ealing,-0.3000360622423018,51.51386302471526
Violet Bar & Grill,97-99 High Street,Edgware,Harrow,-0.2804385549994465,51.61129796902347
Cricketers Inn,"36 Addington Village Road, Addington",Croydon,Croydon,-0.030009167888513,51.35860388990072
Conquering Hero,262 Beulah Hill,Upper Norwood,Croydon,-0.1060480900471162,51.42096380330779
Canton Arms,177 South Lambeth Road,South Lambeth,Lambeth,-0.1228626533739302,51.4767558421696
Cobden Arms,28-30 Camden High Street,London,Camden,-0.1389934720955582,51.53540256890364
Eel Pie,9/11 Church Street,Twickenham,Richmond upon Thames,-0.3270606374860803,51.4469064700915
Slug & Lettuce,4 St Johns Hill,Battersea,Wandsworth,-0.1683250413716282,51.463823940799074
Palmerston,91 Lordship Lane,East Dulwich,Southwark,-0.0747519570949639,51.45857442869618
Hemingford Arms,158 Hemingford Road,London,Islington,-0.1131151913514156,51.54296575586602
Drapers Arms,25 High Street,Ealing,Ealing,-0.3049256018757802,51.51220718513
Craft Beer Co,233 Old Street,London,Hackney,-0.0862744020595197,51.52617303216021
Princess Royal,107 Ealing Road,Brentford,Hounslow,-0.3013264623226344,51.488477788462006
Albion,78 Woolwich Church Street,Woolwich,Greenwich,0.0484641565551342,51.49218761935338
Earl of Lonsdale,277-281 Westbourne Grove,Notting Hill,Kensington and Chelsea,-0.2033812152374486,51.51328617979719
Bishop,27 Lordship Lane,East Dulwich,Southwark,-0.0749288060719041,51.45984532982746
Jolly Farmers,2 Enfield Road,Enfield,Enfield,-0.1077523844450024,51.65476358235109
Celebrations @ Bexley,59 Lion Road,Bexleyheath,Bexley,0.1361646248974489,51.45637743018366
Taproom,163 Upper Street,London,Islington,-0.1029933294828608,51.54083305342915
Grange Tavern,29 The Common,Ealing,Ealing,-0.2978584527334019,51.507716562685424
Manor Arms,13 Mitcham Lane,Streatham,Lambeth,-0.1327887858569992,51.42795781046518
Morgan Arms,43 Morgan Street,Bow,Tower Hamlets,-0.0344764335600501,51.52715957196782
Bokor,77 Kilburn High Road,Kilburn,Brent,-0.193286206937778,51.53747417429029
Anchor,34 Park Street,London,Southwark,-0.0929155666028999,51.50697387120197
Pavilion,"Pavilion Parade, Wood Lane",Shepherds Bush,Hammersmith and Fulham,-0.2276908916548052,51.51857492495647
Kings Arms,190 Fulham Road,Chelsea,Kensington and Chelsea,-0.1809543248544484,51.48619634302621
Telephone Exchange,"London Bridge Hotel, 10-18 London Bridge Street",London,Southwark,-0.0876247259184411,51.504963270897726
Station House,2 Grove Park Road,Chiswick,Hounslow,-0.269277650921323,51.481615559834026
80 - 84 Market Place,80/84 Market Place,Romford,Havering,0.1829509351452477,51.57943078905056
New Inn,2 Allitsen Road,St John's Wood,City of Westminster,-0.1662289569249263,51.53546269420637
Schoolhouse,137-139 St Johns Hill,Battersea,Wandsworth,-0.175674087229851,51.460404362117885
Clapham North,409 Clapham Road,Stockwell,Lambeth,-0.128334174832204,51.466564670425214
Kings Head,33 Moscow Road,Bayswater,City of Westminster,-0.1891486084350514,51.51239287778208
Inn 1888,21a Devonshire Street,London,City of Westminster,-0.1488222639868404,51.52167333630882
Green,29 Clerkenwell Green,London,Islington,-0.1056359207439191,51.52304325893665
Rudds,148 Queen Victoria Street,London,City and County of the City of London,-0.1015149909091294,51.51225726508092
Heist Bank,5 North Wharf Road,Paddington,City of Westminster,-0.1770724637710597,51.51850068977059
Goergio's Sports Bar & Grill,30 St James's Street,Walthamstow,Waltham Forest,-0.0334117522661176,51.58097181108671
Parlez,16 Coulgate Street,Brockley,Lewisham,-0.0372871539935277,51.46415789486792
Cat & Fiddle,162 Rowan Road,West Drayton,Hillingdon,-0.4736586045467498,51.49701673049921
Lamb & Trotter,6 Little Britain,London,City and County of the City of London,-0.0980556092403234,51.51711126010368
Duke of York,45 Harrowby Street,London,City of Westminster,-0.1641831461339213,51.51750832564033
Marlborough,46 Friars Stile Road,Richmond,Richmond upon Thames,-0.2967178130498407,51.45519219426305
Orange,37 Pimlico Road,London,City of Westminster,-0.1529990061167611,51.49041761047987
Archers,194/204 Main Road,Gidea Park,Havering,0.2008907100062192,51.58658658609356
Grosvenor Arms,"Grosvenor Hotel, 101 Buckingham Palace Road",London,City of Westminster,-0.1452108078907024,51.495618377324426
Plough & Harrow,143 Bellegrove Road,Welling,Bexley,0.1004603759693194,51.46346160744864
Imperial Arms,Old Hill,Chislehurst,Bromley,0.0608085687903328,51.40876916789468
Cock Tavern,23 Phoenix Road,London,Camden,-0.1313231446029303,51.53116199458173
Frankie & Benny's,"Unit Fr2, 1st Floor, The Brewery",Romford,Havering,0.1801446889649281,51.57598468304023
Elephant Inn,283 Ballards Lane,North Finchley,Barnet,-0.1797537839778381,51.61132717913642
Loop,13 Dering Street,London,City of Westminster,-0.1454394151231952,51.51411100221432
Barrowboy & Banker,6-8 Borough High Street,London,Southwark,-0.0887710105939303,51.50615101333809
Mayfair Tavern,127 Upper Tooting Road,Tooting,Wandsworth,-0.1637449429638443,51.43193583126728
Caxton Bar & Grill,St. Ermin's Hotel 2 Caxton Street,London,City of Westminster,-0.1339295432080405,51.498811692328175
Shaftesbury,121/123 Kew Road,Richmond,Richmond upon Thames,-0.2987780783043724,51.465986207833296
Angel,11 High Street,Roehampton,Wandsworth,-0.2394695620753239,51.45044405780431
Bunch Of Grapes,207 Brompton Road,Knightsbridge,Kensington and Chelsea,-0.1669258340670329,51.4976683980744
Flag & Whistle,113 Lambeth Road,London,Lambeth,-0.1187055073799128,51.49449476655006
Simmons,31 University Street,London,Camden,-0.1354961198898257,51.52360255320952
Jackalope,43 Weymouth Mews,London,City of Westminster,-0.1462074384722015,51.52004033734538
Browns Bar & Brasserie Old Jewry,8 Old Jewry,London,City and County of the City of London,-0.0908311027758509,51.51408918835905
Golden Lion,25 King Street,London,City of Westminster,-0.1378683746767882,51.50609545083165
Bull,13 North Hill,London,Haringey,-0.1509230080432931,51.57547321253317
Bulls Head,"373 Lonsdale Road, London",Barnes,Richmond upon Thames,-0.2505697815234495,51.47444971012765
Green Man,144a Essex Road,London,Islington,-0.0978545626652862,51.53922101985864
Paradise by Way of Kensal Green,19 Kilburn Lane,North Kensington,Brent,-0.2162379545662156,51.52911155168096
Volunteer,131 Chesnut Road,Tottenham,Haringey,-0.0645512546122806,51.59037405928303
Jobber's Rest,St Mary's Lane,Cranham,Havering,0.2762630919029473,51.55771063424431
Rising Sun,64/68 High Street,Hornchurch,Havering,0.2170088521812821,51.56271234837204
Florence,131-133 Dulwich Road,Herne Hill,Lambeth,-0.1031630343485945,51.45277873899149
Millers,19 Caledonian Road,London,Islington,-0.1211751338650696,51.53145856567272
Summerfield,60 Baring Road,Lee,Lewisham,0.0147574084914038,51.443230138789126
Stag,96 Westbridge Road,Battersea,Wandsworth,-0.1730988034540188,51.47587659869932
Zelman Drinks,5 Station Place,Finsbury Park,Islington,-0.1058497323359068,51.56477252940479
Watch House,198-204 Lewisham High Street,Lewisham,Lewisham,-0.012064928641805,51.45982997349645
Nag's Head,203 High Road,Wood Green,Haringey,-0.1101551004278748,51.597008062118284
Old Pack Horse,434 Chiswick High Road,Chiswick,Hounslow,-0.2651678443243495,51.49275975630679
Night & Day,"Imperial Hotel, 61-66 Russell Square",London,Camden,-0.1241371200407972,51.52183876171775
Piano Bar & Restaurant,106 Kensington High Street,Kensington,Kensington and Chelsea,-0.192338619237909,51.5017138435487
William Webb Ellis,24 London Road,Twickenham,Richmond upon Thames,-0.3284403623895753,51.44774446141302
Bridge House,13 Westbourne Terrace Road,Maida Vale,City of Westminster,-0.1845556912424851,51.52061310725376
Rose,179 Broadway,Bexleyheath,Bexley,0.1407841132060087,51.45696762455355
Jolly Sisters,95 Bride Street,Holloway,Islington,-0.1131204110670748,51.54562766273168
Boxpark Wembley,Olympic Way,Wembley Park,Brent,-0.2791529441009877,51.56201921030463
Otherist,111 Old Broad Street,London,City and County of the City of London,-0.0846529689626782,51.51534632946
Cinnamon Lounge,181 Twickenham Road,Isleworth,Hounslow,-0.3285096935912778,51.472249918986186
Railway Telegraph,112 Stanstead Road,Forest Hill,Lewisham,-0.0490930929760352,51.442196556515206
Black Lion,2 South Black Lion Lane,Hammersmith,Hammersmith and Fulham,-0.2423253823992723,51.490387418889945
Sir John Balcombe,21 Balcombe Street,London,City of Westminster,-0.161822040328414,51.523523417778776
Bluecoats,614 High Road,London,Haringey,-0.0683228521883486,51.5960745239993
Mabel's Tavern,9 Mabledon Place,London,Camden,-0.1274976731363871,51.527764702420384
Farr's school of Dancing,17-19 Dalston Lane,Hackney,Hackney,-0.0732966934369418,51.54638242940522
Ashanti Lounge Bar,14 Lavender Hill,Battersea,Wandsworth,-0.1510740466875134,51.46641286344124
Prospect of Whitby,57 Wapping Wall,London,Tower Hamlets,-0.0510188687827671,51.507103130275496
Simmons,21 Widegate Street,London,City and County of the City of London,-0.0782084878572936,51.51812747489479
New Cross House,316 New Cross Road,New Cross,Lewisham,-0.0374239967978386,51.47539233866761
Trinity Bell,20 Creechurch Lane,London,City and County of the City of London,-0.0788582076465576,51.51365076991614
Elephants Head,224 Camden High Street,London,Camden,-0.1437848640302024,51.54061329901445
Trinity Arms,45 Trinity Gardens,Brixton,Lambeth,-0.1187490360694686,51.46192387154306
Punch Tavern,99 Fleet Street,London,City and County of the City of London,-0.1048408073515373,51.514073628602496
All Bar One,16 Byward Street,London,City and County of the City of London,-0.0791102870755395,51.509716095549535
Buckingham Arms,62 Petty France,London,City of Westminster,-0.1369141407779298,51.49911093796362
Funky Brownz,63 The Hyde,Colindale,Barnet,-0.2480973956500999,51.58395146127446
Beer House Waterloo,"Unit 4, Waterloo Mainline Railway Station",London,Lambeth,-0.1132337586770971,51.50314782082231
La Fonda de Maria,273A Clapham Road,Stockwell,Lambeth,-0.1234169806442463,51.47096443622645
Dirty South,162 Lee High Road,Lewisham,Lewisham,-0.004161115084998,51.45951588672696
Pepper Saint Ontiod,21 Pepper Street,Crossharbour,Tower Hamlets,-0.0174463141679406,51.49639619472403
Real Ale,4 Formosa Street,Maida Vale,City of Westminster,-0.1847261190017737,51.524662433262215
Warrant Officer,318 Higham Hill Road,Walthamstow,Waltham Forest,-0.0349127680394697,51.59638277565183
Floirin,563 Holloway Road,Upper Holloway,Islington,-0.1272179774442512,51.56266978756055
Corner Pin,Slade Green Road,Erith,Bexley,0.192816590010469,51.47157271606765
Spencer,237 Lower Richmond Road,Putney,Wandsworth,-0.2268913070040443,51.46826698940637
Dovecote,Friday Hill,Chingford,Waltham Forest,0.0084615797785754,51.62289573139968
Maid Of Muswell,121 Alexandra Park Road,Muswell Hill,Haringey,-0.1386439558733903,51.598731412322216
Princess Louise,208 High Holborn,London,Camden,-0.1216729506231554,51.51726698815204
Harrow,22 Whitefriars Street,London,City and County of the City of London,-0.1067487332691336,51.5128994034704
Brook,181 Central Road,Worcester Park,Sutton,-0.2440383978072285,51.379704378143046
Electric Diner,191-193 Portobello Road,Notting Hill,Kensington and Chelsea,-0.2050658899729344,51.515524157863744
Rocket by Balls Brothers,2 Churchill Place,Canary Wharf,Tower Hamlets,-0.014415527589499,51.50513102451503
Imperial,5 Leicester Street,London,City of Westminster,-0.1310927015842083,51.51109555138716
Woodman,Breakspear Road,Ruislip,Hillingdon,-0.4404624220785722,51.58611562467353
Railway Inn,229 Ordnance Road,Enfield,Enfield,-0.0273616892275792,51.67096641943456
Steam Engine,41-42 Cosser Street,London,Lambeth,-0.1124314989572808,51.49710976820676
Enterprise,38 Red Lion Street,London,Camden,-0.1173257787669703,51.52027282695372
Belvedere,106 High Street,Acton,Ealing,-0.2685645126564228,51.50690128469604
Trafalgar Tavern,Park Row,Greenwich,Greenwich,-0.0042335046899408,51.48457123020636
Thai Tiger,1 Woolwich Road,Greenwich,Greenwich,0.008421798049946,51.48642355980967
Red Lion,92/94 Linkfield Road,Isleworth,Hounslow,-0.3330250214866906,51.47320445029917
Dean Swift,2 Deancross Street,London,Tower Hamlets,-0.0552030751848603,51.51374626438707
Lamb Inn,52-54 Church Street,Lower Edmonton,Enfield,-0.0635677598788659,51.625374685081646
Kitchen 79,79 Salusbury Road,Queen's Park,Brent,-0.2052032205184524,51.53584957222419
Antelope,76 Mitcham Road,Tooting,Wandsworth,-0.165476005582134,51.4257128704764
Crown (Bar & Cafe),261 Holloway Road,Holloway,Islington,-0.1111200443456055,51.55144065568379
Moot Bar,"Unit 3, Chiswick Business Park, 566 Chiswick High Road",Chiswick,Hounslow,-0.2739280665453097,51.4938601654104
Bodeans,16 Byward Street,London,City and County of the City of London,-0.0791102870755395,51.509716095549535
White Swan,108 Fetter Lane,London,City and County of the City of London,-0.109408078969414,51.516197675730375
Hand & Racquet,25/27 Wimbledon Hill Road,Wimbledon,Merton,-0.2077727412608911,51.42188855153604
Tank & Paddle,"Minster Court, 3 Mincing Lane",London,City and County of the City of London,-0.0811463581342959,51.510990447579616
Cross Keys,57 Black Lion Lane,Hammersmith,Hammersmith and Fulham,-0.2426836627253308,51.49230821989029
Moon & Stars,164-166 High Street,Penge,Bromley,-0.0505200133365835,51.41239085166517
Three Kings,42 Heath Road,Twickenham,Richmond upon Thames,-0.3310827144038307,51.445534046122255
Globe,104 Windmill Road,Brentford,Hounslow,-0.310032194396507,51.49066282835766
Duke Of Kent,2 Scotch Common,West Ealing,Ealing,-0.3201447796098218,51.52471865900648
Blues Kitchen,111 Camden High Street,London,Camden,-0.1412101716479074,51.53691251080826
Bodean's,169 Clapham High St,Clapham,Lambeth,-0.1363026220558022,51.462159286602656
Harringay Arms,153 Crouch Hill,London,Haringey,-0.1233273508071354,51.57727434155179
Hagen & Hyde,157 Balham High Road,Balham,Wandsworth,-0.1518368378355746,51.44431180787596
Lord John Russell,91-93 Marchmont Street,London,Camden,-0.1258178694948811,51.525840413478114
Fellow,24 York Way,London,Islington,-0.1223795494916776,51.53127101247707
Laughing Gravy,"Blackfriars Foundry, 154-156 Blackfriars Road",London,Southwark,-0.1041979856470444,51.50109565034221
Erebuni,2-5 Carthusian Street,London,Islington,-0.0981366344467963,51.52070067609878
Park Inn,12 Palace Gates Road,Wood Green,Haringey,-0.1225087623992522,51.59889702545622
Red Lion,48 Parliament Street,London,City of Westminster,-0.1256960503064839,51.50213361292923
Lost & Co,160 Putney High Street,Putney,Wandsworth,-0.2171333155702152,51.46151842294034
Sir Colin Campbell,264-266 Kilburn High Road,London,Camden,-0.199536968902486,51.54350538380482
Ekcovision,Arch 15 Atlantic Road,Brixton,Lambeth,-0.1134266074016744,51.46287249145461
George & Devonshire,8 Burlington Lane,Chiswick,Hounslow,-0.2521018304284199,51.48636088015382
Fox & Hounds,"60, Portsmouth Road",Surbiton,Kingston upon Thames,-0.3117609848026744,51.39582543144875
Three Crowns,175 Stoke Newington High Street,Stoke Newington,Hackney,-0.0737667057619805,51.5625859052474
Blue Boar Smokehouse & Bar,45 Tothill Street,London,City of Westminster,-0.1325009300296406,51.49957132033908
Island,123 College Road,Kensal Rise,Brent,-0.2265368679922301,51.53528372912557
All Bar One,104-107 Hounsditch,London,City and County of the City of London,-0.0790880690013505,51.5157228603521
Lord Moon of the Mall,18 Whitehall,London,City of Westminster,-0.127506981228315,51.50646106509365
Mawbey Arms,7 Mawbey Street,South Lambeth,Lambeth,-0.1257680119866092,51.47825013349984
Strongroom Bar & Kitchen,120-124 Curtain Road,London,Hackney,-0.0801254241838541,51.52600950973785
Duke Of Somerset,15 Little Somerset Street,London,City and County of the City of London,-0.0744510014782089,51.513920156798896
Kings Head,126 Blackstock Road,Finsbury Park,Islington,-0.1005959927632029,51.562043682031714
Kilburn Arms,97-101 Willesden Lane,London,Brent,-0.2040378203056679,51.54054385967029
Latymers,157 Hammersmith Road,Hammersmith,Hammersmith and Fulham,-0.2174460618970299,51.49302453087802
Windmill,167 Upminster Road,Upminster,Havering,0.2383118096967533,51.55843181295598
Bird of Smithfield,26 Smithfield Street,London,City and County of the City of London,-0.1025158186964607,51.5183435846237
Brouhaha,499-501 Green Lanes,Finsbury Park,Haringey,-0.0997730631044524,51.58110348759274
Edinboro Castle,57 Mornington Terrace,London,Camden,-0.14499380174418,51.53606412466642
Bell,29 Bush Lane,London,City and County of the City of London,-0.0895997552132064,51.51079577857792
Simmons,7-9 Kentish Town Road,London,Camden,-0.1425384747675721,51.53970329868586
Moon Under Water,"10 Varley Parade, Edgware Road",Colindale,Barnet,-0.2508096241432189,51.58737300140036
Fence,67-69 Cowcross Street,London,Islington,-0.1024754967126026,51.52000659073808
Prince of Wales,28 Malden Road,Cheam,Sutton,-0.2177691999918244,51.36083699748957
Greenwich Pensioner,28 Bazeley Street,Poplar,Tower Hamlets,-0.0105664794574144,51.50979610238635
Kilkenny Tavern,131 Merton High Street,Merton,Merton,-0.1917140566230812,51.41549989857516
Bell Inn,91 Bell Street,London,City of Westminster,-0.1657396835767907,51.52217289167316
Windmill,224 St James's Road,Croydon,Croydon,-0.0933641309350024,51.38152294472848
Wembley Tavern,121 Wembley Park Drive,Wembley,Brent,-0.2824990009485021,51.562050244906246
Barrel Project,80 Druid Street,London,Southwark,-0.072572979092986,51.49934806333796
Moncada Brewery Tap Room,37 Humber Road,Cricklewood,Brent,-0.2287596254254719,51.56603606449789
Anglesea Arms,15 Selwood Terrace,South Kensington,Kensington and Chelsea,-0.17706119274743,51.4902725179293
Frankie & Benny's,"Unit 1, Jenkins Lane",Barking,Newham,0.0780194428509695,51.52435676415482
Dover Castle,6a Great Dover Street,London,Southwark,-0.0929892500308004,51.500725098706944
Club Langley,2 Hawksbrook Lane,Eden Park,Bromley,-0.0224837815280232,51.38858501778888
Ballot Box,Horsenden Lane North,Perivale,Ealing,-0.3296063064084537,51.548998351145016
Squares,Whitcomb Street,London,City of Westminster,-0.1301186538357948,51.50919155470133
RnR (Wine Bar),225 Chingford Mount Road,Chingford,Waltham Forest,-0.0177979102551877,51.61571646649294
Jerusalem Tavern,55 Britton Street,Farringdon,Islington,-0.1039344396290179,51.52166685943738
Kings Arms Bar & Hotel,19 Boston Manor Road,Brentford,Hounslow,-0.3108851515177457,51.48785141848375
Brewery Tap,21 Southey Street,Penge,Bromley,-0.0523285300932304,51.41585621718836
Ladbroke Arms,54 Ladbroke Road,Notting Hill,Kensington and Chelsea,-0.2026956269616896,51.50910309323221
Coborn,8 Coborn Road,Bow,Tower Hamlets,-0.0302051494189163,51.52724984839551
Barretts,239 Cricklewood Broadway,Cricklewood,Brent,-0.2172426612364849,51.55800210956325
Freedom,66 Wardour Street,London,City of Westminster,-0.1332995215957566,51.51281233016993
Crown & Sceptre,32 Junction Road,South Croydon,Croydon,-0.0965341891966752,51.35947889962141
Eagle,215 Askew Road,Shepherds Bush,Hammersmith and Fulham,-0.2395594566577613,51.50085831471402
Woody`s,"5 Ram Passage, High Street",Kingston,Kingston upon Thames,-0.3081985402379094,51.407851465089934
Grey Horse,"46, Richmond Road",Kingston,Kingston upon Thames,-0.3004571029777355,51.41420503831493
Lincoln Arms,155 Percival Road,Enfield,Enfield,-0.0654870919917405,51.64780706514357
Lord Raglan,61 St Martin's-le-Grand,London,City and County of the City of London,-0.0965365128803355,51.51655603451685
Ship,"10 Thames Bank, Mortlake, London",Mortlake,Richmond upon Thames,-0.2686105758690214,51.47146195678586
Shakespeare,460 Bethnal Green Road,Bethnal Green,Tower Hamlets,-0.0572455814916214,51.52704423321393
Ship & Shovell,1-3 Craven Passage,London,City of Westminster,-0.1246224179890163,51.507575042121296
Florist Arms,255 Globe Road,Bethnal Green,Tower Hamlets,-0.0512941379312,51.52833026185164
Prince Arthur,80-82 Eversholt Street,London,Camden,-0.1333914539687682,51.52994492791236
Teddington Arms,38/40 High Street,Teddington,Richmond upon Thames,-0.3329097825484104,51.4269819077345
Green Man,36 Riding House Street,London,City of Westminster,-0.1394355977941739,51.51890795697203
Crown,260 London Road / Spring Gardens,Romford,Havering,0.1647835991035018,51.5746681545734
Orange Tree,45 Kew Road,Richmond,Richmond upon Thames,-0.3017283060021183,51.4640775807209
Hare,505 Cambridge Heath Road,Bethnal Green,Tower Hamlets,-0.0575357210515931,51.53343372100039
Number Ten,"1st Floor, The Brewery",Romford,Havering,0.1801446889649281,51.57598468304023
Duke Of Cambridge,30 St Peter's Street,London,Islington,-0.0984080407102001,51.534248088494
Bancroft Arms,410 Mile End Road,London,Tower Hamlets,-0.0399991330203555,51.52277360889399
Olde Crowne,1090 Uxbridge Road,Hayes,Hillingdon,-0.4211347012075939,51.52280328572746
Friend At Hand,2-4 Herbrand Street,London,Camden,-0.1245537714474644,51.52292455191715
Spice Of Life,6 Moor Street,London,City of Westminster,-0.1297580030423447,51.51342138028977
Red Lion,640 High Road Leytonstone,Leytonstone,Waltham Forest,0.0115513435632008,51.56858210345774
Princess Alexandra,120 Park Road,Hornsey,Haringey,-0.1275436113629404,51.58284508661178
Jamies,47 Ludgate Hill,London,City and County of the City of London,-0.1025707557890993,51.51390204190609
Paya & Horse,189 Battersea Park Road,Battersea,Wandsworth,-0.1490702178028829,51.475733608337706
Woodman,50 High Street,Farnborough,Bromley,0.0699765159934294,51.3592194673123
Shoreditch Grind,213 Old Street,Old Street,Islington,-0.0891052580310248,51.5260483530386
Cock Tavern,125 Kilburn High Road,Kilburn,Brent,-0.1948490078306961,51.53879316576342
Penny Farthing,3 Waterside,Crayford,Bexley,0.178477669515047,51.4522983129489
Hoxton Grill,81 Great Eastern Street,London,Hackney,-0.0826612534181077,51.52535859390042
Six Bells at Brentford Lock,148 High Street,Brentford,Hounslow,-0.3099167632835033,51.48248683795021
Tankard,178 Walworth Road,Walworth,Southwark,-0.0983913752050268,51.49209881270826
O'Neill's,73-77 Euston Road,London,Camden,-0.1261696433635482,51.52885859985877
Northern Soul,114 Junction Road,London,Islington,-0.1373332623597973,51.560870431797504
Bishops Finger,9-10 West Smithfield,London,City and County of the City of London,-0.101904487318532,51.51848657196765
Shakespeare,57 Allen Road,Stoke Newington,Hackney,-0.0821276784449559,51.55554693028996
Arkley (Village Inn & Dining),Barnet Road,High Barnet,Barnet,-0.2207103915938653,51.65205170689519
Crown Tavern,42 Clerkenwell Green,London,Islington,-0.1051803862808421,51.52325172795376
Ping Pong,Unit 68-70 London Designer Outlet,Wembley,Brent,-0.2839410197011541,51.55670287921306
Road Trip Bar,243 Old Street,London,Hackney,-0.0842947208226123,51.52662629588417
Dickens Tavern,25 London Street,Paddington,City of Westminster,-0.1744567201293767,51.51578919175553
King Charles I,55-57 Northdown Street,London,Islington,-0.1196596083686689,51.53184795431737
Bunch of Grapes,2 St Thomas Street,London,Southwark,-0.0886174637999724,51.50465571459389
La Familia Restaurant & Bar,99 High Street,Hampton Hill,Richmond upon Thames,-0.3577763910249199,51.42509406648588
Super Lyan,155 Hoxton Street,London,Hackney,-0.0803879550563909,51.53141837357597
Tally Ho,749 High Road,North Finchley,Barnet,-0.1763497238704419,51.61373819778564
Star Of The East,805a Commercial Road,Poplar,Tower Hamlets,-0.0291582647958497,51.512439222514274
Williams Ale & Cider House,22-24 Artillery Lane,Spitalfields,City and County of the City of London,-0.078285829159438,51.51834456791367
Royal Inn On The Park,Lauriston Road,Homerton,Hackney,-0.04426037253983,51.53736773517565
Jolly Gardeners,"36 Lower Richmond Road, London",Mortlake,Richmond upon Thames,-0.2686237361522058,51.46959168964569
Brookmill,65 Cranbrook Road,Deptford,Lewisham,-0.023341233321352,51.47137862669189
County Hotel,30 Oak Hill,Woodford Green,Waltham Forest,0.0107171205190361,51.603325244007685
Star & Anchor,94 Uxbridge Road,West Ealing,Ealing,-0.3150164602985983,51.51174099037787
Bell,2 Staines Road,Hounslow,Hounslow,-0.3664443943272817,51.46759590190023
Little Nan's Bar,"Arch 14, Deptford Market Yard",Deptford,Lewisham,-0.0263910238563931,51.4781117545672
Prince of Wales,2 Cleveland Terrace,Paddington,City of Westminster,-0.1801321311983579,51.51695649730234
Waverley Arms,202 Ivydale Road,Nunhead,Southwark,-0.0465935214134513,51.46064432342781
Ship & Shovel,Ripple Road,Barking,Barking and Dagenham,0.1164820166364341,51.53214025572266
Hermes Lounge Bar,"Grand Holborn Hotel, 50-60 Southampton Row",London,Camden,-0.121371409458525,51.51969020319397
Flying Machine,Kings Road,Biggin Hill,Bromley,0.0262306623621539,51.31116928520677
Harrison,28 Harrison Street,London,Camden,-0.1205570284910244,51.527563800891656
London Welsh Centre,157-163 Gray's Inn Road,London,Camden,-0.1170132512363227,51.525051956733705
Woolwich Equitable,"Equitable House, 10 Woolwich New Road",Woolwich,Greenwich,0.0685931173815632,51.4903593501753
Bell,617 Forest Road,Walthamstow,Waltham Forest,-0.016097079771913,51.59011338511085
Castle Bar,392 Camden Road,Holloway,Islington,-0.1224588644156987,51.55351121559178
Fig Tree,49 Windsor Street,Uxbridge,Hillingdon,-0.4805768600596172,51.54540382245
Great North Wood,3 Knights Hill,West Norwood,Lambeth,-0.1040656811643438,51.43098567988854
Tamara Lounge,"Byron Parade, Uxbridge Road",Hillingdon,Hillingdon,-0.4439047124857901,51.528880586227295
W12 Studios,195 Wood Lane,Shepherds Bush,Hammersmith and Fulham,-0.2278494256881931,51.51337959064762
Fox & Goose,Hanger Lane,Ealing,Ealing,-0.29578465816371,51.53353984967585
Earl Beatty,"365, West Barnes Lane",Motspur Park,Merton,-0.2382838805181306,51.39485170069869
Belushi's,189 Greenwich High Road,Greenwich,Greenwich,-0.0147218408351341,51.47754597588651
Cherry Tree,32 Station Road,South Norwood,Croydon,-0.075540940005051,51.39735532501553
Old Shades,37 Whitehall,London,City of Westminster,-0.1268600554167267,51.50642375737434
Old Crown,81 Station Road,Hayes,Hillingdon,-0.4190986975291001,51.50500714233059
Purple Flame,433-437 Honeypot Lane,Queensbury,Harrow,-0.295081519211033,51.59631441464978
Bumpkin,105-106 The Street,Stratford,Newham,-0.0075465406346541,51.54299132380806
King's Head,84 Upper Tooting Road,Tooting,Wandsworth,-0.1627368077469774,51.43411430509845
Round House,1 Garrick Street,London,City of Westminster,-0.1259359989496975,51.51138197933895
Weir Bar & Dining Room,22-24 Market Place,Brentford,Hounslow,-0.3095036385066546,51.483533028333824
Duke of Cambridge,"Kneller Road, Twickenham",Whitton,Richmond upon Thames,-0.3524502998733813,51.45519741287825
Fox & Duck,"194 Petersham Road, Richmond",Petersham,Richmond upon Thames,-0.3027762170299669,51.44513649068882
Rose & Crown,2 Old Park Lane,London,City of Westminster,-0.1489292127540141,51.50411228639285
Tap 13,Broadway Market,Tooting,Wandsworth,-0.1665357793097186,51.42834637065911
Osidge Arms,Hampden Square,Southgate,Barnet,-0.1424196914907734,51.632152903042346
Hydrant,Equitable House 1 Monument Street,London,City and County of the City of London,-0.0862910377429355,51.51031018025496
McGoverns,60 High Road,Willesden,Brent,-0.228708273420759,51.54731263254858
Halfway House,188c Halfway Street,Sidcup,Bexley,0.0872174593572836,51.44111689656534
Hawkes Cidery & Taproom,92 Druid Street,London,Southwark,-0.072572979092986,51.49934806333796
Amuse Bouche,51 Parsons Green Lane,Fulham,Hammersmith and Fulham,-0.2005704361047857,51.47488949237474
Sun in the Sands,123 Shooters Hill Road,Kidbrooke,Greenwich,0.0268155561912403,51.475387667384815
Hero of Maida,55 Shirland Road,Maida Vale,City of Westminster,-0.1882203196302438,51.52415890677107
Royal,Boston Road,Hanwell,Ealing,-0.3265631081379475,51.49829164143888
G-A-Y,30 Old Compton Street,London,City of Westminster,-0.1300605074425183,51.51377691920806
Porto,82 Landor Road,Stockwell,Lambeth,-0.1250654320891007,51.465873960816495
Railway,32 Station Way,Cheam,Sutton,-0.216441294016134,51.356563279287215
Drum,557-559 Lea Bridge Road,Leyton,Waltham Forest,-0.0135148109058047,51.57516032412207
Glyn Arms,1 Mandeville Street,Clapton,Hackney,-0.0388348451233487,51.55590108742565
Union Tavern,45 Woodfield Road,Maida Vale,City of Westminster,-0.2000502932278498,51.52283025290686
McGlynn's,1-5 Whidbourne Street,London,Camden,-0.1232888495393262,51.52844385418253
Duke,64-65 Victoria Road,Surbiton,Kingston upon Thames,-0.3070339108595462,51.391863361538725
Metropolis,256A High Street,Bromley,Bromley,0.0119936669355653,51.40686514494168
Royal Standard,67 Pelton Road,Greenwich,Greenwich,0.0037577440488877,51.48648534472543
Water Rats,328 Gray's Inn Road,London,Camden,-0.119399468672917,51.52906502699139
Nelsons Head,32 Horatio Street,Bethnal Green,Tower Hamlets,-0.0698574945526298,51.53085865739949
Bread Street Kitchen & Bar,10 Bread Strreet,London,City and County of the City of London,-0.0949560220957792,51.51332894414407
Mannions Prince Arthur,158 Broad Lane,South Tottenham,Haringey,-0.0642860744564261,51.58472241581624
Southampton Arms,139 Highgate Road,London,Camden,-0.1461887461062938,51.555974786268976
Green W7,13 Lower Boston Road,Hanwell,Ealing,-0.3393396339915969,51.507078999431904
Fox & Hounds,57 Plumstead Common Road,Plumstead,Greenwich,0.0697697533536872,51.48230797232824
Two Brewers,42 Scotland Green,Tottenham,Haringey,-0.0678469703731541,51.5967411117409
Jolly Coopers,16 High Street,Hampton,Richmond upon Thames,-0.3612178186899312,51.41413551262058
Prince Edward,97 Wick Road,Homerton,Hackney,-0.041924720358364,51.54542220858863
