name,address1,address2,borough_name,longitude,latitude
Bar 57,57 Greenwich High Road,Greenwich,Greenwich,-0.0184036355535373,51.47533305127424
Whyte Lyon (Ye Olde),Farnborough Common,Locksbottom,Bromley,0.0572329226241444,51.36396732425988
Mawbey Arms,7 Mawbey Street,South Lambeth,Lambeth,-0.1257680119866092,51.47825013349984
Maddisons,474-476 Fulham Road,Fulham,Hammersmith and Fulham,-0.1949453569336534,51.480594293638326
Safari Club Bar,975 High Road,North Finchley,Barnet,-0.1769952138565356,51.62069925736503
Little Crown,495 New Cross Road,New Cross,Lewisham,-0.0270908350100542,51.47524580816168
Pregnant Man,40 Chancery Lane,Chancery Lane,City and County of the City of London,-0.1121771970049369,51.51650305893377
Hop Poles,17-19 King Street,Hammersmith,Hammersmith and Fulham,-0.2256109770404133,51.49273466539599
Prince of Peckham,1 Clayton Road,Peckham,Southwark,-0.0653611203390019,51.47333893221232
Havering Well,148 Rush Green Road,Romford,Havering,0.1781624972716634,51.56591333583509
Museum Tavern,49 Great Russell Street,London,Camden,-0.1258006704957764,51.51818731794428
Anchor,23-31 Bridgen Road,Bexley,Bexley,0.1338472109088715,51.44527734982472
Arsenal Tavern,175 Blackstock Road,Finsbury Park,Hackney,-0.0987527614543004,51.56126740316606
Wandle Pirates,"Unit 4,The Long Shop, Merton Abbey Mills, Watermill Way",Colliers Wood,Merton,-0.1831701631258381,51.41299370220341
Crowne Plaza Heathrow,Stockley Road,West Drayton,Hillingdon,-0.4542411960599176,51.49949598633312
Railway,19-20 Market Square,Lower Edmonton,Enfield,-0.0578985205603953,51.62415689058199
Revolution,202 Upper Richmond Road,Putney,Wandsworth,-0.2178358116089886,51.46122334457453
Fino's Wine Bar,123 Mount Street,London,City of Westminster,-0.1483156893973004,51.5100018161806
Tower Tavern,2 Clipstone Street,London,City of Westminster,-0.1427368129291759,51.5206688849262
Nott,257 Wandsworth Road,South Lambeth,Lambeth,-0.1286733886842669,51.47869221030704
Overdraft Tavern,200-202 High Street,East Ham,Newham,0.0515171785118119,51.53898682984526
Dovetail,9 Jerusalem Passage,London,Islington,-0.1039717940557057,51.5231962297053
Alexander Pope,Cross Deep,Twickenham,Richmond upon Thames,-0.3330875797061937,51.4402751002599
Fiddlers,1 Malden Road,Kentish Town,Camden,-0.1514647839956343,51.54646286836912
Phoenix,12 Station Road,Croydon,Croydon,-0.1015301911961179,51.3786609329749
Smiths of Smithfield,67-77 Charterhouse Street,London,Islington,-0.1023911068142376,51.51960954487821
Horniman at Hay's,"Unit 26, Hays Galleria, Counter Street",London,Southwark,-0.0835220815479315,51.50589447946979
Bag O'Nails,6 Buckingham Palace Road,London,City of Westminster,-0.143085697356523,51.49863327988314
William Morris,807 Forest Road,Walthamstow,Waltham Forest,-0.0080840999966504,51.59111959729516
Haggerston,438 Kingsland Road,Hackney,Hackney,-0.0759389655027453,51.54152491603893
George & Monkey,68 Amwell Street,London,Islington,-0.1103425400727799,51.53017846219243
Jolly Butchers,168 Baker Street,Enfield,Enfield,-0.0798957514411371,51.65949991289553
Blue Posts,28 Rupert Street,London,City of Westminster,-0.1326038309706403,51.51114659634028
Brigadiers,1-5 Bloomberg Arcade,Cannon Street,City and County of the City of London,-0.0914304002780146,51.51216550539864
Metropolitan Bar,"7 Station Approach, Marylebone Road",London,City of Westminster,-0.1559992193254057,51.52278455982761
Dog & Bull,24 Surrey Street,Croydon,Croydon,-0.1015692429479332,51.37285221348353
Cricketers,19 Chase Side Place,Enfield,Enfield,-0.087316340319865,51.65632981135417
Harringay Arms,153 Crouch Hill,London,Haringey,-0.1233273508071354,51.57727434155179
Boleyn Tavern,1 Barking Road,East Ham,Newham,0.0391612855840424,51.530650284589214
Tap 13,Broadway Market,Tooting,Wandsworth,-0.1665357793097186,51.42834637065911
Fox & Hounds,29 Passmore Street,London,City of Westminster,-0.1548404745878074,51.49083328241549
Old Eagle,251 Royal College Street,London,Camden,-0.1397171970037874,51.54311180403765
North Star Tavern,104 Finchley Road,London,Camden,-0.1785858563180569,51.5463024477704
Farriers Arms,214 Lower Road,Deptford,Southwark,-0.0436335902378462,51.490793098283774
Corner Pin,10 Summerstown,Summerstown,Wandsworth,-0.1859476704669964,51.43328855549221
Gun,54 Brushfield Street,Shoreditch,Tower Hamlets,-0.07664643180798,51.51893816765333
Hand of Glory,240 Amhurst Road,Hackney,Hackney,-0.0681402237220769,51.554058156563606
Milan Bar,16 High Street,Croydon,Croydon,-0.1007875603579908,51.372992420212505
Goose,248 North End Road,Fulham,Hammersmith and Fulham,-0.2026569569585528,51.4851910540755
Victory Club,227 Selhurst Road,South Norwood,Croydon,-0.0803569572633128,51.397353508693314
Lady Hamilton,289 Kentish Town Road,London,Camden,-0.1413600117467999,51.54880323018056
Shakespeare,57 Allen Road,Stoke Newington,Hackney,-0.0821276784449559,51.55554693028996
Sloe Bar & Cafe,Victoria Main Line Station Platforms 14-15,London,City of Westminster,-0.1443293284531723,51.49497494321386
Three Lords,27 Minories,London,City and County of the City of London,-0.0753397932746774,51.51232506339441
Phoenix At Rainham,Broadway,Rainham,Havering,0.1898711386360084,51.51855407136824
Rake,14 Winchester Walk,London,Southwark,-0.0912785412887651,51.50614688523055
Moretown Belle,"5 Thomas Moore Sq, Nesham Street",London,Tower Hamlets,-0.0672223803096673,51.50729943467724
Riverside,"Hamilton House, 5 St George Wharf",Vauxhall,Lambeth,-0.1261267007575068,51.48566582812531
Lost & Co,160 Putney High Street,Putney,Wandsworth,-0.2171333155702152,51.46151842294034
Albert,52 Victoria Street,London,City of Westminster,-0.1355415267967048,51.497794173555015
Rising Sun,528 Romford Road,Forest Gate,Newham,0.0370952927408942,51.547997351062975
Cock & Woolpack,6 Finch Lane,London,City and County of the City of London,-0.0857313045257101,51.5136912979145
Ring,72 Blackfriars Road,London,Southwark,-0.1050920762676541,51.50316045289802
Belgravia,152 Ebury Street,London,City of Westminster,-0.1515895238482881,51.4924996923953
Lost Hour,217 Greenwich High Road,Greenwich,Greenwich,-0.0113778903843886,51.4789371688307
Kitty Hawk,"11-13 South Pl, Finsbury Circus",London,City and County of the City of London,-0.0862229054199231,51.51846545723894
Pretty Decent Beer Co,Arch 338 Sheridan Road,London,Waltham Forest,0.0180725981679495,51.55617708251111
Dartmouth Castle,26 Glenthorne Road,Hammersmith,Hammersmith and Fulham,-0.2286064766842631,51.494614436012704
Elbow Room,503-505 High Road,Tottenham,Haringey,-0.0699870955853523,51.592918619484
Queens,49 Regents Park Road,London,Camden,-0.1577198716704053,51.54085988623845
Sun in the Sands,123 Shooters Hill Road,Kidbrooke,Greenwich,0.0268155561912403,51.475387667384815
York & Albany,127-129 Parkway,London,Camden,-0.1463709689011219,51.53623876451815
Worlds End,174 Camden High Street,London,Camden,-0.1420347847919218,51.53861619985644
Walker Ground,Waterfall Road,Southgate,Enfield,-0.1304801294792155,51.62487737223165
Grove,39 Oldridge Road,Balham,Wandsworth,-0.1513151055039118,51.44832335375871
Old King's Head,"King's Head Yard, 45-49 Borough High Street",London,Southwark,-0.0894685569823353,51.5046336105657
Happy Man,89 Woodberry Grove,Finsbury Park,Hackney,-0.0893242115008855,51.57143754601899
Dukes Meadows Cafe & Bar,"Dan Mason Drive, Dukes Meadows",Chiswick,Hounslow,-0.2563486939333666,51.47357351358907
George,74 Bexley High Street,Bexley,Bexley,0.1500928640174296,51.44156318462439
Castle,18 Upper Square,Isleworth,Hounslow,-0.3246055164013698,51.46837237637519
Oyster Shed,1 Angel Lane,London,City and County of the City of London,-0.0894133368136713,51.50974059163588
Prince Edward,97 Wick Road,Homerton,Hackney,-0.041924720358364,51.54542220858863
Nicholas Nickleby,6 Ferme Park Road,Finsbury Park,Haringey,-0.1129905276978908,51.57491433011199
Greenwich Yacht Club,"Pear Tree Wharf, 1 Pear Tree Way",Greenwich,Greenwich,0.0186010131803475,51.495448422070815
Golden Lion,51 Dean Street,London,City of Westminster,-0.1315534233494408,51.51251474883696
Eltham GPO,4 Passey Place,Eltham,Greenwich,0.0537401567542171,51.44994589062786
Imperial Arms,577 Kings Road,Fulham,Hammersmith and Fulham,-0.188563617974223,51.47845457443653
Saxon King,198 Petersfield Ave / St Neots,Harold Hill,Havering,0.2370680602562451,51.60366327118979
T.Bird,132 Blackstock Road,London,Islington,-0.0994455521598286,51.561260656863496
Angel,11 High Street,Roehampton,Wandsworth,-0.2394695620753239,51.45044405780431
Rose & Crown,199 Stoke Newington Church Street,London,Hackney,-0.0840029661437193,51.561045134756384
Betjeman Arms,"Upper Level Concourse (SE corner), Unit 53, St Pancras International Station,",London,Camden,-0.1261216965841033,51.53142975647243
Sun & 13 Cantons,21 Great Pulteney Street,London,City of Westminster,-0.136578494141446,51.512630655414895
Latymers,157 Hammersmith Road,Hammersmith,Hammersmith and Fulham,-0.2174460618970299,51.49302453087802
White Mustache,"7 Stanhope Parade, Stanhope Street",London,Camden,-0.140581019931212,51.53076951468794
No.8,"305 High Road, Willesden Green",Willesden,Brent,-0.2389818686528988,51.54869022472621
Curzon Cinema,99 Shaftesbury Avenue,London,City of Westminster,-0.1304610772595571,51.51279410423693
Manor,196 Tooting High Street,Tooting,Wandsworth,-0.172169959335557,51.42414472348789
Simmons,28 Maple Street,London,Camden,-0.1388962794745103,51.52223569701875
Tony's Bar,356-360 High Road,Willesden,Brent,-0.2413537858765347,51.54889663602286
Muller & Briggs,130 Cadogan Terrace,Hackney Wick,Tower Hamlets,-0.0273763753063107,51.53932448789311
Royal Standard,44 Vanburgh Park,Blackheath,Greenwich,0.0166452351987031,51.476938881659215
Ardleigh,124 Ardleigh Green Road,Hornchurch,Havering,0.2208314127884433,51.584025328780776
Green Man,308 Edgware Road,Paddington,City of Westminster,-0.1705145946473905,51.52064676262816
Samuel Pepys,"Stew Lane , High Timber Street",London,City and County of the City of London,-0.0960727564908935,51.51039745479096
Barrel Vault,"Unit 23, St Pancras International Station, Pancras Road",London,Camden,-0.1256269850203503,51.53048661016626
Leicester Arms,44 Glasshouse Street,London,City of Westminster,-0.1377293683151419,51.5105626236447
King's Head,2B Kings Head Hill,Chingford,Waltham Forest,-0.0018748055918421,51.63194756109554
Fox @ Connaught,Lynx Way,Royal Docks,Newham,0.0394537943958475,51.50880154066871
Society Bar,"Olympia Hilton Hotel, 380 Kensington High Street",West Kensington,Kensington and Chelsea,-0.2077884828653836,51.49647441336873
BrewDog,45-47 Clerkenwell Road,London,Islington,-0.1046016288764839,51.522262169357965
Caffe Concerto,"Unit K2004, The Balcony, Westfield Shopping Centre",Shepherds Bush,Hammersmith and Fulham,-0.2236465168520081,51.508055349251535
Red Lion,Hackbridge Road,Wallington,Sutton,-0.157613353239898,51.37835061481042
Harrods Terrace Bar,"Harrods Store, 4th Floor, 87 - 135 Brompton Road",London,Kensington and Chelsea,-0.1632093394656637,51.49944476220333
Plough,89 North Road,Southall,Ealing,-0.3730167557007857,51.51352191859732
Bricklayers Arms,189 Dartmouth Road,Sydenham,Lewisham,-0.0600586560785642,51.43233358207314
Old Fox & Hounds,1 London Road,Croydon,Croydon,-0.1037287842347561,51.37866054108407
Wishing Well,10 The Broadway,Greenford,Ealing,-0.3527120844883212,51.5278421765428
Wheatsheaf,286 High Street,Harlington,Hillingdon,-0.434897923621036,51.48545384770812
Apna Lounge,5 Heather Park Parade,Alperton,Brent,-0.2852918857261337,51.54302698922774
Jolly Millers,111 Mayplace Road West,Bexleyheath,Bexley,0.1521956386551932,51.45842235109581
Marco's New York Italian,"130 Southampton Row,",London,Camden,-0.1230279192020419,51.52111958679343
Hoxton Grill,81 Great Eastern Street,London,Hackney,-0.0826612534181077,51.52535859390042
Davy's,25 Basinghall Street,London,City and County of the City of London,-0.0906059813422958,51.516369677013024
Orchard,112 Cherry Orchard Road,Croydon,Croydon,-0.0896037707990042,51.37795448953707
Sky 23 at Hilton Metropole Hotel,225 Edgware Road,Paddington,City of Westminster,-0.1698980794396965,51.519486085335856
Jolly Gardeners,61-63 Lacy Road,Putney,Wandsworth,-0.2184674845770019,51.46459622002008
Marquis of Westminster,50 Warwick Way,London,City of Westminster,-0.1404786271515269,51.491892398147705
Fine Line,1 Bow Churchyard,London,City and County of the City of London,-0.0944752536636296,51.51379774841013
Hand & Flower,"Upper Ham Road, Richmond",Ham,Richmond upon Thames,-0.30645584457589,51.43281621445816
White Swan,Riverside,Twickenham,Richmond upon Thames,-0.3212230029235854,51.447155696552535
Victoria,"28, Victoria Road",Surbiton,Kingston upon Thames,-0.3073563791964269,51.39208384433969
White Horse,14 Worple Way,Richmond,Richmond upon Thames,-0.296178918177658,51.46155110641861
Chancery,90 Bromley Road,Beckenham,Bromley,-0.0179978702278738,51.40691739600975
Italian Job,45 All Saints Road,Notting Hill,Kensington and Chelsea,-0.2043189414773401,51.518390367006425
Harvester,"Unit 5 Larkswood Leisure Park, 175 New Road",Chingford,Waltham Forest,-0.0056495411874736,51.61704832209342
Crate Brewery & Pizzeria,"Unit 7, White Building, Queen's Yard, White Post Lane",Hackney Wick,Tower Hamlets,-0.0227393894919707,51.54250186438299
Admiral Vernon,141 Broad Street / Morland Road,Dagenham,Barking and Dagenham,0.1513382864615395,51.53655121635135
Castle,15 Grosvenor Rise East,Walthamstow,Waltham Forest,-0.0109772957064508,51.58072859417592
White Swan,22 The Village,Charlton,Greenwich,0.0374408649131271,51.48179522349286
Dover Castle,6a Great Dover Street,London,Southwark,-0.0929892500308004,51.500725098706944
Butcher's Hook,477 Fulham Road,Fulham,Hammersmith and Fulham,-0.1887641450429509,51.48030115498771
Lord Stanley,15 St Mary's Road,Plaistow,Newham,0.0247061501821073,51.53143155502195
Pavilion,"Pavilion Parade, Wood Lane",Shepherds Bush,Hammersmith and Fulham,-0.2276908916548052,51.51857492495647
Albion,78 Woolwich Church Street,Woolwich,Greenwich,0.0484641565551342,51.49218761935338
King William,392 Sipson Road,Sipson,Hillingdon,-0.4574888359547716,51.48993500571844
Railway Inn,229 Ordnance Road,Enfield,Enfield,-0.0273616892275792,51.67096641943456
Eaglet,124 Seven Sisters Road,Holloway,Islington,-0.1158916470068237,51.55953884734783
Grange,"Beddington Park, London Road",Wallington,Sutton,-0.1516426335548755,51.371754943049794
Roebuck,15 Pond Street,Hampstead,Camden,-0.167377092250879,51.55389751165172
Eleven,5 Fernlea Road,Balham,Wandsworth,-0.1482694532132365,51.442852637044936
Lass o' Richmond Hill,8 Queens Road,Richmond,Richmond upon Thames,-0.2959991467460929,51.450910281268605
Clery's Clock Bar,225 - 227 Edgware Road,Kingsbury,Brent,-0.25282076170665,51.58838307719603
Tichenham Inn,11 Swakeleys Road,Ickenham,Hillingdon,-0.4449402677939014,51.56445881043109
Grosvenor Arms,"Grosvenor Hotel, 101 Buckingham Palace Road",London,City of Westminster,-0.1452108078907024,51.495618377324426
Dundee Arms,339 Cambridge Heath Road,Bethnal Green,Tower Hamlets,-0.0561225144431129,51.52903992907918
Woodman Wine Bar,6 High Street,Carshalton,Sutton,-0.1611753380395215,51.365124225224136
King William IV,77 Hampstead High Street,London,Camden,-0.1762287307877123,51.55547422325439
Black Horse,425 Oldfield Lane North,Greenford,Ealing,-0.3445387264301312,51.54769014295973
Bull,498 Streatham High Road,Streatham,Lambeth,-0.1283467148642758,51.41943372548101
Thames Rowing Club,Putney Embankment,Putney,Wandsworth,-0.2211467411675688,51.47011344926321
Baltic,74 Blackfriars Road,London,Southwark,-0.1050920762676541,51.50316045289802
Artillery Arms,102 Bunhill Row,London,Islington,-0.0902652860825907,51.52347736115049
Two Chairmen,39 Dartmouth Street,London,City of Westminster,-0.1316272048540927,51.500501640852725
Ship,205 Plumstead Common Road,Plumstead,Greenwich,0.0794783907538388,51.48106602768639
Crown & Sceptre,2A Streatham Hill,Streatham Hill,Lambeth,-0.1247562766689789,51.44496078511653
Prince Albert (Rose's),47-49 Hare Street,Woolwich,Greenwich,0.0635644501957395,51.49288502491979
Cavern,100 Coombe Lane,Raynes Park,Merton,-0.2338844117106289,51.40980323267399
Kings Arms,251 Tooley Street,London,Southwark,-0.0758796660405074,51.50156964633396
Ealing Park Tavern,222 South Ealing Road,South Ealing,Ealing,-0.3060236707311224,51.4958207147719
Saffran,551 High Road,Wembley,Brent,-0.3012094698041056,51.55202603832871
Surprise,107 Upper Shirley Road,Croydon,Croydon,-0.0534504859483829,51.3677544747241
York Arms,310 Oakleigh Road North,Whetstone,Barnet,-0.1588411848679254,51.62521775659496
Royal Forest Hotel,4 Rangers Road,Chingford,Waltham Forest,0.017568639221478,51.63441195864806
Bridge House,62/64 Goodmayes Road / Ashgrove Road,Goodmayes,Redbridge,0.1102357062196061,51.56575078436011
Dalston Eastern Curve Garden Cafe,13 Dalston Lane,Hackney,Hackney,-0.0732966934369418,51.54638242940522
Crumpled Horn,33-37 Corbets Tey Road,Upminster,Havering,0.2484829709766602,51.55403759182044
Dog & Fox,"24 High Street, Wimbledon Village",Wimbledon,Merton,-0.2176299829031144,51.4250963358954
Bolton,326 Earls Court Road,Earls Court,Kensington and Chelsea,-0.1908084543213828,51.489783965186405
Red Lion,2 Duke of York Street,London,City of Westminster,-0.1364816994505408,51.50829462833838
Stockley Pines,The Clubhouse,Stockley Park,Hillingdon,-0.444134372013497,51.51324632611264
Effra Hall,38A Kellett Road,Brixton,Lambeth,-0.1138606052322308,51.4596780395034
Jamies Italian,409-411 St John St,London,Islington,-0.1068649454758754,51.53129144036853
Four Sisters,25 Canonbury Lane,London,Islington,-0.1020658275514162,51.54302123623179
Alchemist,63-66 St Martin's Lane,London,City of Westminster,-0.1269496887404611,51.511263279393255
Stag,96 Westbridge Road,Battersea,Wandsworth,-0.1730988034540188,51.47587659869932
Moor Beer Co. Vaults & Tap Room,71 Enid Street,Bermondsey (East),Southwark,-0.0722297942343251,51.49757984309672
Great North Wood,3 Knights Hill,West Norwood,Lambeth,-0.1040656811643438,51.43098567988854
Craft Beer Co.,29-31 Mitre Street,Aldgate,City and County of the City of London,-0.0784962497404225,51.513689798841725
Compton Arms,4 Compton Avenue,London,Islington,-0.1022375036879361,51.544094131538365
Stewart Arms,26 Norland Road,Notting Hill,Kensington and Chelsea,-0.2160858177191024,51.5057194417272
Thatched House,632 Ripple Road,Barking,Barking and Dagenham,0.1055987656935587,51.53345131444175
Silver Cross,33 Whitehall,London,City of Westminster,-0.1268600554167267,51.50642375737434
City Bar & Kitchen,9 Stoney Street c/o White Kennet Lane,London,City and County of the City of London,-0.0775832765646807,51.51517660674168
King Edward VII,47 The Broadway,Stratford,Newham,0.0026311019390842,51.54092952378111
Studio 6,"Gabriel's Wharf, 56 Upper Ground",London,Lambeth,-0.1102568697539604,51.507533328523294
London's Pride,Terminal 2 Airside,Heathrow Airport,Hillingdon,-0.4495584934011519,51.46977708247814
Ain't Nothin' But...,20 Kingly Street,London,City of Westminster,-0.1395330073317236,51.51298330733355
Brouhaha,499-501 Green Lanes,Finsbury Park,Haringey,-0.0997730631044524,51.58110348759274
King & Co,100 Clapham Park Road,Clapham,Lambeth,-0.1339910346265016,51.45918190660361
Cricketers Inn,"36 Addington Village Road, Addington",Croydon,Croydon,-0.030009167888513,51.35860388990072
New Inn,45 Squirrels Heath Lane,Gidea Park,Havering,0.2104952872951228,51.58192740680126
Old Sergeant,104 Garratt Lane,Wandsworth,Wandsworth,-0.1913100975979484,51.45124005995815
Cuckfield,31 High Street,Wanstead,Redbridge,0.0243946578275104,51.57965560104021
Queen Charlotte,43 Goodge Street,London,Camden,-0.1357174315505324,51.519244603411074
Westow House,79 Westow Hill,Crystal Palace,Lambeth,-0.0793262531704626,51.41989018011323
Beehive,126 Crawford Street,London,City of Westminster,-0.1573063564499552,51.52004434839082
Red Lion,41 Hoxton Street,London,Hackney,-0.0804380109263503,51.52783113986663
Myddleton Arms,52 Canonbury Road,London,Islington,-0.0968706962663744,51.54137226473137
Jackalope,43 Weymouth Mews,London,City of Westminster,-0.1462074384722015,51.52004033734538
Richard I,52-54 Royal Hill,Greenwich,Greenwich,-0.0098263252004681,51.47653672363711
Royal Albert,460 New Cross Road,New Cross,Lewisham,-0.0274641594805941,51.47493734088875
Sophie's,42-44 Great Windmill Street,London,City of Westminster,-0.1344661281832672,51.5110683164793
Glassblower,42 Glasshouse Street,London,City of Westminster,-0.1370077963640184,51.51058713584354
Foxley Hatch,8-9 Russell Hill Road,Purley,Croydon,-0.1176298562765909,51.33927119193182
Balham Bowls Club,7-9 Ramsden Rd,Balham,Wandsworth,-0.152898534487298,51.44546162195282
Northcote,2 Northcote Road,Battersea,Wandsworth,-0.1672316194921947,51.46056950173932
Bulls Head,15 Strand On The Green,Chiswick,Hounslow,-0.2777648027638392,51.48417749671164
Tailor's Chalk,47-49 High Street,Sidcup,Bexley,0.1036542740779424,51.426173398950034
Flight Club,"Alphabeta Building, 2A Worship Street",London,Islington,-0.0852813461856912,51.522011189056
Bootlaces,596 Lea Bridge Road,Leyton,Waltham Forest,-0.0137644137736244,51.574400180687554
Lord Southampton,2 Southampton Road,Kentish Town,Camden,-0.1562989909487301,51.5499651212016
Pinner Arms,Whittington Way,Pinner,Harrow,-0.380099914108584,51.58560396234795
George,32 King Street,Twickenham,Richmond upon Thames,-0.3287482069866979,51.446408996931375
Spartan Brewery Taproom,8 Almond Road,Bermondsey (East),Southwark,-0.059540772225285,51.49172302493058
Crown & Greyhound,73 Dulwich Village,Dulwich,Southwark,-0.0848210487780289,51.44877534062756
Bird & Barrel,100 Barnehurst Road,Bexleyheath,Bexley,0.1583262820662222,51.46570188375115
Botanist,7 Sloane Square,London,Kensington and Chelsea,-0.1565932489055815,51.49309103289611
Bonnie's,28-30 Bromley Hill,Bromley,Lewisham,-0.0016269612308863,51.420947257624455
No 197 Chiswick Fire Station,197 Chiswick High Road,Chiswick,Hounslow,-0.2571762414590895,51.492290598649305
Mabel's Tavern,9 Mabledon Place,London,Camden,-0.1274976731363871,51.527764702420384
The Bar,266 Church Road,Northolt,Ealing,-0.3796118756017428,51.54251446009224
Kings Stores,14 Widegate Street,Spitalfields,City and County of the City of London,-0.0782084878572936,51.51812747489479
Mossy Well,258 Muswell Hill Broadway,London,Haringey,-0.142056739187492,51.590818206260856
Hoop & Grapes,47 Aldgate High Street,Tower Hill,City and County of the City of London,-0.0742508735742966,51.51422262014057
Beehive,104 Empson Street,Bow,Tower Hamlets,-0.0123924329363756,51.52180570070976
Leconfield,79 Green Lanes,Stoke Newington,Islington,-0.0882247440359964,51.553254541220205
Lion & Unicorn,42 Gaisford Street,London,Camden,-0.1398160053735573,51.54811330750584
Electric Diner,191-193 Portobello Road,Notting Hill,Kensington and Chelsea,-0.2050658899729344,51.515524157863744
Mitre,40 Holland Park Avenue,Notting Hill,Kensington and Chelsea,-0.2041136876682104,51.50785685081074
Han,1 High Street,New Malden,Kingston upon Thames,-0.2571459851760459,51.403119311214994
Railway Bell,87 George Lane,South Woodford,Redbridge,0.0282255502332792,51.59179224771514
Cabin,"Lawn, Paddington Station",Paddington,City of Westminster,-0.1767499207096896,51.51647232905104
Mawney Arms,44 Mawney Road / Willow Street,Romford,Havering,0.1707396006173937,51.57911763237018
Paternoster Chop House,"Warwick Court, 3 Paternoster Square",London,City and County of the City of London,-0.0990721574275763,51.51485257429465
Duke Of Wellington,260 Haggerston Road,Hackney,Hackney,-0.0745975922303269,51.54016298553893
Little Windsor,13 Greyhound Road,Sutton,Sutton,-0.1865309613159279,51.364017473826685
Princess of Wales,1a Montpelier Row,Blackheath,Lewisham,0.0096045085897563,51.46812082724495
Old Bank,239 Southwark Park Road,Bermondsey (East),Southwark,-0.0631352832017136,51.4925648524132
Coppermill,205 Coppermill Lane,Walthamstow,Waltham Forest,-0.0405072474561947,51.5801102380367
Feathers,18-20 Broadway,London,City of Westminster,-0.1328848468033547,51.49934362194665
One Kew Road,One Kew Road,Richmond,Richmond upon Thames,-0.3017283060021183,51.4640775807209
Queens Head,13 Brook Green,Hammersmith,Hammersmith and Fulham,-0.21812110195238,51.49529194223941
Two Floors,3 Kingly Street,London,City of Westminster,-0.1385681650169074,51.51225757554136
Willow,"16, The Triangle",Kingston,Kingston upon Thames,-0.2742153185779864,51.40876765611498
Mannions Prince Arthur,158 Broad Lane,South Tottenham,Haringey,-0.0642860744564261,51.58472241581624
Unicorn,227 Camden Road,London,Camden,-0.1300357005861269,51.548497417591975
Plough,154 Bury Street,Ruislip,Hillingdon,-0.4316231347111916,51.58333608719022
Browns,"3, Jerome Place, Charter Quay",Kingston,Kingston upon Thames,-0.3078881408395605,51.40924985482582
Northcote Arms,110 Grove Green Rd,Leyton,Waltham Forest,-0.0012717002998187,51.56046526149692
Zubi,144 Holloway Road,Holloway,Islington,-0.1097936270946509,51.55107755518281
Sun,21 Drury Lane,London,Camden,-0.123207602465981,51.51499840231365
Huntsman & Hounds,2 Ockendon Road,Upminster,Havering,0.2521679706047824,51.54306725270661
012 Bar & Grill,108-110 The Grove,Stratford,Newham,0.0040521559310448,51.54406167412191
Dublin Castle,94 Parkway,London,Camden,-0.145674275395407,51.53741479298039
Drake & Morgan (Kings Cross),6 Pancras Square,London,Camden,-0.1250425457582237,51.53348084568618
Princess Alexandra,219 Barking Road,London,Newham,0.0153883247413358,51.51926305184409
Junction,70 Station Road,Upminster,Havering,0.2504139581018629,51.5583802025802
Miller's Tap,219-221 High Street,Uxbridge,Hillingdon,-0.476622570266401,51.54505576336413
Vertigo Lounge,17-19 Station Lane,Hornchurch,Havering,0.2210838204406001,51.56076470579735
Kings Arms,268 London Road,Mitcham,Merton,-0.1641984025469473,51.40661891790717
Centre Page,29-33 Knightrider Street,London,City and County of the City of London,-0.0985380069386028,51.51245183520941
Toby Carvery,"415 Brighton Road, Croydon",South Croydon,Croydon,-0.0974436470728971,51.35555483657576
Hangar,37 The Oval,Sidcup,Bexley,0.1024386076549569,51.44511650639186
Globe,104 Windmill Road,Brentford,Hounslow,-0.310032194396507,51.49066282835766
Queens Larder,1 Queen Square,London,Camden,-0.1226711005354347,51.52138365989186
Royal Oak,95 High Street,Harlesden,Brent,-0.2446017134773954,51.53609486785355
Scolt Head,107a Culford Road,London,Hackney,-0.0821474104556283,51.542723853919824
Randall Tavern,"Fieldway, New Addington",Croydon,Croydon,-0.0201940175144548,51.354706776842434
Green Man,168 Wickham Street,Welling,Bexley,0.0921954811454903,51.46690079935979
Essex House,,Chingford,Waltham Forest,0.0099880025634355,51.63389442001069
Yorkshire Grey,2 Theobalds Road,London,Camden,-0.1138579494888547,51.5215210733387
Carpenters,1370 Uxbridge Rd,Hayes End,Hillingdon,-0.436419899718386,51.52601143551093
Old Maypole,105 Fencepiece Road / Cleeves Walk,Barkingside,Redbridge,0.0840710643974579,51.60129055719025
Rose,35 Albert Embankment,London,Lambeth,-0.122623380446152,51.489602558720506
Rivington Bar Grill,28-30 Rivington Street,London,Hackney,-0.0819178854299506,51.52589498068828
Myllet Arms,Western Avenue,Perivale,Ealing,-0.3231124054050389,51.53300715618162
Firefly,"3 Station Parade, Balham High Rd",Balham,Wandsworth,-0.1533849404594099,51.44232180694127
Spouters Corner,"Unit 5, Spouter's Corner, 180 High Rd",Wood Green,Haringey,-0.1086586066298399,51.59688501937127
Browns Bar & Brasserie,82-84 Saint Martin's Lane,London,City of Westminster,-0.1273810180917801,51.51128815159206
Partridge,194 High Street,Bromley,Bromley,0.014278857896156,51.40520720523722
Queens Bar,"Queens Hotel, 122 Church Road",Upper Norwood,Croydon,-0.0831248635219494,51.41538409249082
Brown Dog,28 Cross Street,Barnes,Richmond upon Thames,-0.2521127935878078,51.469490805331134
Gordon Bennett,"75, Maple Road",Surbiton,Kingston upon Thames,-0.3084413951161348,51.39462648456528
Sir John Oldcastle,29-35 Farringdon Road,London,Camden,-0.1059537599078269,51.51990092941066
Apple Tree,45 Mount Pleasant,London,Camden,-0.1121790221966424,51.5234275095152
Jam Tree,541 Kings Road,Fulham,Hammersmith and Fulham,-0.187577966496247,51.47897890214634
Brockley Brewery,31 Harcourt Road,Brockley,Lewisham,-0.0364462841950295,51.46228227163642
Grove,1 Ealing Green,Ealing,Ealing,-0.305084115200611,51.51026709867814
Maxwells,34 King Street,London,City of Westminster,-0.1243975439217579,51.51094372360888
Crown,49 Tranquil Vale,Blackheath,Lewisham,0.0072339323892074,51.46659665883347
John the Unicorn,157-159 Rye Lane,Peckham,Southwark,-0.0673190680116347,51.46857804213403
Tap East,"Montfichet Road, 7 International Square",Westfield Stratford City,Newham,-0.0088673328747527,51.54411984567341
Corner Pin,Slade Green Road,Erith,Bexley,0.192816590010469,51.47157271606765
Spread Eagle,71 Wandsworth High Street,Wandsworth,Wandsworth,-0.1920489334457301,51.45658416797147
El Vino (Masons Avenue),12-14 Mason's Avenue,London,City and County of the City of London,-0.0902873721418066,51.51571701136704
Real Ale,4 Formosa Street,Maida Vale,City of Westminster,-0.1847261190017737,51.524662433262215
Brewheadz,"Unit 16a, Rosebery Industrial Park",Tottenham,Haringey,-0.0576170634305064,51.59589761450554
Paradise by Way of Kensal Green,19 Kilburn Lane,North Kensington,Brent,-0.2162379545662156,51.52911155168096
Lord Holmesdale,184 Homesdale Road,Bromley,Bromley,0.0349804206297489,51.39995772037911
Hunter S,194 Southgate Road,London,Hackney,-0.0835073169623318,51.54605536101137
Old Shoreditch Station,1 Kingsland Road,Bethnal Green,Hackney,-0.0778034000393223,51.52774298479759
Duke On The Green,235 New Kings Road,Fulham,Hammersmith and Fulham,-0.1999133164348435,51.47255929675561
Union Jack,225 Union Street,London,Southwark,-0.1022714806547006,51.50342060472361
Plough & Harrow,120-124 King Street,Hammersmith,Hammersmith and Fulham,-0.2330083756185976,51.492918272760505
Waddon,2 Stafford Road,Croydon,Croydon,-0.1168551793241918,51.36658806498716
Colby Arms,132 Gipsy Hill,Gipsy Hill,Southwark,-0.0834416234630316,51.425002564649965
Queens Head,"41 Station Road, London",Winchmore Hill,Enfield,-0.1004768316534097,51.63342391602331
Railway Tavern,15 Liverpool Street,London,City and County of the City of London,-0.0843392169157786,51.51767031045773
Twelve Pins,263 Seven Sisters Road,Finsbury Park,Haringey,-0.1050210082779229,51.56527171129802
Clachan,34 Kingly Street,London,City of Westminster,-0.1401879699340816,51.51353325653108
Roebuck,"72 Hampton Road, Hampton",Hampton Hill,Richmond upon Thames,-0.3529170639574507,51.42902741941233
Welcome Inn,451 Lordship Lane,Wood Green,Haringey,-0.0946929491545626,51.598007790565184
Freemasons Arms,32 Downshire Hill,Hampstead,Camden,-0.1695087562343615,51.556493646690775
Imperial,5 Leicester Street,London,City of Westminster,-0.1310927015842083,51.51109555138716
Coronation Hall,St Marks Hill,Surbiton,Kingston upon Thames,-0.3036757079523185,51.3936673143484
Shirley Inn,158 Wickham Road,Croydon,Croydon,-0.0505152029627777,51.37428835177439
DoubleTree by Hilton Hotel London - West End,"92 Southampton Row,",London,Camden,-0.1218375012059133,51.52027320214184
Henry Addington,22-28 Mackenzie Walk,Canary Wharf,Tower Hamlets,-0.0220506733365006,51.50451368847349
Prince of Wales,48 Cleaver Square,Kennington,Lambeth,-0.108712012002906,51.48812005783403
Cinnamon Bazaar,28 Maiden Lane,London,City of Westminster,-0.1236600869774767,51.51065315430333
Travelodge London Wembley High Road,High Road,Wembley,Brent,-0.2961992790359236,51.552160271441046
Truckles of Pied Bull Yard,"Pied Bull Yard, Off Bury Place",London,Camden,-0.124055521721431,51.51856409770873
Bar Story,213 Blenheim Grove,Peckham,Southwark,-0.0703939052070457,51.4694110979245
Davy's Wine Vaults,161 Greenwich High Road,Greenwich,Greenwich,-0.0147218408351341,51.47754597588651
Fairlop Waters (Dalton's & S/D),Forest Road,Barkingside,Redbridge,0.0979915164592472,51.59502623562679
Old Wheatsheaf,3 Windmill Hill,Enfield,Enfield,-0.0896516156833252,51.65374206362094
Monument,18 Fish Street Hill,London,City and County of the City of London,-0.0862720306675812,51.51007605939489
Hero Of Switzerland,142 Loughborough Road,Brixton,Lambeth,-0.1052958654537174,51.46696795851282
Newmarket Ale House,17 York Way,Holloway,Camden,-0.1260902270476654,51.54307482795635
Owl & Hitchhiker,471 Holloway Road,London,Islington,-0.124028197629765,51.56059550845457
Elderfield,57 Elderfield Road,Clapton,Hackney,-0.0466190642523568,51.55368372781624
Princess Of Prussia,15 Prescot Street,London,Tower Hamlets,-0.0705022553618695,51.51152609363184
Toby Carvery Moby Dick,Whalebone Lane North / Eastern Avenue West,Chadwell Heath,Barking and Dagenham,0.1404664016428302,51.58052744323415
River Ale House,131 Woolwich Road,Greenwich,Greenwich,0.0144207852404669,51.48625773500024
Slug & Lettuce,150-156 High Street,Beckenham,Bromley,-0.027063240960206,51.40776274230457
Balls Brothers (Mark Lane),"2 Minster Court, Mark Lane",London,City and County of the City of London,-0.0807563327848199,51.51066931547907
Leinster Arms,17 Leinster Terrace,Bayswater,City of Westminster,-0.182821913429672,51.511665551272095
Arbitrager,27a Throgmorton Street,London,City and County of the City of London,-0.0860526355019337,51.51496451568296
Queens Head,5 West Ham Lane,Stratford,Newham,0.0041398115202817,51.53949188364011
Brewers Fayre,51 Albion Road,Bexleyheath,Bexley,0.1420251873852478,51.45519131911549
Hind & Hart,The Concourse,Colindale,Barnet,-0.244946001160945,51.602437651070446
Camden Head,100 Camden High Street,London,Camden,-0.1412968858182927,51.53761531577094
Williams Ale & Cider House,22-24 Artillery Lane,Spitalfields,City and County of the City of London,-0.078285829159438,51.51834456791367
Beech House,92 High Street,Hampton Hill,Richmond upon Thames,-0.3548704607861081,51.42750819198143
Railway,"2 Greyhound Lane,",Streatham,Lambeth,-0.1342652333153152,51.41854790041317
Three Tuns,36 Jewry Street,London,City and County of the City of London,-0.0768577179645594,51.51255681673029
Surprise,6 Christchurch Terrace,Chelsea,Kensington and Chelsea,-0.1627014628336504,51.48628050711714
Sync,Rickmansworth Road,Pinner,Harrow,-0.3971035319966617,51.59832810997036
Dragon,138-139 Shoreditch High Street,London,Hackney,-0.078248427723078,51.526419380338574
Claret & Ale,"5 Bingham Corner, Lower Addiscombe Road",Addiscombe,Croydon,-0.0734383309676237,51.37999175377988
Drift,"Heron Tower, 110 Bishopsgate",London,City and County of the City of London,-0.081179284748603,51.51637761822232
Alphabet,56 Upper Street,London,Islington,-0.1040017812451837,51.53600232302878
Star & Garter,4 Lower Richmond Road,Putney,Wandsworth,-0.2165684039128546,51.46714827708112
White Hart,1-3 Mile End Road,Whitechapel,Tower Hamlets,-0.0545090124602555,51.52056015387122
Piccolino,11 Exchange Square,London,City and County of the City of London,-0.0816528601279912,51.52019827419248
Abbey Tavern,124 Kentish Town Road,London,Camden,-0.141510230910901,51.546179744504975
Old Kings Head,28 Holywell Row,London,Hackney,-0.0823166504448285,51.522924930460576
Cornerstone,"The Rotunda Centre, Clarence Street",Kingston,Kingston upon Thames,-0.2993418794085,51.41170694687227
Gun,235 Well Street,Homerton,Hackney,-0.0469097516137895,51.54453400999248
Canonbury Tavern,"21 Canonbury Place,",London,Islington,-0.0972170829367522,51.54482204283551
Ryan's N16,181 Stoke Newington Church Street,Stoke Newington,Hackney,-0.0827581662235624,51.56114167713682
Lord Moon of the Mall,18 Whitehall,London,City of Westminster,-0.127506981228315,51.50646106509365
Crane,14 Armoury Way,Wandsworth,Wandsworth,-0.1947220086062686,51.458882520124455
George & Dragon,183 High Street,Acton,Ealing,-0.2716932606590197,51.507235173547535
All Bar One,42 McKenzie Walk,Isle of Dogs,Tower Hamlets,-0.0204955850416375,51.50415469655614
Bird In Hand,35 Dartmouth Road,Forest Hill,Lewisham,-0.0541295954068746,51.4377928601377
Yates's,87-89 South Street,Romford,Havering,0.1828736539474706,51.576311658040936
Wibbas Down Inn,6-12 Gladstone Road,Wimbledon,Merton,-0.2020793740805064,51.41815928905704
Sun,45/47 London Road,Romford,Havering,0.175558258689364,51.57514347655604
Jolly Sailor,64 High Street,South Norwood,Croydon,-0.0750378689454349,51.39906463885156
Royal Oak,North Road,Havering-Atte-Bower,Havering,0.1826137233751431,51.61785495119209
King Charles I,55-57 Northdown Street,London,Islington,-0.1196596083686689,51.53184795431737
George,70-74 High Road,South Woodford,Redbridge,0.022709678015455,51.59339820806024
Bickley,Chislehurst Road,Chislehurst,Bromley,0.0558275769476724,51.40767856094799
Banners,21 Park Road,Hornsey,Haringey,-0.1249767684853517,51.58068187478735
Lord Aberconway,73 Old Broad Street,London,City and County of the City of London,-0.0828289532983174,51.51690821052758
Coco Momo,79 Marylebone High Street,London,City of Westminster,-0.152183830533816,51.520890015472034
Fen,Fenchchurch Street Station Concourse,London,City and County of the City of London,-0.07908166417434,51.51176596441618
Mas Q Menos,70 Mark Lane,London,City and County of the City of London,-0.0795989701200002,51.51145969831526
Duke Of Edinburgh,83 Mayes Road,London,Haringey,-0.1129392928166846,51.594975646691104
Sports Bar & Grill,"Unit B1, The Balcony, Waterloo Railway Station",London,Lambeth,-0.1132337586770971,51.50314782082231
Golden Lion,2 High Street / North Street,Romford,Havering,0.1791650602288954,51.57813420916818
Suburb SW11,148 Falcon Road,Battersea,Wandsworth,-0.1699649780884637,51.46601677239824
Bell Inn,91 Bell Street,London,City of Westminster,-0.1657396835767907,51.52217289167316
Perry Hill,78-80 Perry Hill,Catford,Lewisham,-0.0350338159976289,51.4351630147407
Manor House,129 High St,Wanstead,Redbridge,0.0279511884004651,51.57654569881996
Great Harry,7-9 Wellington Street,Woolwich,Greenwich,0.0664771357033551,51.48975816972503
World's End Market,459 Kings Road,Chelsea,Kensington and Chelsea,-0.1780419484489717,51.482652995764894
All Bar One,127 Finsbury Pavement,London,Islington,-0.0877676341760639,51.52012733360408
Bridge House,2 High Street,Penge,Bromley,-0.0606196545860047,51.41806214045861
Mitre Hotel,291 Greenwich High Road,Greenwich,Greenwich,-0.009754104772919,51.48017761644455
Bridge,"204 Castelnau, Barnes, London",Barnes,Richmond upon Thames,-0.2325905520184221,51.48584376259264
Eagle Ale House,104 Chatham Road,Battersea,Wandsworth,-0.1636836969587593,51.454992457865664
Five Bells,155 New Cross Road,New Cross,Lewisham,-0.0475471763018844,51.47607404738968
JJ Moon's,48-52 High Street,Hornchurch,Havering,0.2151248294355947,51.56283787724743
Bucks Head,202 Camden High Street,London,Camden,-0.1437848640302024,51.54061329901445
Arnos Arms,338 Bowes Road,New Southgate,Enfield,-0.1342594690414744,51.61622391075243
Olde Clock Tower,35 Whitehorse Road,Croydon,Croydon,-0.0977459211572703,51.38502040436206
Canton Arms,177 South Lambeth Road,South Lambeth,Lambeth,-0.1228626533739302,51.4767558421696
City Bar,The Steel Yard. 13-16 Allhallows Lane,London,City and County of the City of London,-0.0905409004543828,51.51000176012161
Slug & Lettuce,184 George Lane,South Woodford,Redbridge,0.0246059194730166,51.59383312439347
King's Head,1 High Street,Roehampton,Wandsworth,-0.2394695620753239,51.45044405780431
Bloomsbury Kitchen & Bar,126 Southampton Row,London,Camden,-0.1225869166872328,51.520626921938096
Union,88-90 George Street,London,City of Westminster,-0.156938795055051,51.51736774806346
Railway,16 Blackheath Village,Blackheath,Lewisham,0.0089612919077935,51.46560485598328
Feast Bar & Kitchen,201 Wood Lane,Shepherds Bush,Hammersmith and Fulham,-0.2278494256881931,51.51337959064762
Phoenix,26 Throgmorton Street,London,City and County of the City of London,-0.0860526355019337,51.51496451568296
Clock House,196a Peckham Rye,East Dulwich,Southwark,-0.0664850160869985,51.45969730450294
Le Baron,65 Richmond Road,Twickenham,Richmond upon Thames,-0.3232112428081297,51.44945023096431
Weavers Arms,98 Newington Green Road,London,Islington,-0.0869733295190929,51.54938528375894
Crafty Winger,29/31 York Street,Twickenham,Richmond upon Thames,-0.3274116105041142,51.44754094288288
George,77 Borough High Street,London,Southwark,-0.0904358588907769,51.50424468943375
Crooked Well,16 Grove Lane,Camberwell,Southwark,-0.0903994760536859,51.47339887951548
Owl & Pussycat,34 Redchurch Street,Bethnal Green,Tower Hamlets,-0.0744743120395772,51.52429811119776
Turnpike House,270 Stamford Hill,Stoke Newington,Hackney,-0.0719431176544631,51.57501071599771
Caxton Bar & Grill,St. Ermin's Hotel 2 Caxton Street,London,City of Westminster,-0.1339295432080405,51.498811692328175
Blue Orchid,12 Claremont Road,Surbiton,Kingston upon Thames,-0.3040923395535596,51.39367334408801
Globe,20 Morning Lane,Homerton,Hackney,-0.0537743614576168,51.54589801981597
Railway Tavern Ale House,2 St Jude Street,London,Islington,-0.0775167587205515,51.54857401729881
George,250 Haverstock Hill,Hampstead,Camden,-0.1660550511326542,51.55161973928429
Fitzrovia Belle,174 Tottenham Court Road,London,Camden,-0.1356683730746107,51.52256213606072
New Cross Inn,323 New Cross Road,New Cross,Lewisham,-0.0383543388656153,51.4755248248835
Park Fever,21a Staplehurst Road,Hither Green,Lewisham,-0.0005772775878654,51.45324079800466
Caraway Lounge,290 North Street,Romford,Havering,0.1727467254327781,51.585186745646936
Mabel's,29-30 Maiden Lane,London,City of Westminster,-0.1236600869774767,51.51065315430333
Duke Of York,8 Dering Street,London,City of Westminster,-0.1458973993118403,51.51419018396469
Satay Bar,447 Coldharbour Lane,Brixton,Lambeth,-0.1144228489098977,51.46140471169311
Blackbird,209 Earls Court Road,Earls Court,Kensington and Chelsea,-0.1922203136140472,51.49196397070627
Rincon bar espanol,1 Paradise Road,Richmond,Richmond upon Thames,-0.3033705749250032,51.45977592667318
Coach & Horses,High Road,Ickenham,Hillingdon,-0.44310387000261,51.564578320398425
Back Room Bar,148b Old Park Lane,London,City of Westminster,-0.1491226085288753,51.50396246244067
Wheatsheaf,185 Baker Street,Enfield,Enfield,-0.0790569964695767,51.66018759961174
O'Neill's,33-37 Wardour Street,London,City of Westminster,-0.1322788916625121,51.51133926281288
Perseverance,112 Pritchards Road,Bethnal Green,Tower Hamlets,-0.0623628337970246,51.53418807772584
Swan,22 High Street,Hampton Wick,Richmond upon Thames,-0.3110309974745299,51.41292814931983
Northbank,1 St PaulÃÂ¢ÃÂÃÂs Walk,London,City and County of the City of London,-0.0973023128899269,51.51063323709989
Brew Club Tap Room,"Unit 9, Tram Depot, 38-40 Upper Clapton Road",Clapton,Hackney,-0.0554991350903759,51.55991923871824
Whelan's,135 High Street,Uxbridge,Hillingdon,-0.4805422438409898,51.54774135997982
Moon & Sixpence,250 Uxbridge Road,Hatch End,Harrow,-0.3732859626350651,51.60824272905901
Engineer,65 Gloucester Avenue,London,Camden,-0.1508032962501214,51.54001368824371
Barmy Arms,The Embankment,Twickenham,Richmond upon Thames,-0.3260832854773726,51.446478865415074
Duke's Head,8 Lower Richmond Road,Putney,Wandsworth,-0.2165684039128546,51.46714827708112
Holly Tree,141 Dames Road,Forest Gate,Waltham Forest,0.0204491018622976,51.555767445120594
Simmons,21 Widegate Street,London,City and County of the City of London,-0.0782084878572936,51.51812747489479
Bird of Smithfield,26 Smithfield Street,London,City and County of the City of London,-0.1025158186964607,51.5183435846237
Cambridge,93 Charing Cross Road,London,City of Westminster,-0.1295482594935103,51.513615876017525
Bank Of Friendship,226 Blackstock Road,Highbury,Islington,-0.0988218446790988,51.55857074363168
Lamb Inn,52-54 Church Street,Lower Edmonton,Enfield,-0.0635677598788659,51.625374685081646
Dartmouth Arms,7 Dartmouth Road,Forest Hill,Lewisham,-0.0541295954068746,51.4377928601377
Miller & Carter Steakhouse,Stirling Corner,High Barnet,Barnet,-0.253751760717427,51.64316884182568
Globe,43-47 Marylebone Road,London,City of Westminster,-0.1570000052720468,51.52191900507461
Railway Tavern,129 Hale Lane,Mill Hill,Barnet,-0.2589104080258243,51.61642120070314
Prince,1 Finsbury Road,London,Haringey,-0.1163662920150877,51.60253041852575
Ship Tavern,12 Gate Street,London,Camden,-0.1187847767168138,51.51704984569271
Juno Rooms,67-69 Watling Street,London,City and County of the City of London,-0.0932692788180769,51.51299577502977
Dolphin Tavern,44 Red Lion Street,London,Camden,-0.1175448721299007,51.51985368309065
Prince of Greenwich,72 Royal Hill,Greenwich,Greenwich,-0.0098263252004681,51.47653672363711
Joe's Brasserie,130 Wandsworth Bridge Rd,Fulham,Hammersmith and Fulham,-0.1917962758090552,51.47245242365402
Friend At Hand,2-4 Herbrand Street,London,Camden,-0.1245537714474644,51.52292455191715
Off Broadway,63-65 Broadway Market,Hackney,Hackney,-0.0618790327655357,51.53675194007326
Regent,201-203 Liverpool Road,London,Islington,-0.1067059250711554,51.53998479500196
Talbot,1 Mill Hill Road,Acton,Ealing,-0.2738916332387745,51.5062603688221
Surbiton Flyer,84 Victoria Road,Surbiton,Kingston upon Thames,-0.3050666344081268,51.39259031885428
Heart of Hackney,255 Mare Street,Hackney,Hackney,-0.0555824919807954,51.54272662915013
Coach,26-28 Ray Street,London,Islington,-0.1091516698831447,51.523081992990434
Beer Box,"Peninsula Square, Greenwich Peninsula",Greenwich,Greenwich,0.0039701546003482,51.501823480149056
Robin Hood,240 The Ridgeway,Enfield,Enfield,-0.1282735327363117,51.67707903596421
Four Sisters Townhouse,"5 Groveland Court, Bow Lane",London,City and County of the City of London,-0.093762106741189,51.51327357023277
Bow Bells,116 Bow Road,Bow,Tower Hamlets,-0.0203020823412797,51.527883613431165
Stags Head,55 Orsman Road,London,Hackney,-0.0787612932634957,51.53614876956998
Hermits Cave,28 Camberwell Church Street,Camberwell,Southwark,-0.091318687598217,51.47380054281954
Woody`s,"5 Ram Passage, High Street",Kingston,Kingston upon Thames,-0.3081985402379094,51.407851465089934
Durell Arms,704 Fulham Road,Fulham,Hammersmith and Fulham,-0.2078533767755565,51.47387690179769
La Fonda de Maria,273A Clapham Road,Stockwell,Lambeth,-0.1234169806442463,51.47096443622645
Revolution,1 America Square,London,City and County of the City of London,-0.0762137576072794,51.51142215808908
Ship,47 High Street,Croydon,Croydon,-0.1000655928889906,51.37203645689176
Beer House,Charing Cross Station,London,City of Westminster,-0.124777513285982,51.50835988951573
Antwerp Arms,168-170 Church Road,London,Haringey,-0.0746164318647656,51.60191522306646
Shanakee,91 High Street,Wealdstone,Harrow,-0.335992652758371,51.596901684361725
Bedford Tavern,16 Sydenham Road,Croydon,Croydon,-0.0944386170002009,51.38021847770861
Surprise,16 Southville,South Lambeth,Lambeth,-0.131536444321891,51.474529297538425
Rebel Inn,78a Streatham High Road,Streatham,Lambeth,-0.1285225879344335,51.435200868319214
Regent's Bar & Kitchen,"Inner Circle, Regent's Park",London,City of Westminster,-0.1544355098163268,51.52829945839654
Halfway House,165 Lower Road,Belvedere,Bexley,0.1614134403078501,51.49048372739322
King's Arms,98 Kennington Lane,Kennington,Lambeth,-0.1081585026290007,51.49000859455019
New Fairlop Oak,Fencepiece Road,Barkingside,Redbridge,0.0849970066062282,51.59407986427623
Pillars of Hercules,7 Greek Street,London,City of Westminster,-0.1310647733763395,51.51459327615262
Jolly Farmers,7 Purley Road,Purley,Croydon,-0.1162451190796086,51.338025901912616
Bunch of Grapes,2 St Thomas Street,London,Southwark,-0.0886174637999724,51.50465571459389
Kings Arms,68 Great Titchfield Street,London,City of Westminster,-0.1402580127406866,51.518534311956174
Duke of Kendal,38 Connaught Street,Paddington,City of Westminster,-0.1656804954828033,51.51468107280328
Crown & Anchor,246 Brixton Road,Brixton,Lambeth,-0.112972055331564,51.47110254754424
White Hart,184 New Cross Road,New Cross,Lewisham,-0.0469075089424587,51.47486733190636
Princess Of Wales,22 Chalcot Road,London,Camden,-0.1537200944757622,51.54027544372922
Hero of Maida,55 Shirland Road,Maida Vale,City of Westminster,-0.1882203196302438,51.52415890677107
Kings Arms,65 Newcomen Street,London,Southwark,-0.0912337377050292,51.502737900777205
Black George,181 Uxbridge Road,West Ealing,Ealing,-0.3177518595278816,51.5110338525088
Camden Eye,2 Kentish Town Road,London,Camden,-0.142097714816643,51.5399031530741
Red Lion,13 St Marys Road,Ealing,Ealing,-0.3049511709743154,51.50802604956528
True Craft,68 West Green Road,London,Haringey,-0.0753156823560348,51.58434646352045
Brewhouse & Kitchen,397-400 Geffrye Street,Bethnal Green,Hackney,-0.0753617394658303,51.53230709596736
Factory House,37 Leadenhall Street,London,City and County of the City of London,-0.0827440586104024,51.51241046867764
Porterhouse Steak Bar,13 Green Wrythe Lane,Carshalton,Sutton,-0.1687465824084421,51.37303049045857
Minories,64-73 Minories,London,City and County of the City of London,-0.0747470426780179,51.510660667850686
Sultan,78 Norman Road,South Wimbledon,Merton,-0.1857082995567953,51.41862654288381
Stage Door,30 Webber Street,London,Lambeth,-0.1075196519338487,51.50125720779106
Station House,2 Grove Park Road,Chiswick,Hounslow,-0.269277650921323,51.481615559834026
Aeronaut,264 Acton High Street,Acton,Ealing,-0.2757822090690976,51.508473354253645
Two Point,26 Crawford Street,London,City of Westminster,-0.1607474890212629,51.51978360939931
Askew Pub & Kitchen,269 Uxbridge Road,Shepherds Bush,Hammersmith and Fulham,-0.2440371353647604,51.50656376898576
George & Vulture,63 Pitfield Street,London,Hackney,-0.083819727096088,51.529010575332826
Other Palace Bar,12 Palace Street,London,City of Westminster,-0.1420878220273038,51.49872538898968
Porcupine,48 Charing Cross Road,London,City of Westminster,-0.1281838871178628,51.51174161008827
Gunners,204 Blackstock Road,Highbury,Islington,-0.09885517053518,51.55915580245696
Beer & Burger Store,88 Walm Lane,London,Brent,-0.22126957942199,51.54870186126389
Waterfront,"Baltimore House, Juniper Drive, Battersea Reach",Wandsworth,Wandsworth,-0.1854124330347286,51.464224461283386
Lazy Bones,"Unit 5, 19-25 Cowcross Street",London,Islington,-0.1036901908006584,51.52026004314818
Pear Tree,908 Brighton Road,Purley,Croydon,-0.1156512562362679,51.339554151290685
Brown Cow,676 Fulham Rd,Fulham,Hammersmith and Fulham,-0.2067984852742638,51.47470609433088
William IV,786 Harrow Road,Kensal Rise,Brent,-0.2189256685754631,51.5289545491745
Comedy,7 Oxenden Street,London,City of Westminster,-0.1323562356427748,51.51015345469894
Liquor Station,397a High Road,Wembley,Brent,-0.2922426938816402,51.55343370326394
Phoenix,Windsor Walk,Camberwell,Southwark,-0.0887162027074055,51.46888402116853
Shawl,25 High Street,Harlesden,Brent,-0.2479659171858249,51.53672963937069
Greene Man,383 Euston Road,London,City of Westminster,-0.1431620626865893,51.52367917843208
Swan,46 Hammersmith Broadway,Hammersmith,Hammersmith and Fulham,-0.2250639615127582,51.49309508748576
Frankie & Benny's,"Unit Fr2, 1st Floor, The Brewery",Romford,Havering,0.1801446889649281,51.57598468304023
Good Yarn,132 High Street,Uxbridge,Hillingdon,-0.4805422438409898,51.54774135997982
White Lion of Mortimer,223 London Road,Mitcham,Merton,-0.1634902920822519,51.40706646271421
Hide,39-45 Bermondsey Street,London,Southwark,-0.0818449368868383,51.5015685121456
Hat & Tun,3 Hatton Wall,London,Camden,-0.1083166348133227,51.521665662226745
Six Yard Box,"Unit 6, The Artworks, Elephant Road",London,Southwark,-0.0985298796159004,51.49396256164259
Cads,34 Norfolk Place,Paddington,City of Westminster,-0.1719464638819215,51.51620872458235
La Rueda,66 Clapham High St,Clapham,Lambeth,-0.1336241335934398,51.46359147957078
Red Lion & Sun,25 North Road,Highgate,Haringey,-0.1500977297975358,51.57305023417953
Clarence,53 Whitehall,London,City of Westminster,-0.1267396684257847,51.506197016452006
Prince of Wales,117 Ewell Road,Surbiton,Kingston upon Thames,-0.2975778600121639,51.38948718616307
Black Bull,Victoria Road,South Ruislip,Hillingdon,-0.4011682241640429,51.561532257616406
St Brides Tavern,1 Bridewell Place,London,City and County of the City of London,-0.1046798423584743,51.51309081474093
Angel In The Fields,37 Thayer Street,London,City of Westminster,-0.1512726249152235,51.51776418912093
Falcon,"Lingfield Crescent,",Eltham,Bexley,0.0804804383332858,51.45846710023426
Travellers Friend,496-498 High Road,Woodford Green,Redbridge,0.0257350161444893,51.615638784063655
Banker,Cousin Lane,London,City and County of the City of London,-0.0917228273293521,51.509652295959896
No.8,618 Seven Sisters Road,South Tottenham,Haringey,-0.0819929087707139,51.57831401216325
Greyhound,20 Kingsman Parade,Woolwich,Greenwich,0.0555765466383198,51.49241384466017
Green,29 Clerkenwell Green,London,Islington,-0.1056359207439191,51.52304325893665
Queens Head,8 Flamborough Street,Poplar,Tower Hamlets,-0.038833164389905,51.513680515354224
Hop & Rye,54 London Road,Bromley,Bromley,0.0097697525452667,51.411561599340594
Kitchen 79,79 Salusbury Road,Queen's Park,Brent,-0.2052032205184524,51.53584957222419
Greene Man,191 Old Church Road,Chingford,Waltham Forest,-0.0136067827255058,51.62602281178207
South Beats,282 High Street,Croydon,Croydon,-0.0994546250971756,51.36805167963892
McQueen,55ÃÂ¢ÃÂÃÂ61 Tabernacle Street,London,Islington,-0.0858535039052174,51.52417877761204
Devonshire Arms,33 Kentish Town Road,London,Camden,-0.1427207396542129,51.54089322038877
Missouri Angel,14 Crosswall,London,City and County of the City of London,-0.0757112105762369,51.51171965888875
Prince of Wales,150-151 Drury Lane,London,City of Westminster,-0.1217233383652239,51.51464191448508
Royal Standard,39 Nuxley Road,Belvedere,Bexley,0.1457411825788047,51.4819134987142
Six Storeys,11 Soho Square,London,City of Westminster,-0.1326751904594619,51.51574301221627
UKAI,240 Portobello Road,Notting Hill,Kensington and Chelsea,-0.2064134093200453,51.5179098302091
Wanstead Tap,Arch 352 Winchelsea Road,Forest Gate,Waltham Forest,0.018918867030537,51.5554161179995
Saxon Horn,352 Upminster Road North,Rainham,Havering,0.2115336445980789,51.52149283871056
East London Liquor Co,Grove Road,Bow,Tower Hamlets,-0.0417478078633945,51.53207416299743
Royal Oak,High Street,Green St Green,Bromley,0.0891732886400402,51.35146840337202
Stanley Arms,418 Southwark Park Road,Bermondsey (East),Southwark,-0.0574452596005007,51.494251258334046
Goose,264 Hoe Street,Walthamstow,Waltham Forest,-0.0193315964476366,51.58378351473882
Masons Arms,38 Maddox Street,London,City of Westminster,-0.1425804304514231,51.51282477154483
Speaker,46 Great Peter Street,London,City of Westminster,-0.1323058835631536,51.49694233902651
Albany,13 Steynton Avenue,Bexley,Bexley,0.1277589744645516,51.43628715797304
BrewDog,15-19 Goldhawk Road,Shepherds Bush,Hammersmith and Fulham,-0.2244305901265764,51.50271660844932
Tourian Lounge,90 Highgate Hill,Upper Holloway,Islington,-0.1401525503903907,51.56850478387186
Asylum Tavern,40-42 Asylum Road,Peckham,Southwark,-0.0592600241154942,51.477986273312425
Stag & Hounds,371 Bury Street West,Lower Edmonton,Enfield,-0.0764661802033433,51.63466041045268
Builders Arms,13 Britten Street,Chelsea,Kensington and Chelsea,-0.1677463233446089,51.48906622804186
Squares,Whitcomb Street,London,City of Westminster,-0.1301186538357948,51.50919155470133
100 Wardour Street Bar & Lounge,100 Wardour Street,London,City of Westminster,-0.1339271419376853,51.51367662430318
Bourne & Hollingsworth,28 Rathbone Place,London,Camden,-0.1342293977251225,51.51791700121304
Horns Tavern,40 Knights Hill,West Norwood,Lambeth,-0.1041402645800924,51.43265955044882
Mo-Bo's,160 Station Road,Chingford,Waltham Forest,0.0099880025634355,51.63389442001069
Craft Tooting,"Unit 1, Broadway Market, 29 Tooting High Street",Tooting,Wandsworth,-0.1665357793097186,51.42834637065911
Three Tuns,1 Portman Mews South,London,City of Westminster,-0.1559433276236148,51.5145373930248
Fox & Hounds,57 Plumstead Common Road,Plumstead,Greenwich,0.0697697533536872,51.48230797232824
Lyttelton Arms,1 Camden High Street,London,Camden,-0.1392700827406099,51.534984298142206
Lounge 101,101-3 High Street,Ruislip,Hillingdon,-0.4232734507564989,51.573530478421496
Made in Brasil Boteco,48 Chalk Farm Road,London,Camden,-0.1482480612320958,51.54292299466098
Workers Arms,"Bethnal Green Working Men's Club, 42-44 Pollard Row",Bethnal Green,Tower Hamlets,-0.063327896764365,51.527081973658895
Coat & Badge,8 Lacy Road,Putney,Wandsworth,-0.217886700893326,51.46472228911637
Actress,90 Crystal Palace Road,East Dulwich,Southwark,-0.0713741565954097,51.458114200847646
Denmark Arms,381 Barking Road,East Ham,Newham,0.0527165173810785,51.53294968207842
Boathouse CafÃÂÃÂ© & Bar,"The Granary, Ice House Quarter, 80 Abbey Road",Barking,Barking and Dagenham,0.0757344936001218,51.5318073056659
Crooked Billet,14-15 Crooked Billet,Wimbledon,Merton,-0.2282489939708025,51.42129157335864
Red Cow,59 Sheen Road,Richmond,Richmond upon Thames,-0.2950673630724859,51.46202055066803
Bradleys Spanish Bar,44 Hanway Street,London,City of Westminster,-0.1326229102124789,51.51666842976996
Streeties,15 Shirley Street,Royal Docks,Newham,0.0118199137571894,51.51286736197426
Keg & Grill,1 South End,Croydon,Croydon,-0.098741311115926,51.36688900510577
Brockley Jack,410 Brockley Road,Brockley,Lewisham,-0.0385248509358442,51.4534231005579
Rocket by Balls Brothers,2 Churchill Place,Canary Wharf,Tower Hamlets,-0.014415527589499,51.50513102451503
MAP Maison,321 Kingsland Road,Hackney,Hackney,-0.0769840615382186,51.53862851134287
Horse & Well,566/568 High Road,Woodford Green,Redbridge,0.0269669870892967,51.61735311045054
Hand In Hand,61 New Park Road,Brixton,Lambeth,-0.1270737773404665,51.44740792491853
Peacock,145 Aylward Street,London,Tower Hamlets,-0.0463066591710602,51.51585556400271
Grosvenor Arms,204 Garratt Lane,Wandsworth,Wandsworth,-0.1896876333256836,51.44822942634653
T J Duffys,282 Northfield Avenue,Ealing,Ealing,-0.3138918140057281,51.49810123141203
Frosty's,404 Kenton Road,Kenton,Harrow,-0.3001669507209185,51.58734190089448
Queen's Head,123 High Street,Cranford,Hounslow,-0.4053006255681376,51.48500985121507
Goldengrove,146-148 The Grove,Stratford,Newham,0.0040521559310448,51.54406167412191
Hector & Noble,233-235 Victoria Park Road,Homerton,Hackney,-0.0437670445640628,51.538447626946976
Porter & Sorter,Station Road,Croydon,Croydon,-0.0918410763698328,51.375985544740686
Salvador & Amanda,8 Great Newport Street,London,City of Westminster,-0.1277847013435637,51.51198703593068
Coach & Horses,178 Stoke Newington High Street,Stoke Newington,Hackney,-0.0735477835712749,51.561278371870095
Chamberlayne,83 Chamberlayne Road,Kensal Rise,Brent,-0.218619451795045,51.53384187415495
Tamara Lounge,"Byron Parade, Uxbridge Road",Hillingdon,Hillingdon,-0.4439047124857901,51.528880586227295
Eva Hart,1128 High Road,Chadwell Heath,Redbridge,0.1299957529472294,51.57051978628365
O'Neill's,5 The Town,Enfield,Enfield,-0.0815057676598209,51.65184676000256
Harrild & Sons,26 Farringdon Street,London,City and County of the City of London,-0.1043415367965268,51.51568426254168
Alchemy,28-30 St George's Walk,Croydon,Croydon,-0.0980597949816018,51.37293916469844
Prince of Wales,52 Perry Rise,Forest Hill,Lewisham,-0.0426865200485849,51.433852228993
Princess Victoria,25 Earls Court Road,Kensington,Kensington and Chelsea,-0.1980493056652151,51.49830357321079
Prince of Wales,98 Morden Road,Merton,Merton,-0.1926738902065954,51.409759338525454
Duke of Clarence,148 Old Brompton Road,South Kensington,Kensington and Chelsea,-0.1826517164196509,51.49096178797971
Lost & Co,339 Battersea Park Road,Battersea,Wandsworth,-0.1566246484667959,51.47409004560275
Nag's Head,203 High Road,Wood Green,Haringey,-0.1101551004278748,51.597008062118284
Surrey Docks,185 Lower Road,Rotherhithe,Southwark,-0.0456174749432062,51.492570817559496
Catford Bridge Tavern,"Station Approach, Catford Bridge",Catford,Lewisham,-0.0244803699112938,51.444670996544936
Dog & Truck,72 Back Church Lane,London,Tower Hamlets,-0.0668590330211723,51.51315668749725
Clapham Tap,128 Clapham Manor Street,Clapham,Lambeth,-0.1356168692508794,51.46450446818275
Cafe Rouge at the Swan,10 High Street,Ruislip,Hillingdon,-0.4270369736617266,51.57653947381839
Biddle Bros. Builders Ltd.,88 Lower Clapton Road,Clapton,Hackney,-0.0532968137020176,51.55371372065404
Copper Cow,2 Fauconberg Road,Chiswick,Hounslow,-0.2714095843205448,51.486557017008494
Victoria,186 Hoe Street,Walthamstow,Waltham Forest,-0.0203973998949707,51.58649918190682
Brass Monkey,250 Vauxhall Bridge Road,London,City of Westminster,-0.1402483186881058,51.49401102771257
Black Lion,2 South Black Lion Lane,Hammersmith,Hammersmith and Fulham,-0.2423253823992723,51.490387418889945
Nags Head,10 James Street,London,City of Westminster,-0.1237069509292951,51.51301899508324
Bulstrode,55 Lampton Road,Hounslow,Hounslow,-0.3665889001283269,51.47040357381947
Door Hinge,"11, Welling High Street",Welling,Bexley,0.1126168346037146,51.46202013047176
Cricketers,93 Chislehurst Road,Orpington,Bromley,0.1004245833676217,51.381456182861264
Blue Ginger,383 Kenton Road,Kenton,Brent,-0.3050384382556056,51.58677387151727
Queens Head & Artichoke,30-32 Albany Street,London,Camden,-0.1440322297021594,51.526031049473886
St Pancras Grand,"Grand Terrace, Upper Concourse, St Pancras International Station",London,Camden,-0.1261216965841033,51.53142975647243
London Tavern,92 Rendlesham Road,Clapton,Hackney,-0.0630907577652345,51.55883088840794
33 Abbeville Road,33 Abbeville Road,Clapham,Lambeth,-0.1411733642418312,51.453531653452366
Whelans,"20, Richmond Road",Kingston,Kingston upon Thames,-0.3002293579120049,51.41259209135178
Express Tavern,56 Kew Bridge Road,Brentford,Hounslow,-0.2882115800451741,51.48905154848771
Chiquito,20-21 Leicester Square,London,City of Westminster,-0.1292646907887901,51.51068871707272
Earl Of Essex,25 Danbury Street,London,Islington,-0.0994921091580308,51.53418473786321
Fifty Five at the Oak,8-10 Clapham High Street,Clapham,Lambeth,-0.1304422751749286,51.46500659363768
Monty's Bar,155 Billet Lane,Hornchurch,Havering,0.2191154139292336,51.56834708262816
Cricketers,107 Addiscombe Road,Croydon,Croydon,-0.0837822134570267,51.37524245977337
Camden Head,2 Camden Walk,London,Islington,-0.1030623203732221,51.53570835973557
City Boot,"3 Bastion Highwalk, 125 London Wall",London,City and County of the City of London,-0.094457568374629,51.51767333569172
Black Horse,63 Albert Road,Bexley,Bexley,0.149939949338787,51.44535201826003
Victoria & Albert Bars,Marylebone Station,London,City of Westminster,-0.162978238022441,51.52309189581313
Camino,33 Blackfriars Lane,London,City and County of the City of London,-0.1032768172997164,51.51321202264676
Crown,622 Holloway Road,Upper Holloway,Islington,-0.1248781284860717,51.56202991518964
Black Horse,318 Crofton Road,Locksbottom,Bromley,0.0567206094568042,51.36824788407198
Slug & Lettuce,"Riverside House, Water Lane",Richmond,Richmond upon Thames,-0.3073426511966222,51.4590240002598
Kings Arms,16 King William Walk,Greenwich,Greenwich,-0.0077283881778395,51.48039501723382
Draft House Old Street,211 Old Street,London,Islington,-0.0891052580310248,51.5260483530386
Afrikiko,871 Old Kent Road,Peckham,Southwark,-0.0567711484164304,51.47995942948503
Hare,Brookshill,Harrow Weald,Harrow,-0.3429703187856964,51.62057882121472
Villages Brewery Taproom,Units 21-22 Resolution Way,Deptford,Lewisham,-0.0247135471340206,51.478605079505066
Maple Leaf,41 Maiden Lane,London,City of Westminster,-0.1227937376178694,51.511043966198514
Kings Arms,25 Roupell Street,London,Lambeth,-0.1097744534978935,51.50456693619518
Maya Pub,"3 Shaftesbury Parade, Shaftesbury Ave",Harrow,Harrow,-0.3546154124450514,51.572219113454246
Mill,"58-62, High Street",Kingston,Kingston upon Thames,-0.3080913981045701,51.407247393880205
Greyhound [Harvester],900 High Road,Chadwell Heath,Redbridge,0.1204528800173844,51.56857020227943
Elm Park Tavern,76 Elm Park,Brixton,Lambeth,-0.1186520942888588,51.449925900146354
White Swan,108 Fetter Lane,London,City and County of the City of London,-0.109408078969414,51.516197675730375
Zoo Too,18 Bear Street,London,City of Westminster,-0.1289556166606397,51.51084565656433
Coco Momo,25 Gloucester Road,South Kensington,Kensington and Chelsea,-0.1834592040858561,51.49818642160518
No 32 The Old Town,32 The Pavement,Clapham,Lambeth,-0.1405862028950568,51.463027644362406
Spanish Galleon,48 Greenwich Church Street,Greenwich,Greenwich,-0.0098174540667289,51.48169848868972
Two Towers,201 Gipsy Road,West Norwood,Lambeth,-0.0877953251774444,51.427528769396105
Red Lion,1 Eldon Street,London,City and County of the City of London,-0.0857787164764575,51.51874597190679
Wenlock Arms,26 Wenlock Road,London,Hackney,-0.0933907846532822,51.53078533728389
Royal Oak,270 Bexley Road,Erith,Bexley,0.1618758104704445,51.47256108694516
Hamptons Ale House,off The Avenue,Hampton,Richmond upon Thames,-0.3782618628594913,51.42623373023655
New Inn,1 New Rd,Brentford,Hounslow,-0.3035033751512215,51.48881503777472
Gipsy Hill Tavern,79 Gipsy Hill,Gipsy Hill,Lambeth,-0.0836953145707801,51.42306426786735
La Chandelle,3 Irving Street,London,City of Westminster,-0.1290168374815024,51.51005527266405
Moranos,12 Station Parade,Canons Park,Harrow,-0.2959274546771051,51.60765715707079
Balkan,66C Ealing Road,Wembley,Brent,-0.2980110635247496,51.54844564938004
Riverfront Bar,"BFI Southbank, Belvedere Road",London,Lambeth,-0.1159442539571714,51.50695036103757
Toby Carvery Woodford Green,1 Southend Road / Roding Lane North,Clayhall,Redbridge,0.0473549418792161,51.59146914942102
Green,172-174 Uxbridge Road,Shepherds Bush,Hammersmith and Fulham,-0.2255055807968494,51.50545763833666
Munich Cricket Club,61-71 Victoria Street (entrance in Strutton Ground),London,City of Westminster,-0.1349813858841389,51.497398580421866
Brown Bear,139 Leman Street,London,Tower Hamlets,-0.0693488329689097,51.512559243029344
Percy & Founders,1 Pearson Square,London,City of Westminster,-0.1383083623159208,51.518979999501546
Seven Stars,400 Footscray  High Street,Sidcup,Bexley,0.1187094470559505,51.41858173999382
Willow Walk,25 Wilton Road,London,City of Westminster,-0.1424272096015822,51.49534051089535
Walmer Castle,58 Ledbury Road,Notting Hill,City of Westminster,-0.1991153407631687,51.5151092189984
Tulse Hill Hotel,150 Norwood Road,Herne Hill,Lambeth,-0.1061916939283628,51.44184745153326
Olde Black Horse,43 Halfway Street,Sidcup,Bexley,0.098008687690861,51.43732703097848
Rose Pub & Kitchen,272 New Cross Road,New Cross,Lewisham,-0.0396340332494193,51.474898751690674
Woolf & Whistle,"Tavistock Hotel, Tavistock Square",London,Camden,-0.1282909064254898,51.52424321475298
Crosse Keys,7-12 Gracechurch Street,City of London,City and County of the City of London,-0.0846592589261058,51.51279250353671
Footman,5 Charles Street,London,City of Westminster,-0.146068677370923,51.508554466809
Old China Hand,8 Tysoe Street,London,Islington,-0.1090425543190148,51.5267582642746
Lamb Tavern,10-12 Leadenhall Market,London,City and County of the City of London,-0.0834092677806402,51.5127001243424
Marquess Tavern,32 Canonbury Street,London,Islington,-0.0953241551447488,51.5431816198814
Duchess Of Kent,441 Liverpool Road,Holloway,Islington,-0.1085923875243661,51.54595936953962
Fishermans Arms,50 Old Oak Lane,Harlesden,Ealing,-0.2484597149154426,51.53063105827674
182,182-184 Preston Road,Wembley,Brent,-0.2945376390629349,51.57037283590196
Lordship,211 Lordship Lane,East Dulwich,Southwark,-0.0767049482805986,51.45491942265435
Waggon & Horses,"1, Surbiton Hill Road",Surbiton,Kingston upon Thames,-0.3015531325716369,51.39897827894516
Central Bar,"West 12 Centre, Shepherds Bush Green",Shepherds Bush,Hammersmith and Fulham,-0.2195296637552776,51.50387431945114
Shaftesbury,121/123 Kew Road,Richmond,Richmond upon Thames,-0.2987780783043724,51.465986207833296
Kilkenny Tavern,131 Merton High Street,Merton,Merton,-0.1917140566230812,51.41549989857516
Commission,Terminal 4 (Airside),Heathrow Airport,Hillingdon,-0.4473528536947876,51.45966718122641
BrewDog,21-22 Poland Street,London,City of Westminster,-0.1371128074795628,51.51507616737109
Windsor Castle,3 Lanark Place,Maida Vale,City of Westminster,-0.1788558145425095,51.52546172174378
TGI Friday's,1 Wembley Park Boulevard,Wembley,Brent,-0.2837393923895712,51.55707762120851
Leather Bottle,538 Garratt Lane,Summerstown,Wandsworth,-0.1871727513661928,51.43686865072259
Mug House,1 Tooley Street,London,Southwark,-0.0880518478232822,51.50646303062314
Railway Hotel,Station Lane,Hornchurch,Havering,0.2191158323550504,51.554713697838366
Beaconsfield,24 Blythe Road,West Kensington,Hammersmith and Fulham,-0.2130919190545603,51.4971668326424
Prince William Henry,217 Blackfriars Bridge Road,London,Southwark,-0.1040347638359155,51.50537357586026
Marylebone,93 Marylebone High Street,London,City of Westminster,-0.1521078952794454,51.51991760948097
Park,56 Elder Road,West Norwood,Lambeth,-0.0982556446814312,51.42435371792104
Milford Arms,574 London Road,Isleworth,Hounslow,-0.3457701028937546,51.47355579384798
Royal Oak,86 St Anns Road,Harrow,Harrow,-0.3376760614638251,51.5816472627314
Bird in Hand,62 Gravel Road,Bromley Common,Bromley,0.0426699132711901,51.37438391199831
Hope,49 Norwood High Street,West Norwood,Lambeth,-0.1017758627805853,51.430696797393246
Calthorpe Arms,252 Grays Inn Road,London,Camden,-0.1159620175510566,51.52467536850442
Unicorn,225 Clayhall Avenue / Caterham Avenue,Clayhall,Redbridge,0.0641001729633338,51.59174245012909
Griffin,1262 High Road,Whetstone,Barnet,-0.1746403311758781,51.63041928975774
Plumbers Arms,14 Lower Belgrave Street,London,City of Westminster,-0.1478971273837102,51.496874846882726
Walnut Tree,857-861 High Road,Leytonstone,Waltham Forest,0.0122278026899429,51.56952370516946
Woodman,60 Battersea High Street,Battersea,Wandsworth,-0.1738389490300547,51.4735680301815
Royal Star,220 City Road,London,Islington,-0.0923581564163934,51.528241593445685
Sun,4 North Street,Carshalton,Sutton,-0.1642252457579996,51.3675281394344
Plough,27 Museum Street,London,Camden,-0.1260134030718327,51.51792093411042
Caspari Lounge & Restaurant,55 High Street,Brentford,Hounslow,-0.3025276008465463,51.48444846474778
Lady Ottoline,11a Northington Street,London,Camden,-0.114728059066729,51.5220926102396
Project Orange,43 St Johns Hill,Battersea,Wandsworth,-0.16999037587242,51.46286074611021
Hole in the Wall,5 Mepham Street,London,Lambeth,-0.1131265630618475,51.503649690940506
Barking Dog,61 Station Parade,Barking,Barking and Dagenham,0.081084340198822,51.53941038555532
Royal Standard,8 Sale Place,Paddington,City of Westminster,-0.1700022072872267,51.517967949654405
Salisbury,"1 Grand Parade, Green Lanes",London,Haringey,-0.0993669428885403,51.58184327891768
Rileys Sports Bar,80 Haymarket,London,City of Westminster,-0.1317565321124723,51.50790471596901
BFI IMAX,1 Charlie Chaplin Walk,London,Lambeth,-0.1136258530495008,51.50481778768445
Barley Mow,82 Duke Street,London,City of Westminster,-0.1509355722377747,51.5129208090441
Devonshire Arms,37 Marloes Road,Kensington,Kensington and Chelsea,-0.1926668841588112,51.49706070297567
Bumpkin,105-106 The Street,Stratford,Newham,-0.0075465406346541,51.54299132380806
Shawl,320 Northolt Road,South Harrow,Harrow,-0.355913334487527,51.56304710037752
Crown Inn,Leaves Green Road,Keston,Bromley,0.0302057440680634,51.34203763494014
Frankie & Benny's,Valley Leisure Park Purley Way,Croydon,Croydon,-0.1233002827064316,51.37725783096053
Greyhound,"82 Kew Green, Richmond",Kew,Richmond upon Thames,-0.2861072728195775,51.48524390103158
Cafe Boheme,13-17 Old Compton Street,London,City of Westminster,-0.130612929070179,51.51330910964328
Fire Station,150 Waterloo Road,London,Lambeth,-0.110653102833473,51.502485778375714
Tappit Hen,21-23 St Swithens Lane,Bank,City and County of the City of London,-0.0888068390914526,51.51183500816016
Crooked Billet,286 Southborough Lane,Bromley,Bromley,0.0568124020047042,51.3898737690461
Smugglers Tavern,28 Warren Street,London,Camden,-0.1410147988618668,51.52366315688053
Alexandra,33 Wimbledon Hill Road,Wimbledon,Merton,-0.2077727412608911,51.42188855153604
Star at Sidcup Place,"Sidcup Place, Chislehurst Road",Sidcup,Bexley,0.1025522121243961,51.42504206220737
Holiday Inn,Gibson Road,Sutton,Sutton,-0.1966179608989685,51.36175421412528
Ship,39-47 St Marychurch Street,Rotherhithe,Southwark,-0.0550432350359492,51.500587306359
Lillie Langtry,121 Abbey Road,Kilburn,Camden,-0.1886588286312147,51.54034340917228
Griffin,93 Leonard Street,London,Hackney,-0.0820049342202257,51.52485325618327
Five Bells,165-167 East End Road,East Finchley,Barnet,-0.1717877894921805,51.59031388201981
City Barge,27 Strand On The Green,Chiswick,Hounslow,-0.2790432708264991,51.4850325780268
Highbury Barn,26 Highbury Park,London,Islington,-0.0981810758307243,51.55352450671397
Moon On The Hill,373-375 Station Road,Harrow,Harrow,-0.3342773147865256,51.57946787482193
Zerodegrees,29-31 Montpelier Vale,Blackheath,Lewisham,0.0080607050164893,51.46739186473473
London Pub,"Royal National Hotel, Woburn Place",London,Camden,-0.1271638368238396,51.52325401369018
Kings Head,123 High Street,Teddington,Richmond upon Thames,-0.3295725716978354,51.42737499503741
Phene,9 Phene Street,Chelsea,Kensington and Chelsea,-0.1676979134582737,51.48524358648861
Manor of Walworth,140-142 Walworth Road,Walworth,Southwark,-0.0983913752050268,51.49209881270826
Tanyard Lane,61-63 Bexley High Street,Bexley,Bexley,0.1500167314636172,51.44178041342071
Grove,83 Hammersmith Grove,Hammersmith,Hammersmith and Fulham,-0.2276373753596771,51.49768426845666
Effra Social,89 Effra Road,Brixton,Lambeth,-0.1134356721016753,51.45566939349602
Doggett's Coat & Badge,1 Blackfriars Bridge,London,Southwark,-0.1048291643899893,51.50845295012
Friendly Society,79 Wardour Street,London,City of Westminster,-0.1332887265914532,51.512371515117295
Planet Hollywood,57-60 Haymarket,London,City of Westminster,-0.1324749411157703,51.50901326854248
Ship & Shovell,1-3 Craven Passage,London,City of Westminster,-0.1246224179890163,51.507575042121296
Pipe Major,1 Yewtree Avenue / Rainham Road South,Dagenham,Barking and Dagenham,0.165755505327915,51.54590858198748
Cleveland Arms,28 Chilworth Street,Paddington,City of Westminster,-0.1810499805790323,51.51490242261087
O'Hanlon's,210 The Broadway,West Hendon,Barnet,-0.2388175437388654,51.57719428374962
Rising Sun,189-191 Eltham High Street,Eltham,Greenwich,0.0586794703839795,51.45096533341105
Centrals Bar & Lounge,169 Central Road,Worcester Park,Sutton,-0.2440383978072285,51.379704378143046
Washington,50 Englands Lane,London,Camden,-0.1624469944260613,51.545942915228366
Colton Arms,187 Greyhound Road,West Kensington,Hammersmith and Fulham,-0.2105075653811654,51.48664200903779
Florence,131-133 Dulwich Road,Herne Hill,Lambeth,-0.1031630343485945,51.45277873899149
White Hart,191 Drury Lane,London,Camden,-0.1238963646361046,51.51612451921078
Village Inn,122-4 Pitshanger Lane,Ealing,Ealing,-0.3127417235824388,51.52649189978557
Crown,260 London Road / Spring Gardens,Romford,Havering,0.1647835991035018,51.5746681545734
Rose Inn,2 Waverley Road,Plumstead,Greenwich,0.0800475803782051,51.48566028069386
Royal Sovereign,64 Northwold Road,Clapton,Hackney,-0.0624372789795938,51.56266895071565
Chandos,56 Brockley Rise,Forest Hill,Lewisham,-0.0405640959174511,51.44815141388858
Fox under the Hill,286 Shooters Hill Road,Woolwich,Greenwich,0.0410774940483042,51.47356648191371
Empire Lounge,20 Woodford New Road,Walthamstow,Waltham Forest,0.0092890910795265,51.59321518006346
Fox & Anchor,115 Charterhouse Street,London,Islington,-0.1006380526948015,51.52051641064313
Bishops Finger,9-10 West Smithfield,London,City and County of the City of London,-0.101904487318532,51.51848657196765
Reach Bar,"Gallions Hotel, Albert Basin Way",Royal Docks,Newham,0.0736977805131429,51.50633950200975
White Hart,22 Great Suffolk Street,London,Southwark,-0.1013135092412888,51.5053205641749
Melbourne Arms,81 Sandy Hill Road,Plumstead,Greenwich,0.0699018018699008,51.483951333004896
Elephant & Castle,119 Newington Causeway,London,Southwark,-0.0990546725169707,51.4969296889988
Perfect Blend,8/9 Streatleigh Parade,Streatham,Lambeth,-0.1269892237847618,51.437514490912406
Hope & Anchor,128 Tottenham Lane,Hornsey,Haringey,-0.1164650342061863,51.5840795504684
Ashbys,123 Uxbridge Road,West Ealing,Ealing,-0.3158691221701676,51.51128561973289
Taproom SE18,15 Major Draper Street,Woolwich,Greenwich,0.0708739996312131,51.49300794969275
Greenwood Hotel,674 Whitton Avenue West,Northolt,Ealing,-0.3525905864039838,51.55318084604418
Swan & Bottle,98 Oxford Road,Uxbridge,Hillingdon,-0.4836584101125941,51.55074914285997
Man on the Moon,"112 Headley Drive, New Addington",Croydon,Croydon,-0.0180498305174385,51.35214354247704
Fox on the Green,1 Islington Green,London,Islington,-0.1024966285095356,51.53648156941741
Holiday Inn Express,200 High St,Colliers Wood,Merton,-0.179581977689124,51.41752437669961
Eagle,250 Ladbroke Grove,North Kensington,Kensington and Chelsea,-0.2128408432206881,51.52272005960437
Hand & Racquet,25/27 Wimbledon Hill Road,Wimbledon,Merton,-0.2077727412608911,51.42188855153604
Old Oak Tree,The Common,Southall,Ealing,-0.3876593307868759,51.49515489421473
Gate,Rickmansworth Road,Northwood,Hillingdon,-0.4371471117598337,51.61415477688
Union,109 Battersea Bridge Road,Battersea,Wandsworth,-0.1683287622891738,51.47704317219174
Hackney Picturehouse,270 Mare Street,Hackney,Hackney,-0.0549504804533086,51.54503625614922
Railway,100 West End Lane,West Hampstead,Camden,-0.1909260258092378,51.54607970163951
Chequers,121 North Street / Billet Lane,Hornchurch,Havering,0.2198401141503264,51.56693046203248
Red Lion,80 High Street South,East Ham,Newham,0.0556084281779049,51.530569917684325
Bar Polski,6 Little Turnstile,London,Camden,-0.1191145456603577,51.51744182204138
Crown,210 Chiswick High Road,Chiswick,Hounslow,-0.2581796008745085,51.49280009215258
Bull,4 Devonshire Row,London,City and County of the City of London,-0.0801915649232631,51.51690100278781
Adriatico,12-14 Mitre Street,London,City and County of the City of London,-0.0787039665872633,51.51389104421813
Ladywell Tavern,80 Ladywell Road,Lewisham,Lewisham,-0.021387837447462,51.45629158136635
Parlour,5 Regent Street,Kensal Rise,Brent,-0.2168294041816667,51.52873386118928
Tank & Paddle,201 Bishopsgate,London,City and County of the City of London,-0.079241247608824,51.520644375839474
Rising Sun,64/68 High Street,Hornchurch,Havering,0.2170088521812821,51.56271234837204
Grapes,362 Uxbridge Road,Hayes,Hillingdon,-0.4052472313142946,51.51792137674582
Old Tigers Head,351 Lee High Road,Lee,Lewisham,0.0091769135960581,51.45739969012416
Brew By Numbers Brewery Tap Room,79 Enid Street,Bermondsey (East),Southwark,-0.0722297942343251,51.49757984309672
Chatsworth Bar,290 High Street,Acton,Ealing,-0.2768620597995383,51.508498209791526
White Hart Inn,"121 Kneller Road, Twickenham",Whitton,Richmond upon Thames,-0.3564846179963206,51.45588352109989
Black Dog,112 Vauxhall Walk,Kennington,Lambeth,-0.121045088058928,51.48874995342292
Power's Bar,23 Hay Lane,Kingsbury,Brent,-0.2633491018875409,51.588269260349634
One Tun,58-60 Goodge Street,London,Camden,-0.1368162342969244,51.519163141369866
Sir Michael Balcon,46-47 The Mall,Ealing,Ealing,-0.2980683733145218,51.51329495657087
Beehive,197 St Johns Hill,Battersea,Wandsworth,-0.178417506214356,51.45983549555952
Clifton Arms,21 Clifton Road,South Norwood,Croydon,-0.0859824002485871,51.396213661534574
Bistrotheque,23ÃÂ¢ÃÂÃÂ27 Wadeson Street,Bethnal Green,Tower Hamlets,-0.0564138566927543,51.53404459541606
Lord Wargrave,40-42 Brendon Street,London,City of Westminster,-0.1652101528601478,51.51777618878327
Crown,43 Monmouth Street,London,Camden,-0.1267526446877,51.51430866959755
George Tavern,373 Commercial Road,London,Tower Hamlets,-0.0528858652379206,51.51434627981804
Lore of the Land,4 Conway Street,London,Camden,-0.1396087586277292,51.5220851295593
Shacklewell Arms,71 Shacklewell Lane,Hackney,Hackney,-0.0704285039597578,51.55281890572813
Red Dog South,27-31 Bedford Rd,Clapham,Lambeth,-0.1291208140458485,51.46493155768906
Angerstein Hotel,108 Woolwich Road,Greenwich,Greenwich,0.0163466381977362,51.486161687664406
Prince Bonaparte,80 Chepstow Road,Bayswater,City of Westminster,-0.19534563389218,51.516768878754256
Buckingham Arms,62 Petty France,London,City of Westminster,-0.1369141407779298,51.49911093796362
Whispering Moon,25 Ross Parade,Wallington,Sutton,-0.149217159877513,51.36028679195963
Mumbai Junction,231 Watford Rd,Sudbury,Brent,-0.3217463461302684,51.56820216487682
Balls Brothers,50 Buckingham Palace Road,London,City of Westminster,-0.1449677937709339,51.496990419159495
Zan Zi Bar,113 High Street,Edgware,Harrow,-0.2804385549994465,51.61129796902347
Bullfinch Brewery Tap,"Railway Arches 886-887, Rosendale Road",Herne Hill,Lambeth,-0.1010985677880679,51.44841974236153
Attic,8 Hanger Green,Ealing,Ealing,-0.2848787568201808,51.52678955034765
Gipsy Queen,166 Malden Road,Kentish Town,Camden,-0.1547087448271428,51.55076744981949
Finchley Manor Tennis Squash & Health Club,Lyndhurst Gardens,Finchley,Barnet,-0.2040947298694054,51.601693930234106
Gazebo,Thames Walk,Kingston,Kingston upon Thames,-0.3077347480289204,51.41067743806703
Steam Passage Tavern,44 Upper Street,London,Islington,-0.1051037367470915,51.53481511531683
Queens Arms,Great North Road,High Barnet,Barnet,-0.1883005240965218,51.64659227796115
Southwark Brewing Co. Tap Room,46 Druid Street,London,Southwark,-0.0761513202879254,51.50059389878852
Kingsfield Arms,111 Bessborough Road,Harrow,Harrow,-0.3431157920733944,51.574952895509256
Road Trip Bar,243 Old Street,London,Hackney,-0.0842947208226123,51.52662629588417
Foresters Arms,344 Upper Wickham Lane,Welling,Bexley,0.1094593092573935,51.47471206358382
Cock Tavern,360 North End Road,Fulham,Hammersmith and Fulham,-0.1994126854265437,51.48125647948551
Reliance,336 Old Street,London,Hackney,-0.0815854909969484,51.52659995755643
Lucky Rover,"312, Hook Road, Hook",Chessington,Kingston upon Thames,-0.3068374855621086,51.36794882052516
Anglesea Arms,91 Woolwich New Road,Woolwich,Greenwich,0.0668491935929636,51.488429664172926
Florist Arms,255 Globe Road,Bethnal Green,Tower Hamlets,-0.0512941379312,51.52833026185164
Salmon & Ball,502 Bethnal Green Road,Bethnal Green,Tower Hamlets,-0.0572455814916214,51.52704423321393
Foxlow,15-19 Bedford Hill,Balham,Wandsworth,-0.150519062463549,51.44451584579738
Castle,54 Pentonville Road,London,Islington,-0.108139951826481,51.53218430480179
Duke's Head,53 Crayford High Street,Crayford,Bexley,0.1762153536561533,51.45345546078817
Old Queens Head,44 Essex Road,London,Islington,-0.1013556206120295,51.536526049241296
Blackstock,284 Seven Sisters Road,Finsbury Park,Islington,-0.1049530697142684,51.56412855480807
Victoria,86 Axe Street / St Ann's Road,Barking,Barking and Dagenham,0.0793019095723246,51.53542220069264
Manor Arms,150 East India Dock Road,Poplar,Tower Hamlets,-0.015678550175878,51.5108809709117
Cross Lances,236 Hanworth Road,Hounslow,Hounslow,-0.3643406951687253,51.46482389130583
Prince of Wales,62 Boston Road,Hanwell,Ealing,-0.3376535534527104,51.50708209331764
Amersham Arms,388 New Cross Road,New Cross,Lewisham,-0.0304382623831915,51.475428015476815
Affinity Brew Co. Tasting Room,7 Almond Road,Bermondsey (East),Southwark,-0.059540772225285,51.49172302493058
Exmouth Arms,23 Exmouth Market,Clerkenwell,Islington,-0.1089692713593892,51.52609162143978
Windmill,6-8 Mill Street,London,City of Westminster,-0.1422667233283388,51.51238815358904
O'Neill's,335-339 Station Road,Harrow,Harrow,-0.3342902908826829,51.58069102176928
Paternoster,2-4 Queens Head Passage,London,City and County of the City of London,-0.098446083193412,51.51500429251879
Bull Tavern,14 Vincent Road,Woolwich,Greenwich,0.0695751960193572,51.48946072145234
Howling Hops Tap Room,"Queens Yard, White Post Lane",Homerton,Tower Hamlets,-0.0227393894919707,51.54250186438299
Birdcage,80 Columbia Road,Bethnal Green,Tower Hamlets,-0.0706509661622401,51.5284617342072
Crook Log,Crook Log,Bexleyheath,Bexley,0.127245430276106,51.45896774742068
Belgo Noord Baar,72 Chalk Farm Road,London,Camden,-0.1498746616724325,51.54335332172966
Stokey,,Stoke Newington,Hackney,-0.0836658495115804,51.55670517141936
Pepper Saint Ontiod,21 Pepper Street,Crossharbour,Tower Hamlets,-0.0174463141679406,51.49639619472403
Leadbelly's,"Unit C, Montreal House, Surrey Docks Road",Rotherhithe,Southwark,-0.048675798902343,51.49853905071003
White House,570 Hertford Road,Enfield,Enfield,-0.041559847430077,51.668704347287175
Kerridge's Bar & Grill,10 Northumberland Avenue,London,City of Westminster,-0.1245559476940421,51.50673765508444
Wilmington,69 Rosebery Avenue,London,Islington,-0.1100652998949408,51.52608230605012
Grapes,16 Shepherd Market,London,City of Westminster,-0.1463040976422104,51.506660726715744
Goat Tavern,3 Stafford Street,London,City of Westminster,-0.1412993479900525,51.50889264947803
Golden Anchor,16 Evelina Road,Peckham,Southwark,-0.0523661189032293,51.46943655792239
Six Bells,187 Chase Side,Enfield,Enfield,-0.0868864569444357,51.66070207675718
Finchley Tavern,686 High Road,North Finchley,Barnet,-0.1754767203915718,51.61281640410873
Mother Red Cap,665 Holloway Road,Upper Holloway,Islington,-0.1332726398630846,51.56490649273614
Loose Box,51 Horseferry Road,London,City of Westminster,-0.1293027638862511,51.494637301112846
Kelsey House,75 High Street,Beckenham,Bromley,-0.0259529387030749,51.407501246179855
Crown & Cushion,133 Westminster Bridge Road,London,Lambeth,-0.1132557578074729,51.49912841318083
Bountiful Cow,51 Eagle Street,London,Camden,-0.1181832761143235,51.518703859136
Widows Son,75 Devons Road,Bow,Tower Hamlets,-0.0176215733693786,51.52255064644213
Woodman,50 High Street,Farnborough,Bromley,0.0699765159934294,51.3592194673123
Clarence Tavern,102 Stoke Newington Church Street,Stoke Newington,Hackney,-0.0791179329537873,51.56227807725276
George,Terminal 5 Landside Level 3 (Departures),Heathrow Airport,Hillingdon,-0.4872391389773695,51.47149256514529
Nag's Head,9 Orford Road,Walthamstow,Waltham Forest,-0.0107548104315916,51.583512466704256
Castle,225 Portobello Road,Notting Hill,Kensington and Chelsea,-0.2055248863579123,51.51631353904313
Kings Arms,156 Broadway,Bexleyheath,Bexley,0.1434604985300301,51.45694569108361
Crown & Shuttle,226 Shoreditch High Street,Spitalfields,Hackney,-0.0782284730443207,51.52244429454535
Oak,206 Widmore Road,Bromley,Bromley,0.0341054951942732,51.40583617594214
Black Prince,6 Black Prince Road,Kennington,Lambeth,-0.112033920114492,51.48964838848243
Davy's at St James's,"Crown Passage, 20 King Street",London,City of Westminster,-0.1378683746767882,51.50609545083165
Ship,499 High Road,Tottenham,Haringey,-0.0699870955853523,51.592918619484
Rose & Crown,Clay Hill,Enfield,Enfield,-0.083674103866675,51.67138654563578
Grind,42 Maiden Lane,London,City of Westminster,-0.1227937376178694,51.511043966198514
White Hart,2 Eltham High Street,Eltham,Greenwich,0.0494896757834504,51.45112643599372
Happenstance,10 Paternoster Square,London,City and County of the City of London,-0.0990721574275763,51.51485257429465
Pepper's Ghost,777 High Road,Leyton,Waltham Forest,-0.0087459801712953,51.572993184038886
Slug & Lettuce,2 Love Lane,London,City and County of the City of London,-0.0932656246700748,51.51618814097242
Rising Sun,240 Winchester Road,Lower Edmonton,Enfield,-0.065086369461364,51.63110107786176
Churchill Arms,119 Kensington Church Street,Kensington,Kensington and Chelsea,-0.19474081789539,51.50655291962625
Tollgate Tavern [Sizzling],High Road / Whalebone Lane North,Chadwell Heath,Barking and Dagenham,0.1413443613765282,51.57248975075221
Adam & Eve,81 Petty France,London,City of Westminster,-0.13563423377304,51.49940534421337
Champion,13 Wells Street,London,City of Westminster,-0.1372824703309241,51.51692236694216
Prince of Wales,136 Hampton Road,Twickenham,Richmond upon Thames,-0.348607805697381,51.43922697025195
Beehive,407-409 Brixton Road,Brixton,Lambeth,-0.1142538842568218,51.46375810614098
Fox & Grapes,"9 Camp Road, Wimbledon Common",Wimbledon,Merton,-0.2306620888618868,51.4265886813494
Ben's Canteen,422 Garratt Lane,Earlsfield,Wandsworth,-0.1870846123170795,51.440185633761615
Rye,31 Peckham Rye,Peckham,Southwark,-0.0653973872143177,51.46465241179782
Craft Beer Co.,55 White Lion Street,London,Islington,-0.1101891091599456,51.53283783553079
African Queen,315 Wellington Road South,Hounslow,Hounslow,-0.3759443363490604,51.46157712160117
Duke,64-65 Victoria Road,Surbiton,Kingston upon Thames,-0.3070339108595462,51.391863361538725
Morden Brook,Lower Morden Lane,Lower Morden,Merton,-0.2207576951842559,51.39085491243703
Castle,"108, King Charles Road",Surbiton,Kingston upon Thames,-0.2930040153404165,51.389573516305866
Park Tavern,19 New Road,Kingston,Kingston upon Thames,-0.2877761704635453,51.41950577452217
Plume of Feathers,19 Park Vista,Greenwich,Greenwich,-0.0006125071577071,51.48207248116636
Wych Elm,93 Elm Road,Kingston,Kingston upon Thames,-0.2945495642870241,51.41682591187796
Number 12,"Ambassadors Hotel, 12 Upper Woburn Place",London,Camden,-0.1295740701139767,51.52670070843278
Ping Pong,Unit 68-70 London Designer Outlet,Wembley,Brent,-0.2839410197011541,51.55670287921306
Sugar Loaf,65 Cannon Street,London,City and County of the City of London,-0.0929085730417307,51.51231545305468
Stapleton Tavern,2-4 Crouch Hill,Finsbury Park,Islington,-0.1162017578966072,51.57089239103188
York,82 Islington High Street,London,Islington,-0.1055075759723101,51.53307705871038
Regent,21 Chestnut Grove,Balham,Wandsworth,-0.1539035421953984,51.44409255578598
Prince,59 Kynaston Road,Stoke Newington,Hackney,-0.0783619037748309,51.56001751997793
Malt House,17 Vanston Place,Fulham,Hammersmith and Fulham,-0.1982035226288023,51.48160660513968
Sun Inn,17 Parkshot,Richmond,Richmond upon Thames,-0.3028946761122861,51.46329412813349
Farmhouse,52 Jason Walk,New Eltham,Greenwich,0.0589595025025285,51.42744388412609
Castle,38 Tooting High Street,Tooting,Wandsworth,-0.1674504856651783,51.428855274722224
Prince Albert,11 Pembridge Road,Notting Hill,Kensington and Chelsea,-0.1976638172328778,51.50952947329296
Wandle,332 Garratt Lane,Earlsfield,Wandsworth,-0.1900000755906689,51.44360295915449
Plume of Feathers,282 Plumstead High Street,Plumstead,Greenwich,0.1009525251705012,51.48544944886255
Refreshment Room,27 The Broadway,Stratford,Newham,0.0026311019390842,51.54092952378111
Duke's Head,16 Highgate High Street,London,Haringey,-0.1465447477390825,51.57063817147671
Hercules Pillars,18 Great Queen Street,London,Camden,-0.1207294009040556,51.51602886346584
Star Tavern,6 Belgrave Mews West,London,City of Westminster,-0.1555809012377523,51.49818297303857
Crown,"28 Wickham Road, Shirley",Croydon,Croydon,-0.0545796939992358,51.37365452179971
Crown & Anchor,222 Fore Street,Upper Edmonton,Enfield,-0.0635728598153709,51.616436145157856
Lord Tredegar,50 Lichfield Road,Bow,Tower Hamlets,-0.0324964328082103,51.528610190938295
Bokor,77 Kilburn High Road,Kilburn,Brent,-0.193286206937778,51.53747417429029
Flynn's,418 Mare Street,Hackney,Hackney,-0.0547689600046607,51.54929577275056
Hoop & Grapes,80 Farringdon Street,Fleet Street,City and County of the City of London,-0.1049034188717453,51.51534262219347
T E Dingwall Building,"11 Camden Lock Place, Chalk Farm Road",London,Camden,-0.1456935184208356,51.54155173789911
Flying Horse,6 Oxford Street,London,City of Westminster,-0.1308091166295308,51.51661256494307
Bull,13 North Hill,London,Haringey,-0.1509230080432931,51.57547321253317
Brown Derby,336 Kennington Park Road,Kennington,Lambeth,-0.1130546439728184,51.48167029896342
Marquess Of Anglesey,39 Bow Street,London,City of Westminster,-0.1213570864918375,51.51303534101294
Moot Bar,"Unit 3, Chiswick Business Park, 566 Chiswick High Road",Chiswick,Hounslow,-0.2739280665453097,51.4938601654104
Connolly's,450 Chiswick High Road,Chiswick,Hounslow,-0.2681704491642818,51.49297497716209
South Norwood Conservative Club,10 South Norwood Hill,South Norwood,Croydon,-0.0755714259857398,51.40039533010736
William Morris,"Swan Island, 2-4 King Street",Hammersmith,Hammersmith and Fulham,-0.2254846259255642,51.49302051832449
Argyle,1 Greville Street,London,Camden,-0.1084925955503164,51.51915952196397
White Bear,138 Kennington Park Road,Kennington,Lambeth,-0.1080502981047868,51.48670651951157
Camino,15 Mincing Lane,London,City and County of the City of London,-0.081638286459498,51.51094454549211
Winning Post,265 High Street,Sutton,Sutton,-0.1952706024587158,51.36789347550247
Forest Road Brewery Taproom,1348 Netil Road,South Hackney,Hackney,-0.0590062888920025,51.53750473456385
Powderkeg,147 St John's Hill,Battersea,Wandsworth,-0.1770084063400124,51.46015532680681
Gladstone Arms,64 Lant Street,London,Southwark,-0.0946102927753502,51.50089532731697
Coronet,338-346 Holloway Road,London,Islington,-0.1146568438689639,51.5548608286567
Cricketers,47 Shirley Road,Addiscombe,Croydon,-0.0627507550171999,51.38159585295108
Chequers,145 High Street,Walthamstow,Waltham Forest,-0.0255513790773804,51.583825363754855
Monarch,40-42 Chalk Farm Road,London,Camden,-0.1484339621107397,51.54296189876055
Olde Rose & Crown,53-55 Hoe Street,Walthamstow,Waltham Forest,-0.0203330569928258,51.58698368000081
George,234 Church Lane,Kingsbury,Brent,-0.2618954251309133,51.57303253426448
George & Dragon,176 High Street,Yiewsley,Hillingdon,-0.4737271773426362,51.51478627107991
Young Prince,448 Roman Road,Bow,Tower Hamlets,-0.0340103210229572,51.53195383495275
Albert,74 St Stephens Road,Bow,Tower Hamlets,-0.0321915621075511,51.53266975605485
Eel Pie,9/11 Church Street,Twickenham,Richmond upon Thames,-0.3270606374860803,51.4469064700915
Broadleaf,25 Old Broad Street,Liverpool Street,City and County of the City of London,-0.0840647002571932,51.51528275657186
Golden Fleece,9 Queen Street,London,City and County of the City of London,-0.0925363849732533,51.51328960880755
White Horse,64 Palace Road,Bromley,Bromley,0.0208942299546135,51.408825391898354
Brewery Market,48/49 Church Street,Twickenham,Richmond upon Thames,-0.3279037697497492,51.44667571184963
Boogaloo,312 Archway Road,Highgate,Haringey,-0.1441511885696502,51.57661630987332
Belushi's,15 Shepherds Bush Green,Shepherds Bush,Hammersmith and Fulham,-0.2195296637552776,51.50387431945114
Kenricks Bar,518 Harrow Road,Maida Vale,City of Westminster,-0.2018410721763765,51.52457530667578
Green Man,57 Berwick Street,London,City of Westminster,-0.1367048325906911,51.5155373082731
Ship,41 Jews Row,Wandsworth,Wandsworth,-0.1878963340411637,51.462940924535935
Bridge Lounge,186 Tooley Street,London,Southwark,-0.0794598179107532,51.503121164080994
Black Horse,204 London Road,Kingston,Kingston upon Thames,-0.2872225156334134,51.41354469621954
Ashburnham Arms,25 Ashburnham Grove,Greenwich,Greenwich,-0.0162801275402041,51.47581873368879
Portobello House,225 Ladbroke Grove,North Kensington,Kensington and Chelsea,-0.2114585189605746,51.519371724304406
Savannah,81-103 Euston Street,London,Camden,-0.1359911185594958,51.526658950323935
Commercial Tavern,142 Commercial Street,Spitalfields,Tower Hamlets,-0.0760028308773125,51.521895190880535
Island,123 College Road,Kensal Rise,Brent,-0.2265368679922301,51.53528372912557
Normanby,231 Putney Bridge Road,Putney,Wandsworth,-0.2105838097622334,51.46297444421649
Occasional Half,67-77 Green Lanes,Palmers Green,Enfield,-0.1100712404829765,51.610162615985935
Spread Eagle,141 Albert Street,London,Camden,-0.1445165245969131,51.53716268083947
Old Bull & Bush,North End Way,Hampstead,Camden,-0.1825566658567864,51.56754142996851
Alma,77-78 Chapel Market,London,Islington,-0.1099395746417717,51.53329244338438
Hawley Arms,2 Castlehaven Road,London,Camden,-0.1450064416867472,51.54213439654272
Slim Jims Liquor Store,112 Upper Street,London,Islington,-0.1028664925340852,51.53798932530457
M Bar Victoria St,"Zig Zag Building, 70 Victoria Street",London,City of Westminster,-0.1384420222030502,51.497327662791385
Crown,High Street,Harmondsworth,Hillingdon,-0.4782024645002712,51.48863205112107
Market Hall Fulham,Fulham Broadway,Fulham,Hammersmith and Fulham,-0.1949453569336534,51.480594293638326
Village East,171-173 Bermondsey Street,London,Southwark,-0.0808874406510544,51.49898090705985
Southwark Tavern,22 Southwark Street,London,Southwark,-0.0916361685665613,51.5048307695208
Sun,148 Hanworth Road,Hounslow,Hounslow,-0.3619249819889668,51.46715514900258
Lighterman,3 Granary Square,King's Cross,Camden,-0.124459502902146,51.53643912724865
Oslo,1a Amhurst Road,Hackney,Hackney,-0.0574227035405633,51.547945908965
Miller & Carter Woodford Green,393-395 High Road,Woodford Green,Redbridge,0.0211675438804008,51.60939564023493
Pasha Kitchen,78-80 Northfield Avenue,West Ealing,Ealing,-0.3183588124382717,51.50394749817215
Cow,4 Chestnut Plaza,Westfield Stratford City,Newham,-0.0073071648690871,51.542528631386205
Bear & Staff,10-12 Bear Street,London,City of Westminster,-0.1287248145337038,51.51085096751829
Duke Of Cambridge,30 St Peter's Street,London,Islington,-0.0984080407102001,51.534248088494
Belrose,94 Haverstock Hill,Hampstead,Camden,-0.1581352454269416,51.54699940113501
Whitecross Tap,142 Whitecross Street,London,Islington,-0.0933422593070065,51.52401305379274
Charlotte Despard,17-19 Archway Road,Upper Holloway,Islington,-0.1365152123627262,51.56817733029725
Bianca Road Brewery Taproom,19 Page's Walk,London,Southwark,-0.080322413534254,51.49528461469895
Globe,83 Moorgate,London,City and County of the City of London,-0.0887354325359972,51.51767012188468
Sambrook's Brewery Tap Room,Unit 1 & 2 Yelverton Road,Battersea,Wandsworth,-0.176049476717288,51.47013127946639
Plough,Sipson Road,Sipson,Hillingdon,-0.4578444017916614,51.49348265431056
Smugglers Inn,320 Chipstead Valley Road,Coulsdon,Croydon,-0.1501832586517821,51.319168253439024
Willoughby Arms,47 Willoughby Road,Kingston,Kingston upon Thames,-0.2921101294245852,51.41552244458777
Craft Beer Co.,82 Leather Lane,Hatton Garden,Camden,-0.1096055251989711,51.52117385171493
Woolwich Equitable,"Equitable House, 10 Woolwich New Road",Woolwich,Greenwich,0.0685931173815632,51.4903593501753
Liberty Bell (Beefeater),Mercury Gardens / Western Road,Romford,Havering,0.1865858194055581,51.577879219852456
Kings Arms,2 Shepherd Market,London,City of Westminster,-0.1461008573106759,51.50634276967416
Estrela Bar,111-115 South Lambeth Rd,South Lambeth,Lambeth,-0.1233070582539492,51.47926291715204
Duke of Richmond,316 Queensbridge Road,Hackney,Hackney,-0.0696726304765732,51.54204226436224
Somers Town Coffee House,60 Chalton Street,London,Camden,-0.1298547941505229,51.52969976338338
O'Neill's,Station Road,Ilford,Redbridge,0.0712559984726691,51.55925145509396
Hoxley & Porter,153 Upper Street,London,Islington,-0.1028306607152537,51.540236907263534
Neighbourhood,52ÃÂ¢ÃÂÃÂ54 Celebration Avenue,Stratford,Newham,-0.0079135074677026,51.54746692286666
Duke of Wellington,331 Hatton Road,Bedfont (East),Hounslow,-0.4271074782420615,51.46236461037172
Royal Oak Pub & Kitchen,320 Hale End Road / Oak Hill,Hale End (Woodford Green),Waltham Forest,0.0029289006567345,51.604204808831504
Balls Brothers (Shoe Lane),83 Shoe Lane,London,City and County of the City of London,-0.1065269899370914,51.51616020273183
Stags Head,"24 Priests Bridge, London",East Sheen,Richmond upon Thames,-0.2526060404646504,51.46600002029767
Argyll Arms,18 Argyll Street,London,City of Westminster,-0.1414667035291422,51.51504631364831
Spencer,237 Lower Richmond Road,Putney,Wandsworth,-0.2268913070040443,51.46826698940637
Warrant Officer,318 Higham Hill Road,Walthamstow,Waltham Forest,-0.0349127680394697,51.59638277565183
East Dulwich Tavern,1 Lordship Lane,East Dulwich,Southwark,-0.0749288060719041,51.45984532982746
Indo,133 Whitechapel Road,London,Tower Hamlets,-0.0661019840171075,51.517757454944594
Whelan's,11 Rotherhithe Old Road,Rotherhithe,Southwark,-0.0474497422992286,51.49284416508576
Boisdale,"Swedeland Court, 202 Bishopsgate",London,City and County of the City of London,-0.0797004269106184,51.517954093658616
Balham Lounge,76 Bedford Hill,Balham,Wandsworth,-0.1493333511360265,51.44180828797142
Vineyard,178-179 Upper Street,London,Islington,-0.1031297963442468,51.54136582705793
Daly's Wine Bar,210 Strand,London,City of Westminster,-0.1129669352677852,51.51308952220975
Cafe Oto,18-22 Ashwin St,Hackney,Hackney,-0.0753289133060511,51.54709927798656
Bear,Noak Hill Road,Noak Hill,Havering,0.2174565492437794,51.6160865169094
Bedford Arms,204 Dawes Rd,Fulham,Hammersmith and Fulham,-0.2093501620146665,51.481255742431095
Hercules,2 Kennington Road,London,Lambeth,-0.1122674635719058,51.497592736424856
Neighbour,300 Kentish Town Road,Kentish Town,Camden,-0.1403414605208008,51.55114317416167
Crown & Anchor,19 Park Road,Bromley,Bromley,0.0216399830031556,51.40812908453971
Duke Of York,47 Rathbone Street,London,City of Westminster,-0.135984339578801,51.51870928190792
Jack Horner,235-236 Tottenham Court Road,London,Camden,-0.1321763725454993,51.51877461127643
Bar Form,7 Genotin Road,Enfield,Enfield,-0.0797950553489494,51.651962676286274
Albany,1 Queens Road,Twickenham,Richmond upon Thames,-0.3320785227785161,51.44821894244562
Blacksmiths Arms,257 Rotherhithe Street,Rotherhithe,Southwark,-0.0338659585787762,51.50519807420589
Mondo Tap House,86 Stewarts Road,Battersea,Wandsworth,-0.1394068209201757,51.47397998952607
Windermere,Windermere Avenue,South Kenton,Brent,-0.3063575292169352,51.56916821576444
Bottlescrue,33 Foster Lane,London,City and County of the City of London,-0.0964672269780954,51.5151070750283
Wallace,1023 Finchley Road,Golders Green,Barnet,-0.1984841019007794,51.57964828926302
Double 6 Sports Bar,125 Wembley Park Drive,Wembley,Brent,-0.281455695202833,51.56216985472943
Albany,240 Great Portland Street,London,City of Westminster,-0.1438829601634755,51.523321886176994
Hope & Anchor,207 Upper Street,London,Islington,-0.103484983551333,51.543574760997146
Oyster Rooms,"Unit 3, First Floor, Fulham Broadway Shopping Centre",Fulham,Hammersmith and Fulham,-0.1965080981683858,51.48004280958558
Little Green Dragon,928 Green Lanes,Winchmore Hill,Enfield,-0.0908697940672418,51.636118615298365
Old Oak,1 Mansfield Road,London,Camden,-0.1512996036696165,51.554805425550605
Compton Cross,2 Old Compton Street,London,City of Westminster,-0.1300605074425183,51.51377691920806
Old Nick,20-22 Sandland Street,London,Camden,-0.1166703180888568,51.51939000869906
Bull & Gate,389 Kentish Town Road,London,Camden,-0.141048275254113,51.550434961275215
Joker of Penton Street,58 Penton Street,London,Islington,-0.1111853454479108,51.53350135840124
Duchess,320 Goldhawk Road,Hammersmith,Hammersmith and Fulham,-0.2442792663450481,51.49726904800461
Corney & Barrow,5 Exchange Square,London,City and County of the City of London,-0.0803237689631053,51.5195829914168
Saras,"28 The Broadwalk, Pinner Road",North Harrow,Harrow,-0.3623996493501549,51.58689590993188
Red Lion,"164/166 Stanley Road, Twickenham",Teddington,Richmond upon Thames,-0.3451253850139885,51.43087793135474
White Horse,50 Middle Road,Harrow,Harrow,-0.345817954311206,51.57009018824348
Blue Anchor,13 Lower Mall,Hammersmith,Hammersmith and Fulham,-0.2318417954929875,51.48993312402144
Masons Arms,58 Devonshire Street,London,City of Westminster,-0.1442164108023895,51.52221206727191
Frankie & Benny's,"Unit 1, Jenkins Lane",Barking,Newham,0.0780194428509695,51.52435676415482
Royal Oak,54 Charlton Lane,Charlton,Greenwich,0.0391663765468609,51.48786233236974
Pilgrim,247 Kennington Lane,Kennington,Lambeth,-0.1138837345710664,51.486710556435824
Tap On The Line,"Kew Gardens Station, Station Parade",Kew,Richmond upon Thames,-0.2856391966894697,51.47698172484187
Blue Posts,6 Bennet Street,London,City of Westminster,-0.1402953838234287,51.50700625134445
Flying Horse,52 Wilson Street,London,Hackney,-0.0849705538080284,51.52048634841941
40ft Brewery Tap,18a Ashwin Street,Hackney,Hackney,-0.0753289133060511,51.54709927798656
George IV,185 Chiswick High Road,Chiswick,Hounslow,-0.2571762414590895,51.492290598649305
Coningham Arms,191 Uxbridge Road,Shepherds Bush,Hammersmith and Fulham,-0.2381969765835538,51.50629637554618
Crown & Sceptre,32 Junction Road,South Croydon,Croydon,-0.0965341891966752,51.35947889962141
Iron Duke,11 Avery Row,London,City of Westminster,-0.145944331614364,51.51268015224157
Priory,169 Priory Road,Hornsey,Haringey,-0.1328618866707024,51.58726418975233
Drayton Park,66 Drayton Park,Highbury,Islington,-0.1048988154503336,51.5539750599244
Harvester,59 Mandeville Road,Northolt,Ealing,-0.3658217743693613,51.54904942088989
Graveney & Meadow,40 Mitcham Road,Tooting,Wandsworth,-0.1669577667441993,51.42678820662
Barretts Freehouse,9 Masons Ave,Wealdstone,Harrow,-0.3341348065103332,51.59282867027883
Tommy Tucker,22 Waterford Road,Fulham,Hammersmith and Fulham,-0.1922327948133003,51.47816947180871
Albion,121 Hammersmith Road,West Kensington,Hammersmith and Fulham,-0.2137779026886304,51.493993884976256
Lady Mildmay,92 Mildmay Park,London,Islington,-0.0843657059875143,51.54999912304966
Hope,48 West Street,Carshalton,Sutton,-0.1671236099669974,51.367258717785575
Windmill,50 High Street,Acton,Ealing,-0.266047241835661,51.50678317896934
Enkel Arms,34 Seven Sisters Road,London,Islington,-0.1171305134152897,51.55888431586907
Rising Sun,38 Cloth Fair,London,City and County of the City of London,-0.0997445850833318,51.51912604274765
Bird In Hand,100 Tottenhall Road,Palmers Green,Enfield,-0.1015267333667047,51.61106774152722
Wingmans,332 Kilburn High Road,Kilburn,Camden,-0.2016030937642134,51.545236674400975
Waterside Inn,"The Boulevard, Imperial Wharf",Fulham,Hammersmith and Fulham,-0.1810518612456914,51.47323949402421
George & Devonshire,8 Burlington Lane,Chiswick,Hounslow,-0.2521018304284199,51.48636088015382
Lord Raglan,158 Burrage Road,Plumstead,Greenwich,0.0732206943537445,51.48567327936861
Rose,179 Broadway,Bexleyheath,Bexley,0.1407841132060087,51.45696762455355
Kings Arms,11a Buckfast Street,Bethnal Green,Tower Hamlets,-0.0662551127488165,51.5253677865468
Man of Kent,2-4 Nunhead Green,Nunhead,Southwark,-0.0581859974729064,51.46529750834979
Fighting Cocks,"56, Old London Road",Kingston,Kingston upon Thames,-0.2979133022539651,51.41067904856696
Kings Arms,190 Fulham Road,Chelsea,Kensington and Chelsea,-0.1809543248544484,51.48619634302621
Stonhouse,165 Stonhouse Street,Clapham,Lambeth,-0.1369165087784807,51.46440822090261
Racketeer,105 Kings Cross Road,London,Camden,-0.1159287571946853,51.52862264954856
Six Bells,211 High Street,Acton,Ealing,-0.2725810908823071,51.50738313584033
Draft House Westbridge,74-76 Battersea Bridge Road,Battersea,Wandsworth,-0.1706070832609311,51.478769348249934
Anchor & Hope,2 Riverside Walk,Charlton,Greenwich,0.028791169048644,51.49360888472516
Goose,143 South Street,Romford,Havering,0.184015352878315,51.57453676378191
Simon the Tanner,231 Long Lane,London,Southwark,-0.0831345337055396,51.4983072494169
Tattershall Castle,King's Reach Victoria Embankment,London,City of Westminster,-0.1221654704527079,51.50564725781764
Beer Hawk,"Unit 6, The Gallery, Stamford Street",London,Southwark,-0.1071827765468865,51.50764563274027
Edmund Halley,27 Leegate,Lee,Lewisham,0.0124133154821264,51.45570751305307
Nag's Head,242 Camberwell Road,Camberwell,Southwark,-0.0941916059722617,51.476733975583976
