name,address2,ward_2018_name,ward_2018_code,longitude,latitude
Case Is Altered,Eastcote,Eastcote and East Ruislip,E05000329,-0.4047462204182941,51.58954760991708
Windmill,Mitcham,Figge's Marsh,E05000460,-0.1615677946264154,51.40301654792829
Sydney's,Gants Hill,Cranbrook,E05011241,0.0658041355988058,51.5758402491609
Cinnamon Lounge,Isleworth,Syon,E05000364,-0.3285096935912778,51.472249918986186
Tanyard Lane,Bexley,St. Mary's & St. James,E05011229,0.1500167314636172,51.44178041342071
Tap 13,Tooting,Graveney,E05000616,-0.1665357793097186,51.42834637065911
Crown,Cowley,Uxbridge South,E05000341,-0.4821084970959941,51.53101809306797
Great Harry,Belvedere,Northumberland Heath,E05011228,0.1483719214615646,51.47752170398464
Duke of Sussex,London,Bishop's,E05000416,-0.110250720021315,51.50106743122007
Fen,London,Tower,E05009310,-0.07908166417434,51.51176596441618
Old White Horse,London,St. James's,E05000644,-0.1171656237766198,51.51472172606152
64th & Social,Clapham,Clapham Town,E05000419,-0.1336241335934398,51.46359147957078
Perseverance,Bethnal Green,St. Peter's,E05009331,-0.0623628337970246,51.53418807772584
Bourne & Hollingsworth,London,Bloomsbury,E05000129,-0.1342293977251225,51.51791700121304
Broken Drum,Blackfen,Blackfen & Lamorbey,E05011220,0.1032176444628744,51.45173033758464
Crown,Hornchurch,Hylands,E05000315,0.1885777473254074,51.56555762055602
Crock Of Gold,Wembley,Barnhill,E05000086,-0.2778922142584065,51.56445560599367
Grim's Dyke Hotel,Harrow Weald,Harrow Weald,E05000290,-0.344025557843951,51.61937074445492
Five Bells,Streatham,St. Leonard's,E05000428,-0.1281946788940344,51.43653555601878
Hop Poles,Enfield,Chase,E05000195,-0.0769679521199763,51.66342662343894
Crown,Harmondsworth,Heathrow Villages,E05000331,-0.4782024645002712,51.48863205112107
Prince of Wales,Kennington,Prince's,E05000427,-0.108712012002906,51.48812005783403
Nags Head,London,St. James's,E05000644,-0.1237069509292951,51.51301899508324
Willow Farm (Table Table),Wennington,Rainham and Wennington,E05000318,0.2260767924378788,51.50667569642538
Shepherd & Flock,Shepherds Bush,Shepherd's Bush Green,E05000263,-0.2278746239069163,51.50233703847152
BFI IMAX,London,Bishop's,E05000416,-0.1136258530495008,51.50481778768445
Mother Red Cap,Upper Holloway,Junction,E05000376,-0.1332726398630846,51.56490649273614
Crown,St Margarets,Twickenham Riverside,E05000531,-0.3186280946181474,51.45119203049653
Fare Bar + Canteen,Old Street,Bunhill,E05000367,-0.0980444510773114,51.52360383258343
Anerley Arms,Anerley,Crystal Palace,E05000116,-0.0663181011553139,51.41253582535206
Brew By Numbers Brewery Tap Room,Bermondsey (East),South Bermondsey,E05011116,-0.0722297942343251,51.49757984309672
Rupert Street Bar,London,West End,E05000649,-0.1334984486491203,51.5121770125601
London Cocktail Club,London,Hoxton East & Shoreditch,E05009377,-0.0841482971134525,51.52221748990492
Black Lion,London,Kilburn,E05000140,-0.199536968902486,51.54350538380482
Alfred Herring,Palmers Green,Palmers Green,E05000205,-0.1071160499291004,51.61905344272248
Ice Wharf,London,Camden Town with Primrose Hill,E05000130,-0.1474218937982387,51.5401851698214
Gowlett SE15,Peckham,Goose Green,E05011103,-0.070214026698933,51.46309513958624
Han,New Malden,Beverley,E05000402,-0.2571459851760459,51.403119311214994
Tankard,Walworth,North Walworth,E05011107,-0.0983913752050268,51.49209881270826
Britannia,Kensington,Abingdon,E05009388,-0.1945807924559948,51.49711715789585
Slim Jims Liquor Store,London,St. Mary's,E05000379,-0.1028664925340852,51.53798932530457
Edmund Halley,Lee,Lee Green,E05000447,0.0124133154821264,51.45570751305307
Albany,London,Marylebone High Street,E05000641,-0.1438829601634755,51.523321886176994
Charles Lamb,London,St. Peter's,E05000380,-0.1022006093264975,51.53216029994457
Goat Tavern,Kensington,Queen's Gate,E05009401,-0.1882766062980716,51.50204684741457
London's Pride,Heathrow Airport,Heathrow Villages,E05000331,-0.4495584934011519,51.46977708247814
Mabel's,London,St. James's,E05000644,-0.1236600869774767,51.51065315430333
George Canning,Camberwell,Champion Hill,E05011097,-0.0860374159598865,51.46786908013837
Prince Edward,Holloway,Holloway,E05000375,-0.1225057751930091,51.55412346441933
Prince of Teck,Earls Court,Earl's Court,E05009395,-0.1938084063801468,51.49296863917236
Wattenden Arms,Kenley,Kenley,E05011469,-0.1028878772236649,51.30752187732649
Ganley's Irish Bar,Morden,Merton Park,E05000466,-0.195677206015021,51.400678047875
Cafe Oto,Hackney,Dalston,E05009370,-0.0753289133060511,51.54709927798656
Firefly,Balham,Nightingale,E05000618,-0.1533849404594099,51.44232180694127
Obia Bar & Grill,Croydon,South Croydon,E05011484,-0.0987208516519351,51.365647641777045
Kingsley Hotel,London,Holborn and Covent Garden,E05000138,-0.1245271756586569,51.51796013220395
White Mustache,London,Regent's Park,E05000142,-0.140581019931212,51.53076951468794
Golden Lion,Bexleyheath,Crook Log,E05011223,0.135537556550734,51.458052559771005
Old Crown,London,Holborn and Covent Garden,E05000138,-0.1251871727847073,51.516981480066136
O'Neill's,Blackheath,Blackheath,E05000438,0.0080374327675751,51.46686168543806
Wandle Pirates,Colliers Wood,Colliers Wood,E05000457,-0.1831701631258381,51.41299370220341
Thirsty Dragon,Greenwich,Peninsula,E05000225,0.0041473196017353,51.4848599755284
De Beauvoir Arms,London,Canonbury,E05000369,-0.0854704211121568,51.54086281793531
Finchley Manor Tennis Squash & Health Club,Finchley,Finchley Church End,E05000051,-0.2040947298694054,51.601693930234106
Greyhound,Keston,Bromley Common and Keston,E05000108,0.0285845848908201,51.36354958268832
Beehive,Walworth,Newington,E05011105,-0.0996954083463404,51.485681152581726
Pembroke,Coulsdon,Coulsdon Town,E05011466,-0.1391941976922951,51.32084686437307
Little Nan's Bar,Deptford,New Cross,E05000449,-0.0263910238563931,51.4781117545672
Mc & Sons,London,Borough & Bankside,E05011095,-0.1003505534486021,51.50387511888447
Royal Oak,Twickenham,Twickenham Riverside,E05000531,-0.3247355547410916,51.448698693449145
Belushi's,London,Regent's Park,E05000142,-0.1402945027873655,51.53673613294725
Shambles Bar & Restaurant,Teddington,Teddington,E05000530,-0.3295725716978354,51.42737499503741
Kings Arms Bar & Hotel,Brentford,Syon,E05000364,-0.3108851515177457,51.48785141848375
Albion,South Norwood,South Norwood,E05011485,-0.0742609956177767,51.400103990799686
Orange Tree,Richmond,South Richmond,E05000528,-0.3017283060021183,51.4640775807209
Duke Of Edinburgh,London,Noel Park,E05000275,-0.1129392928166846,51.594975646691104
Luna,Croydon,Fairfield,E05011468,-0.1005502492753846,51.373519152752415
Islington Sports Bar,London,Highbury West,E05000373,-0.1133563354974081,51.55386870175065
Ealing Park Tavern,South Ealing,Northfield,E05000182,-0.3060236707311224,51.4958207147719
Croham Arms,South Croydon,South Croydon,E05011484,-0.0949511905350839,51.36232191856038
Galvin Hop,Spitalfields,Spitalfields & Banglatown,E05009333,-0.078308316142703,51.52020642408736
One Tun,London,Bloomsbury,E05000129,-0.1368162342969244,51.519163141369866
Stage Door,London,Bishop's,E05000416,-0.1075196519338487,51.50125720779106
Duke's Head,Crayford,Crayford,E05011222,0.1762153536561533,51.45345546078817
New Inn,Brentford,Brentford,E05000347,-0.3035033751512215,51.48881503777472
Anchor & Hope,London,Bishop's,E05000416,-0.1066482056240438,51.50350932293203
Resting Hare,London,King's Cross,E05000141,-0.1294414216584456,51.52641981889124
Kings Head,Bayswater,Lancaster Gate,E05000638,-0.1891486084350514,51.51239287778208
Artisan (of Clerkenwell),London,Clerkenwell,E05000370,-0.1041274274948671,51.5229199699277
Ship,London,West End,E05000649,-0.1408182196688286,51.52035072647548
Wheatsheaf,Romford,Romford Town,E05000319,0.1878454043117717,51.57194732929453
Catford Bridge Tavern,Catford,Rushey Green,E05000451,-0.0244803699112938,51.444670996544936
Star & Garter,London,West End,E05000649,-0.136595010619742,51.513638101664775
Grapeshots,London,Spitalfields & Banglatown,E05009333,-0.0773885927514415,51.518087047813616
Rincon bar espanol,Richmond,South Richmond,E05000528,-0.3033705749250032,51.45977592667318
Dulwich Beer Dispensary,East Dulwich,Dulwich Wood,E05011101,-0.0694773724164215,51.44438678844126
Simmons,London,Regent's Park,E05000142,-0.1392700827406099,51.534984298142206
Blythe Hill Tavern,Forest Hill,Crofton Park,E05000441,-0.0349212602110331,51.4424813203814
Weir Bar & Dining Room,Brentford,Syon,E05000364,-0.3095036385066546,51.483533028333824
Traders,Bexley,St. Mary's & St. James,E05011229,0.1541186825479683,51.44638143688365
Simmons,London,Bishopsgate,E05009292,-0.0782084878572936,51.51812747489479
Woolf & Whistle,London,Bloomsbury,E05000129,-0.1282909064254898,51.52424321475298
Builders Arms,Stratford,Stratford and New Town,E05000492,-0.001756535521065,51.53854039726035
Rising Sun,Lower Edmonton,Haselbury,E05000201,-0.065086369461364,51.63110107786176
Six Bells,Acton,South Acton,E05000188,-0.2725810908823071,51.50738313584033
York Arms,Whetstone,Oakleigh,E05000058,-0.1588411848679254,51.62521775659496
Golden Lion,London,St. Pancras and Somers Town,E05000143,-0.13485727114318,51.53781888460132
Golden Fleece,London,Cordwainer,E05009300,-0.0925363849732533,51.51328960880755
View 94,Wandsworth,Thamesfield,E05000625,-0.2006065773156009,51.46225528554158
Wellington,London,Bishop's,E05000416,-0.1116130116452782,51.50401202137422
Gardeners Arms,Uxbridge,Uxbridge North,E05000340,-0.4721044406142818,51.54690333116371
Black Horse,Biggin Hill,Biggin Hill,E05000107,0.0336801926273227,51.31511415728485
Mau Mau,Notting Hill,Colville,E05009392,-0.2067616001445202,51.51785220512282
Bar & Block,London,Caledonian,E05000368,-0.1223795494916776,51.53127101247707
Royal Court Cafe Bar & Kitchen,London,Royal Hospital,E05009403,-0.1563965223960849,51.49261132702434
Black Horse,Greenford,Greenford Green,E05000178,-0.3445387264301312,51.54769014295973
Mumbai Junction,Sudbury,Northwick Park,E05000096,-0.3217463461302684,51.56820216487682
Harts Boatyard,Surbiton,Grove,E05000408,-0.3122365990764439,51.39696537547629
68 & Boston,London,West End,E05000649,-0.1311874111287092,51.51476609168294
Blue Ginger,Kenton,Kenton,E05000093,-0.3050384382556056,51.58677387151727
Electric Diner,Notting Hill,Colville,E05009392,-0.2050658899729344,51.515524157863744
Northcote,Battersea,Northcote,E05000619,-0.1672316194921947,51.46056950173932
Bird in Hand,Bromley Common,Bromley Common and Keston,E05000108,0.0426699132711901,51.37438391199831
Surrey Docks,Rotherhithe,Rotherhithe,E05011112,-0.0456174749432062,51.492570817559496
Walpole Pub & Kitchen,New Cross,New Cross,E05000449,-0.0332475634780648,51.47606872919226
William Bourne,Chessington,Chessington South,E05000405,-0.2894262498234303,51.3625341237212
Albert Tavern,South Norwood,Woodside,E05011489,-0.0669217321758972,51.397204242605895
Blue Posts,London,West End,E05000649,-0.1398673218783808,51.51326738348226
Swan & Mitre,Bromley,Bromley Town,E05000109,0.0119936669355653,51.40686514494168
Olde Black Horse,Sidcup,Blackfen & Lamorbey,E05011220,0.098008687690861,51.43732703097848
Triple Crown,Richmond,North Richmond,E05000526,-0.3018011232870643,51.46560737197021
Cobden Arms,London,Regent's Park,E05000142,-0.1389934720955582,51.53540256890364
Life Of Riley,Belmont,Kenton West,E05000295,-0.3180311393683133,51.60080908570954
Smugglers Inn,Coulsdon,Coulsdon Town,E05011466,-0.1501832586517821,51.319168253439024
Roddy's Bar,Ealing,Northfield,E05000182,-0.3061865177085627,51.498421905337935
Audley,London,West End,E05000649,-0.1514824723643578,51.5097370223392
Feathers,London,St. James's,E05000644,-0.1328848468033547,51.49934362194665
British Oak,Kidbrooke,Kidbrooke with Hornfair,E05000223,0.0261323222067122,51.476217818698686
Flynns,Willesden,Willesden Green,E05000105,-0.2301232168094223,51.54690234097072
White Swan,London,St. Mary's,E05000379,-0.1034525552942465,51.54574144898328
Cafe Provencal,Herne Hill,Dulwich Village,E05011100,-0.0993998088970441,51.45259186462978
Narrow,Limehouse,Limehouse,E05009326,-0.0329867487219828,51.50854664206313
Chessington Oak,Chessington,Chessington North and Hook,E05000404,-0.2974068256123031,51.364251062794274
Barge House,London,De Beauvoir,E05009371,-0.0808493183669703,51.537244123417466
Bridge Tap,London,Borough & Bankside,E05011095,-0.0906993060255874,51.50449178278932
Lots Road Pub & Dining Rooms,Chelsea,Chelsea Riverside,E05009391,-0.1836320192187084,51.47825240048622
Libertine,London,Borough & Bankside,E05011095,-0.0978290612815951,51.5007587222548
Brewhouse & Kitchen,London,Highbury East,E05000372,-0.1014939118198064,51.54636620542032
Number Ten,Romford,Romford Town,E05000319,0.1801446889649281,51.57598468304023
Prince of Peckham,Peckham,Rye Lane,E05011113,-0.0653611203390019,51.47333893221232
BrewDog,London,Clerkenwell,E05000370,-0.1046016288764839,51.522262169357965
All Bar One,London,St. James's,E05000644,-0.1378580435209659,51.49751623189753
Surrey Cricketers,Croydon,Fairfield,E05011468,-0.1005843785168162,51.36817792499301
Tir Na Nog,Wandsworth,Fairfield,E05000614,-0.1909259840712416,51.452583054285576
Gunnersbury,Chiswick,Turnham Green,E05000365,-0.2758486443048996,51.492593475755214
Pig & Whistle,East Sheen,East Sheen,E05000517,-0.2672392470688201,51.46584832023718
White Hart,New Cross,Telegraph Hill,E05000453,-0.0469075089424587,51.47486733190636
Alexander Pope,Twickenham,South Twickenham,E05000529,-0.3330875797061937,51.4402751002599
Plough,East Dulwich,Dulwich Hill,E05011099,-0.0747988338659534,51.44993303999963
Prince,Stoke Newington,Stoke Newington,E05009385,-0.0783619037748309,51.56001751997793
Anthologist,London,Walbrook,E05009312,-0.0911436951691106,51.514885638433206
Sir Robert Peel,London,Haverstock,E05000136,-0.1522753814682289,51.54852596292427
Beefeater,Uxbridge,Uxbridge South,E05000341,-0.4897493613202216,51.54452413884426
JJ Moon's,Tooting,Tooting,E05000626,-0.1690761074807454,51.42741482799376
Crate Brewery & Pizzeria,Hackney Wick,Bow East,E05009319,-0.0227393894919707,51.54250186438299
Britannia,London,London Bridge & West Bermondsey,E05011104,-0.0874531464976408,51.50114754716392
Rose & Crown,Enfield,Chase,E05000195,-0.083674103866675,51.67138654563578
Hop & Rye,Bromley,Plaistow and Sundridge,E05000125,0.0097697525452667,51.411561599340594
Mawson Arms / Fox & Hounds,Chiswick,Chiswick Homefields,E05000348,-0.2492297343842573,51.48763997934708
Sports Bar & Grill,Isle of Dogs,Canary Wharf,E05009323,-0.0182603886466639,51.50618532231073
Carved,Bexleyheath,Bexleyheath,E05011219,0.1434604985300301,51.45694569108361
Draft House Farringdon,London,Clerkenwell,E05000370,-0.1037028345742017,51.51926205252328
Prince Of Wales,Kilburn,Kilburn,E05000094,-0.1941138974727553,51.534051739037416
House of Tippler,East Dulwich,Goose Green,E05011103,-0.0752723808252358,51.45715311123434
On Broadway,Winchmore Hill,Winchmore Hill,E05000213,-0.0959515559263456,51.631758904578994
Steam Wine Bar,London,Bridge,E05009294,-0.0847337816567426,51.510329718968805
Sourced Market,London,St. James's,E05000644,-0.1434924848770911,51.4967782279466
Lillie Langtry,Fulham,Fulham Broadway,E05000254,-0.1982647895374533,51.48626572531455
King Edward VII,Stratford,Stratford and New Town,E05000492,0.0026311019390842,51.54092952378111
Duke of York,London,Borough & Bankside,E05011095,-0.0995610157340457,51.499302990696194
Revolution,Battersea,Shaftesbury,E05000623,-0.166775485242583,51.4640515199688
Railway Bell,South Woodford,South Woodford,E05011252,0.0282255502332792,51.59179224771514
Optimist Tavern,Upminster,Upminster,E05000323,0.2338566070554515,51.548768271184656
Square Pig,London,Holborn and Covent Garden,E05000138,-0.1189696801382054,51.51815892012414
Victoria Tavern,London,Holloway,E05000375,-0.1103883503070024,51.55099721821409
Connolly's,Chiswick,Turnham Green,E05000365,-0.2681704491642818,51.49297497716209
Botanist,London,Royal Hospital,E05009403,-0.1565932489055815,51.49309103289611
Rockingham Arms,London,Chaucer,E05011098,-0.0990546725169707,51.4969296889988
Pilgrim,Kennington,Oval,E05000426,-0.1138837345710664,51.486710556435824
Iron Horse,Sidcup,Blackfen & Lamorbey,E05011220,0.1025696128052599,51.434817200402144
TGI Fridays,Enfield,Southbury,E05000207,-0.0611720319495685,51.65136884772405
Royal Albert,New Cross,Brockley,E05000439,-0.0274641594805941,51.47493734088875
Coach & Horses,Hounslow,Hounslow Central,E05000358,-0.3508194309399473,51.47169352600925
Coronet,London,Highbury West,E05000373,-0.1146568438689639,51.5548608286567
Old Nick,London,Holborn and Covent Garden,E05000138,-0.1166703180888568,51.51939000869906
Prince George,Thornton Heath,Thornton Heath,E05011486,-0.0936321309084778,51.39823582945314
Beaten Docket,Cricklewood,Fortune Green,E05000132,-0.2114147568892797,51.553578939938745
Queen's Head,London,Holborn and Covent Garden,E05000138,-0.1167997240440569,51.52079495634482
King William IV,London,Hampstead Town,E05000135,-0.1762287307877123,51.55547422325439
Norbury,Norbury,Norbury & Pollards Hill,E05011472,-0.1215553727705654,51.40827295168921
Wentworth Arms,Bow,Mile End,E05009327,-0.033478947135621,51.52387853674902
St Stephen's Tavern,London,St. James's,E05000644,-0.1251735925402437,51.50117203215726
Trafalgar,Merton,Abbey,E05000455,-0.1888587549290948,51.41351338589661
Fino's Wine Bar,London,West End,E05000649,-0.1483156893973004,51.5100018161806
Drinkers Paradise (Off Licence),London,Kentish Town,E05000139,-0.1441728945723185,51.545961094744406
Beer Asylum,Pinner,Pinner,E05000297,-0.3825407197759533,51.59450426040432
Crooked Billet,Bromley,Bromley Common and Keston,E05000108,0.0568124020047042,51.3898737690461
All Bar One,Sutton,Sutton Central,E05000564,-0.1931582459447428,51.361700874595385
All Bar One,London,Walbrook,E05009312,-0.0899248262369057,51.51163739815809
Sugar Loaf,London,Cordwainer,E05009300,-0.0929085730417307,51.51231545305468
Soho Theatre,London,West End,E05000649,-0.1327403374531267,51.51450305421096
Three Steps,Cowley,Uxbridge South,E05000341,-0.482379726980353,51.52979866721832
Woolwich Equitable,Woolwich,Woolwich Riverside,E05000230,0.0685931173815632,51.4903593501753
Belushi's,Shepherds Bush,Addison,E05000250,-0.2195296637552776,51.50387431945114
Tabard,Chiswick,Chiswick Homefields,E05000348,-0.2534648373600031,51.49592236727413
Clapham North,Stockwell,Larkhall,E05000425,-0.128334174832204,51.466564670425214
Jolly Waggoner,Cranford,Cranford,E05000350,-0.4057033455313889,51.47800120088602
Crown & Anchor,Bromley,Plaistow and Sundridge,E05000125,0.0216399830031556,51.40812908453971
Weaver's Bar,High Barnet,Oakleigh,E05000058,-0.1861657138812071,51.646118689259566
Canons Bar,Canons Park,Belmont,E05000285,-0.3035957783724111,51.60650034485147
Wright Brothers Oyster & Porter House,London,Borough & Bankside,E05011095,-0.0916307849965948,51.50564902290041
Mere Scribbler,Streatham,Streatham South,E05000431,-0.1290332810892448,51.421288209446274
Morpeth Arms,London,Vincent Square,E05000646,-0.1288439940141167,51.48930629588936
Porto,Stockwell,Larkhall,E05000425,-0.1250654320891007,51.465873960816495
Alexandra,Penge,Penge and Cator,E05000123,-0.0496094930978157,51.416215674209255
Graveney & Meadow,Tooting,Graveney,E05000616,-0.1669577667441993,51.42678820662
Bardens,Stoke Newington,Shacklewell,E05009382,-0.0747650051183327,51.551577318516856
Six Bells,West Drayton,West Drayton,E05000342,-0.469785903111351,51.50639012420375
Queens Head,Stratford,Stratford and New Town,E05000492,0.0041398115202817,51.53949188364011
Rose & Crown,London,West End,E05000649,-0.1489292127540141,51.50411228639285
Hunter S,London,De Beauvoir,E05009371,-0.0835073169623318,51.54605536101137
Spread Eagle,Homerton,King's Park,E05009379,-0.040549507472586,51.54889742690568
Greene Man,London,Marylebone High Street,E05000641,-0.1431620626865893,51.52367917843208
Papillon,Hampstead Garden Suburb,Garden Suburb,E05000052,-0.18268639794149,51.58563631921689
Crock of Gold,Ruislip,West Ruislip,E05000343,-0.4225084537246685,51.57270189267636
Vine,London,Kentish Town,E05000139,-0.1447781859757928,51.55518812782582
No 11 Pimlico Road,London,Churchill,E05000633,-0.1513329381190676,51.490652147507184
No 32 The Old Town,Clapham,Clapham Town,E05000419,-0.1405862028950568,51.463027644362406
Bald Faced Stag,East Finchley,East Finchley,E05000049,-0.1643585501203788,51.58910080458822
Holiday Inn,Sutton,Sutton West,E05000567,-0.1966179608989685,51.36175421412528
Devonshire Arms,London,Camden Town with Primrose Hill,E05000130,-0.1427207396542129,51.54089322038877
Queens,Plaistow,Boleyn,E05000476,0.0352701062601317,51.53424311617482
Junction,Harrow,Greenhill,E05000288,-0.3325387014001605,51.57965002803809
Suchard,London,London Bridge & West Bermondsey,E05011104,-0.0817919763077611,51.50214318055925
Mondo Tap House,Battersea,Queenstown,E05000620,-0.1394068209201757,51.47397998952607
Broadleaf,Liverpool Street,Cornhill,E05009301,-0.0840647002571932,51.51528275657186
White Lion of Mortimer,Mitcham,Figge's Marsh,E05000460,-0.1634902920822519,51.40706646271421
All Bar One,London,Bishop's,E05000416,-0.1169437714377839,51.5026319062128
Holly Tree,Forest Gate,Cann Hall,E05000590,0.0204491018622976,51.555767445120594
Three Kings,Twickenham,Twickenham Riverside,E05000531,-0.3310827144038307,51.445534046122255
Hemingford Arms,London,Barnsbury,E05000366,-0.1131151913514156,51.54296575586602
BrewDog Camden,London,Camden Town with Primrose Hill,E05000130,-0.1405117503402738,51.53777373770091
Sanctuary House Hotel,London,St. James's,E05000644,-0.1318238289809287,51.49956952980182
Patrick's Bar,Beckenham,Copers Cope,E05000113,-0.0251281292226377,51.41062588050129
Colbert,London,Royal Hospital,E05009403,-0.1562719180996563,51.49284317862689
Visage 80s Bar,Gants Hill,Barkingside,E05011235,0.0675622036617716,51.57673552902277
Brogue,Hanwell,Northfield,E05000182,-0.3256775519297868,51.49690314878532
White Horse & Bower,London,St. James's,E05000644,-0.1312168887592912,51.49503651899408
Flask,Hampstead,Hampstead Town,E05000135,-0.1769399977724366,51.55680717742022
Queens Head & Artichoke,London,Regent's Park,E05000142,-0.1440322297021594,51.526031049473886
Fentiman Arms,South Lambeth,Oval,E05000426,-0.1188918977139354,51.48121552653917
Great Northern Railway Tavern,Hornsey,Hornsey,E05000273,-0.116548693396492,51.58799260326127
Alphabet,London,St. Mary's,E05000379,-0.1040017812451837,51.53600232302878
Prince William Henry,London,Borough & Bankside,E05011095,-0.1040347638359155,51.50537357586026
T.Bird,London,Highbury West,E05000373,-0.0994455521598286,51.561260656863496
Sun,Romford,Romford Town,E05000319,0.175558258689364,51.57514347655604
Macbeth,London,Hoxton East & Shoreditch,E05009377,-0.0800905792937692,51.53026244572408
Pavilion,Shepherds Bush,College Park and Old Oak,E05000253,-0.2276908916548052,51.51857492495647
Mr Fogg's House of Botanicals,London,West End,E05000649,-0.1365395151940972,51.51887997157522
White Hart,London,Spitalfields & Banglatown,E05009333,-0.0711454204225473,51.515745268404245
Atlas,Fulham,Fulham Broadway,E05000254,-0.1961922735804132,51.486224873989286
Havering Well,Romford,Brooklands,E05000306,0.1781624972716634,51.56591333583509
Beach Road Cafe Bar,Croydon,Broad Green,E05011465,-0.1245007030490682,51.378122348493775
Other Room,London,London Bridge & West Bermondsey,E05011104,-0.0832112739364834,51.49544879604157
Queen of Hoxton,London,Hoxton East & Shoreditch,E05009377,-0.0811622262787908,51.522267552439615
Salt Bar,Paddington,Hyde Park,E05000636,-0.1620663520362337,51.51423781464966
Anchor Tap,London,North Bermondsey,E05011106,-0.076223394624623,51.50332887058364
Captain Cook,Fulham,Munster,E05000257,-0.2094726971568389,51.48106876794292
Elm Park Tavern,Brixton,Tulse Hill,E05000435,-0.1186520942888588,51.449925900146354
Mother Kelly's,Bethnal Green,St. Peter's,E05009331,-0.0560687721964868,51.52793295903818
Clifton Arms,South Norwood,South Norwood,E05011485,-0.0859824002485871,51.396213661534574
London Beer Factory Brewery Tap Room,West Norwood,Gipsy Hill,E05000422,-0.0887141017042042,51.42826319391511
Cock,London,West End,E05000649,-0.1414806589258329,51.51682708985217
Ichiba,Shepherds Bush,Shepherd's Bush Green,E05000263,-0.2216933711628422,51.51010305567893
Mawney Arms,Romford,Brooklands,E05000306,0.1707396006173937,51.57911763237018
Watchman,New Malden,Beverley,E05000402,-0.2551994914503802,51.39910656019209
Harrods Terrace Bar,London,Brompton & Hans Town,E05009389,-0.1632093394656637,51.49944476220333
Capitol,Forest Hill,Forest Hill,E05000444,-0.0544440010662327,51.43885924464542
BrewDog,London,West End,E05000649,-0.1371128074795628,51.51507616737109
Marquis of Granby,London,West End,E05000649,-0.1348673099360306,51.51817894126482
Old Red Lion,Kennington,Prince's,E05000427,-0.1053627138589327,51.48934296329865
William IV,London,Hoxton West,E05009378,-0.0928771052319416,51.53100179752914
All Inn One,Forest Hill,Perry Vale,E05000450,-0.0518889063512001,51.43939232692441
Anglesey Arms,Bromley,Plaistow and Sundridge,E05000125,0.0208942299546135,51.408825391898354
Arbitrager,London,Broad Street,E05009295,-0.0860526355019337,51.51496451568296
Cavendish,London,Marylebone High Street,E05000641,-0.1498513662529248,51.519045721136045
Duke,Surbiton,St. Mark's,E05000412,-0.3070339108595462,51.391863361538725
Camel & Artichoke,London,Bishop's,E05000416,-0.113394217706022,51.50065940706271
Whelan's,Rotherhithe,Rotherhithe,E05011112,-0.0474497422992286,51.49284416508576
Islington Town House,London,Barnsbury,E05000366,-0.1071222220232663,51.533777580189216
Alma,Crystal Palace,Crystal Palace,E05000116,-0.0805713267757395,51.417635404316975
House of Hammerton,London,St. Mary's,E05000379,-0.1068992606293463,51.54818019300176
33 Abbeville Road,Clapham,Clapham Common,E05000418,-0.1411733642418312,51.453531653452366
Goat Tavern,London,West End,E05000649,-0.1412993479900525,51.50889264947803
Civil Engineer,Greenford,Greenford Broadway,E05000177,-0.3759215739884985,51.5323381857313
Lamb & Trotter,London,Aldersgate,E05009288,-0.0980556092403234,51.51711126010368
Eight Bells,Fulham,Palace Riverside,E05000259,-0.2100830316416831,51.46804769932935
Flannery's Bar,Wembley,Wembley Central,E05000104,-0.2997896379451409,51.55219433282024
Custom House (Pub & Kitchen),Royal Docks,Custom House,E05000479,0.0280445935022981,51.51019552317092
Three Tuns,London,Tower,E05009310,-0.0768577179645594,51.51255681673029
Refectory,Golders Green,Childs Hill,E05000045,-0.1964380947942111,51.57409544095807
Enroute 505,East Sheen,East Sheen,E05000517,-0.273957832846631,51.46406789742473
Leman Street Tavern,London,Whitechapel,E05009336,-0.0702082950712896,51.51370648093229
Fox & Hounds,Plumstead,Woolwich Common,E05000229,0.0697697533536872,51.48230797232824
Marquis Cornwallis,London,Bloomsbury,E05000129,-0.1253767867271905,51.52499704213666
Perfect Blend,Streatham,Streatham Wells,E05000432,-0.1269892237847618,51.437514490912406
Furlong,Muswell Hill,Coppetts,E05000047,-0.1476532404689029,51.59945842764141
Green Man,Welling,East Wickham,E05011224,0.0921954811454903,51.46690079935979
Butterchurn,Sutton,The Wrythe,E05000568,-0.1815256973697071,51.36961434634059
Prince Albert,Twickenham,West Twickenham,E05000532,-0.3445519184832741,51.44196633813552
182,Wembley,Preston,E05000097,-0.2945376390629349,51.57037283590196
Limehouse,Isle of Dogs,Canary Wharf,E05009323,-0.0216875287797077,51.50591046460607
Beer & Burger Store,Hackney,London Fields,E05009381,-0.0758483827951856,51.54333093045824
Forge,London,Walbrook,E05009312,-0.0871342993263801,51.513228586945885
British Queen,Locksbottom,Farnborough and Crofton,E05000118,0.0545396646826759,51.36670342660074
Woodhouse,North Finchley,Woodhouse,E05000063,-0.1627627338905178,51.61147598213212
Alice House,West Hampstead,West Hampstead,E05000145,-0.1922025519257116,51.551351055944615
Night & Day,London,Holborn and Covent Garden,E05000138,-0.1241371200407972,51.52183876171775
Great Western,Hayes,Pinkwell,E05000337,-0.4305598165179532,51.49728387677739
Tattersalls Tavern,London,Knightsbridge and Belgravia,E05000637,-0.1629041811258302,51.5009417624988
Beer Box,Greenwich,Peninsula,E05000225,0.0039701546003482,51.501823480149056
Ring,London,Borough & Bankside,E05011095,-0.1050920762676541,51.50316045289802
Commercial,Herne Hill,Herne Hill,E05000423,-0.102608640223633,51.45295861377893
Old Ship Inn,Hackney,Hackney Central,E05009372,-0.0560238718861264,51.54590836413541
Barrel & Horn,Bromley,Bromley Town,E05000109,0.0133921330928031,51.4059688377614
"Mirth, Marvel & Maud",Walthamstow,High Street,E05000599,-0.0203973998949707,51.58649918190682
Phonox,Brixton,Ferndale,E05000421,-0.1147352121900161,51.4643054169838
Old Thameside Inn,London,Borough & Bankside,E05011095,-0.091891999198531,51.50698420098649
Virgin Queen,Bethnal Green,Haggerston,E05009375,-0.0642945650938768,51.53351858833729
Taproom,London,St. Mary's,E05000379,-0.1029933294828608,51.54083305342915
Bell,Walthamstow,Chapel End,E05000592,-0.016097079771913,51.59011338511085
Beehive,Brentford,Syon,E05000364,-0.3062842554271533,51.48373838550005
Railway,West Hampstead,West Hampstead,E05000145,-0.1909260258092378,51.54607970163951
Albion,London,Barnsbury,E05000366,-0.1094471452897572,51.53960636436866
Effra Hall,Brixton,Coldharbour,E05000420,-0.1138606052322308,51.4596780395034
Lore of the Land,London,Bloomsbury,E05000129,-0.1396087586277292,51.5220851295593
Crayford Arms,Crayford,Crayford,E05011222,0.1773986748765451,51.45230936510991
Jamaica Wine House,London,Cornhill,E05009301,-0.0856291976403496,51.51303316302528
Bloomsbury,Twickenham,West Twickenham,E05000532,-0.352001510404514,51.44208035108559
Bishop's Wine Bar,Croydon,Fairfield,E05011468,-0.100315344828072,51.37537687232563
Dolphin,Sydenham,Sydenham,E05000452,-0.0471812808772265,51.42595052278777
Porterhouse Steak Bar,Carshalton,The Wrythe,E05000568,-0.1687465824084421,51.37303049045857
Belgo Noord Baar,London,Haverstock,E05000136,-0.1498746616724325,51.54335332172966
King & Co,Clapham,Clapham Common,E05000418,-0.1339910346265016,51.45918190660361
Castle,Isleworth,Isleworth,E05000362,-0.3246055164013698,51.46837237637519
Martello Hall,Hackney,London Fields,E05009381,-0.0565861351441336,51.539478963982525
Ledger Building,Canary Wharf,Canary Wharf,E05009323,-0.0238327003729596,51.50761933319317
Freemasons Arms,London,St. James's,E05000644,-0.1223766603857085,51.5145264752159
Old Blue Last,London,Hoxton East & Shoreditch,E05009377,-0.0799955965151529,51.52429877632273
Sultan,Brixton,Brixton Hill,E05000417,-0.1242764037718172,51.44894591566732
Balls Brothers,London,Aldgate,E05009289,-0.0801860484952555,51.51497647379717
Coach & Horses,London,West End,E05000649,-0.137406379591047,51.51494593876436
Black Leaf Lounge,Kingsbury,Fryent,E05000090,-0.2502197798664734,51.585817527335216
Driver,London,Caledonian,E05000368,-0.1193974527283443,51.53366028663073
Mad Hatter,London,Borough & Bankside,E05011095,-0.1049472042792194,51.50699802794541
Barrio,Brixton,Ferndale,E05000421,-0.1174727703205531,51.46110302215718
Franco,London,Bryanston and Dorset Square,E05000632,-0.1652101528601478,51.51777618878327
Bunch of Grapes,London,London Bridge & West Bermondsey,E05011104,-0.0886174637999724,51.50465571459389
Kings Arms,Longford Village,Heathrow Villages,E05000331,-0.4906478216819787,51.48077171220125
Queens Head,London,West End,E05000649,-0.135368612075987,51.5108488558332
Boogaloo,Highgate,Highgate,E05000272,-0.1441511885696502,51.57661630987332
Brown Dog,Barnes,Mortlake and Barnes Common,E05000525,-0.2521127935878078,51.469490805331134
Redchurch,Bethnal Green,Weavers,E05009335,-0.072432417630216,51.52485805980573
Browns,Kingston,Grove,E05000408,-0.3078881408395605,51.40924985482582
Robin Hood,Enfield,Chase,E05000195,-0.1282735327363117,51.67707903596421
Waterloo Bar & Kitchen,London,Bishop's,E05000416,-0.1090239794853972,51.501812044825904
Warwick,London,West End,E05000649,-0.1372907039346644,51.51071752700105
Long Arm Pub & Brewery,London,Bunhill,E05000367,-0.0852685235204006,51.52231673097882
Foresters Arms,Hampton Wick,Hampton Wick,E05000522,-0.3122088429491457,51.41374545102816
Red Lion & Sun,Highgate,Highgate,E05000272,-0.1500977297975358,51.57305023417953
Broadway Bar Cafe,Surbiton,Alexandra,E05000400,-0.2818137056223731,51.38057009049925
Sutton Arms,Hornchurch,St. Andrew's,E05000320,0.2205317328944419,51.56127876733197
Albion,London,Castle Baynard,E05009297,-0.1045487960904229,51.51381711285232
Slug & Lettuce,London,West End,E05000649,-0.142284964984077,51.51371037018392
Lucky Rover,Chessington,Chessington North and Hook,E05000404,-0.3068374855621086,51.36794882052516
Marigold,London,London Bridge & West Bermondsey,E05011104,-0.0816767961770034,51.49733915720953
Cannick Tapps,London,Walbrook,E05009312,-0.0897531301070374,51.51160762318139
Davy's,London,Bassishaw,E05009290,-0.0906059813422958,51.516369677013024
Dartmouth Arms,Forest Hill,Forest Hill,E05000444,-0.0541295954068746,51.4377928601377
Sourced Market,London,St. Pancras and Somers Town,E05000143,-0.1261216965841033,51.53142975647243
True Craft,London,Tottenham Green,E05000280,-0.0753156823560348,51.58434646352045
Sir Christopher Hatton,London,Holborn and Covent Garden,E05000138,-0.1089087039906306,51.51850975925407
Navigation,Enfield,Ponders End,E05000206,-0.0294883688950566,51.64361930905646
Beer Rebellion,Peckham,Nunhead & Queen's Road,E05011108,-0.0571267918136712,51.4736253450318
Gipsy Hill Tavern,Gipsy Hill,Gipsy Hill,E05000422,-0.0836953145707801,51.42306426786735
One Under Lime,London,Lime Street,E05009307,-0.0828263777392511,51.51285245820411
Roadhouse,London,St. James's,E05000644,-0.1229392041464266,51.51206247418352
Bishop,East Dulwich,Goose Green,E05011103,-0.0749288060719041,51.45984532982746
Warwick Castle,Maida Vale,Little Venice,E05000639,-0.183732448396697,51.5221021355836
Schoolhouse,Battersea,Fairfield,E05000614,-0.175674087229851,51.460404362117885
Empire Lounge,Walthamstow,Wood Street,E05000609,0.0092890910795265,51.59321518006346
Crown & Pepper,Croydon,Fairfield,E05011468,-0.0998651196801821,51.36889468151527
Bricklayer's Arms,London,Hoxton East & Shoreditch,E05009377,-0.0811217870666915,51.52631359353565
George & Vulture,London,Hoxton West,E05009378,-0.083819727096088,51.529010575332826
Angies Freehouse II,Maida Vale,Westbourne,E05000648,-0.2011421059932152,51.52365633600916
Bolingbroke,Battersea,Northcote,E05000619,-0.1640355220293448,51.453756964678966
Horsenden Hill Golf & Footgolf Centre,Greenford,North Greenford,E05000183,-0.3233137453692938,51.54910648988567
Ship,Croydon,Fairfield,E05011468,-0.1000655928889906,51.37203645689176
Antwerp Arms,London,Northumberland Park,E05000276,-0.0746164318647656,51.60191522306646
Monkey Puzzle,Chessington,Chessington South,E05000405,-0.3147590890189326,51.34860295663376
Half Moon,Putney,Thamesfield,E05000625,-0.2201046348439764,51.46729191252553
Parcel Yard,London,St. Pancras and Somers Town,E05000143,-0.1232709918163727,51.53238238833918
Sir Julian Huxley,Selsdon,Selsdon Vale & Forestdale,E05011481,-0.0618956806536184,51.34365003058964
Reach Bar,Royal Docks,Beckton,E05000475,0.0736977805131429,51.50633950200975
Crown & Anchor,Brixton,Vassall,E05000436,-0.112972055331564,51.47110254754424
Duke of Wellington,Bedfont (East),Bedfont,E05000346,-0.4271074782420615,51.46236461037172
Coach Makers Arms,London,Marylebone High Street,E05000641,-0.1506333290901407,51.51717857969479
Dutch Courage,Putney,East Putney,E05000613,-0.2042427870516258,51.45690635842008
Windmill,Croydon,Fairfield,E05011468,-0.0933641309350024,51.38152294472848
Fishermans Arms,Harlesden,East Acton,E05000175,-0.2484597149154426,51.53063105827674
Blueberry Bar & Kitchen,London,Hoxton East & Shoreditch,E05009377,-0.084045259885545,51.52261148348688
Nightingale,Sutton,Sutton Central,E05000564,-0.1852304922836631,51.36275631990813
Rose & Crown,Kentish Town,Kentish Town,E05000139,-0.1328918085555331,51.550251514147405
Olde Watling,London,Cordwainer,E05009300,-0.0933345340109227,51.51315870559871
Leytonstone Tavern,Leytonstone,Cann Hall,E05000590,0.0124968558321172,51.55927648700279
Auld Shillelagh,Stoke Newington,Stoke Newington,E05009385,-0.0795215838297476,51.56194297357804
Golden Lion,London,St. James's,E05000644,-0.1378683746767882,51.50609545083165
H G Wells,Worcester Park,Worcester Park,E05000572,-0.2326060852551221,51.37319262365882
Lucky Seven,Cricklewood,Childs Hill,E05000045,-0.2149034885084464,51.5573190699101
Village,Walthamstow,Hoe Street,E05000601,-0.0117124171998116,51.58273737411047
Botanist,London,Bishopsgate,E05009292,-0.0837628717939453,51.5186950467637
Britannia,London,Bunhill,E05000367,-0.0942191484914832,51.52683303561599
Little Windsor,Sutton,Sutton Central,E05000564,-0.1865309613159279,51.364017473826685
Brownswood,Finsbury Park,Brownswood,E05009367,-0.0928747246102526,51.56417541404428
Four Thieves,Battersea,Shaftesbury,E05000623,-0.162363557693896,51.46349685869534
African Queen,Hounslow,Hounslow Heath,E05000359,-0.3759443363490604,51.46157712160117
Angel,London,Holborn and Covent Garden,E05000138,-0.1276848697765235,51.515474621946105
Brewers Inn,Wandsworth,Fairfield,E05000614,-0.1883670604949258,51.45686909114724
Trinity Arms,Brixton,Ferndale,E05000421,-0.1187490360694686,51.46192387154306
Depot,Holloway,Holloway,E05000375,-0.1215880045988696,51.54874016903398
G-A-Y,London,West End,E05000649,-0.1300605074425183,51.51377691920806
K K Mccools,South Tottenham,St. Ann's,E05000277,-0.0889038265604639,51.58628632060334
Flying Horse,London,West End,E05000649,-0.1308091166295308,51.51661256494307
Malt Shovel,Cowley,Uxbridge South,E05000341,-0.4855588370863908,51.52913839898902
Betsey Trotwood,London,Clerkenwell,E05000370,-0.1079455569548473,51.52331434356807
Honeycombe,Hounslow,Hounslow West,E05000361,-0.3872682381682873,51.46336107545638
Belrose,Hampstead,Haverstock,E05000136,-0.1581352454269416,51.54699940113501
Cricketers,Enfield,Town,E05000210,-0.087316340319865,51.65632981135417
London Beer Dispensary,Brockley,Crofton Park,E05000441,-0.0371091308362498,51.4545504818409
Look Mum No hands,London,Bunhill,E05000367,-0.0967841753264874,51.52409596364389
Pineapple,London,Bishop's,E05000416,-0.1137091787371389,51.49722025183728
All Bar One,London,St. James's,E05000644,-0.1309629808339202,51.51039205176332
Balkan,Wembley,Wembley Central,E05000104,-0.2980110635247496,51.54844564938004
Drayton Park,Highbury,Highbury West,E05000373,-0.1048988154503336,51.5539750599244
Duke Of Argyll,London,West End,E05000649,-0.1346937832609647,51.51184531064944
Cockpit,London,Farringdon Within,E05009304,-0.1012845744746751,51.51294597926421
Lord Nelson,High Barnet,Underhill,E05000060,-0.2107683641531733,51.6523232560655
Richmal Crompton,Bromley,Bromley Town,E05000109,0.0162969068430155,51.399767864914224
Richmond Vault Beer Cellar & Restaurant,Richmond,South Richmond,E05000528,-0.3062799897210589,51.458954700225725
Manor House,Wanstead,Wanstead Village,E05011255,0.0279511884004651,51.57654569881996
Quinns,London,Camden Town with Primrose Hill,E05000130,-0.1419733450069305,51.543309416963815
Sun Tavern,London,St. James's,E05000644,-0.1225583857126774,51.513962841139104
Black Horse,London,Whitechapel,E05009336,-0.0701697224247615,51.51291448754012
Cuckfield,Wanstead,Wanstead Village,E05011255,0.0243946578275104,51.57965560104021
Slug & Lettuce,Beckenham,Copers Cope,E05000113,-0.027063240960206,51.40776274230457
Bootlaces,Leyton,Lea Bridge,E05000603,-0.0137644137736244,51.574400180687554
King & Tinker,Enfield,Chase,E05000195,-0.0671265247498114,51.68062026887202
Walker Ground,Southgate,Southgate,E05000208,-0.1304801294792155,51.62487737223165
Frankies Wine Bar,Hornchurch,St. Andrew's,E05000320,0.2210838204406001,51.56076470579735
Duke's Head,London,Highgate,E05000272,-0.1465447477390825,51.57063817147671
Blues Kitchen,London,Hoxton East & Shoreditch,E05009377,-0.0799723130001151,51.52656454334939
Good Mixer,London,Camden Town with Primrose Hill,E05000130,-0.1441129637923117,51.53963828436303
King's Head,Earls Court,Earl's Court,E05009395,-0.1929614718131351,51.49289264431286
Tamara Lounge,Hillingdon,Hillingdon East,E05000332,-0.4439047124857901,51.528880586227295
Revolution,Putney,Thamesfield,E05000625,-0.2178358116089886,51.46122334457453
Green Man,Kingsbury,Fryent,E05000090,-0.2670512410357521,51.58354889874265
Back Room Bar,London,West End,E05000649,-0.1491226085288753,51.50396246244067
Bradleys Spanish Bar,London,West End,E05000649,-0.1326229102124789,51.51666842976996
Fat Walrus,New Cross,Brockley,E05000439,-0.0343827002326696,51.47411832550012
Ping Pong,Wembley,Tokyngton,E05000102,-0.2839410197011541,51.55670287921306
Percy & Founders,London,West End,E05000649,-0.1383083623159208,51.518979999501546
Takeover,London,West End,E05000649,-0.1308723286505227,51.5143653918696
Goat,Battersea,Northcote,E05000619,-0.1664234382034561,51.46097952177925
Lord Nelson,Sutton,Sutton Central,E05000564,-0.1837646462114761,51.36531453885448
Lord Tredegar,Bow,Bow West,E05009320,-0.0324964328082103,51.528610190938295
Bar Polski,London,Holborn and Covent Garden,E05000138,-0.1191145456603577,51.51744182204138
Fairway,Ruislip,West Ruislip,E05000343,-0.4329783942680082,51.57205091142623
Long Wave,London,North Walworth,E05011107,-0.0985298796159004,51.49396256164259
Bridge Wine Bar,Clapham,Clapham Town,E05000419,-0.1335919079172428,51.46579417634344
Tarmon,London,Caledonian,E05000368,-0.1164997991328072,51.539234245614246
Three Crowns,London,St. James's,E05000644,-0.1347650792924861,51.50868999985336
White Lion,Finsbury Park,Tollington,E05000381,-0.1119925117966503,51.569044166650826
Davy's,London,Billingsgate,E05009291,-0.081638286459498,51.51094454549211
Kings Stores,Spitalfields,Bishopsgate,E05009292,-0.0782084878572936,51.51812747489479
New Inn,St John's Wood,Abbey Road,E05000630,-0.1662289569249263,51.53546269420637
Kings Head Theatre Bar,London,St. Mary's,E05000379,-0.1028664925340852,51.53798932530457
Fox Inn,Keston,Bromley Common and Keston,E05000108,0.0273100414787619,51.361359436427314
Tollgate Tavern,Beckton,Beckton,E05000475,0.0577934371311882,51.51443446502432
Fox @ Connaught,Royal Docks,Custom House,E05000479,0.0394537943958475,51.50880154066871
Shoreditch,London,Hoxton East & Shoreditch,E05009377,-0.078248427723078,51.526419380338574
Grind,London,St. James's,E05000644,-0.1227937376178694,51.511043966198514
George,Isle of Dogs,Blackwall & Cubitt Town,E05009318,-0.0119439717392191,51.49570948590242
Prince Of Wales,Southall,Southall Green,E05000190,-0.3913734957955308,51.49932444672436
Liberty Bounds,Tower Hill,Tower,E05009310,-0.0785907018457415,51.50973455542877
Eagle,London,Clerkenwell,E05000370,-0.110092438821638,51.52438311544386
Kings Arms,London,West End,E05000649,-0.1461008573106759,51.50634276967416
Daylight Inn,Petts Wood,Petts Wood and Knoll,E05000124,0.0751857059027177,51.38901030368447
Tudor Rose,Coulsdon,Old Coulsdon,E05011474,-0.119081656726879,51.304824275504224
Bottlescrue,London,Cheap,E05009298,-0.0964672269780954,51.5151070750283
Williamsons Tavern,London,Cordwainer,E05009300,-0.093762106741189,51.51327357023277
Warrington,Maida Vale,Little Venice,E05000639,-0.1834123310284554,51.52652155805662
Old Shades,London,St. James's,E05000644,-0.1268600554167267,51.50642375737434
Star Of Kings,London,Caledonian,E05000368,-0.1219395631408329,51.53670457329718
White Lion,Streatham,St. Leonard's,E05000428,-0.1297819157007445,51.43113825703789
Princess Victoria,Shepherds Bush,Askew,E05000251,-0.2402282994599595,51.50630887208207
Royal Oak,London,Bryanston and Dorset Square,E05000632,-0.1624501264516718,51.52009805848829
Harefield,Harefield,Harefield,E05000330,-0.4831645547747066,51.60200723301112
Eagle,Shepherds Bush,Askew,E05000251,-0.2395594566577613,51.50085831471402
Golden Anchor,Peckham,Nunhead & Queen's Road,E05011108,-0.0523661189032293,51.46943655792239
Brigadiers,Cannon Street,Cordwainer,E05009300,-0.0914304002780146,51.51216550539864
Moon on the Square,Feltham,Feltham West,E05000352,-0.4109000776428128,51.44654444361697
Hope,Richmond,North Richmond,E05000526,-0.2987780783043724,51.465986207833296
Euston Flyer,London,King's Cross,E05000141,-0.1271053902589062,51.52854080927395
Amber,London,Coleman Street,E05009299,-0.0896308974226394,51.519348366817866
Hare & Hounds,East Sheen,East Sheen,E05000517,-0.2648083732871512,51.46503004386154
Fox & Anchor,London,Bunhill,E05000367,-0.1006380526948015,51.52051641064313
Black Boy,Sidcup,Eltham South,E05000219,0.0847898225196563,51.445000086427214
Fitzrovia Belle,London,Bloomsbury,E05000129,-0.1356683730746107,51.52256213606072
Knights Bar,London,St. James's,E05000644,-0.1206954982318868,51.51055173762729
Huntsman & Hounds,Walworth,North Walworth,E05011107,-0.0862544106651335,51.49021075043604
Backyard Bar & Kitchen,Bethnal Green,St. Peter's,E05009331,-0.0557439873038729,51.52675854409311
Waxy O'Connor's,London,St. James's,E05000644,-0.1321543602683946,51.5108606654945
Royal Oak,Bethnal Green,Weavers,E05009335,-0.0691866040349947,51.52933686164213
Brave New World,Surbiton,Berrylands,E05000401,-0.2961365365437882,51.393081314087496
Courtfield,Earls Court,Earl's Court,E05009395,-0.1922203136140472,51.49196397070627
Good Intent,South Hornchurch,Elm Park,E05000308,0.2028987341919269,51.54061255404694
Vale,Streatham,Longthornton,E05000464,-0.1429301086692387,51.41270509052856
Robin Hood,Sutton,Sutton Central,E05000564,-0.1962342308426393,51.363843610646455
Globe,London,Marylebone High Street,E05000641,-0.1570000052720468,51.52191900507461
Craft Beer Co.,London,Holborn and Covent Garden,E05000138,-0.1252817009191882,51.51573300096805
Beulah Spa,Upper Norwood,Crystal Palace & Upper Norwood,E05011467,-0.0928718555017451,51.41408639177499
Glyn Arms,Clapton,King's Park,E05009379,-0.0388348451233487,51.55590108742565
Chelsea Potter,Chelsea,Royal Hospital,E05009403,-0.1660448204877476,51.48839216039996
Beehive,New Eltham,Eltham South,E05000219,0.0713759496110787,51.4386101621391
Bull,Shepherds Bush,Shepherd's Bush Green,E05000263,-0.2241069480866832,51.50955509462842
Bottle Shop,London,London Bridge & West Bermondsey,E05011104,-0.0731886829678428,51.499439121788846
We Are Bar,London,Bishopsgate,E05009292,-0.0800697096631812,51.51876948693482
Windsor Castle,London,Vincent Square,E05000646,-0.1377406493879302,51.495095325859005
Library,London,St. Mary's,E05000379,-0.1035152303096565,51.54527484854333
Princess Royal,Brentford,Brentford,E05000347,-0.3013264623226344,51.488477788462006
Sambrook's Brewery Tap Room,Battersea,St. Mary's Park,E05000622,-0.176049476717288,51.47013127946639
Corner Bar,London,Bunhill,E05000367,-0.0973180896770808,51.52753984418515
Black Horse,High Barnet,High Barnet,E05000056,-0.2041239794311485,51.653282913480254
Steam Engine,London,Bishop's,E05000416,-0.1124314989572808,51.49710976820676
Asylum Tavern,Peckham,Old Kent Road,E05011109,-0.0592600241154942,51.477986273312425
Old Red Lion,London,Holborn and Covent Garden,E05000138,-0.1171285260422448,51.51806643511002
Rising Sun,London,Farringdon Within,E05009304,-0.1013775424174498,51.51313633317557
Ariadnes Nectar,North Kensington,St. Helen's,E05009404,-0.2245747848853829,51.518644716070575
Botanist,Kew,Kew,E05000524,-0.2891479804549236,51.48366060365392
Axe,Stoke Newington,Stoke Newington,E05009385,-0.0721515286516348,51.56291005514982
Fable,London,Farringdon Within,E05009304,-0.1041806124496744,51.51712949969306
Jolly Sailor,South Norwood,South Norwood,E05011485,-0.0750378689454349,51.39906463885156
George,South Woodford,South Woodford,E05011252,0.022709678015455,51.59339820806024
Bar Smith,London,Bunhill,E05000367,-0.1014245204706001,51.52032231668091
Coopers Arms,Chelsea,Royal Hospital,E05009403,-0.1649564143569932,51.486082003283904
Queen's Head,Downe,Darwin,E05000117,0.0538721661916914,51.336660594280566
Marlborough Head,London,West End,E05000649,-0.1538415613424889,51.51340722447439
Thornhill Arms,London,Barnsbury,E05000366,-0.1169721349367491,51.53443072722083
Simmons,London,Bunhill,E05000367,-0.1034003515249925,51.524805686058464
Prince of Wales,Paddington,Hyde Park,E05000636,-0.1801321311983579,51.51695649730234
Kenley Hotel,Kenley,Kenley,E05011469,-0.1004750774826998,51.32565785681604
Crown,Greenwich,Peninsula,E05000225,0.0041473196017353,51.4848599755284
Four Sisters,London,St. Mary's,E05000379,-0.1020658275514162,51.54302123623179
Mermaid,Clapton,Hackney Downs,E05009373,-0.0562716722860984,51.55465335143273
Ram,Kingston,Grove,E05000408,-0.3075633481913263,51.40830992266451
East London Liquor Co,Bow,Bow West,E05009320,-0.0417478078633945,51.53207416299743
Phoenix,Camberwell,St. Giles,E05011115,-0.0887162027074055,51.46888402116853
Elephant & Castle,Woolwich,Woolwich Riverside,E05000230,0.0682529508543351,51.490482257870376
Windsor,Peckham,Nunhead & Queen's Road,E05011108,-0.0541180992772969,51.47834164658752
Duke,London,Holborn and Covent Garden,E05000138,-0.1164724865945464,51.52278609465986
Phoenix,London,Broad Street,E05009295,-0.0860526355019337,51.51496451568296
Queen Adelaide,Bethnal Green,St. Peter's,E05009331,-0.0586561595995639,51.53251706904978
Lord Moon of the Mall,London,St. James's,E05000644,-0.127506981228315,51.50646106509365
Effra Social,Brixton,Herne Hill,E05000423,-0.1134356721016753,51.45566939349602
Bojangles Brasserie,Chingford,Larkswood,E05000602,-0.0171908987974365,51.61804425364685
Distillery,Notting Hill,Colville,E05009392,-0.2051875755048029,51.51646125316435
Kiln Theatre Bar,Kilburn,Kilburn,E05000094,-0.2003935886209495,51.54372535598836
Lock Tavern,London,Haverstock,E05000136,-0.1482480612320958,51.54292299466098
Paradise by Way of Kensal Green,North Kensington,Queens Park,E05000098,-0.2162379545662156,51.52911155168096
Lillie Langtry,Kilburn,Kilburn,E05000140,-0.1886588286312147,51.54034340917228
Ku Bar,London,West End,E05000649,-0.1309962367786148,51.51309939216855
Horse & Groom,Streatham,St. Leonard's,E05000428,-0.1281946788940344,51.43653555601878
Metropolitan Bar,London,Regent's Park,E05000643,-0.1559992193254057,51.52278455982761
Old George,Bethnal Green,St. Peter's,E05009331,-0.0595039948360324,51.52716258887851
Lass o' Richmond Hill,Richmond,"Ham, Petersham and Richmond Riverside",E05000519,-0.2959991467460929,51.450910281268605
Coach & Horses,London,St. James's,E05000644,-0.1206473399023738,51.51242145787959
Finch's,London,Bunhill,E05000367,-0.0873969536335464,51.52174896483668
Kings Arms,London,Bishopsgate,E05009292,-0.0826772529805667,51.51640213717064
White Hart,London,Bishop's,E05000416,-0.1106464251998368,51.505084579905855
Amersham Arms,New Cross,Brockley,E05000439,-0.0304382623831915,51.475428015476815
Park Place,Mitcham,Cricket Green,E05000458,-0.1604255709218324,51.4003097816218
Fox,Twickenham,Twickenham Riverside,E05000531,-0.3270701704952122,51.44664582885849
Temple Brew House,London,St. James's,E05000644,-0.1128606314743298,51.51287198580312
King's Head,High Barnet,High Barnet,E05000056,-0.2009055521556369,51.65351240458666
Lion Inn,Croydon,Bensham Manor,E05011464,-0.0990027890681076,51.3917944201429
Charlotte Despard,Upper Holloway,Junction,E05000376,-0.1365152123627262,51.56817733029725
Elm Tree,Elmers End,Clock House,E05000112,-0.0451175657925942,51.39879358075511
Scarsdale Tavern,Kensington,Abingdon,E05009388,-0.1993692892486152,51.49771234472247
Hadley Hotel,High Barnet,High Barnet,E05000056,-0.1834224310833144,51.65653443105982
Simpsons Tavern,London,Cornhill,E05009301,-0.0859885050997608,51.51305701386372
Picture House Bar,Clapham,Clapham Town,E05000419,-0.1381022409213076,51.46357275080662
Zubi,Holloway,Highbury West,E05000373,-0.1097936270946509,51.55107755518281
New Cross House,New Cross,Brockley,E05000439,-0.0374239967978386,51.47539233866761
Melanzana,Battersea,St. Mary's Park,E05000622,-0.1744043853991969,51.475276440057286
Thatched House,Hammersmith,Ravenscourt Park,E05000261,-0.2348343570722457,51.49785573308058
Sextons at Hampton Court,Hampton Court,Hampton,E05000520,-0.3438909275014838,51.40573543862772
Simmons,London,Whitechapel,E05009336,-0.0704925162911481,51.51039285185256
Charlotte,London,Borough & Bankside,E05011095,-0.1019116953493824,51.50375650878686
Wings Sports Bar,Welling,Falconwood & Welling,E05011226,0.1160132076637278,51.46043906251152
Old Sergeant,Wandsworth,Earlsfield,E05000612,-0.1913100975979484,51.45124005995815
Red Lion,Barnes,Barnes,E05000516,-0.2382510248963453,51.47687327426286
Power's Bar,Kingsbury,Fryent,E05000090,-0.2633491018875409,51.588269260349634
Turks Head,St. Margarets,St. Margarets and North Twickenham,E05000527,-0.3229685059119741,51.45607419001532
Pratts & Payne,Streatham,St. Leonard's,E05000428,-0.1300658695858234,51.42982085184368
Bull,London,Bishopsgate,E05009292,-0.0801915649232631,51.51690100278781
New Angel Inn,Rainham,Rainham and Wennington,E05000318,0.1898711386360084,51.51855407136824
Coach & Horses,Stoke Newington,Stoke Newington,E05009385,-0.0735477835712749,51.561278371870095
Astronomer,London,Bishopsgate,E05009292,-0.0787781919029375,51.51794796997178
Bricklayers Arms,Kingston,Norbiton,E05000409,-0.2928093549799934,51.40872535760065
Bar One Twenty,Chingford,Chingford Green,E05000593,0.008736008093858,51.63335829676787
Lord Raglan,Plumstead,Woolwich Common,E05000229,0.0732206943537445,51.48567327936861
La Rueda,Clapham,Clapham Town,E05000419,-0.1336241335934398,51.46359147957078
Tyme On The Waterfront,Northolt,Greenford Broadway,E05000177,-0.3781946951756603,51.52923131444452
Duke of Edinburgh,Lee,Lee Green,E05000447,0.0105439117203716,51.456405040368246
Hill Top Tap,Sidcup,Sidcup,E05011230,0.1001776064097555,51.42627172750095
Monty's Bar,Hornchurch,St. Andrew's,E05000320,0.2191154139292336,51.56834708262816
Project Orange,Battersea,Northcote,E05000619,-0.16999037587242,51.46286074611021
Occasional Half,Palmers Green,Bowes,E05000193,-0.1100712404829765,51.610162615985935
Calthorpe Arms,London,King's Cross,E05000141,-0.1159620175510566,51.52467536850442
Vintry,London,Candlewick,E05009296,-0.0886369227721901,51.51141857322561
Duchess Belle,Battersea,Queenstown,E05000620,-0.1430396263152373,51.47884864081381
Aroma,Yeading,Barnhill,E05000324,-0.3999842235766773,51.5241442055325
Florence,Herne Hill,Herne Hill,E05000423,-0.1031630343485945,51.45277873899149
Park Fever,Hither Green,Lee Green,E05000447,-0.0005772775878654,51.45324079800466
Rose,Fulham,Parsons Green and Walham,E05000260,-0.189842267567531,51.4767117668211
Greenwich Union,Greenwich,Greenwich West,E05000222,-0.0098263252004681,51.47653672363711
Hardy's Free House,Greenwich,Peninsula,E05000225,0.0015313162994404,51.483996365185405
Beer & Burger Store,London,Willesden Green,E05000105,-0.22126957942199,51.54870186126389
Williams Ale & Cider House,Spitalfields,Bishopsgate,E05009292,-0.078285829159438,51.51834456791367
Washington,London,Belsize,E05000128,-0.1624469944260613,51.545942915228366
Rose & Crown,Woodford Green,Monkhams,E05011249,0.0209353699932874,51.60969639533482
Bollo,Chiswick,Southfield,E05000191,-0.2700446551192406,51.49597916993174
Westminster Arms,London,St. James's,E05000644,-0.1300806380457724,51.50062087743371
Olde London,London,Farringdon Within,E05009304,-0.1017892661981807,51.51397932697896
Fleet Place,London,Farringdon Within,E05009304,-0.1035697822405915,51.51622034899221
Globe,London,Church Street,E05000634,-0.1656535620681092,51.52252225891275
Tommyfield,Kennington,Prince's,E05000427,-0.1103923017796927,51.4889385030205
Crown Inn,Chislehurst,Chislehurst,E05000111,0.0729580907786139,51.41065023746475
Royal Sovereign,Clapton,Hackney Downs,E05009373,-0.0624372789795938,51.56266895071565
Albert Arms,London,St. George's,E05011114,-0.1047522111458032,51.49746254103506
Lamb Inn,Lower Edmonton,Edmonton Green,E05000197,-0.0635677598788659,51.625374685081646
Crown,Bromley Common,Bromley Common and Keston,E05000108,0.0345886489760397,51.3904683602918
Hussar,Hounslow,Hounslow West,E05000361,-0.3872682381682873,51.46336107545638
Bird in Hand,West Kensington,Addison,E05000250,-0.215649230364546,51.49993053598328
Cutty Sark,Greenwich,Peninsula,E05000225,4.242099118886996e-05,51.48650379189672
Ask for Janice,London,Farringdon Within,E05009304,-0.0998848881504311,51.51921824415994
Roma,London,Tower,E05009310,-0.0794340876346588,51.511268149200745
Fox & Firkin,Lewisham,Lewisham Central,E05000448,-0.0139753665816253,51.45727239649288
Montpelier,Peckham,Rye Lane,E05011113,-0.0709479356861302,51.46754070932869
Princess,London,Hoxton East & Shoreditch,E05009377,-0.083601881747208,51.5256167822257
Cronx,Croydon,Fairfield,E05011468,-0.09467827981509,51.374790707207104
Red Barn,Bexleyheath,Barnehurst,E05011217,0.1583262820662222,51.46570188375115
Royal Standard,Colliers Wood,Colliers Wood,E05000457,-0.178223274503607,51.41878025848508
Railway Telegraph,Forest Hill,Perry Vale,E05000450,-0.0490930929760352,51.442196556515206
Hoop & Toy,South Kensington,Brompton & Hans Town,E05009389,-0.1740013163804984,51.49474823343944
Marquis Of Lorne,Stockwell,Ferndale,E05000421,-0.1194176273854426,51.465972355731296
Harvester,Northolt,Northolt Mandeville,E05000184,-0.3658217743693613,51.54904942088989
Hamptons Ale House,Hampton,Hampton North,E05000521,-0.3782618628594913,51.42623373023655
Plough on the Pond,Thornton Heath,West Thornton,E05011488,-0.1141028920359824,51.39440337434485
Hour Glass,Walworth,Faraday,E05011102,-0.0843396867722169,51.48640252717168
Railway Telegraph,Thornton Heath,Bensham Manor,E05011464,-0.1015569668789778,51.39779797899061
Trinity Bell,London,Aldgate,E05009289,-0.0788582076465576,51.51365076991614
Ruislip Social Club,Ruislip,Manor,E05000334,-0.4195047913943606,51.56901956513558
Tapping The Admiral,London,Haverstock,E05000136,-0.146927492327905,51.5456089462391
Wheatsheaf,Stoke Newington,Cazenove,E05009368,-0.0711918288678983,51.5658168727393
Duchess Of Kent,Holloway,St. Mary's,E05000379,-0.1085923875243661,51.54595936953962
Havet,Bromley,Bromley Town,E05000109,0.0138869472229841,51.40610422500925
Windmill,Hampton Hill,Fulwell and Hampton Hill,E05000518,-0.3622387080231122,51.42781826052922
Refinery New Street Square,London,Castle Baynard,E05009297,-0.1084110015536708,51.515911819906215
Lion & Key Hotel,Leyton,Leyton,E05000604,-0.0112909307336207,51.56427755588307
Tokenhouse,London,Broad Street,E05009295,-0.0892290506573054,51.51551991465345
Shop,Kensal Rise,Queens Park,E05000098,-0.218619451795045,51.53384187415495
Sylvan Post,Forest Hill,Forest Hill,E05000444,-0.0545660304227438,51.43835766879842
Royal Standard,Paddington,Hyde Park,E05000636,-0.1700022072872267,51.517967949654405
Old Queens Head,London,St. Peter's,E05000380,-0.1013556206120295,51.536526049241296
Gate Lodge,Golders Green,Childs Hill,E05000045,-0.1949958133307328,51.57115968343855
White Bear,Kennington,Prince's,E05000427,-0.1080502981047868,51.48670651951157
La Fonda de Maria,Stockwell,Larkhall,E05000425,-0.1234169806442463,51.47096443622645
Howling Hops Tap Room,Homerton,Bow East,E05009319,-0.0227393894919707,51.54250186438299
Richmond,Hammersmith,Addison,E05000250,-0.2216946340282103,51.50082268511108
Dynamo,Tooting,Bedford,E05000611,-0.155448677819904,51.43824454589932
Blue Boar Smokehouse & Bar,London,St. James's,E05000644,-0.1325009300296406,51.49957132033908
Whyte & Brown,London,West End,E05000649,-0.1385231244534086,51.51230182431301
Rising Sun,London,Farringdon Within,E05009304,-0.0997445850833318,51.51912604274765
Red Lion,Teddington,Fulwell and Hampton Hill,E05000518,-0.3451253850139885,51.43087793135474
Blind Beggar,London,Spitalfields & Banglatown,E05009333,-0.0576312594225826,51.52001842733436
Flag & Whistle,London,Bishop's,E05000416,-0.1187055073799128,51.49449476655006
Liberty Bell (Beefeater),Romford,Romford Town,E05000319,0.1865858194055581,51.577879219852456
Traveller's Tavern,London,Warwick,E05000647,-0.1492580455105985,51.49315536209174
Wolfgang's Beer Haus,Balham,Balham,E05000610,-0.1504484126238068,51.445908611522725
Black Horse,Bexley,St. Mary's & St. James,E05011229,0.149939949338787,51.44535201826003
Thames Rowing Club,Putney,Thamesfield,E05000625,-0.2211467411675688,51.47011344926321
George Staples,Blackfen,Blackfen & Lamorbey,E05011220,0.1005882205317304,51.45120194053276
Caffe Concerto,Chelsea,Royal Hospital,E05009403,-0.1605322007453648,51.49150721703556
Chandos,London,St. James's,E05000644,-0.1266837386038429,51.5100180346573
George & Dragon,Yiewsley,Yiewsley,E05000345,-0.4737271773426362,51.51478627107991
Rambler's Rest,Chislehurst,Chislehurst,E05000111,0.0619703509314179,51.408703779256776
Henry Addington,Canary Wharf,Canary Wharf,E05009323,-0.0220506733365006,51.50451368847349
Argyll Arms,London,West End,E05000649,-0.1414667035291422,51.51504631364831
Ben's Canteen,Battersea,Fairfield,E05000614,-0.1774896813042858,51.46036064526431
Two Chairmen,London,St. James's,E05000644,-0.1316272048540927,51.500501640852725
Road Trip Bar,London,Hoxton West,E05009378,-0.0842947208226123,51.52662629588417
Lighterman,Barking,Thames,E05000039,0.1031679996148176,51.52857586635782
Golden Goose,Camberwell,Vassall,E05000436,-0.1018108566842795,51.47739715983307
Dolphin,Hackney,London Fields,E05009381,-0.0565861351441336,51.539478963982525
George & Dragon,Fulham,Fulham Broadway,E05000254,-0.2020108653076322,51.4855048862679
OLd Street Brewery Taproom,Bethnal Green,St. Peter's,E05009331,-0.0566615575346813,51.52653996051921
Robin Hood & Little John,Bexleyheath,Crook Log,E05011223,0.1359647533984284,51.454564488219575
Red Lion,Walworth,Faraday,E05011102,-0.0933591615524619,51.48495780577497
Falcon,Clapham,Larkhall,E05000425,-0.1290734895903443,51.46432829030663
Watermans Arms,Richmond,South Richmond,E05000528,-0.3073426511966222,51.4590240002598
Super Lyan,London,Hoxton East & Shoreditch,E05009377,-0.0803879550563909,51.53141837357597
White Hart,Barnes,Mortlake and Barnes Common,E05000525,-0.2545474197533854,51.47134354869471
Queen Adelaide,Wandsworth,Thamesfield,E05000625,-0.2009063917154441,51.46048831062386
Northumberland Arms,Brentford,Syon,E05000364,-0.3127353179939223,51.48221267005962
Alma,Wandsworth,Fairfield,E05000614,-0.1880124996622896,51.46037079364245
Duke of Buckingham,Kingston,Grove,E05000408,-0.2948091454230914,51.4025044418818
Coach & Horses,Leyton,Leyton,E05000604,-0.0101786011391494,51.56100335448512
Bar One,Stratford,Stratford and New Town,E05000492,0.0055028150632451,51.546878553414544
Sipping Room,Isle of Dogs,Canary Wharf,E05009323,-0.0226121901184635,51.50751781924165
Glasshouse,New Malden,Coombe Vale,E05000407,-0.2578492596273358,51.40542292025621
Royal Oak,Hampton,Hampton North,E05000521,-0.3812464738092774,51.42277698236328
King Charles I,London,Caledonian,E05000368,-0.1196596083686689,51.53184795431737
Funky Brownz,Belmont,Belmont,E05000285,-0.3185912968661744,51.601671407236864
Duke of Kendal,Paddington,Hyde Park,E05000636,-0.1656804954828033,51.51468107280328
Harrow,Hornchurch,Hylands,E05000315,0.2048905647415112,51.56482937898171
Duchess,Hammersmith,Ravenscourt Park,E05000261,-0.2442792663450481,51.49726904800461
George & Devonshire,Chiswick,Chiswick Homefields,E05000348,-0.2521018304284199,51.48636088015382
Birds Nest,Deptford,New Cross,E05000449,-0.0225300257242378,51.4761491636915
Frankie's Sports Bar & Diner,Fulham,Parsons Green and Walham,E05000260,-0.1902725608065024,51.48112478314386
Half Moon,London,Bethnal Green,E05009317,-0.045299154134781,51.52221454647792
Victoria Tavern,Plaistow,Plaistow North,E05000489,0.0218571574477649,51.5299340012775
Woodbine,London,Highbury East,E05000372,-0.0982631400257845,51.559514892071455
Missouri Angel,London,Tower,E05009310,-0.0757112105762369,51.51171965888875
Cherry Tree,East Dulwich,Goose Green,E05011103,-0.0785087241559717,51.46166669281925
Comedy,London,St. James's,E05000644,-0.1323562356427748,51.51015345469894
Grenadier,London,Knightsbridge and Belgravia,E05000637,-0.1547065392361376,51.50128069448149
Ashanti Lounge Bar,Battersea,Shaftesbury,E05000623,-0.1510740466875134,51.46641286344124
Little Green Dragon,Winchmore Hill,Bush Hill Park,E05000194,-0.0908697940672418,51.636118615298365
Railway Inn,Enfield,Enfield Lock,E05000199,-0.0273616892275792,51.67096641943456
Red Lion Hotel,Southall,Southall Broadway,E05000189,-0.3714083750798559,51.51053211106835
High Cross,London,Tottenham Hale,E05000281,-0.069705838621951,51.58933498601974
Marlborough,Richmond,South Richmond,E05000528,-0.2967178130498407,51.45519219426305
Henry's,Kingston,Grove,E05000408,-0.3075633481913263,51.40830992266451
Elderfield,Clapton,Lea Bridge,E05009380,-0.0466190642523568,51.55368372781624
Victoria Inn,Richmond,South Richmond,E05000528,-0.3040052018681873,51.45741107178794
Baltic,London,Borough & Bankside,E05011095,-0.1050920762676541,51.50316045289802
Wheatsheaf,Harlington,Heathrow Villages,E05000331,-0.434897923621036,51.48545384770812
East Putney Tavern,Putney,Thamesfield,E05000625,-0.2118552972461632,51.45990932205687
Cafe Boheme,London,West End,E05000649,-0.130612929070179,51.51330910964328
Three Horseshoes,Feltham,Hanworth Park,E05000354,-0.4198016803808417,51.436296872028215
Machine No.3,Homerton,Homerton,E05009376,-0.0469097516137895,51.54453400999248
Beaconsfield,Finsbury Park,Harringay,E05000271,-0.0987891780463125,51.57597081759136
Clery's Clock Bar,Kingsbury,Fryent,E05000090,-0.25282076170665,51.58838307719603
Chamberlayne,Kensal Rise,Queens Park,E05000098,-0.218619451795045,51.53384187415495
Roebuck,Richmond,"Ham, Petersham and Richmond Riverside",E05000519,-0.2982683093674341,51.4522021941375
Dado54,London,Clerkenwell,E05000370,-0.1058601867072443,51.52111343968964
BrewDog Clapham Junction,Battersea,Northcote,E05000619,-0.1634493490275209,51.460834059388645
Prince of Wales,Surbiton,Berrylands,E05000401,-0.2975778600121639,51.38948718616307
Plough,Cranham,Cranham,E05000307,0.2664379792158493,51.561767902698
Spice Rack Lounge,Stanmore,Stanmore Park,E05000303,-0.3123278433073908,51.61753421401583
Shakespeare's Head,London,West End,E05000649,-0.1395775467316717,51.51365846692865
Empress,Homerton,Victoria,E05009386,-0.0448915465684695,51.53710846725135
Thai Tiger,Greenwich,Peninsula,E05000225,0.008421798049946,51.48642355980967
Queen's Head,Pinner,Pinner,E05000297,-0.3808584211140064,51.59431019465816
Charles Holden,Colliers Wood,Colliers Wood,E05000457,-0.179581977689124,51.41752437669961
Market House,Brixton,Coldharbour,E05000420,-0.1137289750822108,51.46147448137798
York & Albany,London,Regent's Park,E05000142,-0.1463709689011219,51.53623876451815
Prince of Wales,Heathrow Airport,Heathrow Villages,E05000331,-0.4473528536947876,51.45966718122641
Coco Momo,London,Marylebone High Street,E05000641,-0.152183830533816,51.520890015472034
Duke of York,London,Bryanston and Dorset Square,E05000632,-0.1641831461339213,51.51750832564033
Bull,Streatham,Streatham South,E05000431,-0.1283467148642758,51.41943372548101
Beefeater,Kenton,Kenton West,E05000295,-0.3169013989958716,51.5825562438316
Green Man Hotel,Wembley,Tokyngton,E05000102,-0.2894402261127001,51.55700795472598
Enterprise,London,Holborn and Covent Garden,E05000138,-0.1173257787669703,51.52027282695372
King & Queen,London,West End,E05000649,-0.1387349660132146,51.52018279989407
Kingsland,Hackney,Dalston,E05009370,-0.0757829286932678,51.5472775963922
Gordon Arms,Chislehurst,Chislehurst,E05000111,0.0686235772205971,51.419108183327296
Lord John Russell,London,King's Cross,E05000141,-0.1258178694948811,51.525840413478114
Middlesex Arms,South Ruislip,South Ruislip,E05000338,-0.3971107323089604,51.55752921000328
Beer House,London,Warwick,E05000647,-0.1443293284531723,51.49497494321386
White Lion,London,St. James's,E05000644,-0.1241028430167719,51.51285446480484
London Fields Brewery tap room,Hackney,London Fields,E05009381,-0.0583749433634259,51.53844748768574
Eleven,Balham,Balham,E05000610,-0.1482694532132365,51.442852637044936
Clarkshaw Tap Room,Loughborough Junction,Coldharbour,E05000420,-0.1039543834613747,51.465291586407005
Normanby,Putney,Thamesfield,E05000625,-0.2105838097622334,51.46297444421649
Refinery at Regent's Place,London,Regent's Park,E05000142,-0.1400030371129527,51.52585033221519
Hare & Hounds,Osterley,Osterley and Spring Grove,E05000363,-0.3392525623981009,51.491646629533776
Ladbroke Arms,Notting Hill,Pembridge,E05009400,-0.2026956269616896,51.50910309323221
Dr Butlers Head,London,Coleman Street,E05009299,-0.0902873721418066,51.51571701136704
Lord Palmerston,London,Highgate,E05000137,-0.1406603902188472,51.55959229033235
Lounge 101,Ruislip,West Ruislip,E05000343,-0.4232734507564989,51.573530478421496
White Cross,Bexley,St. Mary's & St. James,E05011229,0.1388008424615945,51.430258656623295
Blueroom Sports Venue,Headstone,Headstone North,E05000292,-0.361019187795836,51.59797340833476
Perky Nel,Clapham,Clapham Common,E05000418,-0.1462742878717667,51.45374731356925
Victory,Bethnal Green,St. Peter's,E05009331,-0.0547599884379267,51.53461965551647
Himalayan Club (Bar & Restaurant),Sudbury,Sudbury,E05000101,-0.3168229581967948,51.55654943189428
Victoria,London,London Bridge & West Bermondsey,E05011104,-0.0806973914781175,51.4945893179711
Red Lion,London,Bishopsgate,E05009292,-0.0857787164764575,51.51874597190679
Caraway Lounge,Romford,Brooklands,E05000306,0.1727467254327781,51.585186745646936
Caxton Bar & Grill,London,St. James's,E05000644,-0.1339295432080405,51.498811692328175
Railway Tavern,London,Broad Street,E05009295,-0.0843392169157786,51.51767031045773
Cricketers,Kew,Kew,E05000524,-0.2889514871988619,51.48544728371324
Estrela Bar,South Lambeth,Stockwell,E05000429,-0.1233070582539492,51.47926291715204
Landor,Stockwell,Larkhall,E05000425,-0.1257634135989294,51.465705265765465
Everest Abercorn,Stanmore,Stanmore Park,E05000303,-0.3158816446638545,51.62142507883982
Exhibit,Balham,Balham,E05000610,-0.1519357146902866,51.44328818899243
Railway Tavern,Mill Hill,Hale,E05000054,-0.2589104080258243,51.61642120070314
Shepherd's Inn,Leytonstone,Cathall,E05000591,0.0071377687351729,51.55944929717271
Lucky Voice,London,St. Mary's,E05000379,-0.1033847684411211,51.539049848204925
Friendly Society,London,West End,E05000649,-0.1332887265914532,51.512371515117295
Cricketers,Chessington,Chessington North and Hook,E05000404,-0.310781471051748,51.36773594860136
St John's Tavern,London,Junction,E05000376,-0.135237804998903,51.563777708197726
Fleadh,Wembley,Barnhill,E05000086,-0.2942924420879759,51.57306693450554
Dial Arch,Woolwich,Woolwich Riverside,E05000230,0.069097225781333,51.49226593098635
Tommy Tucker,Fulham,Parsons Green and Walham,E05000260,-0.1922327948133003,51.47816947180871
Queens Head,Poplar,St. Dunstan's,E05009329,-0.038833164389905,51.513680515354224
Stags Head,London,Hoxton East & Shoreditch,E05009377,-0.0787612932634957,51.53614876956998
Imperial Arms,Fulham,Parsons Green and Walham,E05000260,-0.188563617974223,51.47845457443653
Horn Of Plenty,London,Bethnal Green,E05009317,-0.0464150491766446,51.5224129809081
Mitre,Paddington,Lancaster Gate,E05000638,-0.1786672142122103,51.512491387583296
Shakespeares Head,London,Clerkenwell,E05000370,-0.1065306177682463,51.530314831303606
Lamb,Plaistow,Plaistow North,E05000489,0.021665754700704,51.53375025334404
Central Station,London,Caledonian,E05000368,-0.1204308753286433,51.53342504861587
Thirsty Scholar,London,Marylebone High Street,E05000641,-0.1444094090223319,51.5234920830309
Inn On The Park,Enfield,Enfield Lock,E05000199,-0.0213487361212569,51.67686333566925
Molly's Bar,New Southgate,Southgate Green,E05000209,-0.1356785939851517,51.61648925370061
Prince Of Wales,Ilford,Ilford Town,E05011246,0.0866305539397966,51.55914983239857
Bow Street Tavern,London,St. James's,E05000644,-0.1213570864918375,51.51303534101294
Hawkins Forge,Battersea,Northcote,E05000619,-0.1686630968611792,51.46077171820835
Royal Exchange,Paddington,Hyde Park,E05000636,-0.1697472346011558,51.51821576632089
Paxton,West Norwood,Gipsy Hill,E05000422,-0.0877953251774444,51.427528769396105
Players Bar & Kitchen,London,St. James's,E05000644,-0.1240969616492148,51.50808821807976
Elephant & Castle,Kensington,Campden,E05009390,-0.1927835594522789,51.50321348173426
Barley Mow,London,West End,E05000649,-0.1509355722377747,51.5129208090441
Duke's Head,Putney,Thamesfield,E05000625,-0.2165684039128546,51.46714827708112
Roseview Hotel,Muswell Hill,Fortis Green,E05000270,-0.1447892475620432,51.592138340943926
Victoria,Tottenham,Tottenham Hale,E05000281,-0.0678469703731541,51.5967411117409
Candlemaker,London,Walbrook,E05009312,-0.0902667152032445,51.511732893837824
Lord Nelson,London,Old Kent Road,E05011109,-0.0746640156422743,51.486999388569714
Windmill,London,West End,E05000649,-0.1422667233283388,51.51238815358904
Greyhound,Kew,Kew,E05000524,-0.2861072728195775,51.48524390103158
Bloomsbury Kitchen & Bar,London,Holborn and Covent Garden,E05000138,-0.1225869166872328,51.520626921938096
Wetherspoon's,London,Warwick,E05000647,-0.1443293284531723,51.49497494321386
North Nineteen,Upper Holloway,Tollington,E05000381,-0.12129675712232,51.56421176143624
Black Horse,Deptford,Evelyn,E05000443,-0.0341009465261402,51.48568747772074
MAP Maison,Hackney,Haggerston,E05009375,-0.0769840615382186,51.53862851134287
Ship & Shovel,Barking,Thames,E05000039,0.1164820166364341,51.53214025572266
Hercules,London,Bishop's,E05000416,-0.1122674635719058,51.497592736424856
Celebrations @ Bexley,Bexleyheath,Crook Log,E05011223,0.1361646248974489,51.45637743018366
Brewheadz,Tottenham,Tottenham Hale,E05000281,-0.0576170634305064,51.59589761450554
Park Tavern,Finsbury Park,Tollington,E05000381,-0.1118301668890866,51.56773764325786
Crown,London,Holborn and Covent Garden,E05000138,-0.1267526446877,51.51430866959755
Waterloo Tap,London,Prince's,E05000427,-0.1201051587454682,51.49199024974828
Springfield Bar & Grill,New Southgate,Bounds Green,E05000267,-0.1226327753467516,51.605346561702746
Strongroom Bar & Kitchen,London,Hoxton East & Shoreditch,E05009377,-0.0801254241838541,51.52600950973785
Dovecote,Chingford,Hatch Lane,E05000598,0.0084615797785754,51.62289573139968
80 - 84 Market Place,Romford,Romford Town,E05000319,0.1829509351452477,51.57943078905056
Winsor House,East Ham,Beckton,E05000475,0.0674114351830956,51.5151736298269
Royal Albert,Upper Norwood,Crystal Palace & Upper Norwood,E05011467,-0.0814079963600252,51.41963652972008
Chesham Arms,Homerton,Homerton,E05009376,-0.0504570608764831,51.54758751569615
Castle,London,Clerkenwell,E05000370,-0.1042239165255848,51.52025068375681
Golden Crane,Cranham,Cranham,E05000307,0.2676798621285025,51.56874954227372
Angel Inn,London,Highgate,E05000137,-0.1472132346703533,51.57052282904508
Jam Tree,Clapham,Clapham Town,E05000419,-0.1410513242756332,51.465400092581454
Grapes,London,West End,E05000649,-0.1463040976422104,51.506660726715744
Luppolo,Wanstead,Wanstead Village,E05011255,0.0273455459847963,51.5762324459445
Oliver Conquest,London,Whitechapel,E05009336,-0.0701697224247615,51.51291448754012
Kings Arms,London,West End,E05000649,-0.1402580127406866,51.518534311956174
Saxon Horn,Rainham,Rainham and Wennington,E05000318,0.2115336445980789,51.52149283871056
Abbey Arms,Abbey Wood,Abbey Wood,E05000214,0.1211273825327912,51.49030210067386
Bell,Sydenham,Bellingham,E05000437,-0.0367750412283991,51.42911301534047
Railway,Lower Edmonton,Edmonton Green,E05000197,-0.0578985205603953,51.62415689058199
Chiquito Mexican Grill & Bar,Dagenham,Goresbrook,E05000033,0.1364628670758396,51.532371482990605
Admiralty,London,St. James's,E05000644,-0.1286694541576997,51.50727997025858
Captain Kidd,London,St. Katharine's & Wapping,E05009330,-0.0600977882883692,51.50302713664555
Merchant,Isle of Dogs,Canary Wharf,E05009323,-0.0216875287797077,51.50591046460607
Draft House,Hammersmith,Avonmore and Brook Green,E05000252,-0.2242455572054342,51.49561862379728
Horse & Stables,London,Bishop's,E05000416,-0.1117428234483138,51.49913104324951
Grange Rochester Hotel Bar,London,Vincent Square,E05000646,-0.1363276973229139,51.49441641239049
Husk Brewing Taproom,Royal Docks,Royal Docks,E05000491,0.0186223185211506,51.50439589679346
Bell,London,Spitalfields & Banglatown,E05009333,-0.0754664028127059,51.51581631269078
Moon & Sixpence,Hatch End,Hatch End,E05000291,-0.3732859626350651,51.60824272905901
Corner Flag,Upper Holloway,Tollington,E05000381,-0.1222397588277619,51.56759005931915
North Star Tavern,London,Frognal and Fitzjohns,E05000133,-0.1785858563180569,51.5463024477704
Compton Arms,London,St. Mary's,E05000379,-0.1022375036879361,51.544094131538365
Anspach & Hobday Brewery Tap Room,London,London Bridge & West Bermondsey,E05011104,-0.0731886829678428,51.499439121788846
Prince of Wales,Brixton,Coldharbour,E05000420,-0.1149949155176041,51.461845568285725
Signature Brew Taproom & venue,Haggerston,Haggerston,E05009375,-0.0753632570067082,51.5370551737337
Brewer's Arms,Erith,Northumberland Heath,E05011228,0.1599919021273757,51.47230804188817
Surprise,South Lambeth,Larkhall,E05000425,-0.131536444321891,51.474529297538425
Chilled Eskimo,North Kensington,Golborne,E05009396,-0.2114874573074515,51.52488463840313
Thirsty Eddie's,Wembley,Wembley Central,E05000104,-0.2917249925637695,51.553776885784906
Camel,Bethnal Green,Bethnal Green,E05009317,-0.0512941379312,51.52833026185164
