name,address2,ward_2018_name,ward_2018_code,longitude,latitude
Troyganic,Bethnal Green,Haggerston,E05009375,-0.0771464214620505,51.529647625412295
Terroirs,London,St. James's,E05000644,-0.1254699085662788,51.5093961289892
Salusbury,Queen's Park,Queens Park,E05000098,-0.2054915221568323,51.5354852857776
Wheatsheaf,London,Bloomsbury,E05000129,-0.1339327858262613,51.51776839982772
Grosvenor,Hanwell,Elthorne,E05000176,-0.3290668678085321,51.50624969967139
Clarence,London,St. James's,E05000644,-0.1267396684257847,51.506197016452006
Draft House,Hammersmith,Avonmore and Brook Green,E05000252,-0.2242455572054342,51.49561862379728
White Swan,London,St. James's,E05000644,-0.1256771174929898,51.51101813342815
Whelan's,Uxbridge,Uxbridge North,E05000340,-0.4805422438409898,51.54774135997982
BrewDog,London,Clerkenwell,E05000370,-0.1046016288764839,51.522262169357965
York,London,St. Peter's,E05000380,-0.1055075759723101,51.53307705871038
Ascott,Eastcote,Eastcote and East Ruislip,E05000329,-0.4001629419596976,51.57865826368288
Dog & Duck,Winchmore Hill,Winchmore Hill,E05000213,-0.1044743300002821,51.62593494964014
Bethnal Green Tavern,Bethnal Green,St. Peter's,E05009331,-0.0572455814916214,51.52704423321393
Callow Ruscoe,Fulham,Sands End,E05000262,-0.1917282146194437,51.47162405070753
Olde Clock Tower,Croydon,Selhurst,E05011479,-0.0977459211572703,51.38502040436206
Trafalgar Tavern,Greenwich,Peninsula,E05000225,-0.0042335046899408,51.48457123020636
Express Tavern,Brentford,Brentford,E05000347,-0.2882115800451741,51.48905154848771
Montague Arms,Peckham,Telegraph Hill,E05000453,-0.0517038643413732,51.47349033202516
Nolans,South Lambeth,Oval,E05000426,-0.1267420456178488,51.47978545728486
Birchwood,Abbey Wood,Abbey Wood,E05000214,0.114509398591299,51.49764283000154
Botanist,London,Royal Hospital,E05009403,-0.1565932489055815,51.49309103289611
Haggerston,Hackney,London Fields,E05009381,-0.0759389655027453,51.54152491603893
Porcupine,London,St. James's,E05000644,-0.1281838871178628,51.51174161008827
Boathouse,Putney,Thamesfield,E05000625,-0.21277143834429,51.46520202078988
Chancery,Beckenham,Copers Cope,E05000113,-0.0179978702278738,51.40691739600975
Virgin Queen,Bethnal Green,Haggerston,E05009375,-0.0642945650938768,51.53351858833729
Duke,Wanstead,Wanstead Village,E05011255,0.0280884321433263,51.58222655186922
Villages Brewery Taproom,Deptford,New Cross,E05000449,-0.0247135471340206,51.478605079505066
Chelsea Pensioner,Chelsea,Redcliffe,E05009402,-0.1877798322691719,51.48151793497138
Duck In The Pond,Harrow Weald,Harrow Weald,E05000290,-0.3277915163083814,51.604761454635565
Pig & Butcher,London,St. Mary's,E05000379,-0.1064879159504556,51.53724750498933
Rosendale,Dulwich,Thurlow Park,E05000434,-0.0946444855290679,51.436822083547895
7000 Jars of Beer,Kingston,Grove,E05000408,-0.305415645287142,51.40961878344506
Islington Town House,London,Barnsbury,E05000366,-0.1071222220232663,51.533777580189216
Corner Bar,London,Bunhill,E05000367,-0.0973180896770808,51.52753984418515
Flying Horse,London,Hoxton East & Shoreditch,E05009377,-0.0849705538080284,51.52048634841941
Berrylands,Surbiton,Berrylands,E05000401,-0.2803402749854388,51.398426076618975
Slug & Lettuce,London,Lime Street,E05009307,-0.0804968685505358,51.5151254488274
Fitzroy Tavern,London,Bloomsbury,E05000129,-0.1346007598748106,51.5187052737292
Fox's,Sydenham,Forest Hill,E05000444,-0.0601803933165863,51.43115752793548
Funky Brownz,Colindale,West Hendon,E05000062,-0.2480973956500999,51.58395146127446
40ft Brewery Tap,Hackney,Dalston,E05009370,-0.0753289133060511,51.54709927798656
Sutton Arms,Farringdon,Bunhill,E05000367,-0.0981366344467963,51.52070067609878
Grange Rochester Hotel Bar,London,Vincent Square,E05000646,-0.1363276973229139,51.49441641239049
Prince Edward,Homerton,Homerton,E05009376,-0.041924720358364,51.54542220858863
Dolphin,Sydenham,Sydenham,E05000452,-0.0471812808772265,51.42595052278777
York Arms,Whetstone,Oakleigh,E05000058,-0.1588411848679254,51.62521775659496
Piano Works,London,Clerkenwell,E05000370,-0.1110536206422488,51.52554067502192
Smokehouse,London,St. Mary's,E05000379,-0.0990593481939504,51.54214518724854
Royal Oak,Twickenham,Twickenham Riverside,E05000531,-0.3247355547410916,51.448698693449145
Lord Palmerston,London,Highgate,E05000137,-0.1406603902188472,51.55959229033235
All Bar One,London,Tower,E05009310,-0.0791102870755395,51.509716095549535
Royal Oak,Erith,Northumberland Heath,E05011228,0.1618758104704445,51.47256108694516
Horse & Groom,London,West End,E05000649,-0.1423804317603571,51.51986289137757
White Horse,Fulham,Parsons Green and Walham,E05000260,-0.1991312809595548,51.47377029588922
Drake & Morgan (Kings Cross),London,St. Pancras and Somers Town,E05000143,-0.1250425457582237,51.53348084568618
Eaglet,Holloway,Finsbury Park,E05000371,-0.1158916470068237,51.55953884734783
Green Man,London,St. Peter's,E05000380,-0.0978545626652862,51.53922101985864
Lambo Bar & Restaurant,Cricklewood,Childs Hill,E05000045,-0.2076868169900042,51.56071616633786
Lyric Hammersmith Bar & Grill,Hammersmith,Hammersmith Broadway,E05000256,-0.2262824974429885,51.49324840896767
Cafe Boheme,London,West End,E05000649,-0.130612929070179,51.51330910964328
One Tun,London,Bloomsbury,E05000129,-0.1368162342969244,51.519163141369866
Red Lion,Walworth,Faraday,E05011102,-0.0933591615524619,51.48495780577497
Bridge Tavern,Mill Hill,Mill Hill,E05000057,-0.2489537112627748,51.614268123358535
Two Chairmen,London,St. James's,E05000644,-0.1316272048540927,51.500501640852725
Effra Hall,Brixton,Coldharbour,E05000420,-0.1138606052322308,51.4596780395034
Willoughby Arms,Kingston,Canbury,E05000403,-0.2921101294245852,51.41552244458777
All Bar One,London,Hoxton East & Shoreditch,E05009377,-0.083231283362166,51.52002626367371
Wanstead Tap,Forest Gate,Cann Hall,E05000590,0.018918867030537,51.5554161179995
Woody`s,Kingston,Grove,E05000408,-0.3081985402379094,51.407851465089934
Bedford Tavern,Croydon,Fairfield,E05011468,-0.0944386170002009,51.38021847770861
Princess Of Prussia,London,Whitechapel,E05009336,-0.0705022553618695,51.51152609363184
Keats at the Globe,London,Coleman Street,E05009299,-0.0887354325359972,51.51767012188468
Northbank,London,Queenhithe,E05009309,-0.0973023128899269,51.51063323709989
Two Doves,Bromley Common,Bromley Common and Keston,E05000108,0.0396616048307332,51.37232302105024
Golden Anchor,Peckham,Nunhead & Queen's Road,E05011108,-0.0523661189032293,51.46943655792239
Alice,London,Aldgate,E05009289,-0.0782317955737272,51.5151782513256
Ninth Life,Catford,Rushey Green,E05000451,-0.0194698319020714,51.44506308904053
Perseverance,London,Church Street,E05000634,-0.1666317323039741,51.52257352106738
Fountain,South Tottenham,Tottenham Green,E05000280,-0.0783057828937968,51.58498002686734
Red House,Plaistow,Canning Town North,E05000477,0.0178424981673082,51.52032692565204
Duke of Wellington,Bedfont (East),Bedfont,E05000346,-0.4271074782420615,51.46236461037172
North Star,Ealing,Ealing Broadway,E05000173,-0.3029145547292701,51.51358095231348
Golden Fleece,London,Cordwainer,E05009300,-0.0925363849732533,51.51328960880755
Belvedere,Acton,Acton Central,E05000170,-0.2685645126564228,51.50690128469604
Lord Raglan,London,Aldersgate,E05009288,-0.0965365128803355,51.51655603451685
Maddens,East Finchley,East Finchley,E05000049,-0.1643741230383608,51.59086357132775
Whyte & Brown,London,West End,E05000649,-0.1385231244534086,51.51230182431301
Loose Box,London,Vincent Square,E05000646,-0.1293027638862511,51.494637301112846
eEbria Taproom,Bermondsey (East),South Bermondsey,E05011116,-0.059540772225285,51.49172302493058
Queens,Hornsey,Crouch End,E05000269,-0.1224596349498775,51.5804707646024
Miller & Carter,Bexley,Crayford,E05011222,0.1602553990405088,51.448031125607685
Warwick,London,West End,E05000649,-0.1372907039346644,51.51071752700105
Larkshall,Chingford,Larkswood,E05000602,-0.0002244850498288,51.61723477317154
Ladywell Tavern,Lewisham,Ladywell,E05000446,-0.021387837447462,51.45629158136635
Duke Of Kent,West Ealing,Cleveland,E05000171,-0.3201447796098218,51.52471865900648
Tankard,Walworth,North Walworth,E05011107,-0.0983913752050268,51.49209881270826
Hoop & Toy,South Kensington,Brompton & Hans Town,E05009389,-0.1740013163804984,51.49474823343944
Mawney Arms,Romford,Brooklands,E05000306,0.1707396006173937,51.57911763237018
Railway Tavern,Richmond,South Richmond,E05000528,-0.3025729535806024,51.462264318476926
Phoenix At Rainham,Rainham,Rainham and Wennington,E05000318,0.1898711386360084,51.51855407136824
Prince Albert,London,Camden Town with Primrose Hill,E05000130,-0.1375395271588418,51.54064023807472
Manor Arms,Streatham,St. Leonard's,E05000428,-0.1327887858569992,51.42795781046518
Ship,Rotherhithe,Rotherhithe,E05011112,-0.0550432350359492,51.500587306359
Smiths of Smithfield,London,Clerkenwell,E05000370,-0.1023911068142376,51.51960954487821
George & Dragon,Yiewsley,Yiewsley,E05000345,-0.4737271773426362,51.51478627107991
Champers,Eastcote,Cavendish,E05000327,-0.3987464078400637,51.57748789835153
Bridge Park Hotel,Harlesden,Stonebridge,E05000100,-0.2607902334214792,51.54150653265139
Railway,Greenford,Greenford Green,E05000178,-0.344901533766219,51.5432530466811
Neighbour,Kentish Town,Kentish Town,E05000139,-0.1403414605208008,51.55114317416167
Lamb Inn,Lower Edmonton,Edmonton Green,E05000197,-0.0635677598788659,51.625374685081646
Experiment,Hackney,Hackney Central,E05009372,-0.0533386994916337,51.54732062270512
Bush Theatre Library Bar,Shepherds Bush,Shepherd's Bush Green,E05000263,-0.2254503430222903,51.50502515702164
Bloomsbury Street,London,Bloomsbury,E05000129,-0.1275919298824843,51.517388589720966
Globe,London,Marylebone High Street,E05000641,-0.1570000052720468,51.52191900507461
Railway Tavern Ale House,London,Mildmay,E05000377,-0.0775167587205515,51.54857401729881
Raven,Hammersmith,Ravenscourt Park,E05000261,-0.2447145131418477,51.49419109820401
Mudlark,London,Borough & Bankside,E05011095,-0.0891738424276019,51.50616656990372
Goldsmiths Arms,Penge,Penge and Cator,E05000123,-0.0525967103324815,51.41292899010565
Obia Bar & Grill,Croydon,South Croydon,E05011484,-0.0987208516519351,51.365647641777045
Brewmaster,London,St. James's,E05000644,-0.1278363605123759,51.51143031099716
Railway,Teddington,Teddington,E05000530,-0.3326628813785806,51.42388503137762
Trinity,London,Borough & Bankside,E05011095,-0.0941715814394495,51.50105006969367
Richmond,Hammersmith,Addison,E05000250,-0.2216946340282103,51.50082268511108
Two Point,London,Bryanston and Dorset Square,E05000632,-0.1607474890212629,51.51978360939931
Worlds End,Finsbury Park,Finsbury Park,E05000371,-0.1090287782153317,51.56744069547136
Wigmore,London,West End,E05000649,-0.1426753809073728,51.51757442199553
Beehive,Walworth,Newington,E05011105,-0.0996954083463404,51.485681152581726
BBar & Restaurant,London,St. James's,E05000644,-0.143085697356523,51.49863327988314
Whelan's,South Croydon,South Croydon,E05011484,-0.0966857870537344,51.36275481147992
Edinboro Castle,London,Regent's Park,E05000142,-0.14499380174418,51.53606412466642
Royal Inn On The Park,Homerton,Victoria,E05009386,-0.04426037253983,51.53736773517565
CafÃÂÃÂ© Cairo,Stockwell,Larkhall,E05000425,-0.1235601506279956,51.463961401726245
Telegraph,London,Coleman Street,E05009299,-0.0882868155262412,51.51564843935421
Duke Of Wellington,London,De Beauvoir,E05009371,-0.080009608221892,51.5462318809768
George,Hayes,Hayes and Coney Hall,E05000119,0.0183130302880549,51.37989558609414
Balls Brothers,London,St. James's,E05000644,-0.1449677937709339,51.496990419159495
Crown Tavern,London,Clerkenwell,E05000370,-0.1051803862808421,51.52325172795376
Lounge 101,Ruislip,West Ruislip,E05000343,-0.4232734507564989,51.573530478421496
Snooty Fox,London,Mildmay,E05000377,-0.0907026444523007,51.54919433569286
Tap East,Westfield Stratford City,Stratford and New Town,E05000492,-0.0088673328747527,51.54411984567341
T J Duffys,Ealing,Northfield,E05000182,-0.3138918140057281,51.49810123141203
E & O,Notting Hill,Colville,E05009392,-0.2056275686881248,51.51590144891132
Frankie & Benny's,Barking,Beckton,E05000475,0.0780194428509695,51.52435676415482
Gordon Arms,Chislehurst,Chislehurst,E05000111,0.0686235772205971,51.419108183327296
Saxon Horn,Rainham,Rainham and Wennington,E05000318,0.2115336445980789,51.52149283871056
Pilot Inn,Greenwich,Peninsula,E05000225,0.0104843225931707,51.49629829251873
Bell Inn,Hampton,Hampton,E05000520,-0.3618904370326959,51.41302082331681
Kings Head,Teddington,Teddington,E05000530,-0.3295725716978354,51.42737499503741
White Horse,London,West End,E05000649,-0.138639038555907,51.51334681825044
Apple Tree,London,Holborn and Covent Garden,E05000138,-0.1121790221966424,51.5234275095152
Shanakee,Ealing,Ealing Broadway,E05000173,-0.3024838557063737,51.51469878427272
23 Grosvenor Gardens,London,St. James's,E05000644,-0.1455918130624168,51.49723409812578
All Bar One,London,St. James's,E05000644,-0.1242476148660124,51.510734493078566
Warrant Officer,Walthamstow,Higham Hill,E05000600,-0.0349127680394697,51.59638277565183
Amaryllis,Camberwell,Herne Hill,E05000423,-0.0969592642918026,51.46974657039724
Dolphin,Hackney,London Fields,E05009381,-0.0565861351441336,51.539478963982525
Mitre,Paddington,Lancaster Gate,E05000638,-0.1786672142122103,51.512491387583296
Lord Raglan,Plumstead,Woolwich Common,E05000229,0.0732206943537445,51.48567327936861
Red Lion,Ealing,Ealing Common,E05000174,-0.3049511709743154,51.50802604956528
Hoxton Grill,London,Hoxton East & Shoreditch,E05009377,-0.0826612534181077,51.52535859390042
Unicorn [Harvester],Gidea Park,Pettits,E05000317,0.2005178021097048,51.58693532018485
O'Neill's,Ilford,Ilford Town,E05011246,0.0712559984726691,51.55925145509396
Pinner Arms,Pinner,Pinner South,E05000298,-0.380099914108584,51.58560396234795
Catcher In The Rye,Finchley,Finchley Church End,E05000051,-0.1959585407457021,51.59967168392964
Green Man,Welling,East Wickham,E05011224,0.0921954811454903,51.46690079935979
Hennessys,West Ealing,Elthorne,E05000176,-0.3279257064128107,51.509866388316354
Adam & Eve,Hayes,Barnhill,E05000324,-0.4175293644302917,51.52160370039337
Princess Louise,London,Holborn and Covent Garden,E05000138,-0.1216729506231554,51.51726698815204
Ailsa Tavern,Twickenham,St. Margarets and North Twickenham,E05000527,-0.3230432537110688,51.46031971398281
Hero of Maida,Maida Vale,Little Venice,E05000639,-0.1882203196302438,51.52415890677107
Auld Shillelagh,Stoke Newington,Stoke Newington,E05009385,-0.0795215838297476,51.56194297357804
Alice House,Queen's Park,Queens Park,E05000098,-0.2045630783022128,51.53489555404902
Upminster TapRoom,Upminster,Upminster,E05000323,0.2516354962474903,51.55477751202411
New Cross Turnpike,Welling,Falconwood & Welling,E05011226,0.1043898211156548,51.462815590867926
Merchant of Bishopsgate,London,Bishopsgate,E05009292,-0.0821715514718507,51.518489160233024
Bolton,Earls Court,Earl's Court,E05009395,-0.1908084543213828,51.489783965186405
Stormbird,Camberwell,St. Giles,E05011115,-0.0895662422865437,51.47404177800591
Goose,Romford,Romford Town,E05000319,0.184015352878315,51.57453676378191
Burren,Harlesden,Harlesden,E05000091,-0.2501900720438116,51.54715820770964
Cat & Fiddle,West Drayton,West Drayton,E05000342,-0.4736586045467498,51.49701673049921
Red Hand,London,Shacklewell,E05009382,-0.0747650051183327,51.551577318516856
Black Lion,Hammersmith,Ravenscourt Park,E05000261,-0.2423253823992723,51.490387418889945
Crown,Bromley Common,Bromley Common and Keston,E05000108,0.0345886489760397,51.3904683602918
Rising Sun,London,Churchill,E05000633,-0.1503754740929669,51.49010648270857
Camino,London,Farringdon Within,E05009304,-0.1032768172997164,51.51321202264676
Hamptons Ale House,Hampton,Hampton North,E05000521,-0.3782618628594913,51.42623373023655
Slug @ Fulham,Fulham,Town,E05000264,-0.1985149800672936,51.48028048452935
Windermere,South Kenton,Preston,E05000097,-0.3063575292169352,51.56916821576444
London Apprentice,London,Hoxton East & Shoreditch,E05009377,-0.0806566899175857,51.52708833466216
Curzon Cinema,London,West End,E05000649,-0.1304610772595571,51.51279410423693
Lord Southampton,Kentish Town,Haverstock,E05000136,-0.1562989909487301,51.5499651212016
Old Maypole,Barkingside,Fairlop,E05011242,0.0840710643974579,51.60129055719025
Round House,London,St. James's,E05000644,-0.1259359989496975,51.51138197933895
Hussar,Hounslow,Hounslow West,E05000361,-0.3872682381682873,51.46336107545638
Market Tavern,London,West End,E05000649,-0.1468296550391035,51.50613846195375
Misty Moon,Northwood,Northwood,E05000335,-0.4259230279084637,51.61210767032373
Leather Exchange,London,London Bridge & West Bermondsey,E05011104,-0.0845050413438018,51.50032605655639
Moon On The Hill,Harrow,Greenhill,E05000288,-0.3342773147865256,51.57946787482193
Custom House (Pub & Kitchen),Royal Docks,Custom House,E05000479,0.0280445935022981,51.51019552317092
Asparagus,Battersea,Latchmere,E05000617,-0.1713336101884624,51.46995891462015
Pearl & Feathers,London,Bunhill,E05000367,-0.1048085279354934,51.52977443619554
Clarendon Arms,Camberwell,Camberwell Green,E05011096,-0.1005034920376192,51.477322028373
Crowne Plaza Heathrow,West Drayton,West Drayton,E05000342,-0.4542411960599176,51.49949598633312
Ping Pong,Wembley,Tokyngton,E05000102,-0.2839410197011541,51.55670287921306
Kilburn Arms,London,Queens Park,E05000098,-0.2040378203056679,51.54054385967029
King's Head,Chingford,Chingford Green,E05000593,-0.0018748055918421,51.63194756109554
Dean Swift,London,Shadwell,E05009332,-0.0552030751848603,51.51374626438707
Railway Arms,West Drayton,West Drayton,E05000342,-0.47348138332352,51.50877627249253
Queen's Head,Uxbridge,Uxbridge South,E05000341,-0.4805768600596172,51.54540382245
Masons Arms,Harlesden,Kensal Green,E05000092,-0.225934417776186,51.530013952444726
Barley Mow,London,Hoxton East & Shoreditch,E05009377,-0.0806357417685698,51.5262157071321
Crown,Battersea,Shaftesbury,E05000623,-0.15602563870128,51.46572645922443
Shack 68,Twickenham,Twickenham Riverside,E05000531,-0.3297144106356989,51.44950713812013
Narrow Boat,London,St. Peter's,E05000380,-0.0985415345645108,51.53277545641895
Freedom,London,West End,E05000649,-0.1332995215957566,51.51281233016993
King Edward VII,Stratford,Stratford and New Town,E05000492,0.0026311019390842,51.54092952378111
Matthews Yard,Croydon,Fairfield,E05011468,-0.1010949345905897,51.372161064937295
Man on the Moon,Croydon,New Addington North,E05011470,-0.0180498305174385,51.35214354247704
Royal Exchange,Paddington,Hyde Park,E05000636,-0.1697472346011558,51.51821576632089
Breakspear Arms,Ruislip Common,Harefield,E05000330,-0.4483870940129467,51.57933267305352
Beehive,London,Marylebone High Street,E05000641,-0.1573063564499552,51.52004434839082
Patrick's Bar,Beckenham,Copers Cope,E05000113,-0.0251281292226377,51.41062588050129
Running Horses,Erith,Erith,E05011225,0.1810293912058491,51.48165792846115
Prince of Wales,Paddington,Hyde Park,E05000636,-0.1801321311983579,51.51695649730234
Tyme On The Waterfront,Northolt,Greenford Broadway,E05000177,-0.3781946951756603,51.52923131444452
Crown,London,Borough & Bankside,E05011095,-0.1051685296337243,51.50131816812125
O'Neill's,Leytonstone,Leytonstone,E05000605,0.0144099655327404,51.570250596766975
Job Centre,Deptford,New Cross,E05000449,-0.0262412922327223,51.4782441263186
Crown & Sceptre,Shepherds Bush,Askew,E05000251,-0.2361575686675011,51.50313630988785
Duke of Clarence,South Kensington,Courtfield,E05009393,-0.1826517164196509,51.49096178797971
Gallery,West Hampstead,West Hampstead,E05000145,-0.1900992366225937,51.54656154345388
Black Leaf Lounge,Kingsbury,Fryent,E05000090,-0.2502197798664734,51.585817527335216
King & Queen,London,West End,E05000649,-0.1387349660132146,51.52018279989407
Miller & Carter Woodford Green,Woodford Green,Monkhams,E05011249,0.0211675438804008,51.60939564023493
Good Yarn,Uxbridge,Uxbridge North,E05000340,-0.4805422438409898,51.54774135997982
Sheaf,London,Borough & Bankside,E05011095,-0.0910139674970159,51.50489258604353
Mannions Prince Arthur,South Tottenham,Tottenham Green,E05000280,-0.0642860744564261,51.58472241581624
All Bar One,London,Walbrook,E05009312,-0.0899248262369057,51.51163739815809
Blue Posts,London,St. James's,E05000644,-0.1326038309706403,51.51114659634028
Baring Hall Hotel,Grove Park,Grove Park,E05000445,0.0210468581455822,51.43281602692913
Duchy Arms,Kennington,Prince's,E05000427,-0.1128572009436127,51.48889725816594
Globe Bar at Clayton Hotel,Chiswick,Turnham Green,E05000365,-0.2784325772036952,51.49245156938584
Chapel,London,Bryanston and Dorset Square,E05000632,-0.166733241709635,51.519688462282105
Flight Club,London,St. James's,E05000644,-0.1437552375084095,51.49740288423489
Chandos,London,St. James's,E05000644,-0.1266837386038429,51.5100180346573
Hour Glass,Walworth,Faraday,E05011102,-0.0843396867722169,51.48640252717168
Sir Michael Balcon,Ealing,Ealing Common,E05000174,-0.2980683733145218,51.51329495657087
White Haus,Farringdon,Farringdon Within,E05009304,-0.1043415367965268,51.51568426254168
Rising Sun,London,Bloomsbury,E05000129,-0.1333121998179736,51.51919736259385
Rambles,Lewisham,Blackheath,E05000438,0.0045059714882758,51.45888248431325
Blue Anchor,Hammersmith,Hammersmith Broadway,E05000256,-0.2318417954929875,51.48993312402144
Paxton,West Norwood,Gipsy Hill,E05000422,-0.0877953251774444,51.427528769396105
Cut,London,Bishop's,E05000416,-0.1072918471053342,51.50327690619449
Bohemia,North Finchley,Woodhouse,E05000063,-0.1762181523516826,51.61557956990368
Mitre,Richmond,North Richmond,E05000526,-0.2916127923972853,51.46316628884126
Crooked Billet,Penge,Penge and Cator,E05000123,-0.0529957244888093,51.41572342243865
Marquis of Westminster,London,Warwick,E05000647,-0.1404786271515269,51.491892398147705
Great Harry,Woolwich,Woolwich Common,E05000229,0.0664771357033551,51.48975816972503
Secret Weapon,Stratford,Stratford and New Town,E05000492,0.0041398115202817,51.53949188364011
Lady Abercorns,London,Bishopsgate,E05009292,-0.0814997035403015,51.51732709813796
Stags Head,East Sheen,Mortlake and Barnes Common,E05000525,-0.2526060404646504,51.46600002029767
Black Friar,Blackfriars,Castle Baynard,E05009297,-0.1039161669992556,51.51135185872979
Hadley Hotel,High Barnet,High Barnet,E05000056,-0.1834224310833144,51.65653443105982
Octoberfest Pub,Fulham,Town,E05000264,-0.2067984852742638,51.47470609433088
Waggon & Horses,Surbiton,St. Mark's,E05000412,-0.3015531325716369,51.39897827894516
Simmons,London,St. Mary's,E05000379,-0.1003555173656651,51.53768787809447
Green Man Hotel,Wembley,Tokyngton,E05000102,-0.2894402261127001,51.55700795472598
Wentworth Arms,Bow,Mile End,E05009327,-0.033478947135621,51.52387853674902
Royal Surrey Pub,Morden,Ravensbury,E05000468,-0.1917943555544145,51.40289334182141
Rudds,London,Castle Baynard,E05009297,-0.1015149909091294,51.51225726508092
Greene Man,Chingford,Endlebury,E05000594,-0.0136067827255058,51.62602281178207
Cow,Westfield Stratford City,Stratford and New Town,E05000492,-0.0073071648690871,51.542528631386205
Power's Bar,Kingsbury,Fryent,E05000090,-0.2633491018875409,51.588269260349634
St James's Cafe,London,St. James's,E05000644,-0.1301835919817243,51.50303257132818
Mermaid,Clapton,Hackney Downs,E05009373,-0.0562716722860984,51.55465335143273
Brewer's Arms,Erith,Northumberland Heath,E05011228,0.1599919021273757,51.47230804188817
Depot,Holloway,Holloway,E05000375,-0.1215880045988696,51.54874016903398
Pig & Whistle,North Kensington,Notting Dale,E05009399,-0.2174355803263186,51.51395922133293
Forest Tavern,Forest Gate,Forest Gate North,E05000483,0.0221845925153881,51.54936169804618
Market House,Brixton,Coldharbour,E05000420,-0.1137289750822108,51.46147448137798
Sail Loft,Greenwich,Greenwich West,E05000222,-0.0147881579071532,51.482978802307294
Gardeners Arms,Mitcham,Figge's Marsh,E05000460,-0.161697238895017,51.41018586936025
City Zebrano,London,Aldgate,E05009289,-0.0777041418927475,51.51436025332914
Rosemary Branch,London,Canonbury,E05000369,-0.086933118210044,51.5376224104989
Winning Post,Sutton,Sutton Central,E05000564,-0.1952706024587158,51.36789347550247
Pitcher & Piano,Richmond,South Richmond,E05000528,-0.3060509523228335,51.4581420625889
Clapton Hart,Clapton,Hackney Downs,E05009373,-0.0560683126099119,51.556718294423
Racehorse,Carshalton,Carshalton Central,E05000558,-0.1673425441078721,51.36645277788884
Railway Bell,Gipsy Hill,Gipsy Hill,E05000422,-0.082734811396766,51.42264387350132
Steam Passage Tavern,London,St. Mary's,E05000379,-0.1051037367470915,51.53481511531683
Queens Arms,Walthamstow,Hoe Street,E05000601,-0.0130772388260256,51.58255367967286
Famous 3 Kings,West Kensington,North End,E05000258,-0.2061831246838102,51.49002912124252
Rising Sun,London,Chaucer,E05011098,-0.0931481197000699,51.494504678471344
Perky Nel,Clapham,Clapham Common,E05000418,-0.1462742878717667,51.45374731356925
Bar Sport,Bromley,Bromley Town,E05000109,0.014278857896156,51.40520720523722
Watchman,New Malden,Beverley,E05000402,-0.2551994914503802,51.39910656019209
KTM ROX,Feltham,Hanworth Park,E05000354,-0.4111333633040815,51.443553250153954
Abbey,Plaistow,Canning Town South,E05000478,0.0208481872684491,51.52114741833772
Royal Oak,London,Bryanston and Dorset Square,E05000632,-0.1624501264516718,51.52009805848829
Luna,Croydon,Fairfield,E05011468,-0.1005502492753846,51.373519152752415
Bulls Head,Barnes,Barnes,E05000516,-0.2505697815234495,51.47444971012765
Honor Oak,Forest Hill,Crofton Park,E05000441,-0.0414884609958745,51.443364666462834
Grapes,Wandsworth,Fairfield,E05000614,-0.1907330562029967,51.45891998753165
Cross Lances,Hounslow,Hounslow Heath,E05000359,-0.3643406951687253,51.46482389130583
Draft House Westbridge,Battersea,St. Mary's Park,E05000622,-0.1706070832609311,51.478769348249934
Euston Flyer,London,King's Cross,E05000141,-0.1271053902589062,51.52854080927395
Pied Bull,Enfield,Chase,E05000195,-0.0593027580315156,51.67820717912788
Windmill on the Common,Clapham,Clapham Common,E05000418,-0.1450392634728305,51.45758566232579
Dice,Croydon,Fairfield,E05011468,-0.1005653947807726,51.37245823676616
Brass Monkey,London,Vincent Square,E05000646,-0.1402483186881058,51.49401102771257
Thatched House,Barking,Eastbury,E05000031,0.1055987656935587,51.53345131444175
Clock House,Teddington,Teddington,E05000530,-0.3311253314861303,51.42739712521384
Landseer Arms,London,Tollington,E05000381,-0.123333897800779,51.562742611389744
Ship,Mortlake,Mortlake and Barnes Common,E05000525,-0.2686105758690214,51.47146195678586
New Inn,Gidea Park,Squirrel's Heath,E05000322,0.2104952872951228,51.58192740680126
Bottle Shop,London,London Bridge & West Bermondsey,E05011104,-0.0731886829678428,51.499439121788846
Red Lion,Teddington,Fulwell and Hampton Hill,E05000518,-0.3451253850139885,51.43087793135474
Pear Tree,Purley,Purley & Woodcote,E05011476,-0.1156512562362679,51.339554151290685
BrewDog Seven Dials,London,Holborn and Covent Garden,E05000138,-0.1286925558254759,51.5133953956251
Monty's Bar,Hornchurch,St. Andrew's,E05000320,0.2191154139292336,51.56834708262816
Merton Apprentice,Colliers Wood,Colliers Wood,E05000457,-0.1831701631258381,51.41299370220341
Rose & Crown,Ealing,Ealing Common,E05000174,-0.3055366997871232,51.50389795543497
Railway,Streatham,Streatham South,E05000431,-0.1342652333153152,51.41854790041317
Bricklayers Arms,Bromley,Bromley Town,E05000109,0.0256236566406487,51.39577630237602
Seven Dials Club,London,Holborn and Covent Garden,E05000138,-0.1257237261029833,51.5137436774139
Beacon Tree [Sizzling],Dagenham,Whalebone,E05000042,0.1408105173420735,51.56142929917983
All Star Lanes,Shepherds Bush,Shepherd's Bush Green,E05000263,-0.2223450436267331,51.51039170291583
Goose,Walthamstow,High Street,E05000599,-0.0193315964476366,51.58378351473882
Aeronaut,Acton,South Acton,E05000188,-0.2757822090690976,51.508473354253645
White Horse,Beckenham,Copers Cope,E05000113,-0.0301987620807116,51.40640357680917
Erebuni,London,Bunhill,E05000367,-0.0981366344467963,51.52070067609878
Hare & Hounds,Osterley,Osterley and Spring Grove,E05000363,-0.3392525623981009,51.491646629533776
Montagu Pyke,London,West End,E05000649,-0.1298064494359692,51.51399768714674
Windmill,Upminster,Hacton,E05000311,0.2383118096967533,51.55843181295598
Old George,Bethnal Green,St. Peter's,E05009331,-0.0595039948360324,51.52716258887851
Cavendish Arms,South Lambeth,Stockwell,E05000429,-0.127666751427365,51.47654488071828
Bull Inn,St Paul's Cray,Cray Valley East,E05000114,0.117715051493822,51.40390511796747
Gardeners Arms,Wandsworth,Southfields,E05000624,-0.1994590939057417,51.44824493079809
Greenes,Neasden,Welsh Harp,E05000103,-0.2546948505699168,51.561343498853766
Chiquito,Uxbridge,Uxbridge South,E05000341,-0.487334508685991,51.537326234588136
Great Harry,Belvedere,Northumberland Heath,E05011228,0.1483719214615646,51.47752170398464
Prince of Wales,Brixton,Coldharbour,E05000420,-0.1149949155176041,51.461845568285725
Railway Bell,South Woodford,South Woodford,E05011252,0.0282255502332792,51.59179224771514
Gregorian,Bermondsey (East),North Bermondsey,E05011106,-0.0661332110619223,51.49763229571308
Number Ten,Romford,Romford Town,E05000319,0.1801446889649281,51.57598468304023
Rusty Bike,Bow,Mile End,E05009327,-0.0326386561323354,51.525312273076
Surprise,Chelsea,Royal Hospital,E05009403,-0.1627014628336504,51.48628050711714
Cuckfield,Wanstead,Wanstead Village,E05011255,0.0243946578275104,51.57965560104021
EDG bar & Lounge at Hilton Metropole Hotel,Paddington,Hyde Park,E05000636,-0.1698980794396965,51.519486085335856
Henry Addington,Canary Wharf,Canary Wharf,E05009323,-0.0220506733365006,51.50451368847349
Robin Hood,Enfield,Chase,E05000195,-0.1282735327363117,51.67707903596421
Horse & Groom,Sidcup,Longlands,E05011227,0.0938763537068589,51.42720286471232
Crooked Billet,Wimbledon,Village,E05000472,-0.2282489939708025,51.42129157335864
Finsbury,Finsbury Park,Woodberry Down,E05009387,-0.0960624150291155,51.5714572738472
Kona Kai,Fulham,Parsons Green and Walham,E05000260,-0.1928037802979977,51.48012067437458
Railway,West Hampstead,West Hampstead,E05000145,-0.1909260258092378,51.54607970163951
Bolingbroke,Battersea,Northcote,E05000619,-0.1640355220293448,51.453756964678966
Milan Bar,Croydon,Fairfield,E05011468,-0.1007875603579908,51.372992420212505
Kings Arms,London,West End,E05000649,-0.1402580127406866,51.518534311956174
Crown,Upper Holloway,Tollington,E05000381,-0.1248781284860717,51.56202991518964
Hammersmith Ram,Hammersmith,Hammersmith Broadway,E05000256,-0.2278835426267229,51.49245427822365
No 11 Pimlico Road,London,Churchill,E05000633,-0.1513329381190676,51.490652147507184
Spencer,Putney,Thamesfield,E05000625,-0.2268913070040443,51.46826698940637
Sun Inn,Richmond,South Richmond,E05000528,-0.3028946761122861,51.46329412813349
Indo,London,Spitalfields & Banglatown,E05009333,-0.0661019840171075,51.517757454944594
Museum Tavern,London,Holborn and Covent Garden,E05000138,-0.1258006704957764,51.51818731794428
Howl At The Moon,London,Hoxton East & Shoreditch,E05009377,-0.0798883902445924,51.53335258904389
City Pride,London,Clerkenwell,E05000370,-0.1066635760087608,51.52294294329791
Builders Arms,Croydon,Addiscombe West,E05011463,-0.0868298126559279,51.37934808871447
Holborn Dining Room,London,Holborn and Covent Garden,E05000138,-0.1177642687909093,51.517330237457706
Rookery,Clapham,Clapham Common,E05000418,-0.1428000700500535,51.45707359771248
Horse & Groom,Streatham,St. Leonard's,E05000428,-0.1281946788940344,51.43653555601878
Purple Flame,Queensbury,Queensbury,E05000299,-0.295081519211033,51.59631441464978
Square Tavern,London,Regent's Park,E05000142,-0.1374176953573032,51.52632189916264
Harrow Inn,Cheam,Cheam,E05000560,-0.2157716524597742,51.357533280344775
Frankie & Benny's,Croydon,Broad Green,E05011465,-0.1233002827064316,51.37725783096053
Hoxton Pony,London,Hoxton East & Shoreditch,E05009377,-0.0800711685535195,51.52558596778509
Wenlock Arms,London,Hoxton West,E05009378,-0.0933907846532822,51.53078533728389
Comptons of Soho,London,West End,E05000649,-0.1323854678720059,51.51260893361617
White Swan,St Mary Cray,Cray Valley East,E05000114,0.1123636352398136,51.38636709749852
Wickham Arms,Brockley,Brockley,E05000439,-0.0333076457457497,51.46731063425118
Phoenix,Stockwell,Larkhall,E05000425,-0.1281646732803162,51.4678928841509
Beer House Waterloo,London,Bishop's,E05000416,-0.1132337586770971,51.50314782082231
Moon Under Water,Colindale,Colindale,E05000046,-0.2508096241432189,51.58737300140036
Hankies at Piccadilly West End Hotel,London,West End,E05000649,-0.1318824202381028,51.51222322894625
Beduin,London,Clerkenwell,E05000370,-0.1037028345742017,51.51926205252328
Northern Soul,London,Junction,E05000376,-0.1373332623597973,51.560870431797504
Sir Robert Peel,London,Haverstock,E05000136,-0.1522753814682289,51.54852596292427
Oak,Shepherds Bush,Ravenscourt Park,E05000261,-0.2409682336917435,51.49907193046185
Moon on the Square,Feltham,Feltham West,E05000352,-0.4109000776428128,51.44654444361697
De Hems,London,St. James's,E05000644,-0.1312106514189672,51.512086630423816
Willow Walk,London,Warwick,E05000647,-0.1424272096015822,51.49534051089535
Surrey Cricketers,Croydon,Fairfield,E05011468,-0.1005843785168162,51.36817792499301
Stable,Brentford,Brentford,E05000347,-0.2883212598033931,51.48804596860686
O'Donnell's,South Harrow,Roxeth,E05000302,-0.3580270793303713,51.56044192422699
Miller's Well,East Ham,East Ham Central,E05000480,0.056823753989039,51.53354322046061
Beehive,Brentford,Syon,E05000364,-0.3062842554271533,51.48373838550005
Earl Of Essex,London,St. Peter's,E05000380,-0.0994921091580308,51.53418473786321
Turnpike House,Stoke Newington,Springfield,E05009383,-0.0719431176544631,51.57501071599771
Union,London,Marylebone High Street,E05000641,-0.156938795055051,51.51736774806346
Nightingale,Balham,Nightingale,E05000618,-0.1573694670050885,51.45022617845329
British Queen,Locksbottom,Farnborough and Crofton,E05000118,0.0545396646826759,51.36670342660074
Jamaica Wine House,London,Cornhill,E05009301,-0.0856291976403496,51.51303316302528
Junction,Battersea,Northcote,E05000619,-0.168935436895151,51.46368059741722
George,Croydon,Fairfield,E05011468,-0.0985706633006132,51.37413452303796
Kentish Belle,Bexleyheath,Crook Log,E05011223,0.1330662660235338,51.46432071612002
Larrik,London,Bryanston and Dorset Square,E05000632,-0.1648848349147776,51.518697344961474
Hawkes Cidery & Taproom,London,London Bridge & West Bermondsey,E05011104,-0.072572979092986,51.49934806333796
Bullfinch Brewery Tap,Herne Hill,Thurlow Park,E05000434,-0.1010985677880679,51.44841974236153
Long Acre,London,St. James's,E05000644,-0.1273120237608078,51.51226725812736
La Chandelle,London,St. James's,E05000644,-0.1290168374815024,51.51005527266405
Pocket Watch,Shepherds Bush,Wormholt and White City,E05000265,-0.2390917996244588,51.50663354105356
Watson's General Telegraph,East Dulwich,Dulwich Hill,E05011099,-0.0601761488377254,51.45197602931715
Shoreditch Grind,Old Street,Bunhill,E05000367,-0.0891052580310248,51.5260483530386
Orchard,Brockley,Brockley,E05000439,-0.0344024417686424,51.4639476647597
Roma,London,Tower,E05009310,-0.0794340876346588,51.511268149200745
Hop Poles,Enfield,Chase,E05000195,-0.0769679521199763,51.66342662343894
Midland Hotel,Hendon,West Hendon,E05000062,-0.2373540853987157,51.580697418118106
Pride Of Pimlico,London,Tachbrook,E05000645,-0.1350927817264873,51.4897295665948
Sheephaven Bay,London,Regent's Park,E05000142,-0.1420719390634136,51.5352265371673
Alfred Herring,Palmers Green,Palmers Green,E05000205,-0.1071160499291004,51.61905344272248
Greenwich Yacht Club,Greenwich,Peninsula,E05000225,0.0186010131803475,51.495448422070815
Vagabond,London,St. James's,E05000644,-0.1441613031224928,51.4973373687271
Jerusalem Tavern,Farringdon,Clerkenwell,E05000370,-0.1039344396290179,51.52166685943738
Hat & Tun,London,Holborn and Covent Garden,E05000138,-0.1083166348133227,51.521665662226745
Duke's Head,Walthamstow,Wood Street,E05000609,-0.0044615167629699,51.58812652316633
Centrals Bar & Lounge,Worcester Park,Nonsuch,E05000561,-0.2440383978072285,51.379704378143046
Black Dog Beer House,Brentford,Syon,E05000364,-0.3022676127837949,51.485631737263965
Orchard Tavern,Shepherds Bush,Ravenscourt Park,E05000261,-0.242316370777812,51.50185286246292
Connolly's,Chiswick,Turnham Green,E05000365,-0.2681704491642818,51.49297497716209
All Bar One,London,Bloomsbury,E05000129,-0.1291755789642425,51.51673040856512
Woodhouse,North Finchley,Woodhouse,E05000063,-0.1627627338905178,51.61147598213212
Leytonstone Tavern,Leytonstone,Cann Hall,E05000590,0.0124968558321172,51.55927648700279
Alice House,West Hampstead,West Hampstead,E05000145,-0.1922025519257116,51.551351055944615
Postal Order,Upper Norwood,Crystal Palace & Upper Norwood,E05011467,-0.0819272861723891,51.41788244109549
Antoinette Hotel,Kingston,Grove,E05000408,-0.3012238085469959,51.40166235957546
Queen's Head,Stockwell,Ferndale,E05000421,-0.1178031384326393,51.46707054423221
Walrus,London,Bishop's,E05000416,-0.1137204292570632,51.499738401144455
Ignition Brewery Taproom,Sydenham,Sydenham,E05000452,-0.0517418491413562,51.42593650115526
Spring Grove,Kingston,Grove,E05000408,-0.2994399014305138,51.4032462102092
Bricklayers Arms,London,Bloomsbury,E05000129,-0.1333998261395764,51.51775992086964
Kings Lounge,Barking,Abbey,E05000026,0.078770363873332,51.53894780807253
Venus Bar & Brasserie,Colliers Wood,Colliers Wood,E05000457,-0.1777346880534989,51.41768452757214
Teddington Arms,Teddington,Teddington,E05000530,-0.3329097825484104,51.4269819077345
Bowler,London,Clerkenwell,E05000370,-0.1079710038624594,51.524438847193935
Queen's Head,London,King's Cross,E05000141,-0.1181527182432469,51.528532450065
Kings,London,St. Mary's,E05000379,-0.1003555173656651,51.53768787809447
Marquis Of Cornwallis,Bethnal Green,Weavers,E05009335,-0.0647035680361836,51.52625940810895
South Norwood Conservative Club,South Norwood,South Norwood,E05011485,-0.0755714259857398,51.40039533010736
Gow's,London,Broad Street,E05009295,-0.0834142216370875,51.517043682161216
City View Hotel,Stratford,West Ham,E05000494,0.0075862223806803,51.5362135159704
Great Northern Railway Tavern,Hornsey,Hornsey,E05000273,-0.116548693396492,51.58799260326127
BrewDog Shoreditch,London,Weavers,E05009335,-0.0737995080443607,51.52423306519884
Draft House Farringdon,London,Clerkenwell,E05000370,-0.1037028345742017,51.51926205252328
Crescent Coffee,London,Regent's Park,E05000142,-0.138875561096241,51.534051791063405
Tooke Arms,Isle of Dogs,Canary Wharf,E05009323,-0.0255256113471277,51.49813334427228
Long Wave,London,North Walworth,E05011107,-0.0985298796159004,51.49396256164259
Gunnersbury,Chiswick,Turnham Green,E05000365,-0.2758486443048996,51.492593475755214
Vertigo Lounge,Hornchurch,St. Andrew's,E05000320,0.2210838204406001,51.56076470579735
Clarence,London,West End,E05000649,-0.141268691546384,51.50787598736028
Dove Free House & Kitchen,Hackney,London Fields,E05009381,-0.0615832999326986,51.53658518359283
Tailor's Chalk,Sidcup,Sidcup,E05011230,0.1036542740779424,51.426173398950034
Cherry Tree,East Dulwich,Goose Green,E05011103,-0.0785087241559717,51.46166669281925
Dundee Arms,Bethnal Green,St. Peter's,E05009331,-0.0561225144431129,51.52903992907918
Boot,London,King's Cross,E05000141,-0.1242297836957584,51.5276495541296
Bollo,Chiswick,Southfield,E05000191,-0.2700446551192406,51.49597916993174
Rising Sun,Hornchurch,St. Andrew's,E05000320,0.2170088521812821,51.56271234837204
Glasshouse,New Malden,Coombe Vale,E05000407,-0.2578492596273358,51.40542292025621
Eagle,North Kensington,Golborne,E05009396,-0.2128408432206881,51.52272005960437
New Inn,Burnt Oak,Queensbury,E05000099,-0.2663677942676008,51.59923048080051
Woodies,New Malden,St. James,E05000411,-0.2683166984839916,51.39323104849274
Albany,Bexley,Blendon & Penhill,E05011221,0.1277589744645516,51.43628715797304
Union Bar,Chiswick,Turnham Green,E05000365,-0.2760153890752157,51.49466421677854
Star Tavern,London,Knightsbridge and Belgravia,E05000637,-0.1555809012377523,51.49818297303857
Anerley Arms,Anerley,Crystal Palace,E05000116,-0.0663181011553139,51.41253582535206
Albion,Kingston,Grove,E05000408,-0.2977795808947405,51.40924730964928
St John's Tavern,London,Junction,E05000376,-0.135237804998903,51.563777708197726
Brook,Worcester Park,Nonsuch,E05000561,-0.2440383978072285,51.379704378143046
Parlour,Kensal Rise,Queens Park,E05000098,-0.2168294041816667,51.52873386118928
Roundhouse,Dagenham,Mayesbrook,E05000036,0.1135400475969946,51.54271481991514
Beehive,London,Tottenham Hale,E05000281,-0.0686603830949754,51.5939039215351
Gladstone,Walworth,North Walworth,E05011107,-0.0930844677622244,51.489125973166864
Little Crown,New Cross,New Cross,E05000449,-0.0270908350100542,51.47524580816168
Steam Engine,London,Bishop's,E05000416,-0.1124314989572808,51.49710976820676
White Hart,London,Bishop's,E05000416,-0.1106464251998368,51.505084579905855
Kilkenny Tavern,Merton,Abbey,E05000455,-0.1917140566230812,51.41549989857516
Goat Tavern,London,West End,E05000649,-0.1412993479900525,51.50889264947803
Marylebone,London,Marylebone High Street,E05000641,-0.1521078952794454,51.51991760948097
Grapes,Hayes,Barnhill,E05000324,-0.4052472313142946,51.51792137674582
O'Grady's Irish Bar,Seven Kings,Seven Kings,E05011251,0.1011250156583743,51.564997101933
Jolly Millers,Bexleyheath,Bexleyheath,E05011219,0.1521956386551932,51.45842235109581
Moot Bar,Chiswick,Turnham Green,E05000365,-0.2739280665453097,51.4938601654104
Ship Aground,London,North Bermondsey,E05011106,-0.0711179078284022,51.5007090049826
Pilot,Chiswick,Turnham Green,E05000365,-0.2772027075795899,51.4903022541821
Market Tavern,Croydon,Fairfield,E05011468,-0.1015692429479332,51.37285221348353
Forester,Hainault,Hainault,E05011245,0.1120133614310306,51.61249092867983
Heart of Hackney,Hackney,London Fields,E05009381,-0.0555824919807954,51.54272662915013
Oliver Conquest,London,Whitechapel,E05009336,-0.0701697224247615,51.51291448754012
Shacklewell Arms,Hackney,Shacklewell,E05009382,-0.0704285039597578,51.55281890572813
Star,South Harrow,Harrow on the Hill,E05000289,-0.3516269554290304,51.56547785722835
Rose & Crown,Woodford Green,Monkhams,E05011249,0.0209353699932874,51.60969639533482
Kew Gardens Hotel,Kew,Kew,E05000524,-0.2870625453469975,51.47627410360755
Candlemaker,London,Walbrook,E05009312,-0.0902667152032445,51.511732893837824
Althorp,Wandsworth Common,Nightingale,E05000618,-0.1668160013279439,51.44470874113618
Red Lion,London,St. James's,E05000644,-0.1377335328754246,51.5058684919937
Duke of Richmond,Hackney,London Fields,E05009381,-0.0696726304765732,51.54204226436224
Lordship,East Dulwich,Goose Green,E05011103,-0.0767049482805986,51.45491942265435
Stag,Enfield,Town,E05000210,-0.0865210523386572,51.65289976442118
Wright Brothers Oyster & Porter House,London,Borough & Bankside,E05011095,-0.0916307849965948,51.50564902290041
Belushi's,London,Regent's Park,E05000142,-0.1402945027873655,51.53673613294725
Brent Valley Golf Course Bar,Hanwell,Hobbayne,E05000180,-0.3382454499680227,51.51378084383428
Barrio,Brixton,Ferndale,E05000421,-0.1174727703205531,51.46110302215718
Queen Charlotte,London,Bloomsbury,E05000129,-0.1357174315505324,51.519244603411074
Brougham,London,Warwick,E05000647,-0.1418056064271304,51.49362204695754
Ham Brewery Tap,Ham,"Ham, Petersham and Richmond Riverside",E05000519,-0.3116583575908043,51.436865918042365
J J Moons,Wembley,Wembley Central,E05000104,-0.2922426938816402,51.55343370326394
Crosse Keys,City of London,Langbourn,E05009306,-0.0846592589261058,51.51279250353671
"Olde Mitre Inne, Ye",High Barnet,High Barnet,E05000056,-0.1993601326632595,51.65311103234438
Bosco Lounge,Surbiton,St. Mark's,E05000412,-0.3036757079523185,51.3936673143484
Rake,London,Borough & Bankside,E05011095,-0.0912785412887651,51.50614688523055
Real Ale Way,Hayes,Hayes and Coney Hall,E05000119,0.0115351462891212,51.376397039631904
Plough & Harrow,Hammersmith,Hammersmith Broadway,E05000256,-0.2330083756185976,51.492918272760505
Juno,London,Hoxton East & Shoreditch,E05009377,-0.078248427723078,51.526419380338574
N Restaurant & Bar,London,Regent's Park,E05000142,-0.1405903031161569,51.527712140522574
Sydney's,Gants Hill,Cranbrook,E05011241,0.0658041355988058,51.5758402491609
Florist Arms,Bethnal Green,Bethnal Green,E05009317,-0.0512941379312,51.52833026185164
Arsenal Tavern,Finsbury Park,Brownswood,E05009367,-0.0987527614543004,51.56126740316606
Bridge Inn,Isleworth,Syon,E05000364,-0.3358504557303757,51.4750970399201
Flynn's,Hackney,Hackney Central,E05009372,-0.0547689600046607,51.54929577275056
Genuine Liquorette,London,West End,E05000649,-0.1329560398114624,51.51662876859892
Market Hall Victoria,London,Warwick,E05000647,-0.1443403378680839,51.496476901007576
North Star,Chessington,Chessington North and Hook,E05000404,-0.3049409510169807,51.37185124413398
Vinyl Bar,London,Bread Street,E05009293,-0.0974256538506535,51.51251472763624
Royal George,London,St. Pancras and Somers Town,E05000143,-0.1314982064961249,51.52829610217321
Red Lion,High Barnet,Underhill,E05000060,-0.1996763428812019,51.652792154671246
Crown,Croydon,Shirley North,E05011482,-0.0545796939992358,51.37365452179971
Everest Abercorn,Stanmore,Stanmore Park,E05000303,-0.3158816446638545,51.62142507883982
Castle Inn,Ealing,Walpole,E05000192,-0.3054399042381145,51.506117705176464
Duke of Cambridge,Battersea,St. Mary's Park,E05000622,-0.1659586279209117,51.472581754853366
Angel,London,Bunhill,E05000367,-0.0873663132427532,51.52488691461383
Greystoke,North Ealing,Hanger Hill,E05000179,-0.2906857848160894,51.51685660556095
KuPP,Paddington,Hyde Park,E05000636,-0.1731863945600757,51.51871900839574
Broad Walk Cafe,London,Regent's Park,E05000142,-0.1461023215840805,51.53220579166722
Royal Standard,Deptford,Brockley,E05000439,-0.0272136082553163,51.47406980453847
Apatura Lounge Restaurant,Croydon,Fairfield,E05011468,-0.099166436562403,51.36703080175342
Scenario,Stoke Newington,Shacklewell,E05009382,-0.0749798134836865,51.554692308197886
Simon the Tanner,London,London Bridge & West Bermondsey,E05011104,-0.0831345337055396,51.4983072494169
Tappit Hen,Bank,Candlewick,E05009296,-0.0888068390914526,51.51183500816016
Grove,Ealing,Ealing Common,E05000174,-0.305084115200611,51.51026709867814
Zetland Arms,South Kensington,Brompton & Hans Town,E05009389,-0.1761456886276444,51.49372046277689
Case Is Altered,Eastcote,Eastcote and East Ruislip,E05000329,-0.4047462204182941,51.58954760991708
G-A-Y,London,West End,E05000649,-0.1300605074425183,51.51377691920806
Old Suffolk Punch,Hammersmith,Fulham Reach,E05000255,-0.2229281233097936,51.488377584763136
Wembley Tavern,Wembley,Tokyngton,E05000102,-0.2824990009485021,51.562050244906246
Nicholas Nickleby,Finsbury Park,Stroud Green,E05000279,-0.1129905276978908,51.57491433011199
Phoenix,Croydon,Fairfield,E05011468,-0.1015301911961179,51.3786609329749
White Cross,Bexley,St. Mary's & St. James,E05011229,0.1388008424615945,51.430258656623295
Paternoster Chop House,London,Bread Street,E05009293,-0.0990721574275763,51.51485257429465
Tufnell Park Tavern,Holloway,Junction,E05000376,-0.1335055782984209,51.55745539614953
Three Cranes,London,Vintry,E05009311,-0.0937426392024029,51.51201426840251
Long Room,Tooting,Graveney,E05000616,-0.1639795796932023,51.42464627564539
Ravensbury,Mitcham,Cricket Green,E05000458,-0.1578583155762723,51.39765260673579
Albany,Twickenham,Twickenham Riverside,E05000531,-0.3320785227785161,51.44821894244562
Antelope,Surbiton,St. Mark's,E05000412,-0.3076854995088513,51.39524506698586
Pawleyne Arms,Penge,Penge and Cator,E05000123,-0.0521291772057982,51.41411727195139
Peacock,London,Stepney Green,E05009334,-0.0463066591710602,51.51585556400271
Barley Mow,London,St. James's,E05000644,-0.1312168887592912,51.49503651899408
Rebel Inn,Streatham,St. Leonard's,E05000428,-0.1285225879344335,51.435200868319214
St Pancras Grand,London,St. Pancras and Somers Town,E05000143,-0.1261216965841033,51.53142975647243
Cock & Bottle,Notting Hill,Bayswater,E05000631,-0.1970600305574617,51.51532944109941
Mendes (The Sheep Walk),Acton,Acton Central,E05000170,-0.2710326811147915,51.50793585302685
Freemasons Arms,London,St. James's,E05000644,-0.1223766603857085,51.5145264752159
Ram,Kingston,Grove,E05000408,-0.3075633481913263,51.40830992266451
Occasional Half,Palmers Green,Bowes,E05000193,-0.1100712404829765,51.610162615985935
Tide End Cottage,Teddington,Teddington,E05000530,-0.3237005068576035,51.42942230632162
Fountains Abbey,Paddington,Hyde Park,E05000636,-0.1739292039794385,51.51636550411192
Bar Story,Peckham,Rye Lane,E05011113,-0.0703939052070457,51.4694110979245
William Morris,Walthamstow,Chapel End,E05000592,-0.0080840999966504,51.59111959729516
Bridge Lounge,London,London Bridge & West Bermondsey,E05011104,-0.0794598179107532,51.503121164080994
Sir Colin Campbell,London,Kilburn,E05000140,-0.199536968902486,51.54350538380482
Elbow Room,Tottenham,Bruce Grove,E05000268,-0.0699870955853523,51.592918619484
Aroma Lounge,Wembley,Preston,E05000097,-0.3023932122739137,51.56208790785525
Kings Arms,Chelsea,Redcliffe,E05009402,-0.1809543248544484,51.48619634302621
Clarence Tavern,Stoke Newington,Stoke Newington,E05009385,-0.0791179329537873,51.56227807725276
Swallow,Hillingdon,Uxbridge North,E05000340,-0.4487395801602663,51.55371841664343
Club KTM,Wealdstone,Greenhill,E05000288,-0.3326459398394142,51.5905144275206
St. Georges Tavern,Camberwell,St. Giles,E05011115,-0.0834259868158752,51.479337233046415
Junction,Upminster,Upminster,E05000323,0.2504139581018629,51.5583802025802
Kings Arms,London,Bishopsgate,E05009292,-0.0826772529805667,51.51640213717064
Fatling,Hornchurch,St. Andrew's,E05000320,0.2195900346324664,51.56268151322605
Falcon,Clapham,Larkhall,E05000425,-0.1290734895903443,51.46432829030663
Burdock,London,Bunhill,E05000367,-0.0856713433318533,51.52164885791189
Footman,London,West End,E05000649,-0.146068677370923,51.508554466809
Jolly Butchers,Enfield,Town,E05000210,-0.0798957514411371,51.65949991289553
Anchor,Battersea,Latchmere,E05000617,-0.1786396172493624,51.46546837930479
Windmill,London,Bunhill,E05000367,-0.0864704517213339,51.52321763956519
Fountain & Ink,London,Borough & Bankside,E05011095,-0.1077467737295718,51.50725005794747
Inn 1888,London,Marylebone High Street,E05000641,-0.1488222639868404,51.52167333630882
Cafe Provencal,Herne Hill,Dulwich Village,E05011100,-0.0993998088970441,51.45259186462978
Cutty Sark,Thamesmead,Thamesmead Moorings,E05000228,0.1070486107304939,51.50706678871372
Three Johns,London,Barnsbury,E05000366,-0.1085412801014849,51.5329371723991
Ordnance Arms,St John's Wood,Abbey Road,E05000630,-0.1718168753946218,51.535990539412936
Dynamo,Tooting,Bedford,E05000611,-0.155448677819904,51.43824454589932
Prince of Wales,London,Warwick,E05000647,-0.140750592717352,51.49264310489692
Dog & Truck,London,Whitechapel,E05009336,-0.0668590330211723,51.51315668749725
White Bear,Hounslow,Hounslow Central,E05000358,-0.3605968694140265,51.4760931130831
Crown,Bow,Bow West,E05009320,-0.0417478078633945,51.53207416299743
Miller's Tap,Uxbridge,Uxbridge North,E05000340,-0.476622570266401,51.54505576336413
Market Hall Fulham,Fulham,Fulham Broadway,E05000254,-0.1949453569336534,51.480594293638326
Singer Tavern,London,Bunhill,E05000367,-0.0868926526965046,51.52277489587274
Powerleague Wembley,Wembley,Tokyngton,E05000102,-0.2780793898038013,51.55873926412893
Regent,Balham,Nightingale,E05000618,-0.1539035421953984,51.44409255578598
Finborough Arms,West Brompton,Redcliffe,E05009402,-0.1895116269253437,51.48615790018025
White Mustache,London,Regent's Park,E05000142,-0.140581019931212,51.53076951468794
City Bar & Kitchen,London,Aldgate,E05009289,-0.0775832765646807,51.51517660674168
Thatched House,Cranham,Upminster,E05000323,0.2762630919029473,51.55771063424431
Randall Tavern,Croydon,New Addington North,E05011470,-0.0201940175144548,51.354706776842434
Black Horse,Hounslow,Hounslow Central,E05000358,-0.3632951674441391,51.47714697118742
Cow,Bayswater,Bayswater,E05000631,-0.1950252251209996,51.51903908621283
Fine Line,London,Cordwainer,E05009300,-0.0944752536636296,51.51379774841013
Millers Arms,Bexley,St. Mary's & St. James,E05011229,0.1518076175599189,51.44100113213624
Saint,London,Bread Street,E05009293,-0.0997988607136246,51.51505320184528
John Snow,London,West End,E05000649,-0.1366104213314928,51.513260652553605
True Craft,London,Tottenham Green,E05000280,-0.0753156823560348,51.58434646352045
Knowles of Norwood,London,Knight's Hill,E05000424,-0.1043638173135874,51.435253106353976
Old Tigers Head,Lee,Blackheath,E05000438,0.0091769135960581,51.45739969012416
Village Inn,Ealing,Cleveland,E05000171,-0.3127417235824388,51.52649189978557
Bull,Woolwich,Shooters Hill,E05000227,0.0704091589603153,51.46876242294524
Sun,Clapham,Clapham Town,E05000419,-0.1408869691824912,51.46412951992444
Stag & Hounds,Lower Edmonton,Bush Hill Park,E05000194,-0.0764661802033433,51.63466041045268
Papermakers Arms,Ilford,Loxford,E05011247,0.0698547449755209,51.5566682997994
Beehive [Harvester],Gants Hill,Barkingside,E05011235,0.0596507239656629,51.577000579342034
George,Heathrow Airport,Heathrow Villages,E05000331,-0.4872391389773695,51.47149256514529
Windmill,London,Bishop's,E05000416,-0.1079941972428773,51.50301845472087
Slug & Lettuce,South Woodford,South Woodford,E05011252,0.0246059194730166,51.59383312439347
Orange Tree,Havering-Atte-Bower,Havering Park,E05000313,0.1812102282647444,51.6141939372052
Bush Hill Park,Enfield,Bush Hill Park,E05000194,-0.0673245677953227,51.64233388001596
Alma,Wandsworth,Fairfield,E05000614,-0.1880124996622896,51.46037079364245
Fox on the Hill,Camberwell,Champion Hill,E05011097,-0.0898789982507915,51.46482921853156
Tooting Tram & Social,Tooting,Graveney,E05000616,-0.1669577667441993,51.42678820662
King's Head,Winchmore Hill,Winchmore Hill,E05000213,-0.1033149499001046,51.63466582052687
Browns,London,North Bermondsey,E05011106,-0.0726557749977196,51.50318931779274
Melbourne Arms,Plumstead,Woolwich Common,E05000229,0.0699018018699008,51.483951333004896
Royal George,London,West End,E05000649,-0.1308691140226192,51.5151477074694
indiebeer,Holloway,Highbury West,E05000373,-0.1146568438689639,51.5548608286567
Hole in the Wall,London,Bishop's,E05000416,-0.1131265630618475,51.503649690940506
Star of Bethnal Green,Bethnal Green,St. Peter's,E05009331,-0.0624847692267098,51.526906170160544
Picture House Bar,Clapham,Clapham Town,E05000419,-0.1381022409213076,51.46357275080662
Pitcher & Piano,London,Walbrook,E05009312,-0.0871342993263801,51.513228586945885
Star,Hampton Hill,Fulwell and Hampton Hill,E05000518,-0.3567503603436842,51.42562820900247
Lord Tredegar,Bow,Bow West,E05009320,-0.0324964328082103,51.528610190938295
Punch & Judy,London,St. James's,E05000644,-0.1229392041464266,51.51206247418352
Warwick Castle,Maida Vale,Little Venice,E05000639,-0.183732448396697,51.5221021355836
Elm,West Kensington,North End,E05000258,-0.2034988215079993,51.4868585978659
OLd Street Brewery Taproom,Bethnal Green,St. Peter's,E05009331,-0.0566615575346813,51.52653996051921
Royal Oak,Harlesden,Kensal Green,E05000092,-0.2446017134773954,51.53609486785355
All Bar One,London,Bishop's,E05000416,-0.1169437714377839,51.5026319062128
Alexandra,Penge,Penge and Cator,E05000123,-0.0496094930978157,51.416215674209255
Shanakee,Kingsbury,Fryent,E05000090,-0.25282076170665,51.58838307719603
Hawkins Forge,Battersea,Northcote,E05000619,-0.1686630968611792,51.46077171820835
Eva Hart,Chadwell Heath,Chadwell,E05011237,0.1299957529472294,51.57051978628365
Visage 80s Bar,Gants Hill,Barkingside,E05011235,0.0675622036617716,51.57673552902277
Black Lion,Plaistow,Plaistow North,E05000489,0.0207519853931762,51.53102321548147
Woolpack,London,London Bridge & West Bermondsey,E05011104,-0.0821070267066297,51.5008174113698
Southwark Brewing Co. Tap Room,London,London Bridge & West Bermondsey,E05011104,-0.0761513202879254,51.50059389878852
Shakespeares Head,London,Clerkenwell,E05000370,-0.1065306177682463,51.530314831303606
Plough,Norwood Green,Norwood Green,E05000186,-0.3659798039979089,51.49510649982268
Constitution,London,St. Pancras and Somers Town,E05000143,-0.1354180125898381,51.54032777222528
Balls Brothers (Minster Exchange),London,Billingsgate,E05009291,-0.0806881451066667,51.51091999458002
Monkey Puzzle,Paddington,Hyde Park,E05000636,-0.1709388857967498,51.51689444606329
Bobbin,Clapham,Clapham Town,E05000419,-0.1434426194920137,51.46607645856359
Old Hat,West Ealing,Elthorne,E05000176,-0.3246707799430066,51.51020662965398
Horns Tavern,West Norwood,Knight's Hill,E05000424,-0.1041402645800924,51.43265955044882
Frankie & Benny's,Feltham,Hanworth Park,E05000354,-0.4064176323700645,51.44260807999596
Bulstrode,Hounslow,Hounslow Central,E05000358,-0.3665889001283269,51.47040357381947
Huntsman & Hounds,Walworth,North Walworth,E05011107,-0.0862544106651335,51.49021075043604
Faltering Fullback,Finsbury Park,Stroud Green,E05000279,-0.1085743416663959,51.56865634167803
Bridge Tap,London,Borough & Bankside,E05011095,-0.0906993060255874,51.50449178278932
Pretty Decent Beer Co,London,Cann Hall,E05000590,0.0180725981679495,51.55617708251111
Southwark Tavern,London,Borough & Bankside,E05011095,-0.0916361685665613,51.5048307695208
One Tun,London,Holborn and Covent Garden,E05000138,-0.1069342660733642,51.52024049457217
Hennessys,Ruislip Manor,Manor,E05000334,-0.4127916302394159,51.57243599955906
Porchester,Paddington,Bayswater,E05000631,-0.1878907731599388,51.51612338789656
Plume of Feathers,Plumstead,Plumstead,E05000226,0.1009525251705012,51.48544944886255
White Hart,Whitechapel,Bethnal Green,E05009317,-0.0545090124602555,51.52056015387122
Union,Battersea,St. Mary's Park,E05000622,-0.1683287622891738,51.47704317219174
Wheatsheaf,London,Borough & Bankside,E05011095,-0.091048149064845,51.50510896855376
Frankie & Benny's,Ilford,Ilford Town,E05011246,0.0740968035953336,51.55763653072528
Black Lion,London,West Hampstead,E05000145,-0.1922025519257116,51.551351055944615
Fire Station,London,Bishop's,E05000416,-0.110653102833473,51.502485778375714
Old Red Cow,London,Farringdon Within,E05009304,-0.0998848881504311,51.51921824415994
Railway Telegraph,Thornton Heath,Bensham Manor,E05011464,-0.1015569668789778,51.39779797899061
Curtains Up,West Kensington,North End,E05000258,-0.2082499368824267,51.489485185406096
Rose of Denmark,Charlton,Peninsula,E05000225,0.0268076345278746,51.48722234096344
Royal,Mottingham,Coldharbour and New Eltham,E05000217,0.0510569414018243,51.439210409501655
Sun Tavern,Bethnal Green,St. Peter's,E05009331,-0.0595039948360324,51.52716258887851
Sway,London,Holborn and Covent Garden,E05000138,-0.1206762562190132,51.515569382167634
Water Rats,London,King's Cross,E05000141,-0.119399468672917,51.52906502699139
Wattenden Arms,Kenley,Kenley,E05011469,-0.1028878772236649,51.30752187732649
Kiss the Sky,Hornsey,Crouch End,E05000269,-0.1245680936637728,51.58079224485423
Old Ale Emporium,Finsbury Park,Harringay,E05000271,-0.0991036294501488,51.57777441235591
Essex House,Chingford,Chingford Green,E05000593,0.0099880025634355,51.63389442001069
Moon & Stars,Romford,Romford Town,E05000319,0.183229186208281,51.575900354257726
Royal Standard,Paddington,Hyde Park,E05000636,-0.1700022072872267,51.517967949654405
Ship,Plumstead,Glyndon,E05000221,0.0794783907538388,51.48106602768639
Hunter S,London,De Beauvoir,E05009371,-0.0835073169623318,51.54605536101137
Kennedy's,London,Caledonian,E05000368,-0.1173062066739031,51.540659050910776
Hercules,London,Bishop's,E05000416,-0.1122674635719058,51.497592736424856
Revolution,Putney,Thamesfield,E05000625,-0.2178358116089886,51.46122334457453
Williamsons Tavern,London,Cordwainer,E05009300,-0.093762106741189,51.51327357023277
O'Neill's,Wimbledon,Trinity,E05000471,-0.202899716635411,51.41997942146158
Old Ship,Poplar,St. Dunstan's,E05009329,-0.0398464611891309,51.51391327859761
Tapestry Tapas Bar,Mortlake,Mortlake and Barnes Common,E05000525,-0.2690152180889054,51.46913884309719
O'Neill's,Blackheath,Blackheath,E05000438,0.0080374327675751,51.46686168543806
Wembley Stadium,Wembley,Tokyngton,E05000102,-0.2796424507560817,51.55669389865153
Chiswell Street Dining Rooms,London,Coleman Street,E05009299,-0.0906802548119059,51.52079530169491
Betjeman Arms,London,St. Pancras and Somers Town,E05000143,-0.1261216965841033,51.53142975647243
Angies III,Cricklewood,Willesden Green,E05000105,-0.2237934493624277,51.54796673295037
Spreadeagle,Croydon,Fairfield,E05011468,-0.0992406965073792,51.37252667525792
Assembly House,London,Kentish Town,E05000139,-0.1403414605208008,51.55114317416167
SW9,Brixton,Ferndale,E05000421,-0.1156705198662722,51.463268300983
Brook Green Hotel,Hammersmith,Addison,E05000250,-0.2228345467656531,51.49781843574693
Wrestlers,Highgate,Highgate,E05000272,-0.149323716256773,51.57434194075839
Woodman,Farnborough,Farnborough and Crofton,E05000118,0.0699765159934294,51.3592194673123
Bull,Streatham,Streatham South,E05000431,-0.1283467148642758,51.41943372548101
Mas Q Menos,London,Tower,E05009310,-0.0795989701200002,51.51145969831526
Britannia,Stratford,West Ham,E05000494,0.012743302692454,51.53413768346108
Holly Tree,Forest Gate,Cann Hall,E05000590,0.0204491018622976,51.555767445120594
Tiger Tiger,London,St. James's,E05000644,-0.13250717832028,51.50963427989189
Bar & Block,Aldgate,Whitechapel,E05009336,-0.0697507922607255,51.51395973429754
Herne Tavern,East Dulwich,Dulwich Hill,E05011099,-0.0623139285339892,51.45349523727887
All Bar One,London,St. James's,E05000644,-0.1378580435209659,51.49751623189753
Great North Wood,West Norwood,Knight's Hill,E05000424,-0.1040656811643438,51.43098567988854
Barrio,London,St. Mary's,E05000379,-0.1003555173656651,51.53768787809447
Hanover Arms,Kennington,Oval,E05000426,-0.1130546439728184,51.48167029896342
Hendon,Hendon,West Hendon,E05000062,-0.2270511155667673,51.58137856601428
Windmill,London,Prince's,E05000427,-0.1205192466443169,51.493129971674406
Gate,Northwood,Northwood,E05000335,-0.4371471117598337,51.61415477688
Ridgeway,Enfield,Highlands,E05000202,-0.1044291797402438,51.66303689428098
Kings Arms,Hanwell,Elthorne,E05000176,-0.3367330694416964,51.508615742502
Browns,Isle of Dogs,Canary Wharf,E05009323,-0.0226121901184635,51.50751781924165
Lamb,Chiswick,Turnham Green,E05000365,-0.261745278610057,51.49184580442432
Savannah Lounge,Wembley,Wembley Central,E05000104,-0.2993588442721983,51.55252981565371
Bull's Head Hotel,Chislehurst,Chislehurst,E05000111,0.0753733126072135,51.41158770425702
Wishing Well,Greenford,Greenford Broadway,E05000177,-0.3527120844883212,51.5278421765428
Ekcovision,Brixton,Coldharbour,E05000420,-0.1134266074016744,51.46287249145461
Surbiton Flyer,Surbiton,St. Mark's,E05000412,-0.3050666344081268,51.39259031885428
Alma,London,Mildmay,E05000377,-0.0876483293939479,51.54876682997246
Red Lion,Enfield,Enfield Highway,E05000198,-0.0444262286533971,51.663932185847216
Frankie's Sports Bar & Diner,Fulham,Parsons Green and Walham,E05000260,-0.1902725608065024,51.48112478314386
Westow House,Crystal Palace,Gipsy Hill,E05000422,-0.0793262531704626,51.41989018011323
Brewers Bar,Hackney,Shacklewell,E05009382,-0.0704285039597578,51.55281890572813
Rose & Crown,Heston,Heston East,E05000356,-0.3731213542230718,51.48631224908611
Mumbai Junction,Sudbury,Northwick Park,E05000096,-0.3217463461302684,51.56820216487682
Windsor Castle,London,Regent's Park,E05000643,-0.1599790151082438,51.52525708697104
O'Neill's,London,West End,E05000649,-0.1392308865514192,51.514030661860005
Luppolo,Wanstead,Wanstead Village,E05011255,0.0273455459847963,51.5762324459445
Duke Of York,London,West End,E05000649,-0.1458973993118403,51.51419018396469
Timberyard,Twickenham,Twickenham Riverside,E05000531,-0.3294311640548953,51.44819921465854
George IV,Chiswick,Turnham Green,E05000365,-0.2571762414590895,51.492290598649305
Lord Morpeth,Bow,Bow West,E05009320,-0.0357932865441747,51.53441169006096
Carpenter's Arms,Hammersmith,Ravenscourt Park,E05000261,-0.2426836627253308,51.49230821989029
Hero Of Switzerland,Brixton,Coldharbour,E05000420,-0.1052958654537174,51.46696795851282
Gazebo,Kingston,Grove,E05000408,-0.3077347480289204,51.41067743806703
Ardleigh,Hornchurch,Squirrel's Heath,E05000322,0.2208314127884433,51.584025328780776
Kings Head Theatre Bar,London,St. Mary's,E05000379,-0.1028664925340852,51.53798932530457
Kitty Hawk,London,Coleman Street,E05009299,-0.0862229054199231,51.51846545723894
Old Ship,Richmond,South Richmond,E05000528,-0.3069912349316702,51.459963146738616
Cricketers,Kew,Kew,E05000524,-0.2889514871988619,51.48544728371324
Sky 23 at Hilton Metropole Hotel,Paddington,Hyde Park,E05000636,-0.1698980794396965,51.519486085335856
Silver Cross,London,St. James's,E05000644,-0.1268600554167267,51.50642375737434
George & Dragon,Greenwich,Greenwich West,E05000222,-0.0150407639966029,51.47285708812653
Orchard,Croydon,Shirley North,E05011482,-0.040164969340526,51.38617505656144
Beer Asylum,Pinner,Pinner,E05000297,-0.3825407197759533,51.59450426040432
Conquering Hero,Upper Norwood,Crystal Palace & Upper Norwood,E05011467,-0.1060480900471162,51.42096380330779
Wibbas Down Inn,Wimbledon,Dundonald,E05000459,-0.2020793740805064,51.41815928905704
Beer Merchants Tap,Hackney Wick,Hackney Wick,E05009374,-0.0227296344378479,51.54439016826768
Courtfield,Earls Court,Earl's Court,E05009395,-0.1922203136140472,51.49196397070627
Tarragon,Battersea,Shaftesbury,E05000623,-0.1517669898100553,51.46601012580687
White Lion,Streatham,St. Leonard's,E05000428,-0.1297819157007445,51.43113825703789
Marlborough Head,London,West End,E05000649,-0.1538415613424889,51.51340722447439
Pembury Tavern,Hackney,Hackney Central,E05009372,-0.0581210762121983,51.548820774422815
Italian Job @ Mercato Metropolitano,London,Borough & Bankside,E05011095,-0.0980879303824896,51.49869458403653
Adam & Eve,London,St. James's,E05000644,-0.13563423377304,51.49940534421337
Talbot Freehouse,Upper Edmonton,Haselbury,E05000201,-0.0767647735543699,51.61634749162389
Fox & Goose,Ealing,Hanger Hill,E05000179,-0.29578465816371,51.53353984967585
Davy's Wine Vaults,Greenwich,Greenwich West,E05000222,-0.0147218408351341,51.47754597588651
Blue Eyed Maid,London,Chaucer,E05011098,-0.0917620019633111,51.50285440964634
Suchard,London,London Bridge & West Bermondsey,E05011104,-0.0817919763077611,51.50214318055925
Belgo Noord Baar,London,Haverstock,E05000136,-0.1498746616724325,51.54335332172966
Gem,London,West End,E05000649,-0.1384539360115044,51.51187806881054
Bank Of Friendship,Highbury,Highbury West,E05000373,-0.0988218446790988,51.55857074363168
Rugby Tavern,London,Holborn and Covent Garden,E05000138,-0.1172539020264861,51.52166555086344
Bridge House,Penge,Crystal Palace,E05000116,-0.0606196545860047,51.41806214045861
Anchor Tap,London,North Bermondsey,E05011106,-0.076223394624623,51.50332887058364
Beer Box,Greenwich,Peninsula,E05000225,0.0039701546003482,51.501823480149056
Rumours,Worcester Park,Nonsuch,E05000561,-0.2390812358848132,51.37706704238679
Fox & Hounds,Battersea,Shaftesbury,E05000623,-0.1628192744814355,51.466849264498
Fairway,Ruislip,West Ruislip,E05000343,-0.4329783942680082,51.57205091142623
Lord Stanley,London,Cantelowes,E05000131,-0.1297277046086345,51.5472155465029
Brewery Tap,Penge,Penge and Cator,E05000123,-0.0523285300932304,51.41585621718836
Royal Standard,Greenwich,Peninsula,E05000225,0.0037577440488877,51.48648534472543
Leman Street Tavern,London,Whitechapel,E05009336,-0.0702082950712896,51.51370648093229
Trilogy Bar & Restaurant,Edgware,Edgware,E05000287,-0.2818404972736824,51.6093581383929
Fizz Sports Bar,Kenton,Kenton,E05000093,-0.3143612743012594,51.58332911399558
Slug & Lettuce,London,Bishop's,E05000416,-0.116729262924791,51.50259249113029
Urban Bar,London,Whitechapel,E05009336,-0.0573006114465433,51.519320516725166
Britannia,London,Bunhill,E05000367,-0.0942191484914832,51.52683303561599
Horseshoe,South Harrow,Roxbourne,E05000301,-0.3742754604960634,51.56154931994183
Number 12,London,King's Cross,E05000141,-0.1295740701139767,51.52670070843278
Marquis of Granby,London,West End,E05000649,-0.1348673099360306,51.51817894126482
All Bar One,London,St. James's,E05000644,-0.1246183606456962,51.50837533044579
Lennards,Wennington,Rainham and Wennington,E05000318,0.2265829169258045,51.50198067184864
Devonshire,Balham,Balham,E05000610,-0.1489465917686964,51.44674821240493
Two Floors,London,West End,E05000649,-0.1385681650169074,51.51225757554136
Belgo,Bromley,Bickley,E05000106,0.0356368075582628,51.40373227354228
Nell Gwynne,London,St. James's,E05000644,-0.1228753684738893,51.51046074411869
Draft House Northcote,Battersea,Northcote,E05000619,-0.1659790491213983,51.45733952046909
W12 Studios,Shepherds Bush,College Park and Old Oak,E05000253,-0.2278494256881931,51.51337959064762
Old Star,London,St. James's,E05000644,-0.1334494732698114,51.499982099621256
Gloucester,London,Brompton & Hans Town,E05009389,-0.1594428373365443,51.499952254900144
Cock Tavern,Hackney,Hackney Central,E05009372,-0.0554689202403421,51.54607002160969
Hopper's Hut,Sidcup,Sidcup,E05011230,0.1067559081175988,51.42448992923283
Frankie & Benny's,Wembley,Tokyngton,E05000102,-0.2839410197011541,51.55670287921306
Brasserie Blanc,Hammersmith,Fulham Reach,E05000255,-0.2263413934369497,51.48727818732696
Wilmington,London,Clerkenwell,E05000370,-0.1100652998949408,51.52608230605012
Earl of Chatham,Woolwich,Woolwich Riverside,E05000230,0.0660662808709066,51.49054778700985
Cleveland Arms,Paddington,Lancaster Gate,E05000638,-0.1810499805790323,51.51490242261087
Goose Island Brewpub,London,Hoxton East & Shoreditch,E05009377,-0.0782284730443207,51.52244429454535
Rileys Sports Bar,London,St. James's,E05000644,-0.1317565321124723,51.50790471596901
Aroma,Yeading,Barnhill,E05000324,-0.3999842235766773,51.5241442055325
Northumberland Arms,Brentford,Syon,E05000364,-0.3127353179939223,51.48221267005962
Prince George,Thornton Heath,Thornton Heath,E05011486,-0.0936321309084778,51.39823582945314
Plough,Southall,Dormers Wells,E05000172,-0.3730167557007857,51.51352191859732
RnR (Wine Bar),Chingford,Valley,E05000607,-0.0177979102551877,51.61571646649294
Angel,London,Holborn and Covent Garden,E05000138,-0.1276848697765235,51.515474621946105
Monkey Puzzle,Chessington,Chessington South,E05000405,-0.3147590890189326,51.34860295663376
Royal Oak,Havering-Atte-Bower,Havering Park,E05000313,0.1826137233751431,51.61785495119209
Ivy House,Nunhead,Peckham Rye,E05011111,-0.0523418539796123,51.45850978705336
Harrild & Sons,London,Farringdon Within,E05009304,-0.1043415367965268,51.51568426254168
KNK Stadium Sports Bar,Morden,Ravensbury,E05000468,-0.1718476377508329,51.39364508285451
Lord Nelson,London,Old Kent Road,E05011109,-0.0746640156422743,51.486999388569714
Forest Road Brewery Taproom,South Hackney,London Fields,E05009381,-0.0590062888920025,51.53750473456385
Leicester Arms,London,West End,E05000649,-0.1377293683151419,51.5105626236447
Duke of Sussex,London,Bishop's,E05000416,-0.110250720021315,51.50106743122007
Hector & Noble,Homerton,Victoria,E05009386,-0.0437670445640628,51.538447626946976
Joiners Arms,Lewisham,Lewisham Central,E05000448,-0.010750572539444,51.462910223732536
Turner's Old Star,London,St. Katharine's & Wapping,E05009330,-0.0593645246792048,51.50536209611224
Real Greek,Shepherds Bush,Shepherd's Bush Green,E05000263,-0.2212444857467766,51.50756932389804
Green Room,London,Bishop's,E05000416,-0.1102568697539604,51.507533328523294
Grove House,Camberwell,St. Giles,E05011115,-0.0881936213388921,51.47208593962343
Star,London,Highgate,E05000137,-0.1426382406422132,51.56345439805102
Griffin,Whetstone,Oakleigh,E05000058,-0.1746403311758781,51.63041928975774
Grove,Balham,Balham,E05000610,-0.1513151055039118,51.44832335375871
Zebrano,London,West End,E05000649,-0.130473778040303,51.51389141909629
Etrusca,London,Regent's Park,E05000142,-0.138875561096241,51.534051791063405
Black Horse,London,Whitechapel,E05009336,-0.0701697224247615,51.51291448754012
Selkirk,Tooting,Tooting,E05000626,-0.1679446864922077,51.42980724697873
Rose of York,Richmond,"Ham, Petersham and Richmond Riverside",E05000519,-0.3001833643419394,51.45062929258894
Cornerstone,Kingston,Grove,E05000408,-0.2993418794085,51.41170694687227
Husk Brewing Taproom,Royal Docks,Royal Docks,E05000491,0.0186223185211506,51.50439589679346
Railway Hotel,Hornchurch,Hacton,E05000311,0.2191158323550504,51.554713697838366
Volunteer,Tottenham,Tottenham Hale,E05000281,-0.0645512546122806,51.59037405928303
Trinity Arms,Brixton,Ferndale,E05000421,-0.1187490360694686,51.46192387154306
Halfway House,Earlsfield,Earlsfield,E05000612,-0.1868192942299906,51.4410718201348
Wishing Well,Hayes End,Charville,E05000328,-0.4337864985487717,51.52545474897597
Picture Palace,Ponders End,Ponders End,E05000206,-0.0484902346647872,51.64338888470215
Pie & Pint Bar,Hayes,Hayes and Coney Hall,E05000119,0.0068956372064088,51.376107842704585
Goat,Battersea,Northcote,E05000619,-0.1664234382034561,51.46097952177925
Cricketers,Richmond,South Richmond,E05000528,-0.3065710967788978,51.46042469357136
Hollywood Bowl,North Finchley,Woodhouse,E05000063,-0.1743116003198263,51.6058561950905
19:20,London,Bunhill,E05000367,-0.1015770742671174,51.523238435917214
Shanakee,Wealdstone,Wealdstone,E05000304,-0.335992652758371,51.596901684361725
Stags Head,London,Hoxton East & Shoreditch,E05009377,-0.0787612932634957,51.53614876956998
Counting House,London,Cornhill,E05009301,-0.0848105932941812,51.51330756133745
Hamlet,Streatham,St. Leonard's,E05000428,-0.1276473422182412,51.43760594528308
Viaduct Tavern,London,Farringdon Within,E05009304,-0.1015650726829763,51.51625087427189
World's End Market,Chelsea,Chelsea Riverside,E05009391,-0.1780419484489717,51.482652995764894
Grafton Arms,London,St. James's,E05000644,-0.1340820277471781,51.49719542829739
White Horse,Harrow,Harrow on the Hill,E05000289,-0.345817954311206,51.57009018824348
Good Intent,South Hornchurch,Elm Park,E05000308,0.2028987341919269,51.54061255404694
Dovecote,Chingford,Hatch Lane,E05000598,0.0084615797785754,51.62289573139968
Waxy's Little Sister,London,St. James's,E05000644,-0.1317382260259054,51.51116878370065
Victoria,Barking,Abbey,E05000026,0.0793019095723246,51.53542220069264
Eagle,London,Hoxton West,E05009378,-0.0917489002895581,51.52936475400113
Locker Room,Northwood Hills,Northwood Hills,E05000336,-0.4092362361373535,51.601100955613184
Six Yard Box,London,North Walworth,E05011107,-0.0985298796159004,51.49396256164259
Ship & Shovel,Barking,Thames,E05000039,0.1164820166364341,51.53214025572266
Queen Elizabeth,Walworth,Faraday,E05011102,-0.0922841910434272,51.48586657632072
Kerridge's Bar & Grill,London,St. James's,E05000644,-0.1245559476940421,51.50673765508444
Voc,London,Caledonian,E05000368,-0.1218427361243656,51.53135234829453
Fairlop Waters (Dalton's & S/D),Barkingside,Aldborough,E05011234,0.0979915164592472,51.59502623562679
Tall House,London,Borough & Bankside,E05011095,-0.0998222560923122,51.5058359800185
Imperial Arms,Chislehurst,Chislehurst,E05000111,0.0608085687903328,51.40876916789468
Pelton Arms,Greenwich,Peninsula,E05000225,0.0028060372084906,51.48678937056391
Black Horse,Deptford,Evelyn,E05000443,-0.0341009465261402,51.48568747772074
Forge,London,Walbrook,E05009312,-0.0871342993263801,51.513228586945885
Duke of Sussex,Chiswick,Southfield,E05000191,-0.2644241709495102,51.49640873663433
Prince of Wales,London,Highgate,E05000137,-0.1489731623198625,51.57089230433245
Jolly Coopers,Hampton,Hampton,E05000520,-0.3612178186899312,51.41413551262058
Fiddlers,Kentish Town,Haverstock,E05000136,-0.1514647839956343,51.54646286836912
Guinea,London,West End,E05000649,-0.145000419213891,51.51108251260524
Old Toms Bar,London,Langbourn,E05009306,-0.0834092677806402,51.5127001243424
Maple,Shepherds Bush,Shepherd's Bush Green,E05000263,-0.2216933711628422,51.51010305567893
Baxters Court,Hackney,Homerton,E05009376,-0.0549504804533086,51.54503625614922
Earls Court Tavern,Earls Court,Earl's Court,E05009395,-0.1947108213022063,51.49382784399871
Monarch,London,Haverstock,E05000136,-0.1484339621107397,51.54296189876055
Fox & Pheasant,Chelsea,Redcliffe,E05009402,-0.1880172012746095,51.48207015122748
Famous Cock Tavern,London,St. Mary's,E05000379,-0.1035152303096565,51.54527484854333
Coco Momo,London,Marylebone High Street,E05000641,-0.152183830533816,51.520890015472034
Cart & Horses,Stratford,Stratford and New Town,E05000492,0.0043176813942954,51.54583768629344
Victoria,London,Warwick,E05000647,-0.1462917113564514,51.4956084887116
Prince Blucher,Twickenham,South Twickenham,E05000529,-0.3434818797889959,51.44449603601629
Bar 57,Greenwich,Greenwich West,E05000222,-0.0184036355535373,51.47533305127424
Victoria,East Sheen,East Sheen,E05000517,-0.275595760932104,51.46109745308036
Rose & Crown,Enfield,Chase,E05000195,-0.083674103866675,51.67138654563578
White Hart,London,Borough & Bankside,E05011095,-0.1013135092412888,51.5053205641749
Beer Rebellion,Peckham,Nunhead & Queen's Road,E05011108,-0.0571267918136712,51.4736253450318
Bar Rollerbowl,Collier Row (Romford),Chadwell Heath,E05000029,0.1474794624341583,51.59548079899458
Frankies Wine Bar,Hornchurch,St. Andrew's,E05000320,0.2210838204406001,51.56076470579735
Lord Northbrook,Lee,Lee Green,E05000447,0.0120924609130267,51.45102773905693
Hand & Flower,Ham,"Ham, Petersham and Richmond Riverside",E05000519,-0.30645584457589,51.43281621445816
Puttshack,Shepherds Bush,Shepherd's Bush Green,E05000263,-0.2216933711628422,51.51010305567893
Canterbury Arms,Walworth,Newington,E05011105,-0.103032397713016,51.48266866195461
Barking Dog,Barking,Abbey,E05000026,0.081084340198822,51.53941038555532
Flowers of the Forest,London,St. George's,E05011114,-0.1065005056665167,51.498731779453934
Tapping The Admiral,London,Haverstock,E05000136,-0.146927492327905,51.5456089462391
Eight Bells,Fulham,Palace Riverside,E05000259,-0.2100830316416831,51.46804769932935
Revolution,London,Lime Street,E05009307,-0.083053538268208,51.51362055459188
Slug & Lettuce,Sutton,Sutton Central,E05000564,-0.1922511106364765,51.36066169736518
Holiday Inn Express,Colliers Wood,Colliers Wood,E05000457,-0.179581977689124,51.41752437669961
Bow Bells,Bow,Bromley North,E05009321,-0.0203020823412797,51.527883613431165
BrewDog Camden,London,Camden Town with Primrose Hill,E05000130,-0.1405117503402738,51.53777373770091
Swan,Hammersmith,Hammersmith Broadway,E05000256,-0.2250639615127582,51.49309508748576
Fence,London,Clerkenwell,E05000370,-0.1024754967126026,51.52000659073808
Olde Cherry Tree,Southgate,Southgate,E05000208,-0.1240652691868878,51.625584338914855
Duchess Of Kent,Erith,Northumberland Heath,E05011228,0.1571418036017912,51.47415912821122
Optimist Tavern,Upminster,Upminster,E05000323,0.2338566070554515,51.548768271184656
One Kew Road,Richmond,South Richmond,E05000528,-0.3017283060021183,51.4640775807209
Akari,London,St. Peter's,E05000380,-0.0958122017507856,51.5404737928116
King & Co,Clapham,Clapham Common,E05000418,-0.1339910346265016,51.45918190660361
New Moon,Tottenham,West Green,E05000282,-0.0912345002658546,51.597843628051976
Portland Arms,South Norwood,Woodside,E05011489,-0.0675170439689032,51.39433643283925
Angies,Harlesden,Kensal Green,E05000092,-0.2434195590160081,51.53533979499112
Ship,London,Borough & Bankside,E05011095,-0.0968584424568011,51.499501975635546
Eagle,Maida Vale,Little Venice,E05000639,-0.1792779254590724,51.5253603620458
All Bar One,London,West End,E05000649,-0.1427757918504659,51.51652386568556
Latymers,Hammersmith,Avonmore and Brook Green,E05000252,-0.2174460618970299,51.49302453087802
Cocktail Havanna,London,Hoxton East & Shoreditch,E05009377,-0.0817953069176235,51.527781427456894
North Star Tavern,London,Frognal and Fitzjohns,E05000133,-0.1785858563180569,51.5463024477704
DRFO,Finsbury Park,Brownswood,E05009367,-0.1003666304568938,51.56235470490717
64th & Social,Clapham,Clapham Town,E05000419,-0.1336241335934398,51.46359147957078
Hungerford Arms,London,Shadwell,E05009332,-0.0582436530865413,51.5144351474905
Cambria,Camberwell,Herne Hill,E05000423,-0.0975040021894464,51.46461151607061
Davy's,London,Billingsgate,E05009291,-0.081638286459498,51.51094454549211
Normanby,Putney,Thamesfield,E05000625,-0.2105838097622334,51.46297444421649
Milford Arms,Isleworth,Hounslow Central,E05000358,-0.3457701028937546,51.47355579384798
Lowlander,London,St. James's,E05000644,-0.1223729631759374,51.51461634344872
Union Tavern,Maida Vale,Westbourne,E05000648,-0.2000502932278498,51.52283025290686
Golden Lion,Croydon,West Thornton,E05011488,-0.1162450125408235,51.38670396834442
Princess Of Wales,Clapton,Lea Bridge,E05009380,-0.0467697260988176,51.56128504491068
Black Horse,Biggin Hill,Biggin Hill,E05000107,0.0336801926273227,51.31511415728485
Belushi's,London,Chaucer,E05011098,-0.0917620019633111,51.50285440964634
Artisan (of Clerkenwell),London,Clerkenwell,E05000370,-0.1041274274948671,51.5229199699277
Harrow,London,Castle Baynard,E05009297,-0.1067487332691336,51.5128994034704
Fox & Hounds,Putney,East Putney,E05000613,-0.217675764482743,51.46089717466732
Maple Tree,Penge,Penge and Cator,E05000123,-0.0585677323352014,51.41149933067209
Duke's Head,London,Highgate,E05000272,-0.1465447477390825,51.57063817147671
Annie Twomey's,Finchley,West Finchley,E05000061,-0.1876186473041983,51.60532519219638
Royal Standard,Belvedere,Belvedere,E05011218,0.1457411825788047,51.4819134987142
Leinster Arms,Bayswater,Lancaster Gate,E05000638,-0.182821913429672,51.511665551272095
Crown,London,Holborn and Covent Garden,E05000138,-0.1264030129346501,51.51685702134762
Ritzy Cinema Bar,Brixton,Coldharbour,E05000420,-0.1146154243305152,51.461272917832936
Black Horse,Sudbury,Northwick Park,E05000096,-0.3293584686395278,51.56050529417767
Edmund Halley,Lee,Lee Green,E05000447,0.0124133154821264,51.45570751305307
Wilton Arms,London,Knightsbridge and Belgravia,E05000637,-0.1570673033252834,51.50133579844439
El Vino (Masons Avenue),London,Coleman Street,E05009299,-0.0902873721418066,51.51571701136704
Slug & Lettuce,Beckenham,Copers Cope,E05000113,-0.027063240960206,51.40776274230457
Cock Inn,Cockfosters,East Barnet,E05000048,-0.1545037229627781,51.6544827689002
Park Inn,Wood Green,Alexandra,E05000266,-0.1225087623992522,51.59889702545622
Compasses [Harvester],Hornchurch,St. Andrew's,E05000320,0.2092243812168537,51.55778721815864
Earl of Derby,Kilburn,Kilburn,E05000094,-0.1967494463470966,51.54069285211661
Blue Check,Wembley,Tokyngton,E05000102,-0.2829060835524824,51.56120193866398
Bombay Central,Harrow Weald,Harrow Weald,E05000290,-0.3394400004518868,51.604513255937775
Carpenters Arms,London,St. Peter's,E05009331,-0.0552690956421931,51.52301875139314
Kings Ford,Chingford,Larkswood,E05000602,-0.0170492526279723,51.6159915776787
Kennington,Camberwell,Vassall,E05000436,-0.1058458115225258,51.479072098597705
Roundhouse,Wandsworth,Fairfield,E05000614,-0.1744948874886855,51.45892920000672
Greyhound,Kew,Kew,E05000524,-0.2861072728195775,51.48524390103158
Horsenden Hill Golf & Footgolf Centre,Greenford,North Greenford,E05000183,-0.3233137453692938,51.54910648988567
White Lion,London,St. James's,E05000644,-0.1241028430167719,51.51285446480484
Surprise,South Lambeth,Larkhall,E05000425,-0.131536444321891,51.474529297538425
Joiners,Finchley,West Finchley,E05000061,-0.1915112170217728,51.60330804261582
Three Stags,London,Bishop's,E05000416,-0.1113166591107206,51.49689398006496
Railway Hotel,West Wickham,West Wickham,E05000127,-0.0131435877349471,51.38022596702025
Coach & Horses,London,St. James's,E05000644,-0.1206473399023738,51.51242145787959
Royal Vauxhall Tavern,Kennington,Prince's,E05000427,-0.1196817591368834,51.48652488856602
Prince of Wales,Hanwell,Elthorne,E05000176,-0.3376535534527104,51.50708209331764
Cross Keys,Chelsea,Chelsea Riverside,E05009391,-0.1709409294321798,51.48374747111083
Maggies Bar,Kensal Rise,Queens Park,E05000098,-0.219849649122431,51.53483174567411
Spit & Sawdust,London,Chaucer,E05011098,-0.0879993241635257,51.49532912468929
Red Lion,Bromley,Plaistow and Sundridge,E05000125,0.0218797492195632,51.40997747824189
Davy's,London,Bassishaw,E05009290,-0.0906059813422958,51.516369677013024
Sekforde,London,Clerkenwell,E05000370,-0.1044719530286404,51.52399567370218
Grosvenor Arms,Wandsworth,Earlsfield,E05000612,-0.1896876333256836,51.44822942634653
Prince Albert,Peckham,Rye Lane,E05011113,-0.0722844784262087,51.46794040520496
Crown & Sceptre,Streatham Hill,Streatham Hill,E05000430,-0.1247562766689789,51.44496078511653
McCafferty's Freehouse,North Harrow,Headstone North,E05000292,-0.3623996493501549,51.58689590993188
Phene,Chelsea,Royal Hospital,E05009403,-0.1676979134582737,51.48524358648861
Londesborough,Stoke Newington,Clissold,E05009369,-0.0812460308045495,51.55764576569321
Cricketers,Kingston,Grove,E05000408,-0.2966588417238209,51.40767527144544
Hallowed Belly,Earlsfield,Earlsfield,E05000612,-0.1866069183953825,51.439530767414944
Prince of Wales Feathers,London,Bloomsbury,E05000129,-0.1382515790273307,51.52425781908679
Royal Albert,New Cross,Brockley,E05000439,-0.0274641594805941,51.47493734088875
26 Furnival Street,London,Farringdon Without,E05009305,-0.1102795202772621,51.5167332966757
Panthers,Alperton,Alperton,E05000085,-0.2974635862148376,51.54186423525115
Huxleys,Heathrow Airport,Heathrow Villages,E05000331,-0.4872391389773695,51.47149256514529
Harvest Moon,Orpington,Orpington,E05000122,0.1014088122976663,51.3778414201261
Wishing Well,Palmers Green,Palmers Green,E05000205,-0.1098719861737078,51.617740025176246
Blue Ginger,Kenton,Kenton,E05000093,-0.3050384382556056,51.58677387151727
Black Horse,Locksbottom,Farnborough and Crofton,E05000118,0.0567206094568042,51.36824788407198
Orbit Beers London Tap Room,Walworth,Faraday,E05011102,-0.0949385103012003,51.48542411783883
Bunch of Grapes,London,London Bridge & West Bermondsey,E05011104,-0.0886174637999724,51.50465571459389
East London Liquor Co,Bow,Bow West,E05009320,-0.0417478078633945,51.53207416299743
Harrow,Marks Gate (Chadwell Heath),Chadwell Heath,E05000029,0.1361370771322261,51.58885286045634
Walmer Castle,Notting Hill,Bayswater,E05000631,-0.1991153407631687,51.5151092189984
Tollgate Tavern,Beckton,Beckton,E05000475,0.0577934371311882,51.51443446502432
Calthorpe Arms,London,King's Cross,E05000141,-0.1159620175510566,51.52467536850442
Copper Tap,Peckham,Rye Lane,E05011113,-0.0652883541586327,51.47369744564684
Rocket by Balls Brothers,Canary Wharf,Canary Wharf,E05009323,-0.014415527589499,51.50513102451503
Chequers Tavern,London,St. James's,E05000644,-0.1377100115416969,51.50750479300277
Holiday Inn,Sutton,Sutton West,E05000567,-0.1966179608989685,51.36175421412528
Wheatsheaf,Ealing,Ealing Broadway,E05000173,-0.2998297745619055,51.51707934583512
Catford Bridge Tavern,Catford,Rushey Green,E05000451,-0.0244803699112938,51.444670996544936
White Hart,Eltham,Eltham South,E05000219,0.0494896757834504,51.45112643599372
Spread Eagle,Bethnal Green,Hoxton East & Shoreditch,E05009377,-0.0781776434263584,51.52844155359336
Magpie & Crown,Brentford,Syon,E05000364,-0.3099167632835033,51.48248683795021
Man of Aran,Rayners Lane,Rayners Lane,E05000300,-0.370892557358776,51.5734444345445
Plough,Sutton,Stonecot,E05000563,-0.2016275826830512,51.38018528865479
General Eliott,Uxbridge,Uxbridge South,E05000341,-0.4909488801292593,51.540960668402384
Harwood Arms,Fulham,Fulham Broadway,E05000254,-0.1978255088209065,51.482428116192295
Two Brewers,Croydon,Selhurst,E05011479,-0.0898298761066497,51.388057122996166
Clarence,West Kensington,North End,E05000258,-0.2052308084955602,51.48860270835696
Cannick Tapps,London,Walbrook,E05009312,-0.0897531301070374,51.51160762318139
Black Heart,London,Camden Town with Primrose Hill,E05000130,-0.1417976182801688,51.53877431304179
Downham Tavern,Grove Park,Downham,E05000442,0.0131361724768242,51.427628268013926
Apple Tree,Peckham,Peckham,E05011110,-0.0738363110111229,51.47963865183571
Steam Wine Bar,London,Bridge,E05009294,-0.0847337816567426,51.510329718968805
Prince Of Wales,Southall,Southall Green,E05000190,-0.3913734957955308,51.49932444672436
White Swan,London,Whitechapel,E05009336,-0.0712210345071605,51.513615241989726
Wallington Arms,Wallington,Wallington South,E05000570,-0.1501981237080397,51.35982564076035
Prince Regent,Herne Hill,Herne Hill,E05000423,-0.1075355401925632,51.45424332252706
Lady Hamilton,London,Kentish Town,E05000139,-0.1413600117467999,51.54880323018056
Funky Brownz,Hornsey,Hornsey,E05000273,-0.1121178703634694,51.585880065813406
Hagen & Hyde,Balham,Balham,E05000610,-0.1518368378355746,51.44431180787596
Himalayan Club (Bar & Restaurant),Sudbury,Sudbury,E05000101,-0.3168229581967948,51.55654943189428
Castlebar,West Ealing,Ealing Broadway,E05000173,-0.3150164602985983,51.51174099037787
Grosvenor,London,Tachbrook,E05000645,-0.1316616298052021,51.486626430708334
William IV,London,Hoxton West,E05009378,-0.0928771052319416,51.53100179752914
Caffe Concerto,Chelsea,Royal Hospital,E05009403,-0.1605322007453648,51.49150721703556
Lord Clyde,Hounslow,Hounslow Central,E05000358,-0.3594642952336743,51.46591575953192
Karamel,London,Noel Park,E05000275,-0.1130730463502826,51.59418646531238
Duke Of York,London,Abbey Road,E05000630,-0.171645039307507,51.53452206053696
Station House,Chiswick,Chiswick Riverside,E05000349,-0.269277650921323,51.481615559834026
Elephants Head,Clapton,Homerton,E05009376,-0.0527537254674846,51.5508899940714
Good Samaritan,London,Whitechapel,E05009336,-0.061147189802469,51.51733388652048
IBIS Hotel (Cafe Riviera),Barking,Gascoigne,E05000032,0.0717918203117526,51.534206131657065
Everest Lounge,Wealdstone,Marlborough,E05000296,-0.3317612259402557,51.594170802473
Palmerston,Carshalton,Carshalton Central,E05000558,-0.1623741443344885,51.36855130897676
Ferry House,Isle of Dogs,Island Gardens,E05009324,-0.0125359927476091,51.48641190109498
Eagle,Stratford,Stratford and New Town,E05000492,-0.0004485306910849,51.54930033151278
Cock Tavern,London,St. Pancras and Somers Town,E05000143,-0.1313231446029303,51.53116199458173
Harp,London,St. James's,E05000644,-0.1257572140484086,51.509769422492106
Crafty Winger,Twickenham,Twickenham Riverside,E05000531,-0.3274116105041142,51.44754094288288
Fox,Coulsdon,Old Coulsdon,E05011474,-0.1088433372915158,51.29595442361849
"Olde Monken Holt, Ye",High Barnet,High Barnet,E05000056,-0.2014869349440693,51.65781968144125
Old Hall Tavern,Chingford,Valley,E05000607,-0.0283263713784483,51.61676621505488
No 1 Duke Street,Richmond,South Richmond,E05000528,-0.3042552333774045,51.46154227492266
Swan,West Wickham,West Wickham,E05000127,-0.01612224486424,51.37613983114342
Greyhound Hotel,Carshalton,Carshalton Central,E05000558,-0.1645466081118586,51.364880264008605
Alleyns Head,Dulwich,Gipsy Hill,E05000422,-0.0905970180042894,51.43589287824239
Whelan's,Rotherhithe,Rotherhithe,E05011112,-0.0474497422992286,51.49284416508576
Coopers Arms,Kilburn,Kilburn,E05000140,-0.1962256348394399,51.54081069670897
Three Crowns,London,Hoxton West,E05009378,-0.0875542254149677,51.52728203258229
London Apprentice,Isleworth,Isleworth,E05000362,-0.3214437993284572,51.47096197854579
Jono's Bar,Ilford,Valentines,E05011253,0.0697063289470563,51.5597554198048
Rupert Street Bar,London,West End,E05000649,-0.1334984486491203,51.5121770125601
Railway,Blackheath,Blackheath,E05000438,0.0089612919077935,51.46560485598328
Mayfair Exchange,London,West End,E05000649,-0.14697895466583,51.51311016572589
Bridge,Barnes,Barnes,E05000516,-0.2325905520184221,51.48584376259264
Cherry Tree,South Norwood,South Norwood,E05011485,-0.075540940005051,51.39735532501553
Cardinal,Kingston,Tudor,E05000415,-0.2992208913019441,51.42696528854957
Wenlock & Essex,London,St. Peter's,E05000380,-0.1013556206120295,51.536526049241296
Laughing Gravy,London,Borough & Bankside,E05011095,-0.1041979856470444,51.50109565034221
Constitution,London,Warwick,E05000647,-0.1392407914898772,51.4915130573908
Schoolhouse,Battersea,Fairfield,E05000614,-0.175674087229851,51.460404362117885
Shambles Bar & Restaurant,Teddington,Teddington,E05000530,-0.3295725716978354,51.42737499503741
Churchill Arms,Kensington,Campden,E05009390,-0.19474081789539,51.50655291962625
North London Tavern,London,Kilburn,E05000094,-0.2020109249613567,51.54513501365482
Brewers Fayre,Bexleyheath,Bexleyheath,E05011219,0.1420251873852478,51.45519131911549
Cafe Rouge at the Swan,Ruislip,West Ruislip,E05000343,-0.4270369736617266,51.57653947381839
Horniman at Hay's,London,London Bridge & West Bermondsey,E05011104,-0.0835220815479315,51.50589447946979
General Roy,Feltham,Hanworth Park,E05000354,-0.4113400895512215,51.43800797432814
Moon Under Water,Norbury,Norbury & Pollards Hill,E05011472,-0.1215325281235876,51.40707654968999
Slug & Lettuce,London,Tower,E05009310,-0.0753397932746774,51.51232506339441
Wheatsheaf,West Wickham,West Wickham,E05000127,-0.0211079189181397,51.37681755700567
Hercules Pillars,London,Holborn and Covent Garden,E05000138,-0.1207294009040556,51.51602886346584
Tank & Paddle,London,Billingsgate,E05009291,-0.0811463581342959,51.510990447579616
Sanctuary House Hotel,London,St. James's,E05000644,-0.1318238289809287,51.49956952980182
Albion,Woolwich,Woolwich Riverside,E05000230,0.0484641565551342,51.49218761935338
Three Wishes,Edgware,Edgware,E05000050,-0.2807590395382723,51.61237275924729
Baring Arms,London,St. Peter's,E05000380,-0.0885620384883316,51.53694756977264
St Stephen's Tavern,London,St. James's,E05000644,-0.1251735925402437,51.50117203215726
Kings Arms,Greenwich,Greenwich West,E05000222,-0.0077283881778395,51.48039501723382
Richard I,Greenwich,Greenwich West,E05000222,-0.0098263252004681,51.47653672363711
Burger & Lobster,London,West End,E05000649,-0.145487422901083,51.50689961262152
Molly's Bar,New Southgate,Southgate Green,E05000209,-0.1356785939851517,51.61648925370061
Royal Oak Pub & Kitchen,Hale End (Woodford Green),Hale End and Highams Park,E05000597,0.0029289006567345,51.604204808831504
Victoria Inn,Richmond,South Richmond,E05000528,-0.3040052018681873,51.45741107178794
Albion,West Kensington,Avonmore and Brook Green,E05000252,-0.2137779026886304,51.493993884976256
Wheatsheaf,Tooting,Nightingale,E05000618,-0.1608764114496203,51.435299184379424
Lamb & Flag,London,St. James's,E05000644,-0.125520925945977,51.51166311471133
Royal Oak,Brentford,Brentford,E05000347,-0.3032930992662124,51.48865912149454
Charlie's Bar,Plaistow,Canning Town North,E05000477,0.0178424981673082,51.52032692565204
Elements,Greenwich,Greenwich West,E05000222,-0.0147218408351341,51.47754597588651
Jolly Farmers,Enfield,Highlands,E05000202,-0.1077523844450024,51.65476358235109
City Bar,London,Dowgate,E05009303,-0.0905409004543828,51.51000176012161
Plough on the Pond,Thornton Heath,West Thornton,E05011488,-0.1141028920359824,51.39440337434485
Prince of Wales,Putney,Thamesfield,E05000625,-0.2118552972461632,51.45990932205687
Beer House,London,St. James's,E05000644,-0.124777513285982,51.50835988951573
Cavern,Raynes Park,Raynes Park,E05000469,-0.2338844117106289,51.40980323267399
North Star,Leytonstone,Leytonstone,E05000605,0.0155155861824668,51.5697999512654
All Bar One,London,Bishopsgate,E05009292,-0.0801557207396392,51.51843816646566
Hungerford House Bar & Kitchen,London,St. James's,E05000644,-0.1220361485441284,51.5073897784933
Crook Log,Bexleyheath,Crook Log,E05011223,0.127245430276106,51.45896774742068
Atlas,Fulham,Fulham Broadway,E05000254,-0.1961922735804132,51.486224873989286
Belgravia,London,Knightsbridge and Belgravia,E05000637,-0.1515895238482881,51.4924996923953
Malibu Club,Edgware,Canons,E05000286,-0.2804385549994465,51.61129796902347
Simmons,London,Whitechapel,E05009336,-0.0704925162911481,51.51039285185256
Enkel Arms,London,Finsbury Park,E05000371,-0.1171305134152897,51.55888431586907
Henry's,Kingston,Grove,E05000408,-0.3075633481913263,51.40830992266451
Birds,Leytonstone,Leytonstone,E05000605,0.0115513435632008,51.56858210345774
West Five,Ealing,Ealing Common,E05000174,-0.3022836525108022,51.49915684797308
Jolly Farmers,Lewisham,Lewisham Central,E05000448,-0.015205137083132,51.45613313542433
Winsor House,East Ham,Beckton,E05000475,0.0674114351830956,51.5151736298269
BrodieÃÂ¢ÃÂÃÂs (Bar & Kitchen),Isle of Dogs,Canary Wharf,E05009323,-0.0200825700092982,51.50570350960537
Two Towers,West Norwood,Gipsy Hill,E05000422,-0.0877953251774444,51.427528769396105
Hack & Hop,London,Castle Baynard,E05009297,-0.1073085501215835,51.51399656310443
Good Mixer,London,Camden Town with Primrose Hill,E05000130,-0.1441129637923117,51.53963828436303
Exhibit,Balham,Balham,E05000610,-0.1519357146902866,51.44328818899243
Shoreditch,London,Hoxton East & Shoreditch,E05009377,-0.078248427723078,51.526419380338574
Axe,Stoke Newington,Stoke Newington,E05009385,-0.0721515286516348,51.56291005514982
Balham Lounge,Balham,Bedford,E05000611,-0.1493333511360265,51.44180828797142
People's Park Tavern,Homerton,Victoria,E05009386,-0.0404429358916074,51.53929146644435
Gun,Homerton,Homerton,E05009376,-0.0469097516137895,51.54453400999248
Leigham Well,Streatham,Streatham Wells,E05000432,-0.1257123600536672,51.42933761921214
Beulah Spa,Upper Norwood,Crystal Palace & Upper Norwood,E05011467,-0.0928718555017451,51.41408639177499
Crown,Richmond,North Richmond,E05000526,-0.2914026786632568,51.4664814871984
Waterside Inn,Fulham,Sands End,E05000262,-0.1810518612456914,51.47323949402421
Rye,Peckham,Rye Lane,E05011113,-0.0653973872143177,51.46465241179782
Grange Tavern,Ealing,Ealing Common,E05000174,-0.2978584527334019,51.507716562685424
Camden Head,London,Camden Town with Primrose Hill,E05000130,-0.1412968858182927,51.53761531577094
Anglesea Arms,Woolwich,Woolwich Common,E05000229,0.0668491935929636,51.488429664172926
Betsey Trotwood,London,Clerkenwell,E05000370,-0.1079455569548473,51.52331434356807
Prince of Wales,Wimbledon,Dundonald,E05000459,-0.2062085471203473,51.420326865909566
Crayford Arms,Crayford,Crayford,E05011222,0.1773986748765451,51.45230936510991
Dickens Tavern,Paddington,Hyde Park,E05000636,-0.1744567201293767,51.51578919175553
Henry Holland,London,Marylebone High Street,E05000641,-0.1514385251801767,51.51473626754037
Bull,London,Highgate,E05000272,-0.1509230080432931,51.57547321253317
Stag,Chiswick,Southfield,E05000191,-0.2645086730890768,51.4998721275737
Victoria Stakes,Muswell Hill,Muswell Hill,E05000274,-0.1341669201697581,51.58747379084721
Trafalgar,Merton,Abbey,E05000455,-0.1888587549290948,51.41351338589661
Blues Kitchen,Brixton,Ferndale,E05000421,-0.1204131235405439,51.4603138801065
Blue Posts,London,St. James's,E05000644,-0.1402953838234287,51.50700625134445
Lucky Rover,Chessington,Chessington North and Hook,E05000404,-0.3068374855621086,51.36794882052516
House of Tippler,East Dulwich,Goose Green,E05011103,-0.0752723808252358,51.45715311123434
Builders Arms,Kensington,Queen's Gate,E05009401,-0.1882427154256246,51.49999599583676
New York Bar,London,St. James's,E05000644,-0.1431657281816828,51.498436707278366
Lord Wargrave,London,Bryanston and Dorset Square,E05000632,-0.1652101528601478,51.51777618878327
Doyles Tavern,Holloway,Caledonian,E05000368,-0.1177115027972647,51.54341732260239
Graphic Bar,London,West End,E05000649,-0.1367456350930655,51.51206676961422
Door Hinge,Welling,Falconwood & Welling,E05011226,0.1126168346037146,51.46202013047176
George,London,St. James's,E05000644,-0.1129669352677852,51.51308952220975
Hung Drawn & Quartered,London,Tower,E05009310,-0.0809998950028026,51.50967511330472
Champion,Bayswater,Pembridge,E05009400,-0.192515987497952,51.509971835538686
South Beats,Croydon,Fairfield,E05011468,-0.0994546250971756,51.36805167963892
Havering Well,Romford,Brooklands,E05000306,0.1781624972716634,51.56591333583509
