name,address2,ward_2018_name,ward_2018_code,longitude,latitude
Bird in Hand,Bromley Common,Bromley Common and Keston,E05000108,0.0426699132711901,51.37438391199831
Preston,Wembley,Preston,E05000097,-0.2953289408775797,51.56966496117477
Hennesseys,Kingsbury,Kenton,E05000093,-0.2803928895189927,51.58459009277952
Crayford Arms,Crayford,Crayford,E05011222,0.1773986748765451,51.45230936510991
George,Bexley,St. Mary's & St. James,E05011229,0.1500928640174296,51.44156318462439
North End Tavern,Worcester Park,Nonsuch,E05000561,-0.2367266368809705,51.37626724729338
Other Palace Bar,London,St. James's,E05000644,-0.1420878220273038,51.49872538898968
Ranelagh,London,Bounds Green,E05000267,-0.1254469663254409,51.60784647132757
Wilton's Music Hall Mahogany Bar,Shadwell,Whitechapel,E05009336,-0.0669379464919062,51.51061305309453
Silk & Grain,London,Walbrook,E05009312,-0.0871342993263801,51.513228586945885
Harp,London,St. James's,E05000644,-0.1257572140484086,51.509769422492106
Racehorse,Carshalton,Carshalton Central,E05000558,-0.1673425441078721,51.36645277788884
Old Dispensary,Camberwell,Camberwell Green,E05011096,-0.0959735040435227,51.475440997401854
Fox & Hounds,London,Churchill,E05000633,-0.1548404745878074,51.49083328241549
Vaulty Towers,London,Bishop's,E05000416,-0.1118080294642228,51.50103855608173
Surprise,South Lambeth,Larkhall,E05000425,-0.131536444321891,51.474529297538425
Manor of Walworth,Walworth,North Walworth,E05011107,-0.0983913752050268,51.49209881270826
Porchester,Paddington,Bayswater,E05000631,-0.1878907731599388,51.51612338789656
Angel In The Fields,London,Marylebone High Street,E05000641,-0.1512726249152235,51.51776418912093
Frankie & Benny's,Feltham,Hanworth Park,E05000354,-0.4064176323700645,51.44260807999596
Forestdale Arms,Croydon,Selsdon Vale & Forestdale,E05011481,-0.0380245137837516,51.3508694783466
Seven Stars,Sidcup,Sidcup,E05011230,0.1187094470559505,51.41858173999382
Crowndale,London,Regent's Park,E05000142,-0.1372670298659257,51.53460179973226
No.8,Tottenham,Northumberland Park,E05000276,-0.067313927063186,51.60215475524742
Flavours,Edgware,Burnt Oak,E05000044,-0.2706752373641021,51.60368209764642
Phoenix,Croydon,Fairfield,E05011468,-0.1015301911961179,51.3786609329749
St Clair's,Woolwich,Woolwich Riverside,E05000230,0.0447781780985873,51.49319622060528
Moretown Belle,London,St. Katharine's & Wapping,E05009330,-0.0672223803096673,51.50729943467724
Old Thameside Inn,London,Borough & Bankside,E05011095,-0.091891999198531,51.50698420098649
Harrison,London,King's Cross,E05000141,-0.1205570284910244,51.527563800891656
Star & Anchor,West Ealing,Ealing Broadway,E05000173,-0.3150164602985983,51.51174099037787
Green Man,Paddington,Church Street,E05000634,-0.1705145946473905,51.52064676262816
Clarendon Arms,Camberwell,Camberwell Green,E05011096,-0.1005034920376192,51.477322028373
Wenlock & Essex,London,St. Peter's,E05000380,-0.1013556206120295,51.536526049241296
Chelsfield,Chelsfield,Chelsfield and Pratts Bottom,E05000110,0.1053236802620418,51.35635018712361
Merton Apprentice,Colliers Wood,Colliers Wood,E05000457,-0.1831701631258381,51.41299370220341
Bell Inn,Hampton,Hampton,E05000520,-0.3618904370326959,51.41302082331681
Rotunda (Bar & Restaurant),London,Caledonian,E05000368,-0.121968909358482,51.53424103633967
Prince Blucher,Twickenham,South Twickenham,E05000529,-0.3434818797889959,51.44449603601629
Brewery Tap,Brentford,Syon,E05000364,-0.305388798962432,51.482250650841465
Duke of Wellington,Notting Hill,Colville,E05009392,-0.2050658899729344,51.515524157863744
City Bar,London,Dowgate,E05009303,-0.0905409004543828,51.51000176012161
Lord Aberconway,London,Bishopsgate,E05009292,-0.0828289532983174,51.51690821052758
Trinity Bar,Harrow,Greenhill,E05000288,-0.3337658481099998,51.57964046714977
Hopper's Hut,Sidcup,Sidcup,E05011230,0.1067559081175988,51.42448992923283
Camden Town Brewery Tap,Kentish Town,Kentish Town,E05000139,-0.1469346816742189,51.54827089286043
Trinity Bell,London,Aldgate,E05009289,-0.0788582076465576,51.51365076991614
Balls Brothers (Shoe Lane),London,Castle Baynard,E05009297,-0.1065269899370914,51.51616020273183
Priory,Hornsey,Muswell Hill,E05000274,-0.1328618866707024,51.58726418975233
O'Neill's,Leytonstone,Leytonstone,E05000605,0.0144099655327404,51.570250596766975
Watson's General Telegraph,East Dulwich,Dulwich Hill,E05011099,-0.0601761488377254,51.45197602931715
Old Brewery,Greenwich,Greenwich West,E05000222,-0.0090216980492913,51.48277311840746
Lord Nelson,Brentford,Brentford,E05000347,-0.3084353874901901,51.49177289291229
Hare,Bethnal Green,St. Peter's,E05009331,-0.0575357210515931,51.53343372100039
Duke of Buckingham,Kingston,Grove,E05000408,-0.2948091454230914,51.4025044418818
Wimbledon Brewery Tap,Colliers Wood,Lavender Fields,E05000463,-0.1737012961233575,51.4131522982586
Marquis Of Lorne,Stockwell,Ferndale,E05000421,-0.1194176273854426,51.465972355731296
Draft House Westbridge,Battersea,St. Mary's Park,E05000622,-0.1706070832609311,51.478769348249934
Brown Cow,Fulham,Town,E05000264,-0.2067984852742638,51.47470609433088
Black Horse,Eastcote,Eastcote and East Ruislip,E05000329,-0.4062869025042245,51.58471255231792
Star Tavern,London,Knightsbridge and Belgravia,E05000637,-0.1555809012377523,51.49818297303857
Griffin Belle,Vauxhall,Oval,E05000426,-0.1256543230866493,51.48172847719928
Telegraph at The Earl of Derby,New Cross,Telegraph Hill,E05000453,-0.0503982539726789,51.47033909072199
George & Monkey,London,Clerkenwell,E05000370,-0.1103425400727799,51.53017846219243
Flannery's Bar,Wembley,Wembley Central,E05000104,-0.2997896379451409,51.55219433282024
Roundhouse,Wandsworth,Fairfield,E05000614,-0.1744948874886855,51.45892920000672
Ship & Shovel,Barking,Thames,E05000039,0.1164820166364341,51.53214025572266
Caspari Lounge & Restaurant,Brentford,Syon,E05000364,-0.3025276008465463,51.48444846474778
Zerodegrees,Blackheath,Blackheath,E05000438,0.0080607050164893,51.46739186473473
Bourne & Hollingsworth,London,Bloomsbury,E05000129,-0.1342293977251225,51.51791700121304
Lamb,Chiswick,Turnham Green,E05000365,-0.261745278610057,51.49184580442432
Tap 13,Tooting,Graveney,E05000616,-0.1665357793097186,51.42834637065911
Coulsdon Manor Hotel,Coulsdon,Old Coulsdon,E05011474,-0.1250737679723207,51.317285504498
Tattersalls Tavern,London,Knightsbridge and Belgravia,E05000637,-0.1629041811258302,51.5009417624988
We Anchor In Hope,Welling,East Wickham,E05011224,0.085602896436773,51.46630782095176
Two Brewers,Tottenham,Tottenham Hale,E05000281,-0.0678469703731541,51.5967411117409
Huntsman & Hounds,Upminster,Upminster,E05000323,0.2521679706047824,51.54306725270661
Refreshment Room,Stratford,Stratford and New Town,E05000492,0.0026311019390842,51.54092952378111
Masons Arms,London,Marylebone High Street,E05000641,-0.1442164108023895,51.52221206727191
Beaconsfield,Finsbury Park,Harringay,E05000271,-0.0987891780463125,51.57597081759136
Brewmaster,London,St. James's,E05000644,-0.1278363605123759,51.51143031099716
Bell,Sydenham,Bellingham,E05000437,-0.0367750412283991,51.42911301534047
Chequers,Walthamstow,High Street,E05000599,-0.0255513790773804,51.583825363754855
Graduate,Greenwich,Greenwich West,E05000222,-0.0153125376858211,51.473230396317405
Duke Of York,London,West End,E05000649,-0.1458973993118403,51.51419018396469
White Horse,Beckenham,Copers Cope,E05000113,-0.0301987620807116,51.40640357680917
Coach & Horses,Stoke Newington,Stoke Newington,E05009385,-0.0735477835712749,51.561278371870095
Lass o' Richmond Hill,Richmond,"Ham, Petersham and Richmond Riverside",E05000519,-0.2959991467460929,51.450910281268605
Hand & Flower,West Kensington,Avonmore and Brook Green,E05000252,-0.2083901502746793,51.49582714216047
Belmullet Tavern,Greenford,Greenford Broadway,E05000177,-0.3574400141597429,51.5286638259627
Baxters Court,Hackney,Homerton,E05009376,-0.0549504804533086,51.54503625614922
Temperance,Fulham,Palace Riverside,E05000259,-0.2107322097453584,51.46985614445731
Railway Tavern,Richmond,South Richmond,E05000528,-0.3025729535806024,51.462264318476926
Shakespeare,Bethnal Green,St. Peter's,E05009331,-0.0572455814916214,51.52704423321393
Two Towers,West Norwood,Gipsy Hill,E05000422,-0.0877953251774444,51.427528769396105
Husk Brewing Taproom,Royal Docks,Royal Docks,E05000491,0.0186223185211506,51.50439589679346
Beehive,Kennington,Oval,E05000426,-0.1188030793301033,51.48512591892345
Masons Arms,Harlesden,Kensal Green,E05000092,-0.225934417776186,51.530013952444726
East London Liquor Co,Bow,Bow West,E05009320,-0.0417478078633945,51.53207416299743
Ship,Tottenham,Bruce Grove,E05000268,-0.0699870955853523,51.592918619484
Windmill,London,Bunhill,E05000367,-0.0864704517213339,51.52321763956519
Windmill,London,Prince's,E05000427,-0.1205192466443169,51.493129971674406
Pig & Whistle,East Sheen,East Sheen,E05000517,-0.2672392470688201,51.46584832023718
Skylark,Croydon,Fairfield,E05011468,-0.0992486913806189,51.36573714806905
Lamb,Holloway,Highbury East,E05000372,-0.1070077154757038,51.54869452257806
Lighthouse,Bow,Bow East,E05009319,-0.0221276357172067,51.53632255833472
Black Horse,Biggin Hill,Biggin Hill,E05000107,0.0336801926273227,51.31511415728485
Ship,London,Tower,E05009310,-0.0799263622784525,51.510871544271325
Brew Club Tap Room,Clapton,Lea Bridge,E05009380,-0.0554991350903759,51.55991923871824
All Bar One,London,Holborn and Covent Garden,E05000138,-0.1192287880109209,51.51641848027987
Who'd 'a' Thought It,Plumstead,Shooters Hill,E05000227,0.0870263739190442,51.4788815395452
Bayswater Arms,Bayswater,Lancaster Gate,E05000638,-0.187877082655975,51.51211245453121
Slug & Lettuce,South Woodford,South Woodford,E05011252,0.0246059194730166,51.59383312439347
St Margarets Tavern,St. Margarets,St. Margarets and North Twickenham,E05000527,-0.3177848071905903,51.45416544356062
TGI Fridays Bar & Restaurant,London,St. James's,E05000644,-0.1290567278723005,51.51013684353283
Tiger,Camberwell,Camberwell Green,E05011096,-0.0923854190750753,51.47377294429885
Whelans,Kingston,Grove,E05000408,-0.3002293579120049,51.41259209135178
ZÃÂÃÂ³calo,Battersea,St. Mary's Park,E05000622,-0.175028891121224,51.47478257365772
Miller & Carter,Muswell Hill,Muswell Hill,E05000274,-0.1447956514691447,51.58985436952721
Slug & Lettuce,Richmond,South Richmond,E05000528,-0.3073426511966222,51.4590240002598
Malt House,Fulham,Fulham Broadway,E05000254,-0.1982035226288023,51.48160660513968
Norbury,Norbury,Norbury & Pollards Hill,E05011472,-0.1215553727705654,51.40827295168921
BrewDog Shoreditch,London,Weavers,E05009335,-0.0737995080443607,51.52423306519884
Angel,London,Holborn and Covent Garden,E05000138,-0.1276848697765235,51.515474621946105
Belushi's,Shepherds Bush,Addison,E05000250,-0.2195296637552776,51.50387431945114
Halfway House,Earlsfield,Earlsfield,E05000612,-0.1868192942299906,51.4410718201348
Compton Arms,London,St. Mary's,E05000379,-0.1022375036879361,51.544094131538365
Stanley Arms,Bermondsey (East),North Bermondsey,E05011106,-0.0574452596005007,51.494251258334046
Builders Arms,Teddington,Teddington,E05000530,-0.3304014098441195,51.42555237311329
Florence,Herne Hill,Herne Hill,E05000423,-0.1031630343485945,51.45277873899149
Sun,Romford,Romford Town,E05000319,0.175558258689364,51.57514347655604
Mendes (The Sheep Walk),Acton,Acton Central,E05000170,-0.2710326811147915,51.50793585302685
White Hart Hotel,Hampton Wick,Hampton Wick,E05000522,-0.3110722110406574,51.41220035486871
Kings Head,Teddington,Teddington,E05000530,-0.3295725716978354,51.42737499503741
Nag's Head,London,St. Mary's,E05000379,-0.105890353083295,51.533928554486685
Villages Brewery Taproom,Deptford,New Cross,E05000449,-0.0247135471340206,51.478605079505066
Masons Arms,Battersea,Queenstown,E05000620,-0.1468427167430219,51.47668761892086
Chandos,London,St. James's,E05000644,-0.1266837386038429,51.5100180346573
Nags Head,London,Knightsbridge and Belgravia,E05000637,-0.1570673033252834,51.50133579844439
Steak & Co,South Kensington,Courtfield,E05009393,-0.1820883133896934,51.4931742448216
Junction,Upminster,Upminster,E05000323,0.2504139581018629,51.5583802025802
Ash Grove,Seven Kings,Goodmayes,E05011244,0.0951406085395191,51.56036501580024
George IV,Poplar,Lansbury,E05009325,-0.0115361839945186,51.51201585832635
Rising Sun,Mill Hill,Hale,E05000054,-0.2418125440304511,51.62711931077692
George & Vulture,London,Hoxton West,E05009378,-0.083819727096088,51.529010575332826
Whelans,Cricklewood,Dollis Hill,E05000088,-0.2332866605197145,51.566868678023226
Old Tigers Head,Lee,Blackheath,E05000438,0.0091769135960581,51.45739969012416
Craft Beer Co.,Hatton Garden,Holborn and Covent Garden,E05000138,-0.1096055251989711,51.52117385171493
Virgin Queen,Bethnal Green,Haggerston,E05009375,-0.0642945650938768,51.53351858833729
Circle Lounge,Belmont,Kenton West,E05000295,-0.3191686180653257,51.60089732891436
Paya & Horse,Battersea,Queenstown,E05000620,-0.1490702178028829,51.475733608337706
Bird of Smithfield,London,Farringdon Without,E05009305,-0.1025158186964607,51.5183435846237
Princess Of Wales,London,Camden Town with Primrose Hill,E05000130,-0.1537200944757622,51.54027544372922
Picture Palace,Ponders End,Ponders End,E05000206,-0.0484902346647872,51.64338888470215
O'Neill's,London,King's Cross,E05000141,-0.1261696433635482,51.52885859985877
Micro Beers,East Sheen,East Sheen,E05000517,-0.2644160537996567,51.46474547121581
Duchess,Hammersmith,Ravenscourt Park,E05000261,-0.2442792663450481,51.49726904800461
Victory,Bethnal Green,St. Peter's,E05009331,-0.0547599884379267,51.53461965551647
Brown Derby,Kennington,Oval,E05000426,-0.1130546439728184,51.48167029896342
Keg & Cask,Hounslow,Hounslow West,E05000361,-0.3865469289477894,51.47279326316678
Forester,Hainault,Hainault,E05011245,0.1120133614310306,51.61249092867983
Shirley Inn,Croydon,Shirley North,E05011482,-0.0505152029627777,51.37428835177439
Silver Cross,London,St. James's,E05000644,-0.1268600554167267,51.50642375737434
La Familia Restaurant & Bar,Hampton Hill,Fulwell and Hampton Hill,E05000518,-0.3577763910249199,51.42509406648588
Lord Wargrave,London,Bryanston and Dorset Square,E05000632,-0.1652101528601478,51.51777618878327
Brass Monkey,London,Vincent Square,E05000646,-0.1402483186881058,51.49401102771257
Bo Peep,Chelsfield,Chelsfield and Pratts Bottom,E05000110,0.1375172728519524,51.35029868234211
Churchills,Battersea,Fairfield,E05000614,-0.1770084063400124,51.46015532680681
Cosy Bar,Harrow Weald,Wealdstone,E05000304,-0.3399389313460344,51.603504160886295
Two Floors,London,West End,E05000649,-0.1385681650169074,51.51225757554136
Railway Bell,New Barnet,High Barnet,E05000056,-0.1744250181505621,51.65017211148604
Roebuck,London,Chaucer,E05011098,-0.0907042863752689,51.49816994777829
Blue Anchor,Bermondsey (East),South Bermondsey,E05011116,-0.0631352832017136,51.4925648524132
Millers,London,Caledonian,E05000368,-0.1211751338650696,51.53145856567272
Horse & Groom,London,West End,E05000649,-0.1423804317603571,51.51986289137757
Backyard Bar & Kitchen,Bethnal Green,St. Peter's,E05009331,-0.0557439873038729,51.52675854409311
Hour Glass,South Kensington,Brompton & Hans Town,E05009389,-0.1685533756771731,51.49408775493474
Rose & Crown,London,Royal Hospital,E05009403,-0.1568172870327961,51.490037041154345
Green Room,West Hampstead,Fortune Green,E05000132,-0.196601120044792,51.554656099841566
Liberty Bell (Beefeater),Romford,Romford Town,E05000319,0.1865858194055581,51.577879219852456
Sun in the Sands,Kidbrooke,Kidbrooke with Hornfair,E05000223,0.0268155561912403,51.475387667384815
Rose,Fulham,Parsons Green and Walham,E05000260,-0.189842267567531,51.4767117668211
Prince Albert (Rose's),Woolwich,Woolwich Riverside,E05000230,0.0635644501957395,51.49288502491979
Alfred,Sydenham,Sydenham,E05000452,-0.0428568484055513,51.4258244252824
Lion,Teddington,Hampton Wick,E05000522,-0.3186918977264174,51.41812806522026
Finchley Manor Tennis Squash & Health Club,Finchley,Finchley Church End,E05000051,-0.2040947298694054,51.601693930234106
Victoria Inn,Richmond,South Richmond,E05000528,-0.3040052018681873,51.45741107178794
Phoenix,Bayswater,Lancaster Gate,E05000638,-0.1899306522365456,51.512297036324455
TGI Fridays Bar & Restaurant,London,St. James's,E05000644,-0.13238393636551,51.51018087392875
Waters Edge,Cowley Peachey,Yiewsley,E05000345,-0.4830524723395748,51.51996991619411
Metropolis,Bromley,Bromley Town,E05000109,0.0119936669355653,51.40686514494168
Elm Park Tavern,Brixton,Tulse Hill,E05000435,-0.1186520942888588,51.449925900146354
Sydney Arms,Chislehurst,Chislehurst,E05000111,0.0866915838382633,51.415073685462005
Fox's,Sydenham,Forest Hill,E05000444,-0.0601803933165863,51.43115752793548
Neighbour,Kentish Town,Kentish Town,E05000139,-0.1403414605208008,51.55114317416167
Tia Maria,South Lambeth,Oval,E05000426,-0.124845657314727,51.48072635642002
BrewDog Seven Dials,London,Holborn and Covent Garden,E05000138,-0.1286925558254759,51.5133953956251
Dove Free House & Kitchen,Hackney,London Fields,E05009381,-0.0615832999326986,51.53658518359283
O'Briens,West Ealing,Walpole,E05000192,-0.3158691221701676,51.51128561973289
EDG bar & Lounge at Hilton Metropole Hotel,Paddington,Hyde Park,E05000636,-0.1698980794396965,51.519486085335856
Bloomsbury Tavern,London,Holborn and Covent Garden,E05000138,-0.1258442107668051,51.51677615331472
Woolf & Whistle,London,Bloomsbury,E05000129,-0.1282909064254898,51.52424321475298
Kilkenny Tavern,Merton,Abbey,E05000455,-0.1917140566230812,51.41549989857516
William IV,Kensal Rise,Queens Park,E05000098,-0.2189256685754631,51.5289545491745
Club Langley,Eden Park,Kelsey and Eden Park,E05000120,-0.0224837815280232,51.38858501778888
Foxley Hatch,Purley,Purley & Woodcote,E05011476,-0.1176298562765909,51.33927119193182
Charlotte,London,Borough & Bankside,E05011095,-0.1019116953493824,51.50375650878686
Old Pack Horse,Chiswick,Turnham Green,E05000365,-0.2651678443243495,51.49275975630679
Singer Tavern,London,Bunhill,E05000367,-0.0868926526965046,51.52277489587274
Prince of Wales,Paddington,Hyde Park,E05000636,-0.1801321311983579,51.51695649730234
Doolan's,Canons Park,Belmont,E05000285,-0.3008188115140433,51.60622635241876
Queen's Head,Pinner,Pinner,E05000297,-0.3808584211140064,51.59431019465816
Butcher's Hook,Fulham,Parsons Green and Walham,E05000260,-0.1887641450429509,51.48030115498771
Overdraft Tavern,East Ham,East Ham Central,E05000480,0.0515171785118119,51.53898682984526
Spotted Dog,Barking,Abbey,E05000026,0.0821290582753782,51.54018321698317
Yard,Greenford,North Greenford,E05000183,-0.3368974727845794,51.55592720351904
O`Neill's,Kingston,Grove,E05000408,-0.3055351985222271,51.40910794350812
King's Head,Earls Court,Earl's Court,E05009395,-0.1929614718131351,51.49289264431286
Mondo Tap House,Battersea,Queenstown,E05000620,-0.1394068209201757,51.47397998952607
Depot,Holloway,Holloway,E05000375,-0.1215880045988696,51.54874016903398
Naturalist,London,Woodberry Down,E05009387,-0.0927075235063914,51.57093511393974
O'Neill's,London,St. James's,E05000644,-0.1322788916625121,51.51133926281288
OLd Street Brewery Taproom,Bethnal Green,St. Peter's,E05009331,-0.0566615575346813,51.52653996051921
Blacksmiths Arms,Rotherhithe,Surrey Docks,E05011117,-0.0338659585787762,51.50519807420589
Frankie & Benny's,Ilford,Ilford Town,E05011246,0.0740968035953336,51.55763653072528
Crown,Sutton,Sutton Central,E05000564,-0.1952706024587158,51.36789347550247
Han,New Malden,Beverley,E05000402,-0.2571459851760459,51.403119311214994
Angel,London,Barnsbury,E05000366,-0.1065479122675697,51.53232947731802
Bill Murray,London,St. Peter's,E05000380,-0.0992828248247434,51.53643849479693
Moon On The Hill,Harrow,Greenhill,E05000288,-0.3342773147865256,51.57946787482193
Cardinal,Kingston,Tudor,E05000415,-0.2992208913019441,51.42696528854957
South Norwood Conservative Club,South Norwood,South Norwood,E05011485,-0.0755714259857398,51.40039533010736
Dutch Courage,Putney,East Putney,E05000613,-0.2042427870516258,51.45690635842008
Three Wishes,Edgware,Edgware,E05000050,-0.2807590395382723,51.61237275924729
Juno Rooms,London,Cordwainer,E05009300,-0.0932692788180769,51.51299577502977
Mayflower,Rotherhithe,Rotherhithe,E05011112,-0.0531832911355262,51.50196829033394
Jolly Woodman,Beckenham,Copers Cope,E05000113,-0.0186440599757061,51.40660457390008
Running Horses,Erith,Erith,E05011225,0.1810293912058491,51.48165792846115
Frankie & Benny's,Croydon,Broad Green,E05011465,-0.1233002827064316,51.37725783096053
Kitchen 79,Queen's Park,Queens Park,E05000098,-0.2052032205184524,51.53584957222419
Railway Tavern,Stratford,Stratford and New Town,E05000492,0.0001453113760086,51.54508162513324
Duke Of Edinburgh,Brixton,Ferndale,E05000421,-0.1195228912498581,51.46341110332485
Leyton Star,Stratford,Cathall,E05000591,-0.0051104206624398,51.5545055236484
Vineyard,London,St. Mary's,E05000379,-0.1031297963442468,51.54136582705793
Old Coffee House,London,West End,E05000649,-0.1374433924267505,51.512626407057546
Bell on the Green,Bedfont,Bedfont,E05000346,-0.438821126940957,51.45109183852325
Coach & Horses,Leyton,Leyton,E05000604,-0.0101786011391494,51.56100335448512
Blueroom Sports Venue,Headstone,Headstone North,E05000292,-0.361019187795836,51.59797340833476
Horse & Groom,Sidcup,Longlands,E05011227,0.0938763537068589,51.42720286471232
Birds Nest,Deptford,New Cross,E05000449,-0.0225300257242378,51.4761491636915
Watermans Arms,Richmond,South Richmond,E05000528,-0.3073426511966222,51.4590240002598
Grosvenor Arms,London,Warwick,E05000647,-0.1452108078907024,51.495618377324426
Three Stags,London,Bishop's,E05000416,-0.1113166591107206,51.49689398006496
Queen's Head,Uxbridge,Uxbridge South,E05000341,-0.4805768600596172,51.54540382245
Fourpure Brewery Tap Room,Bermondsey (East),South Bermondsey,E05011116,-0.0550671183104019,51.48920281473645
Bar One Twenty,Chingford,Chingford Green,E05000593,0.008736008093858,51.63335829676787
O'Riordans Tavern,Brentford,Brentford,E05000347,-0.2920462278851879,51.48781248884613
Mawson Arms / Fox & Hounds,Chiswick,Chiswick Homefields,E05000348,-0.2492297343842573,51.48763997934708
Hawker Centre,Kingston,Tudor,E05000415,-0.3091913887348772,51.42692075905932
Duchess Of Kent,Erith,Northumberland Heath,E05011228,0.1571418036017912,51.47415912821122
Bottlescrue,London,Cheap,E05009298,-0.0964672269780954,51.5151070750283
Ship,Rotherhithe,Rotherhithe,E05011112,-0.0550432350359492,51.500587306359
Hercules,London,Bishop's,E05000416,-0.1122674635719058,51.497592736424856
Cannick Tapps,London,Walbrook,E05009312,-0.0897531301070374,51.51160762318139
Cow,Bayswater,Bayswater,E05000631,-0.1950252251209996,51.51903908621283
Cross Lances,Hounslow,Hounslow Heath,E05000359,-0.3643406951687253,51.46482389130583
Off Broadway,Hackney,London Fields,E05009381,-0.0618790327655357,51.53675194007326
Luna,Croydon,Fairfield,E05011468,-0.1005502492753846,51.373519152752415
Perry Hill,Catford,Perry Vale,E05000450,-0.0350338159976289,51.4351630147407
Shoreditch Grind,Old Street,Bunhill,E05000367,-0.0891052580310248,51.5260483530386
Havering Well,Romford,Brooklands,E05000306,0.1781624972716634,51.56591333583509
Sanctuary House Hotel,London,St. James's,E05000644,-0.1318238289809287,51.49956952980182
Barley Mow,London,Hoxton East & Shoreditch,E05009377,-0.0806357417685698,51.5262157071321
Whelan's,South Croydon,South Croydon,E05011484,-0.0966857870537344,51.36275481147992
Battersea Brewery Tap Room,Battersea,Queenstown,E05000620,-0.1459636634001296,51.48132291891282
Autumn Yard,Hackney,Shacklewell,E05009382,-0.0671151243032865,51.55476067504637
Plough,Worcester Park,Old Malden,E05000410,-0.2537714636722098,51.38487678579137
Gregorian,Bermondsey (East),North Bermondsey,E05011106,-0.0661332110619223,51.49763229571308
Cloudwater Tap Room,Bermondsey (East),South Bermondsey,E05011116,-0.0722297942343251,51.49757984309672
Queen Elizabeth,Chingford,Chingford Green,E05000593,0.0167944320027881,51.62868803229063
Bedford,Balham,Bedford,E05000611,-0.1490200987612783,51.44208211998148
Harrison's - Delicatessen & Vintners,Ealing,Cleveland,E05000171,-0.3163281243715588,51.5257970173594
Imperial Arms,Fulham,Parsons Green and Walham,E05000260,-0.188563617974223,51.47845457443653
Eagle,Wanstead,Wanstead Village,E05011255,0.020724545686585,51.583145017402366
Alleyns Head,Dulwich,Gipsy Hill,E05000422,-0.0905970180042894,51.43589287824239
General Napier,Forest Hill,Crofton Park,E05000441,-0.044455227303938,51.44600417439551
Tir Na Nog,Wandsworth,Fairfield,E05000614,-0.1909259840712416,51.452583054285576
Coronation Hall,Surbiton,St. Mark's,E05000412,-0.3036757079523185,51.3936673143484
Beer & Burger Store,London,St. Pancras and Somers Town,E05000143,-0.1226745165486588,51.53601490204922
Garrick Arms,London,St. James's,E05000644,-0.1281254255552126,51.51035579625396
Woodman,London,Highgate,E05000272,-0.1469090496621798,51.577649043637294
John Salt,London,St. Mary's,E05000379,-0.1026024715915461,51.53913611271244
Roma,London,Tower,E05009310,-0.0794340876346588,51.511268149200745
Pheasant Inn,Harlington,Heathrow Villages,E05000331,-0.4394438221315497,51.485190795203565
Hadley Hotel,High Barnet,High Barnet,E05000056,-0.1834224310833144,51.65653443105982
Sparrowhawk,Upper Norwood,Crystal Palace & Upper Norwood,E05011467,-0.0814079963600252,51.41963652972008
Four Quarters,Peckham,Rye Lane,E05011113,-0.0662870793232975,51.467445897314406
Dado54,London,Clerkenwell,E05000370,-0.1058601867072443,51.52111343968964
Phene,Chelsea,Royal Hospital,E05009403,-0.1676979134582737,51.48524358648861
Crafty Winger,Twickenham,Twickenham Riverside,E05000531,-0.3274116105041142,51.44754094288288
Rectory,Clapham,Clapham Town,E05000419,-0.1408899252702912,51.46582918193053
Devonshire Arms,London,Camden Town with Primrose Hill,E05000130,-0.1427207396542129,51.54089322038877
Fable,London,Farringdon Within,E05009304,-0.1041806124496744,51.51712949969306
Spreadeagle,Croydon,Fairfield,E05011468,-0.0992406965073792,51.37252667525792
Kona Kai,Fulham,Parsons Green and Walham,E05000260,-0.1928037802979977,51.48012067437458
Tank & Paddle,London,Billingsgate,E05009291,-0.0811463581342959,51.510990447579616
Great Northern Railway Tavern,Hornsey,Hornsey,E05000273,-0.116548693396492,51.58799260326127
White Mustache,London,Regent's Park,E05000142,-0.140581019931212,51.53076951468794
Bitter End Bar,Bromley,Bromley Town,E05000109,0.0252400840315621,51.39620557790607
Coopers Arms,Chelsea,Royal Hospital,E05009403,-0.1649564143569932,51.486082003283904
Full Nelson,Deptford,Brockley,E05000439,-0.0256047487710896,51.47464523461418
Kiss the Sky,Hornsey,Crouch End,E05000269,-0.1245680936637728,51.58079224485423
White Horse,Fulham,Parsons Green and Walham,E05000260,-0.1991312809595548,51.47377029588922
Bridge,Barnes,Barnes,E05000516,-0.2325905520184221,51.48584376259264
Pawson's Arms,Croydon,Selhurst,E05011479,-0.0960172481797917,51.39307686604229
Red Lion,Teddington,Fulwell and Hampton Hill,E05000518,-0.3451253850139885,51.43087793135474
Station 31,Wembley,Wembley Central,E05000104,-0.2852769012384194,51.55263074821336
Crosse Keys,City of London,Langbourn,E05009306,-0.0846592589261058,51.51279250353671
Hope & Anchor,Brixton,Brixton Hill,E05000417,-0.1274843176415292,51.45953677100914
Blueberry Bar & Kitchen,London,Hoxton East & Shoreditch,E05009377,-0.084045259885545,51.52261148348688
Royal Oak,Chingford,Chingford Green,E05000593,-0.0104461465043171,51.6345300342565
Sir Sydney Smith,London,Whitechapel,E05009336,-0.0684665138182196,51.50990983934172
Harvester,Northolt,Northolt Mandeville,E05000184,-0.3658217743693613,51.54904942088989
Windermere,South Kenton,Preston,E05000097,-0.3063575292169352,51.56916821576444
Coach & Horses,London,West End,E05000649,-0.1438023200251557,51.510775792031176
Inn of Court,London,Farringdon Without,E05009305,-0.1101757603411522,51.517846727512406
Brickfields,Brockley,Ladywell,E05000446,-0.0338539650312336,51.46029633433584
Barley Mow,London,West End,E05000649,-0.1509355722377747,51.5129208090441
Queens Arms,Walthamstow,Hoe Street,E05000601,-0.0130772388260256,51.58255367967286
Old Bank Of England,London,Farringdon Without,E05009305,-0.1109133709529835,51.51395574749127
Bar Story,Peckham,Rye Lane,E05011113,-0.0703939052070457,51.4694110979245
Kings Head,London,Crouch End,E05000269,-0.1246557311188112,51.57796102294154
McGlynn's,Kilburn,Kilburn,E05000094,-0.2007699318575665,51.54113226495182
Jolly Farmers,Enfield,Highlands,E05000202,-0.1077523844450024,51.65476358235109
Spaniards,Hampstead,Garden Suburb,E05000052,-0.1742307797321335,51.56970522677887
Windmill,Brixton,Brixton Hill,E05000417,-0.1224646934781739,51.454519426174784
French House,London,West End,E05000649,-0.1316745860996224,51.51272351135223
Bloomsbury,Twickenham,West Twickenham,E05000532,-0.352001510404514,51.44208035108559
Anchor,Bexley,Blendon & Penhill,E05011221,0.1338472109088715,51.44527734982472
Gatehouse,London,Highgate,E05000272,-0.1503293495357765,51.57196579674986
One Under Lime,London,Lime Street,E05009307,-0.0828263777392511,51.51285245820411
Belle Vue,Clapham,Clapham Common,E05000418,-0.137810058914701,51.46155374991609
Carpenter's Arms,Hammersmith,Ravenscourt Park,E05000261,-0.2426836627253308,51.49230821989029
Anthologist,London,Walbrook,E05009312,-0.0911436951691106,51.514885638433206
Duke of York,London,Bryanston and Dorset Square,E05000632,-0.1641831461339213,51.51750832564033
Park Fever,Hither Green,Lee Green,E05000447,-0.0005772775878654,51.45324079800466
Black Lion,London,Kilburn,E05000140,-0.199536968902486,51.54350538380482
Globe,London,Coleman Street,E05009299,-0.0887354325359972,51.51767012188468
Perseverance,London,Holborn and Covent Garden,E05000138,-0.1187538724738874,51.52199536735277
Hop Pole,Wandsworth,Fairfield,E05000614,-0.1982061265297511,51.45960154868361
Winning Post,Whitton,Heathfield,E05000523,-0.3559519924804634,51.44787293064908
Gate Lodge,Golders Green,Childs Hill,E05000045,-0.1949958133307328,51.57115968343855
Sports Bar & Grill,Isle of Dogs,Canary Wharf,E05009323,-0.0182603886466639,51.50618532231073
Bell,Leytonstone,Cann Hall,E05000590,0.0087432089666486,51.56085163023114
Gladstone Arms,London,Borough & Bankside,E05011095,-0.0946102927753502,51.50089532731697
Oddfellows Arms,Pinner,Pinner,E05000297,-0.3845036424113401,51.59655462207712
Swan & Mitre,Bromley,Bromley Town,E05000109,0.0119936669355653,51.40686514494168
White Swan,London,St. James's,E05000644,-0.1256771174929898,51.51101813342815
Penny Farthing,Crayford,Crayford,E05011222,0.178477669515047,51.4522983129489
Refectory,Golders Green,Childs Hill,E05000045,-0.1964380947942111,51.57409544095807
East India Arms,London,Aldgate,E05009289,-0.0787334211477381,51.51250665020013
Duke Of Edinburgh,London,Noel Park,E05000275,-0.1129392928166846,51.594975646691104
Minories,London,Tower,E05009310,-0.0747470426780179,51.510660667850686
Violet Bar & Grill,Edgware,Canons,E05000286,-0.2804385549994465,51.61129796902347
Walker Briggs,Crystal Palace,Gipsy Hill,E05000422,-0.0821024866282724,51.41988171786112
Good Intent,South Hornchurch,Elm Park,E05000308,0.2028987341919269,51.54061255404694
Crown & Anchor,Upper Edmonton,Edmonton Green,E05000197,-0.0635728598153709,51.616436145157856
Shinner & Sudtone,Sutton,Sutton Central,E05000564,-0.1924884839934585,51.36156463820475
Sun Inn,Richmond,South Richmond,E05000528,-0.3028946761122861,51.46329412813349
Yates's,Romford,Romford Town,E05000319,0.1828736539474706,51.576311658040936
Loz Lounge,Cricklewood,Mapesbury,E05000095,-0.2195900553518821,51.559953183197706
Greyhound,Kensington,Queen's Gate,E05009401,-0.1893074738534548,51.50075882953462
Hand In Hand,Brixton,Brixton Hill,E05000417,-0.1270737773404665,51.44740792491853
Ship,Mortlake,Mortlake and Barnes Common,E05000525,-0.2686105758690214,51.47146195678586
Lansdowne,London,Camden Town with Primrose Hill,E05000130,-0.1540913219742156,51.54179205415582
Belgo,Bromley,Bickley,E05000106,0.0356368075582628,51.40373227354228
Olde Swiss Cottage,Hampstead,Swiss Cottage,E05000144,-0.1744997252870194,51.5424530551717
Craft Beer Co.,Limehouse,Shadwell,E05009332,-0.0401764526849262,51.51260584936271
64th & Social,Clapham,Clapham Town,E05000419,-0.1336241335934398,51.46359147957078
Stag,London,Hampstead Town,E05000135,-0.1630498982495899,51.55317341406054
Bridge Tap,London,Borough & Bankside,E05011095,-0.0906993060255874,51.50449178278932
Carpenter's Arms,Bethnal Green,Weavers,E05009335,-0.0666268934125645,51.524078976285146
Planet Hollywood,London,St. James's,E05000644,-0.1324749411157703,51.50901326854248
Winchmore,Winchmore Hill,Southgate,E05000208,-0.1119966410237843,51.63821394703854
Dog & Fox,Wimbledon,Village,E05000472,-0.2176299829031144,51.4250963358954
Tommyfield,Kennington,Prince's,E05000427,-0.1103923017796927,51.4889385030205
Drayton Court Hotel,West Ealing,Ealing Broadway,E05000173,-0.3192735619871636,51.514715586432416
O'Neill's,Ilford,Ilford Town,E05011246,0.0712559984726691,51.55925145509396
Perfect Blend,Streatham,Streatham Wells,E05000432,-0.1269892237847618,51.437514490912406
Hydrant,London,Candlewick,E05009296,-0.0862910377429355,51.51031018025496
Old White Horse,London,St. James's,E05000644,-0.1171656237766198,51.51472172606152
Eleanor Arms,Bow,Bow East,E05009319,-0.0330425309007123,51.53500412237781
Duke Of Cambridge,London,St. Peter's,E05000380,-0.0984080407102001,51.534248088494
Lamb,London,Holborn and Covent Garden,E05000138,-0.1189288321783029,51.52299636851711
Leman Street Tavern,London,Whitechapel,E05009336,-0.0702082950712896,51.51370648093229
Prince Alfred,Bayswater,Lancaster Gate,E05000638,-0.1874579918838946,51.51323006097552
Ahir LorenzoÃÂ¢ÃÂÃÂs,Finchley,West Finchley,E05000061,-0.1954911260976516,51.60272189134649
Apna Lounge,Alperton,Alperton,E05000085,-0.2852918857261337,51.54302698922774
Compasses [Harvester],Hornchurch,St. Andrew's,E05000320,0.2092243812168537,51.55778721815864
Goldengrove,Stratford,Stratford and New Town,E05000492,0.0040521559310448,51.54406167412191
Meantime Brewery Tasting Rooms,Greenwich,Peninsula,E05000225,0.0079780860907796,51.48943476480255
King's Head,Roehampton,Roehampton and Putney Heath,E05000621,-0.2394695620753239,51.45044405780431
Admiral Duncan,London,West End,E05000649,-0.1321979246527238,51.51296565638997
Nags Head,Welling,Falconwood & Welling,E05011226,0.1126168346037146,51.46202013047176
Swan,Hampton Wick,Hampton Wick,E05000522,-0.3110309974745299,51.41292814931983
Portman,London,Bryanston and Dorset Square,E05000632,-0.1611493582432988,51.51517666697266
Back Room Bar,London,West End,E05000649,-0.1491226085288753,51.50396246244067
Festival Square,London,Bishop's,E05000416,-0.1168000037103364,51.50576806771635
Pie & Pint Bar,Hayes,Hayes and Coney Hall,E05000119,0.0068956372064088,51.376107842704585
Old Bull & Bush,Hampstead,Hampstead Town,E05000135,-0.1825566658567864,51.56754142996851
Inamo,London,West End,E05000649,-0.1344853404697845,51.51447686169973
Cocktail Embassy,Upper Norwood,Crystal Palace & Upper Norwood,E05011467,-0.0793541865393844,51.41956689594249
Cock,Kennington,Oval,E05000426,-0.1117799266491924,51.48673065841575
Powerleague Wembley,Wembley,Tokyngton,E05000102,-0.2780793898038013,51.55873926412893
Best Western Palm Hotel,Cricklewood,Childs Hill,E05000045,-0.2042861633272665,51.56354177459568
Rosendale,Dulwich,Thurlow Park,E05000434,-0.0946444855290679,51.436822083547895
Lord Northbrook,Lee,Lee Green,E05000447,0.0120924609130267,51.45102773905693
Hoop & Grapes,Tower Hill,Portsoken,E05009308,-0.0742508735742966,51.51422262014057
Lost & Co,Battersea,Latchmere,E05000617,-0.1566246484667959,51.47409004560275
William Butler Yeats,Finsbury Park,Finsbury Park,E05000371,-0.1109931993244666,51.565997591731225
Mabel's Tavern,London,King's Cross,E05000141,-0.1274976731363871,51.527764702420384
Woolwich Equitable,Woolwich,Woolwich Riverside,E05000230,0.0685931173815632,51.4903593501753
Moloneys,Willesden,Willesden Green,E05000105,-0.2422595210683515,51.54897314734286
Bloated Mallard,Hampton Hill,Fulwell and Hampton Hill,E05000518,-0.3566395983405909,51.4263100704454
London Welsh Centre,London,King's Cross,E05000141,-0.1170132512363227,51.525051956733705
Balls Brothers (Mark Lane),London,Billingsgate,E05009291,-0.0807563327848199,51.51066931547907
Howl At The Moon,London,Hoxton East & Shoreditch,E05009377,-0.0798883902445924,51.53335258904389
Number Ten,Romford,Romford Town,E05000319,0.1801446889649281,51.57598468304023
Prince of Wales,Merton,Abbey,E05000455,-0.1926738902065954,51.409759338525454
Joker of Penton Street,London,Barnsbury,E05000366,-0.1111853454479108,51.53350135840124
Richmond Vault Beer Cellar & Restaurant,Richmond,South Richmond,E05000528,-0.3062799897210589,51.458954700225725
Hare & Hounds,Greenford,Greenford Broadway,E05000177,-0.3671296171816653,51.531847490846125
Everest Lounge,Wealdstone,Marlborough,E05000296,-0.3317612259402557,51.594170802473
Elliotts,Purley,Purley & Woodcote,E05011476,-0.1156984097642263,51.33840381152497
Bar Rollerbowl,Collier Row (Romford),Chadwell Heath,E05000029,0.1474794624341583,51.59548079899458
Barrio,London,St. Mary's,E05000379,-0.1003555173656651,51.53768787809447
Heathcote & Star,Leytonstone,Grove Green,E05000596,0.00284313284553,51.565134155660495
Miller,London,London Bridge & West Bermondsey,E05011104,-0.087573139746411,51.50206676439522
BrewDog Angel,London,St. Mary's,E05000379,-0.1013702225614591,51.536868006214526
Crabtree,Hammersmith,Fulham Reach,E05000255,-0.223328380744951,51.48289813375339
Grapeshots,London,Spitalfields & Banglatown,E05009333,-0.0773885927514415,51.518087047813616
Teddington Arms,Teddington,Teddington,E05000530,-0.3329097825484104,51.4269819077345
Rose & Crown,London,Clissold,E05009369,-0.0840029661437193,51.561045134756384
Princess of Wales,London,St. James's,E05000644,-0.1238033970697913,51.508218413681824
Old Crown,London,Holborn and Covent Garden,E05000138,-0.1251871727847073,51.516981480066136
Latchmere,Battersea,Latchmere,E05000617,-0.1656823639099881,51.4719299641231
Oslo,Hackney,Hackney Central,E05009372,-0.0574227035405633,51.547945908965
Kings Arms,London,West End,E05000649,-0.1461008573106759,51.50634276967416
Alma,Sidcup,Sidcup,E05011230,0.1033243023467555,51.432141723200616
Frankie's Sports Bar & Diner,Fulham,Parsons Green and Walham,E05000260,-0.1902725608065024,51.48112478314386
New Inn,St John's Wood,Abbey Road,E05000630,-0.1662289569249263,51.53546269420637
White Horse & Bower,London,St. James's,E05000644,-0.1312168887592912,51.49503651899408
Globe Bar at Clayton Hotel,Chiswick,Turnham Green,E05000365,-0.2784325772036952,51.49245156938584
Suttons Radio,Lewisham,Lewisham Central,E05000448,-0.0108067322794109,51.4602942555661
Troy Bar,London,Hoxton East & Shoreditch,E05009377,-0.0800114707559086,51.527689261898686
High Cross,London,Tottenham Hale,E05000281,-0.069705838621951,51.58933498601974
Merchant,Isle of Dogs,Canary Wharf,E05009323,-0.0216875287797077,51.50591046460607
Druids Head,Kingston,Grove,E05000408,-0.3067414073233768,51.40915235745145
W12 Studios,Shepherds Bush,College Park and Old Oak,E05000253,-0.2278494256881931,51.51337959064762
Duke's Head,Walthamstow,Wood Street,E05000609,-0.0044615167629699,51.58812652316633
Asylum Tavern,Peckham,Old Kent Road,E05011109,-0.0592600241154942,51.477986273312425
TJ's Sports Bar,Wealdstone,Marlborough,E05000296,-0.3352045760001753,51.59634195780817
Wright Brothers Oyster & Porter House,London,Borough & Bankside,E05011095,-0.0916307849965948,51.50564902290041
Dead Dolls House,London,St. Mary's,E05000379,-0.1033232067479867,51.54260993769618
Botanist,London,Royal Hospital,E05009403,-0.1565932489055815,51.49309103289611
Grosvenor,Hanwell,Elthorne,E05000176,-0.3290668678085321,51.50624969967139
Princes Head,Richmond,South Richmond,E05000528,-0.3065710967788978,51.46042469357136
Prince of Wales,Cheam,Cheam,E05000560,-0.2177691999918244,51.36083699748957
Ferry Boat Inn,London,Tottenham Hale,E05000281,-0.0550240499372517,51.58764455532505
Castle,North Acton,East Acton,E05000175,-0.2591041177867007,51.5225882105653
Cut,London,Bishop's,E05000416,-0.1072918471053342,51.50327690619449
Bumpkin,Stratford,Stratford and New Town,E05000492,-0.0075465406346541,51.54299132380806
Crown & Two Chairmen,London,West End,E05000649,-0.1324499430216291,51.51385095558671
Calthorpe Arms,London,King's Cross,E05000141,-0.1159620175510566,51.52467536850442
Rose & Crown,Heston,Heston East,E05000356,-0.3731213542230718,51.48631224908611
Archers,Gidea Park,Squirrel's Heath,E05000322,0.2008907100062192,51.58658658609356
Gazette,Balham,Balham,E05000610,-0.1504484126238068,51.445908611522725
Red Lion,London,Bishopsgate,E05009292,-0.0857787164764575,51.51874597190679
Pipe Major,Dagenham,Eastbrook,E05000030,0.165755505327915,51.54590858198748
Castle,Surbiton,Berrylands,E05000401,-0.2930040153404165,51.389573516305866
Malt Shovel,Cowley,Uxbridge South,E05000341,-0.4855588370863908,51.52913839898902
Butchers Arms,High Barnet,High Barnet,E05000056,-0.201378729563421,51.65580372551496
Magic Garden,Battersea,Queenstown,E05000620,-0.1507865445484835,51.475311054229095
Falcon,Eltham,Falconwood & Welling,E05011226,0.0804804383332858,51.45846710023426
Hemingford Arms,London,Barnsbury,E05000366,-0.1131151913514156,51.54296575586602
Garratt Tavern,Wandsworth,Fairfield,E05000614,-0.1909259840712416,51.452583054285576
Britannia,London,Bridge,E05009294,-0.0857740079012564,51.50992404781832
Horseshoe,South Harrow,Roxbourne,E05000301,-0.3742754604960634,51.56154931994183
Reliance,London,Hoxton East & Shoreditch,E05009377,-0.0815854909969484,51.52659995755643
Fox & Grapes,Wimbledon,Village,E05000472,-0.2306620888618868,51.4265886813494
Lord Herbert,Plumstead,Woolwich Common,E05000229,0.06950239355917,51.47990260713775
Cafe Provencal,Herne Hill,Dulwich Village,E05011100,-0.0993998088970441,51.45259186462978
Flying Horse,London,Hoxton East & Shoreditch,E05009377,-0.0849705538080284,51.52048634841941
George IV,Woolwich,Woolwich Riverside,E05000230,0.0606171816293192,51.49046383621296
All Bar One,Wimbledon,Hillside,E05000462,-0.2086768875724654,51.42267574583992
Ship,Isle of Dogs,Island Gardens,E05009324,-0.01860039364837,51.48806131245215
White Bear,Hounslow,Hounslow Central,E05000358,-0.3605968694140265,51.4760931130831
Pride of Paddington,Paddington,Hyde Park,E05000636,-0.1767900504350482,51.51474636200384
Theodore Bullfrog,London,St. James's,E05000644,-0.1239363256183548,51.50884103844548
Abercorn Arms,Teddington,Fulwell and Hampton Hill,E05000518,-0.3387014046881092,51.42951009706012
Meltdown,London,Caledonian,E05000368,-0.1166496549275272,51.54014491627375
Riverfront Bar,London,Bishop's,E05000416,-0.1159442539571714,51.50695036103757
Crown,Poplar,Limehouse,E05009326,-0.028706260139762,51.5115593178165
Revolution,Clapham,Clapham Town,E05000419,-0.1344163235704416,51.4628756805047
Builders Arms,Stratford,Stratford and New Town,E05000492,-0.001756535521065,51.53854039726035
Elephants Head,Clapton,Homerton,E05009376,-0.0527537254674846,51.5508899940714
Railway Hotel,Hornchurch,Hacton,E05000311,0.2191158323550504,51.554713697838366
Nag's Head,Walthamstow,Hoe Street,E05000601,-0.0107548104315916,51.583512466704256
Star & Garter,Putney,Thamesfield,E05000625,-0.2165684039128546,51.46714827708112
Island,Kensal Rise,Kensal Green,E05000092,-0.2265368679922301,51.53528372912557
Bell,London,Spitalfields & Banglatown,E05009333,-0.0754664028127059,51.51581631269078
Oval Tavern,Croydon,Addiscombe West,E05011463,-0.0885049257496179,51.37811642455444
Porterhouse,London,St. James's,E05000644,-0.1229385087917403,51.51067758043296
Drapers Arms,London,Barnsbury,E05000366,-0.1082395855407741,51.540558098949525
Craft Beer Co,London,Hoxton West,E05009378,-0.0862744020595197,51.52617303216021
EBB & Flow Cafe Bar,Sutton,Sutton Central,E05000564,-0.1924884839934585,51.36156463820475
Black Horse,Deptford,Evelyn,E05000443,-0.0341009465261402,51.48568747772074
King's Arms,Wandsworth,Fairfield,E05000614,-0.1942240637939918,51.45727414304629
Sir Richard Steele,London,Belsize,E05000128,-0.1586517037561401,51.54671074837246
Hereford Arms,South Kensington,Courtfield,E05009393,-0.1813572879391608,51.493081977329474
Stewart Arms,Notting Hill,Norland,E05009398,-0.2160858177191024,51.5057194417272
Moot Bar,Chiswick,Turnham Green,E05000365,-0.2739280665453097,51.4938601654104
Signal Box,London,Regent's Park,E05000142,-0.1332707770769363,51.52866604088394
Orchard,Croydon,Addiscombe West,E05011463,-0.0896037707990042,51.37795448953707
Dog & Truck,London,Whitechapel,E05009336,-0.0668590330211723,51.51315668749725
Cavern,Raynes Park,Raynes Park,E05000469,-0.2338844117106289,51.40980323267399
Joes,London,Haverstock,E05000136,-0.1519052121969262,51.54378099587176
Essex House,Chingford,Chingford Green,E05000593,0.0099880025634355,51.63389442001069
Colley Rowe Inn,Collier Row (Romford),Mawneys,E05000316,0.161046172808986,51.59900897831649
Holiday Inn Express,Colliers Wood,Colliers Wood,E05000457,-0.179581977689124,51.41752437669961
Mill,Kingston,Grove,E05000408,-0.3080913981045701,51.407247393880205
Hoop & Grapes,Fleet Street,Farringdon Within,E05009304,-0.1049034188717453,51.51534262219347
Prince of Wales,Belvedere,Belvedere,E05011218,0.1422486487900514,51.48360509585227
Brook House,Hayes,Charville,E05000328,-0.4200879119497866,51.53222199348728
White Horse,Brixton,Brixton Hill,E05000417,-0.1200024052200485,51.45489362381665
Lore of the Land,London,Bloomsbury,E05000129,-0.1396087586277292,51.5220851295593
Hawkes Cidery & Taproom,London,London Bridge & West Bermondsey,E05011104,-0.072572979092986,51.49934806333796
Gander,West Sutton,Cheam,E05000560,-0.2095999544879943,51.37105391468865
All Star Lanes,Shepherds Bush,Shepherd's Bush Green,E05000263,-0.2223450436267331,51.51039170291583
Elderfield,Clapton,Lea Bridge,E05009380,-0.0466190642523568,51.55368372781624
Fiddlers,Kentish Town,Haverstock,E05000136,-0.1514647839956343,51.54646286836912
Holborn Whippet,London,Holborn and Covent Garden,E05000138,-0.1213101874517946,51.518376280776856
Festival Inn,Poplar,Lansbury,E05009325,-0.0156272973324875,51.51239093305103
Commission,Heathrow Airport,Heathrow Villages,E05000331,-0.4473528536947876,51.45966718122641
Surrey Cricketers,Croydon,Fairfield,E05011468,-0.1005843785168162,51.36817792499301
Rose & Crown,Wallington,Wallington North,E05000569,-0.1550227550667395,51.36844489104989
Wolf,Norwood Green,Norwood Green,E05000186,-0.3757155466457073,51.496806483008974
Sugar Loaf,London,Cordwainer,E05009300,-0.0929085730417307,51.51231545305468
Earl Haig,Bexleyheath,West Heath,E05011233,0.1405556278537693,51.47298833119938
Fox on the Hill,Camberwell,Champion Hill,E05011097,-0.0898789982507915,51.46482921853156
Prince of Wales,Kensington,Campden,E05009390,-0.1908216154190809,51.50254475695375
Black Lion,Plaistow,Plaistow North,E05000489,0.0207519853931762,51.53102321548147
Fox & Firkin,Lewisham,Lewisham Central,E05000448,-0.0139753665816253,51.45727239649288
Barrio East,London,Hoxton East & Shoreditch,E05009377,-0.078248427723078,51.526419380338574
Black Horse,High Barnet,High Barnet,E05000056,-0.2041239794311485,51.653282913480254
Colby Arms,Gipsy Hill,Dulwich Wood,E05011101,-0.0834416234630316,51.425002564649965
City Boot,London,Bassishaw,E05009290,-0.094457568374629,51.51767333569172
Bottle Shop,London,London Bridge & West Bermondsey,E05011104,-0.0731886829678428,51.499439121788846
Chequers Tavern,London,St. James's,E05000644,-0.1377100115416969,51.50750479300277
Crown,Blackheath,Blackheath,E05000438,0.0072339323892074,51.46659665883347
Heeltap,London,London Bridge & West Bermondsey,E05011104,-0.0896295870942009,51.50457328428149
Queens Head,Hammersmith,Avonmore and Brook Green,E05000252,-0.21812110195238,51.49529194223941
Glory,Bethnal Green,Hoxton East & Shoreditch,E05009377,-0.077101507638525,51.53584276111115
Greenwich Tavern,Greenwich,Greenwich West,E05000222,-0.0077283881778395,51.48039501723382
Salt Bar,South Harrow,Harrow on the Hill,E05000289,-0.3454435138658187,51.56927560502387
Brownswood,Finsbury Park,Brownswood,E05009367,-0.0928747246102526,51.56417541404428
Imperial Arms,Chislehurst,Chislehurst,E05000111,0.0608085687903328,51.40876916789468
Orange Tree,Winchmore Hill,Winchmore Hill,E05000213,-0.0962196922242751,51.629155452997246
East Dulwich Tavern,East Dulwich,Goose Green,E05011103,-0.0749288060719041,51.45984532982746
Crown,Battersea,Shaftesbury,E05000623,-0.15602563870128,51.46572645922443
Wetherspoon Express,Heathrow Airport,Heathrow Villages,E05000331,-0.4872391389773695,51.47149256514529
Old Bank,Bermondsey (East),South Bermondsey,E05011116,-0.0631352832017136,51.4925648524132
Trinity Arms,Brixton,Ferndale,E05000421,-0.1187490360694686,51.46192387154306
Five Miles,South Tottenham,Tottenham Green,E05000280,-0.06472331598334,51.58326385289217
Stane Street Syndicate,Clapham,Clapham Town,E05000419,-0.138043433731716,51.4621869440256
Hand & Racquet,Wimbledon,Hillside,E05000462,-0.2077727412608911,51.42188855153604
Henry Holland,London,Marylebone High Street,E05000641,-0.1514385251801767,51.51473626754037
Waverley Arms,Nunhead,Peckham Rye,E05011111,-0.0465935214134513,51.46064432342781
Normanby,Putney,Thamesfield,E05000625,-0.2105838097622334,51.46297444421649
Arab Boy,Putney,West Putney,E05000629,-0.2263141370087196,51.46272774445592
Driver,London,Caledonian,E05000368,-0.1193974527283443,51.53366028663073
Cambria,Camberwell,Herne Hill,E05000423,-0.0975040021894464,51.46461151607061
Manor Arms,Streatham,St. Leonard's,E05000428,-0.1327887858569992,51.42795781046518
All Inn One,Forest Hill,Perry Vale,E05000450,-0.0518889063512001,51.43939232692441
Hero Of Switzerland,Brixton,Coldharbour,E05000420,-0.1052958654537174,51.46696795851282
Windsor Castle,London,Vincent Square,E05000646,-0.1377406493879302,51.495095325859005
Parish,Wembley,Tokyngton,E05000102,-0.2831161424256857,51.56175353914475
Wrestlers,Highgate,Highgate,E05000272,-0.149323716256773,51.57434194075839
Olde London,London,Farringdon Within,E05009304,-0.1017892661981807,51.51397932697896
Broadway Bar Cafe,Surbiton,Alexandra,E05000400,-0.2818137056223731,51.38057009049925
Rumours,Worcester Park,Nonsuch,E05000561,-0.2390812358848132,51.37706704238679
Pillars Brewery Tap,London,Wood Street,E05000609,-0.0081112315949244,51.58389023786152
North Pole,Greenwich,Greenwich West,E05000222,-0.0147218408351341,51.47754597588651
Plough,Ealing,Northfield,E05000182,-0.312723556363904,51.4973560457486
Southwark Tavern,London,Borough & Bankside,E05011095,-0.0916361685665613,51.5048307695208
Colton Arms,West Kensington,North End,E05000258,-0.2105075653811654,51.48664200903779
Kings Head,Finsbury Park,Highbury West,E05000373,-0.1005959927632029,51.562043682031714
Coach & Horses,Carshalton,Carshalton Central,E05000558,-0.1611753380395215,51.365124225224136
Biagio @ Bankside,London,Borough & Bankside,E05011095,-0.0955743384848373,51.506108805388784
East Putney Tavern,Putney,Thamesfield,E05000625,-0.2118552972461632,51.45990932205687
Bleeding Heart Tavern,London,Holborn and Covent Garden,E05000138,-0.1070564832929816,51.51937916263704
New Inn,Burnt Oak,Queensbury,E05000099,-0.2663677942676008,51.59923048080051
Miller & Carter Woodford Green,Woodford Green,Monkhams,E05011249,0.0211675438804008,51.60939564023493
Taproom,London,St. Mary's,E05000379,-0.1029933294828608,51.54083305342915
Tigers Head,Chislehurst,Chislehurst,E05000111,0.069008550799665,51.409488023390544
Oxymoron at the Royal Oak,Kennington,Bishop's,E05000416,-0.1128794950677523,51.49324110244771
One Kew Road,Richmond,South Richmond,E05000528,-0.3017283060021183,51.4640775807209
Lamb & Flag,London,Marylebone High Street,E05000641,-0.1504226301895163,51.51490909975218
Hope & Anchor,London,St. Mary's,E05000379,-0.103484983551333,51.543574760997146
Royal Court Cafe Bar & Kitchen,London,Royal Hospital,E05009403,-0.1563965223960849,51.49261132702434
Old Ale Emporium,Finsbury Park,Harringay,E05000271,-0.0991036294501488,51.57777441235591
Windsor Castle,Maida Vale,Little Venice,E05000639,-0.1788558145425095,51.52546172174378
Sportsman,Stratford,Stratford and New Town,E05000492,0.0019285283981927,51.54167892636549
Little Fable,London,Farringdon Within,E05009304,-0.104000491532311,51.5152201192352
Custom House (Pub & Kitchen),Royal Docks,Custom House,E05000479,0.0280445935022981,51.51019552317092
Patch Bar,London,Farringdon Within,E05009304,-0.1016016302002673,51.51329283861646
Ashbys,West Ealing,Walpole,E05000192,-0.3158691221701676,51.51128561973289
Hiver Beers,London,London Bridge & West Bermondsey,E05011104,-0.0745553678577405,51.49846338744889
Railway Telegraph,Thornton Heath,Bensham Manor,E05011464,-0.1015569668789778,51.39779797899061
Chilled Eskimo,North Kensington,Golborne,E05009396,-0.2114874573074515,51.52488463840313
Joiners,Finchley,West Finchley,E05000061,-0.1915112170217728,51.60330804261582
Great Western,Hayes,Pinkwell,E05000337,-0.4305598165179532,51.49728387677739
Ordnance Arms,St John's Wood,Abbey Road,E05000630,-0.1718168753946218,51.535990539412936
Orchard,Brockley,Brockley,E05000439,-0.0344024417686424,51.4639476647597
Bow Bells,Bow,Bromley North,E05009321,-0.0203020823412797,51.527883613431165
Panthers,Alperton,Alperton,E05000085,-0.2974635862148376,51.54186423525115
Horton Lounge,Yiewsley,Yiewsley,E05000345,-0.4624902502933289,51.5112314127738
Sourced Market,Barbican,Bunhill,E05000367,-0.0975624347668813,51.52168055995925
Talbot Freehouse,Upper Edmonton,Haselbury,E05000201,-0.0767647735543699,51.61634749162389
Mudlark,London,Borough & Bankside,E05011095,-0.0891738424276019,51.50616656990372
Horn Of Plenty,London,Bethnal Green,E05009317,-0.0464150491766446,51.5224129809081
Globe,Homerton,Homerton,E05009376,-0.0537743614576168,51.54589801981597
Hillgate,Kensington,Campden,E05009390,-0.197720238592142,51.5081005094385
Olde Black Bull,Stratford,Stratford and New Town,E05000492,0.0026311019390842,51.54092952378111
Country House,Earlsfield,Earlsfield,E05000612,-0.1893201134748162,51.4418748402076
Pavilion,Sydenham,Sydenham,E05000452,-0.0549694025016878,51.42682647351582
Greyhound,Keston,Bromley Common and Keston,E05000108,0.0285845848908201,51.36354958268832
Ask for Janice,London,Farringdon Within,E05009304,-0.0998848881504311,51.51921824415994
Tankard,Kennington,Prince's,E05000427,-0.1104772167190194,51.494200619124754
Elmhurst,London,Bruce Grove,E05000268,-0.0764760099125897,51.59823187923367
Mitre Hotel,Greenwich,Greenwich West,E05000222,-0.009754104772919,51.48017761644455
Shoreditch,London,Hoxton East & Shoreditch,E05009377,-0.078248427723078,51.526419380338574
Crown,London,West End,E05000649,-0.1363048447818094,51.511214451474935
Crown of Bromley,Bromley,Bromley Town,E05000109,0.0253732154421969,51.39531301457341
Green Man,Hatton,Feltham North,E05000351,-0.4161621778377447,51.46540956136767
Argyle,London,Holborn and Covent Garden,E05000138,-0.1084925955503164,51.51915952196397
Duke,Deptford,Greenwich West,E05000222,-0.0211713252806051,51.48158491664216
Railway,Streatham,Streatham South,E05000431,-0.1342652333153152,51.41854790041317
Lamb,Surbiton,St. Mark's,E05000412,-0.3120230635913518,51.39221409852122
Jolly Coopers,Hampton,Hampton,E05000520,-0.3612178186899312,51.41413551262058
Botanist,Kew,Kew,E05000524,-0.2891479804549236,51.48366060365392
Eagle Ale House,Battersea,Northcote,E05000619,-0.1636836969587593,51.454992457865664
White Horse,Bromley,Plaistow and Sundridge,E05000125,0.0208942299546135,51.408825391898354
Rose & Crown,Enfield,Chase,E05000195,-0.083674103866675,51.67138654563578
Weaver's Bar,High Barnet,Oakleigh,E05000058,-0.1861657138812071,51.646118689259566
Three Johns,London,Barnsbury,E05000366,-0.1085412801014849,51.5329371723991
Kitty Hawk,London,Coleman Street,E05009299,-0.0862229054199231,51.51846545723894
White Horse,London,West End,E05000649,-0.1337336667401029,51.51206384976317
Railway,Teddington,Teddington,E05000530,-0.3326628813785806,51.42388503137762
Bodean's,Clapham,Clapham Town,E05000419,-0.1363026220558022,51.462159286602656
Wings Sports Bar,Welling,Falconwood & Welling,E05011226,0.1160132076637278,51.46043906251152
Blue Zenzer,Northwick Park,Northwick Park,E05000096,-0.3232385408588829,51.57235085507757
Coach & Horses,Ickenham,Ickenham,E05000333,-0.44310387000261,51.564578320398425
Cow,Westfield Stratford City,Stratford and New Town,E05000492,-0.0073071648690871,51.542528631386205
Maid Of Muswell,Muswell Hill,Alexandra,E05000266,-0.1386439558733903,51.598731412322216
Dartmouth Arms,Forest Hill,Forest Hill,E05000444,-0.0541295954068746,51.4377928601377
Ignition Brewery Taproom,Sydenham,Sydenham,E05000452,-0.0517418491413562,51.42593650115526
Pelt Trader,Cannon Street,Dowgate,E05009303,-0.0902574629989909,51.51126512084689
Colonies,London,St. James's,E05000644,-0.1392513403129995,51.49868042092239
Lady Hamilton,London,Kentish Town,E05000139,-0.1413600117467999,51.54880323018056
Tank & Paddle,London,Bishopsgate,E05009292,-0.079241247608824,51.520644375839474
Bricklayer's Arms,Putney,Thamesfield,E05000625,-0.2174706218561627,51.46616379657716
Atlas,Fulham,Fulham Broadway,E05000254,-0.1961922735804132,51.486224873989286
Molly Bloom's,Hackney,De Beauvoir,E05009371,-0.076099558371606,51.54558320125922
Salusbury,Queen's Park,Queens Park,E05000098,-0.2054915221568323,51.5354852857776
Queens Arms,South Kensington,Queen's Gate,E05009401,-0.1809164239578418,51.49981065631385
Blue Boat,Hammersmith,Fulham Reach,E05000255,-0.225195783115449,51.48599289647572
Grange Rochester Hotel Bar,London,Vincent Square,E05000646,-0.1363276973229139,51.49441641239049
Fox @ Excel,Royal Docks,Canning Town South,E05000478,0.0250055246067436,51.50893509723794
Arcola Bar,Hackney,Dalston,E05009370,-0.0753289133060511,51.54709927798656
Slug & Lettuce,London,St. Katharine's & Wapping,E05009330,-0.0727772391950476,51.50679739378998
Mansion House,Kennington,Prince's,E05000427,-0.1053627138589327,51.48934296329865
Lyttelton Arms,London,Regent's Park,E05000142,-0.1392700827406099,51.534984298142206
Rose & Crown,Kentish Town,Kentish Town,E05000139,-0.1328918085555331,51.550251514147405
Blind Beggar,London,Spitalfields & Banglatown,E05009333,-0.0576312594225826,51.52001842733436
Plough,Sipson,Heathrow Villages,E05000331,-0.4578444017916614,51.49348265431056
Wheatsheaf,London,Borough & Bankside,E05011095,-0.091048149064845,51.50510896855376
Fox & Duck,Petersham,"Ham, Petersham and Richmond Riverside",E05000519,-0.3027762170299669,51.44513649068882
No 1 Duke Street,Richmond,South Richmond,E05000528,-0.3042552333774045,51.46154227492266
Winning Post,Sutton,Sutton Central,E05000564,-0.1952706024587158,51.36789347550247
Bull,London,Bishopsgate,E05009292,-0.0801915649232631,51.51690100278781
Belvedere,Acton,Acton Central,E05000170,-0.2685645126564228,51.50690128469604
BrewDog,London,West End,E05000649,-0.1371128074795628,51.51507616737109
Juno,London,Hoxton East & Shoreditch,E05009377,-0.078248427723078,51.526419380338574
Cross Keys,Hammersmith,Ravenscourt Park,E05000261,-0.2426836627253308,51.49230821989029
Bar Smith,London,Bunhill,E05000367,-0.1014245204706001,51.52032231668091
Dolphin,London,King's Cross,E05000141,-0.1246586790339367,51.5287894954942
Blues Kitchen,London,Hoxton East & Shoreditch,E05009377,-0.0799723130001151,51.52656454334939
Greenes,Neasden,Welsh Harp,E05000103,-0.2546948505699168,51.561343498853766
Jerusalem Tavern,Farringdon,Clerkenwell,E05000370,-0.1039344396290179,51.52166685943738
Brockley Brewery,Brockley,Brockley,E05000439,-0.0364462841950295,51.46228227163642
Flying Machine,Biggin Hill,Biggin Hill,E05000107,0.0262306623621539,51.31116928520677
Rising Sun,Forest Gate,Manor Park,E05000488,0.0370952927408942,51.547997351062975
Rileys Sports Bar,London,St. James's,E05000644,-0.1317565321124723,51.50790471596901
Brent Valley Golf Course Bar,Hanwell,Hobbayne,E05000180,-0.3382454499680227,51.51378084383428
Duke Of York,Hanwell,Elthorne,E05000176,-0.3382571787873738,51.50910495045844
Defector's Weld,Shepherds Bush,Shepherd's Bush Green,E05000263,-0.2230998180994096,51.505070512441606
Mr Fogg's Tavern,London,St. James's,E05000644,-0.1268089671311668,51.5108293809112
Quinns,London,Camden Town with Primrose Hill,E05000130,-0.1419733450069305,51.543309416963815
Wandle Arms,Croydon,Waddon,E05011487,-0.1082880173928972,51.37403098519846
Beany Green,London,Bishopsgate,E05009292,-0.0837628717939453,51.5186950467637
Zoo Too,London,St. James's,E05000644,-0.1289556166606397,51.51084565656433
Plough on the Pond,Thornton Heath,West Thornton,E05011488,-0.1141028920359824,51.39440337434485
K K Mccools,South Tottenham,St. Ann's,E05000277,-0.0889038265604639,51.58628632060334
King's Head,Enfield,Town,E05000210,-0.0826402562734366,51.65271057003994
Waters Edge,Ruislip,West Ruislip,E05000343,-0.4327584264605887,51.59103069066271
Enterprise,London,Holborn and Covent Garden,E05000138,-0.1173257787669703,51.52027282695372
Ship,Gidea Park,Pettits,E05000317,0.2005178021097048,51.58693532018485
Browns Bar & Brasserie,London,West End,E05000649,-0.1437956047337021,51.51235840189237
Britannia,London,Bunhill,E05000367,-0.0942191484914832,51.52683303561599
Benet Club,Ealing,Ealing Broadway,E05000173,-0.3073960673411229,51.51981449153097
Railway Bell,South Woodford,South Woodford,E05011252,0.0282255502332792,51.59179224771514
T E Dingwall Building,London,Camden Town with Primrose Hill,E05000130,-0.1456935184208356,51.54155173789911
Masons Arms,London,West End,E05000649,-0.1425804304514231,51.51282477154483
DRFO,Finsbury Park,Brownswood,E05009367,-0.1003666304568938,51.56235470490717
New Inn,Ham,"Ham, Petersham and Richmond Riverside",E05000519,-0.3048557671053741,51.4371723554975
King & Tinker,Enfield,Chase,E05000195,-0.0671265247498114,51.68062026887202
Wolfgang's Beer Haus,Balham,Balham,E05000610,-0.1504484126238068,51.445908611522725
Five Bells,East Finchley,East Finchley,E05000049,-0.1717877894921805,51.59031388201981
White Swan,London,Whitechapel,E05009336,-0.0712210345071605,51.513615241989726
Duke of Edinburgh,Lee,Lee Green,E05000447,0.0105439117203716,51.456405040368246
New Inn,Ealing,Walpole,E05000192,-0.3063382966287734,51.50481776877772
Hollywood Arms,Chelsea,Redcliffe,E05009402,-0.1842928504665755,51.4862750558456
Forester,West Ealing,Walpole,E05000192,-0.3210796331286616,51.50597380248598
Plumbers Arms,London,Knightsbridge and Belgravia,E05000637,-0.1478971273837102,51.496874846882726
Three Lords,London,Tower,E05009310,-0.0753397932746774,51.51232506339441
Gunmakers,London,Holborn and Covent Garden,E05000138,-0.1105281422008427,51.52256460593096
Leytonstone Tavern,Leytonstone,Cann Hall,E05000590,0.0124968558321172,51.55927648700279
Greyhound [Harvester],Chadwell Heath,Chadwell,E05011237,0.1204528800173844,51.56857020227943
Watchman,New Malden,Beverley,E05000402,-0.2551994914503802,51.39910656019209
Kings Head,Bayswater,Lancaster Gate,E05000638,-0.1891486084350514,51.51239287778208
John Baird,Muswell Hill,Muswell Hill,E05000274,-0.1459943593442162,51.59019703270246
Royal Standard Hotel,Royal Docks,Royal Docks,E05000491,0.0635762205613929,51.50016004509837
Orange Tree,Richmond,South Richmond,E05000528,-0.3017283060021183,51.4640775807209
Albert Tavern,South Norwood,Woodside,E05011489,-0.0669217321758972,51.397204242605895
Hercules Pillars,London,Holborn and Covent Garden,E05000138,-0.1207294009040556,51.51602886346584
Talbot,Brockley,Brockley,E05000439,-0.0242548631107452,51.466232107263096
Bridge House,Maida Vale,Westbourne,E05000648,-0.1845556912424851,51.52061310725376
Purple Flame,Queensbury,Queensbury,E05000299,-0.295081519211033,51.59631441464978
Browns,London,North Bermondsey,E05011106,-0.0726557749977196,51.50318931779274
Funky Brownz,Hornsey,Hornsey,E05000273,-0.1121178703634694,51.585880065813406
Young Prince,Bow,Bow West,E05009320,-0.0340103210229572,51.53195383495275
Magpie & Stump,London,Farringdon Within,E05009304,-0.1024593824335934,51.51588764622559
Greyhound,Woolwich,Woolwich Riverside,E05000230,0.0555765466383198,51.49241384466017
De Beauvoir Arms,London,Canonbury,E05000369,-0.0854704211121568,51.54086281793531
Old Kings Head,London,Hoxton East & Shoreditch,E05009377,-0.0823166504448285,51.522924930460576
Distillers,Hammersmith,Hammersmith Broadway,E05000256,-0.2237280142860212,51.49040405161157
Ship,London,West End,E05000649,-0.1408182196688286,51.52035072647548
Raven,Hammersmith,Ravenscourt Park,E05000261,-0.2447145131418477,51.49419109820401
Bull,Romford,Romford Town,E05000319,0.1829509351452477,51.57943078905056
Balham Lounge,Balham,Bedford,E05000611,-0.1493333511360265,51.44180828797142
Rochester Castle,Stoke Newington,Stoke Newington,E05009385,-0.0742094641208496,51.56132521955893
McGettigan's,Fulham,Town,E05000264,-0.1965080981683858,51.48004280958558
Thornhill Arms,London,Barnsbury,E05000366,-0.1169721349367491,51.53443072722083
City Barge,Chiswick,Chiswick Riverside,E05000349,-0.2790432708264991,51.4850325780268
St James of Bermondsey,Bermondsey (East),North Bermondsey,E05011106,-0.0660385300218462,51.49544550110927
MAP Maison,Hackney,Haggerston,E05009375,-0.0769840615382186,51.53862851134287
Three Compasses,Hackney,Dalston,E05009370,-0.067904185955679,51.548388889877074
Brockley Barge,Brockley,Brockley,E05000439,-0.0366962677757046,51.4645077112348
BrodieÃÂ¢ÃÂÃÂs (Bar & Kitchen),Isle of Dogs,Canary Wharf,E05009323,-0.0200825700092982,51.50570350960537
Drill,Gidea Park,Emerson Park,E05000309,0.2073482134543294,51.57685171151845
Wellington,Hornsey,Harringay,E05000271,-0.101027486399877,51.58633044996104
Jamies,London,Tower,E05009310,-0.0754754707606614,51.511499962512254
68 & Boston,London,West End,E05000649,-0.1311874111287092,51.51476609168294
Old Orchard,Harefield,Harefield,E05000330,-0.4907112805792058,51.60347128295432
Bridge Tavern,Mill Hill,Mill Hill,E05000057,-0.2489537112627748,51.614268123358535
Alexandra,Penge,Penge and Cator,E05000123,-0.0496094930978157,51.416215674209255
Ladbroke Arms,Notting Hill,Pembridge,E05009400,-0.2026956269616896,51.50910309323221
Misty Moon,Northwood,Northwood,E05000335,-0.4259230279084637,51.61210767032373
L'Affaire,Wandsworth,Fairfield,E05000614,-0.1969844005833768,51.45736156483525
Chapel Down Gin Works,London,St. Pancras and Somers Town,E05000143,-0.1240032178483436,51.53456134618175
Three Tuns,London,Marylebone High Street,E05000641,-0.1559433276236148,51.5145373930248
Dundee Arms,Bethnal Green,St. Peter's,E05009331,-0.0561225144431129,51.52903992907918
Earl of Lonsdale,Notting Hill,Colville,E05009392,-0.2033812152374486,51.51328617979719
Crown,Bromley Common,Bromley Common and Keston,E05000108,0.0345886489760397,51.3904683602918
Simmons,London,Whitechapel,E05009336,-0.0704925162911481,51.51039285185256
Cockpit,London,Farringdon Within,E05009304,-0.1012845744746751,51.51294597926421
All Bar One,London,Tower,E05009310,-0.0791102870755395,51.509716095549535
Albion,Woolwich,Woolwich Riverside,E05000230,0.0484641565551342,51.49218761935338
John the Unicorn,Peckham,Rye Lane,E05011113,-0.0673190680116347,51.46857804213403
White Horse,Shepherds Bush,Shepherd's Bush Green,E05000263,-0.2275762204919581,51.50556987348477
Bar 57,Greenwich,Greenwich West,E05000222,-0.0184036355535373,51.47533305127424
London Beer Factory Brewery Tap Room,West Norwood,Gipsy Hill,E05000422,-0.0887141017042042,51.42826319391511
Union,Battersea,St. Mary's Park,E05000622,-0.1683287622891738,51.47704317219174
American Bar,London,St. James's,E05000644,-0.1403544488039827,51.50591007670818
Corner Pin,Erith,Slade Green & Northend,E05011231,0.192816590010469,51.47157271606765
Roebuck,Richmond,"Ham, Petersham and Richmond Riverside",E05000519,-0.2982683093674341,51.4522021941375
Resting Hare,London,King's Cross,E05000141,-0.1294414216584456,51.52641981889124
Rebel Inn,Streatham,St. Leonard's,E05000428,-0.1285225879344335,51.435200868319214
Nightingale,Sutton,Sutton Central,E05000564,-0.1852304922836631,51.36275631990813
Barrowboy & Banker,London,Borough & Bankside,E05011095,-0.0887710105939303,51.50615101333809
Wishing Well,Chingford,Valley,E05000607,-0.0189216945745309,51.61677858776857
Halfway To Heaven,London,St. James's,E05000644,-0.1263867706008278,51.50847553348368
London Pub,London,Bloomsbury,E05000129,-0.1271638368238396,51.52325401369018
Kennington,Camberwell,Vassall,E05000436,-0.1058458115225258,51.479072098597705
Coach & Horses,Clapham,Ferndale,E05000421,-0.1312143721726753,51.459848094813296
Henry's Cafe Bar,London,West End,E05000649,-0.1432603862413425,51.50673848102527
Slug & Lettuce,London,St. James's,E05000644,-0.135426899488909,51.49707293347778
Spencer,Putney,Thamesfield,E05000625,-0.2268913070040443,51.46826698940637
Princess Of Prussia,London,Whitechapel,E05009336,-0.0705022553618695,51.51152609363184
Earl Of Essex,London,St. Peter's,E05000380,-0.0994921091580308,51.53418473786321
Dublin Castle,London,Camden Town with Primrose Hill,E05000130,-0.145674275395407,51.53741479298039
Castle,London,Whitechapel,E05009336,-0.0693254232111035,51.51481602651052
Eva Hart,Chadwell Heath,Chadwell,E05011237,0.1299957529472294,51.57051978628365
Horns Tavern,West Norwood,Knight's Hill,E05000424,-0.1041402645800924,51.43265955044882
Wellington,Fulham,Fulham Broadway,E05000254,-0.2021333995722256,51.48275502114127
Lord Clyde,London,Borough & Bankside,E05011095,-0.095681981644766,51.50283718503231
Lord Moon of the Mall,London,St. James's,E05000644,-0.127506981228315,51.50646106509365
White Lion,London,St. James's,E05000644,-0.1241028430167719,51.51285446480484
Real Ale Way,Hayes,Hayes and Coney Hall,E05000119,0.0115351462891212,51.376397039631904
Shepherd & Dog,Harold Wood,Harold Wood,E05000312,0.2449178007148761,51.591516758025605
Clerkenwell & Social,London,Clerkenwell,E05000370,-0.1032925991987452,51.52219604868394
Tap East,Westfield Stratford City,Stratford and New Town,E05000492,-0.0088673328747527,51.54411984567341
Gidea Park Micropub,Gidea Park,Squirrel's Heath,E05000322,0.2008907100062192,51.58658658609356
Globe,Brentford,Brentford,E05000347,-0.310032194396507,51.49066282835766
Beech Tree,St Mary Cray,Cray Valley East,E05000114,0.1112420374048779,51.38479564386403
Slatterys,London,Cantelowes,E05000131,-0.138054073857657,51.54251888707018
Golden Fleece,Manor Park,Manor Park,E05000488,0.0450818291661224,51.554665765560095
No.8,South Tottenham,Seven Sisters,E05000278,-0.0819929087707139,51.57831401216325
Carpenters Arms,London,Bloomsbury,E05000129,-0.1365070339747923,51.52179309536889
Wonder,Enfield,Chase,E05000195,-0.0854701482673698,51.663430644725935
Suburb SW11,Battersea,Latchmere,E05000617,-0.1699649780884637,51.46601677239824
Revolution,Putney,Thamesfield,E05000625,-0.2178358116089886,51.46122334457453
Dogstar,Brixton,Coldharbour,E05000420,-0.1122666945253602,51.46167575768152
Prince Albert,Brixton,Coldharbour,E05000420,-0.113052012774551,51.46183228895342
Leigham Well,Streatham,Streatham Wells,E05000432,-0.1257123600536672,51.42933761921214
BrewDog Clapham Junction,Battersea,Northcote,E05000619,-0.1634493490275209,51.460834059388645
Joiners Arms,South Norwood,Woodside,E05011489,-0.0704918226039102,51.38684067276287
Crown & Anchor,London,Holborn and Covent Garden,E05000138,-0.1252395740210619,51.514302482981726
Sophie's,London,West End,E05000649,-0.1344661281832672,51.5110683164793
Tabernacle,Notting Hill,Colville,E05009392,-0.2015459660861366,51.51670223485792
Grove House,Camberwell,St. Giles,E05011115,-0.0881936213388921,51.47208593962343
Cocoanut,Kingston,Grove,E05000408,-0.2984764800990937,51.40635275378982
Two Brewers,Clapham,Clapham Town,E05000419,-0.1348214635715817,51.4631788857209
Kerridge's Bar & Grill,London,St. James's,E05000644,-0.1245559476940421,51.50673765508444
Yucatan,Stoke Newington,Stoke Newington,E05009385,-0.0748171178316644,51.55615543781354
Coach Makers Arms,London,Marylebone High Street,E05000641,-0.1506333290901407,51.51717857969479
Mannions Prince Arthur,South Tottenham,Tottenham Green,E05000280,-0.0642860744564261,51.58472241581624
Goose Island Brewpub,London,Hoxton East & Shoreditch,E05009377,-0.0782284730443207,51.52244429454535
Wandle,Earlsfield,Earlsfield,E05000612,-0.1900000755906689,51.44360295915449
Bluecoats,London,Tottenham Hale,E05000281,-0.0683228521883486,51.5960745239993
Yard Bars,London,West End,E05000649,-0.1338311774227097,51.51214633559235
Sutton Arms,Hornchurch,St. Andrew's,E05000320,0.2205317328944419,51.56127876733197
Owl & Hitchhiker,London,St. George's,E05000378,-0.124028197629765,51.56059550845457
All Bar One,Isle of Dogs,Canary Wharf,E05009323,-0.0204955850416375,51.50415469655614
Raynes Park Tavern,Raynes Park,Raynes Park,E05000469,-0.2310136126416072,51.40966999474017
Pelton Arms,Greenwich,Peninsula,E05000225,0.0028060372084906,51.48678937056391
Half Moon,London,Bethnal Green,E05009317,-0.045299154134781,51.52221454647792
Tarragon,Battersea,Shaftesbury,E05000623,-0.1517669898100553,51.46601012580687
Victoria,Barking,Abbey,E05000026,0.0793019095723246,51.53542220069264
Cricketers,Chessington,Chessington North and Hook,E05000404,-0.310781471051748,51.36773594860136
Fellow,London,Caledonian,E05000368,-0.1223795494916776,51.53127101247707
Clerk & Well,London,Holborn and Covent Garden,E05000138,-0.1108898760892092,51.52218374327554
Salt Quay,Rotherhithe,Surrey Docks,E05011117,-0.0475942052820552,51.50462711975096
Pawleyne Arms,Penge,Penge and Cator,E05000123,-0.0521291772057982,51.41411727195139
Antelope,Surbiton,St. Mark's,E05000412,-0.3076854995088513,51.39524506698586
Royal Oak,Kennington,Oval,E05000426,-0.1193204459855645,51.48620434989746
Revolution,Battersea,Shaftesbury,E05000623,-0.166775485242583,51.4640515199688
Moncada Brewery Tap Room,Cricklewood,Dollis Hill,E05000088,-0.2287596254254719,51.56603606449789
Jolly Gardeners,Mortlake,Mortlake and Barnes Common,E05000525,-0.2686237361522058,51.46959168964569
Cottons,Vauxhall,Oval,E05000426,-0.1261267007575068,51.48566582812531
All Bar One,London,Bishopsgate,E05009292,-0.0801557207396392,51.51843816646566
Funky Brownz,Belmont,Belmont,E05000285,-0.3185912968661744,51.601671407236864
Cock Tavern,Fulham,Fulham Broadway,E05000254,-0.1994126854265437,51.48125647948551
African Queen,Hounslow,Hounslow Heath,E05000359,-0.3759443363490604,51.46157712160117
White Hart,Harlington,Heathrow Villages,E05000331,-0.4357918518927221,51.48921568453039
Lounge 33,London,Holborn and Covent Garden,E05000138,-0.11071806966342,51.51867380297081
Cittie Of Yorke,London,Holborn and Covent Garden,E05000138,-0.1128126546539048,51.51856363183822
Gipsy Hill Tavern,Gipsy Hill,Gipsy Hill,E05000422,-0.0836953145707801,51.42306426786735
Castle,Walthamstow,Hoe Street,E05000601,-0.0109772957064508,51.58072859417592
Moon on the Hill,Sutton,Sutton Central,E05000564,-0.1931582459447428,51.361700874595385
Royal Forest Hotel,Chingford,Chingford Green,E05000593,0.017568639221478,51.63441195864806
Flanagans of Battersea,Battersea,Queenstown,E05000620,-0.1443172598198283,51.47823938021302
Brewery Tap,Penge,Penge and Cator,E05000123,-0.0523285300932304,51.41585621718836
Fox,Twickenham,Twickenham Riverside,E05000531,-0.3270701704952122,51.44664582885849
Spring Grove,Kingston,Grove,E05000408,-0.2994399014305138,51.4032462102092
Nelson Arms,Merton,Abbey,E05000455,-0.1866820144837266,51.41582685429781
Bickley,Chislehurst,Chislehurst,E05000111,0.0558275769476724,51.40767856094799
Maxwell,Orpington,Orpington,E05000122,0.0946430222950964,51.372539991581135
RnR (Wine Bar),Chingford,Valley,E05000607,-0.0177979102551877,51.61571646649294
Stag,Enfield,Town,E05000210,-0.0865210523386572,51.65289976442118
All Bar One,Sutton,Sutton Central,E05000564,-0.1931582459447428,51.361700874595385
Greystoke,North Ealing,Hanger Hill,E05000179,-0.2906857848160894,51.51685660556095
CafÃÂÃÂ© Cairo,Stockwell,Larkhall,E05000425,-0.1235601506279956,51.463961401726245
Little Crown,New Cross,New Cross,E05000449,-0.0270908350100542,51.47524580816168
Manor,Tooting,Tooting,E05000626,-0.172169959335557,51.42414472348789
Rileys,Chelsea,Stanley,E05009405,-0.1773504807643656,51.48337964481936
Victoria,Hackney,Dalston,E05009370,-0.0702052748009972,51.54479379465919
Milford Arms,Isleworth,Hounslow Central,E05000358,-0.3457701028937546,51.47355579384798
Workers Arms,Bethnal Green,St. Peter's,E05009331,-0.063327896764365,51.527081973658895
7 Seasons,London,Hoxton East & Shoreditch,E05009377,-0.0803774331926532,51.53235343288007
Moby Dick,Rotherhithe,Surrey Docks,E05011117,-0.0391725231850539,51.49571857918716
Sun,London,Holborn and Covent Garden,E05000138,-0.123207602465981,51.51499840231365
O'Neill's,Blackheath,Blackheath,E05000438,0.0080374327675751,51.46686168543806
Orange,London,Churchill,E05000633,-0.1529990061167611,51.49041761047987
Mawney Arms,Romford,Brooklands,E05000306,0.1707396006173937,51.57911763237018
Bloomsbury Street,London,Bloomsbury,E05000129,-0.1275919298824843,51.517388589720966
Greenwood,London,St. James's,E05000644,-0.1434924848770911,51.4967782279466
Wembley Tavern,Wembley,Tokyngton,E05000102,-0.2824990009485021,51.562050244906246
George,London,St. James's,E05000644,-0.1129669352677852,51.51308952220975
Five Bells,Harmondsworth,Heathrow Villages,E05000331,-0.4781988960105055,51.48917154362936
New Inn,Brentford,Brentford,E05000347,-0.3035033751512215,51.48881503777472
Hootananny,Brixton,Herne Hill,E05000423,-0.1134356721016753,51.45566939349602
Heist Bank,Paddington,Hyde Park,E05000636,-0.1770724637710597,51.51850068977059
Field,Neasden,Dudden Hill,E05000089,-0.2502084361474065,51.55945127321685
Beehive,London,Tottenham Hale,E05000281,-0.0686603830949754,51.5939039215351
Windsor Castle,London,Regent's Park,E05000643,-0.1599790151082438,51.52525708697104
Danson Stables,Bexleyheath,Crook Log,E05011223,0.1226055635498095,51.45576942101755
Bell,Walthamstow,Chapel End,E05000592,-0.016097079771913,51.59011338511085
Red Lion,London,Hoxton East & Shoreditch,E05009377,-0.0804380109263503,51.52783113986663
Bankers Draft,Eltham,Eltham South,E05000219,0.0532618139116694,51.4505118311594
Devonshire Arms,Kensington,Abingdon,E05009388,-0.1926668841588112,51.49706070297567
Eagle,Homerton,Hackney Wick,E05009374,-0.0402388473557922,51.54538509442239
Richmal Crompton,Bromley,Bromley Town,E05000109,0.0162969068430155,51.399767864914224
Satay Bar,Brixton,Coldharbour,E05000420,-0.1144228489098977,51.46140471169311
Yacht,Bexleyheath,Bexleyheath,E05011219,0.1456547268774252,51.465970493429865
Junction,Battersea,Northcote,E05000619,-0.168935436895151,51.46368059741722
Arkley (Village Inn & Dining),High Barnet,High Barnet,E05000056,-0.2207103915938653,51.65205170689519
Plough,Southall,Dormers Wells,E05000172,-0.3730167557007857,51.51352191859732
Good Intent,Walworth,North Walworth,E05011107,-0.0939105141350084,51.487970345616034
Coat & Badge,Putney,Thamesfield,E05000625,-0.217886700893326,51.46472228911637
Royal Sovereign,Clapton,Hackney Downs,E05009373,-0.0624372789795938,51.56266895071565
Crown Rivers,Heathrow Airport,Heathrow Villages,E05000331,-0.4872391389773695,51.47149256514529
Princess,London,Hoxton East & Shoreditch,E05009377,-0.083601881747208,51.5256167822257
Weavers Arms,London,Mildmay,E05000377,-0.0869733295190929,51.54938528375894
Cherry Tree,South Norwood,South Norwood,E05011485,-0.075540940005051,51.39735532501553
Chelsea Ram,Chelsea,Chelsea Riverside,E05009391,-0.1828489990290524,51.47911255257555
Welcome Inn,Wood Green,Noel Park,E05000275,-0.0946929491545626,51.598007790565184
Tokenhouse,London,Broad Street,E05009295,-0.0892290506573054,51.51551991465345
Jugged Hare,London,Vincent Square,E05000646,-0.1387356835833037,51.4933035842308
Falcon,Clapham,Larkhall,E05000425,-0.1290734895903443,51.46432829030663
Cronx,Croydon,Fairfield,E05011468,-0.09467827981509,51.374790707207104
Burdock,London,Bunhill,E05000367,-0.0856713433318533,51.52164885791189
Union Bar,Chiswick,Turnham Green,E05000365,-0.2760153890752157,51.49466421677854
Browns,Isle of Dogs,Canary Wharf,E05009323,-0.0226121901184635,51.50751781924165
Ruislip Social Club,Ruislip,Manor,E05000334,-0.4195047913943606,51.56901956513558
Charlie's Bar,Plaistow,Canning Town North,E05000477,0.0178424981673082,51.52032692565204
Victoria,Paddington,Hyde Park,E05000636,-0.1709169576225519,51.5134858831718
Kings Arms,Ealing,Ealing Broadway,E05000173,-0.3024912711843736,51.51101197408604
Cafe Oto,Hackney,Dalston,E05009370,-0.0753289133060511,51.54709927798656
Jolly Farmers,Lewisham,Lewisham Central,E05000448,-0.015205137083132,51.45613313542433
Village Inn,Hanwell,Elthorne,E05000176,-0.33694261203488,51.50563322628976
Duchy Arms,Kennington,Prince's,E05000427,-0.1128572009436127,51.48889725816594
Liberty Bounds,Tower Hill,Tower,E05009310,-0.0785907018457415,51.50973455542877
Crown & Shuttle,Spitalfields,Hoxton East & Shoreditch,E05009377,-0.0782284730443207,51.52244429454535
Stage Door,London,Bishop's,E05000416,-0.1075196519338487,51.50125720779106
Bread & Roses at The Chapel,London,King's Cross,E05000141,-0.1189580603067427,51.52858133551401
George & Dragon,Fulham,Fulham Broadway,E05000254,-0.2020108653076322,51.4855048862679
Gold Coast,South Norwood,Woodside,E05011489,-0.0667354798343689,51.39241707835675
Arbitrager,London,Broad Street,E05009295,-0.0860526355019337,51.51496451568296
Beer & Burger Store,London,Willesden Green,E05000105,-0.22126957942199,51.54870186126389
Spouters Corner,Wood Green,Noel Park,E05000275,-0.1086586066298399,51.59688501937127
KNK Stadium Sports Bar,Morden,Ravensbury,E05000468,-0.1718476377508329,51.39364508285451
St. Georges Tavern,Camberwell,St. Giles,E05011115,-0.0834259868158752,51.479337233046415
Clock House,East Dulwich,Goose Green,E05011103,-0.0664850160869985,51.45969730450294
Rising Sun,London,Farringdon Within,E05009304,-0.1013775424174498,51.51313633317557
Leinster Arms,Bayswater,Lancaster Gate,E05000638,-0.182821913429672,51.511665551272095
Three Magpies,Heathrow,Heathrow Villages,E05000331,-0.4508464116081243,51.48107079437416
Hackney Carriage,Sidcup,Blackfen & Lamorbey,E05011220,0.1019560623554984,51.43524188160511
Ain't Nothin' But...,London,West End,E05000649,-0.1395330073317236,51.51298330733355
Sindercombe Social,Shepherds Bush,Shepherd's Bush Green,E05000263,-0.2240496060068151,51.503250399062615
Morden Arms,Greenwich,Greenwich West,E05000222,-0.0115415418705143,51.47617013461434
Shortlands Tavern,Bromley,Bromley Town,E05000109,0.0042020939664687,51.404930239093744
Oak,Kingston,Canbury,E05000403,-0.300888795537285,51.41613567670079
Crown of Mitcham,Mitcham,Cricket Green,E05000458,-0.1590382378305503,51.39010833055982
Londesborough,Stoke Newington,Clissold,E05009369,-0.0812460308045495,51.55764576569321
Red Lion,Enfield,Enfield Highway,E05000198,-0.0444262286533971,51.663932185847216
Albany,Bexley,Blendon & Penhill,E05011221,0.1277589744645516,51.43628715797304
Little Green Dragon,Winchmore Hill,Bush Hill Park,E05000194,-0.0908697940672418,51.636118615298365
World's Inn,Romford,Romford Town,E05000319,0.183229186208281,51.575900354257726
Katzenjammers,London,Borough & Bankside,E05011095,-0.0910139674970159,51.50489258604353
Chamberlain,London,Tower,E05009310,-0.0757756480625106,51.51224229411742
Coach & Horses,London,West End,E05000649,-0.137406379591047,51.51494593876436
Martello Hall,Hackney,London Fields,E05009381,-0.0565861351441336,51.539478963982525
Phoenix,London,St. James's,E05000644,-0.1420878220273038,51.49872538898968
Lillie Langtry,Fulham,Fulham Broadway,E05000254,-0.1982647895374533,51.48626572531455
Wild Card Brewery Taproom,Walthamstow,Higham Hill,E05000600,-0.0422198575157582,51.59535389375479
Coppermill,Walthamstow,High Street,E05000599,-0.0405072474561947,51.5801102380367
Old Star,London,St. James's,E05000644,-0.1334494732698114,51.499982099621256
Bourne & Hollingsworth Buildings,London,Clerkenwell,E05000370,-0.1073762242155535,51.52557133125382
Mikkeller Bar,Bethnal Green,Weavers,E05009335,-0.0766921519845416,51.52742799409023
Albany,London,Marylebone High Street,E05000641,-0.1438829601634755,51.523321886176994
Partizan Brewing Tap Room,Bermondsey (East),North Bermondsey,E05011106,-0.0570285814173586,51.491177806685066
Forge,London,Walbrook,E05009312,-0.0871342993263801,51.513228586945885
Albany,Twickenham,Twickenham Riverside,E05000531,-0.3320785227785161,51.44821894244562
Wallington Arms,Wallington,Wallington South,E05000570,-0.1501981237080397,51.35982564076035
WC Wine & Charcuterie,Clapham,Clapham Common,E05000418,-0.137810058914701,51.46155374991609
Green Room,London,Bishop's,E05000416,-0.1102568697539604,51.507533328523294
Narrow,Limehouse,Limehouse,E05009326,-0.0329867487219828,51.50854664206313
Black Friar,Blackfriars,Castle Baynard,E05009297,-0.1039161669992556,51.51135185872979
William Webb Ellis,Twickenham,Twickenham Riverside,E05000531,-0.3284403623895753,51.44774446141302
Charlotte Despard,Upper Holloway,Junction,E05000376,-0.1365152123627262,51.56817733029725
Duke,Surbiton,St. Mark's,E05000412,-0.3070339108595462,51.391863361538725
Sawyers Arms,Paddington,Hyde Park,E05000636,-0.1744728978100948,51.5153847736901
7000 Jars of Beer,Kingston,Grove,E05000408,-0.305415645287142,51.40961878344506
Castle,East Dulwich,Goose Green,E05011103,-0.0742387390808157,51.45127276846144
Queen Adelaide,Wandsworth,Thamesfield,E05000625,-0.2009063917154441,51.46048831062386
Lodge Tavern,Ealing,Ealing Common,E05000174,-0.3000360622423018,51.51386302471526
Swan,London,Holborn and Covent Garden,E05000138,-0.1226936399762707,51.52118618013158
Chandos Arms,Colindale,Colindale,E05000046,-0.2558444535839792,51.5931129960306
Whelan's,Uxbridge,Uxbridge North,E05000340,-0.4805422438409898,51.54774135997982
Red Dog South,Clapham,Larkhall,E05000425,-0.1291208140458485,51.46493155768906
St. James Tavern,London,West End,E05000649,-0.1341835942355252,51.51092893191467
Sourced Market,London,Marylebone High Street,E05000641,-0.1501951461555584,51.51625441620013
Queen's Head,Green St Green,Chelsfield and Pratts Bottom,E05000110,0.089239857687784,51.35293308317147
Thyme,Hampstead,Belsize,E05000128,-0.1671834155727855,51.551538447838354
Clapton Hart,Clapton,Hackney Downs,E05009373,-0.0560683126099119,51.556718294423
College Arms,London,Bloomsbury,E05000129,-0.1319124766576444,51.51993946387654
Moor Beer Co. Vaults & Tap Room,Bermondsey (East),South Bermondsey,E05011116,-0.0722297942343251,51.49757984309672
Greene Man,London,Marylebone High Street,E05000641,-0.1431620626865893,51.52367917843208
Ben's Canteen,Battersea,Fairfield,E05000614,-0.1774896813042858,51.46036064526431
J J Moons,Wembley,Wembley Central,E05000104,-0.2922426938816402,51.55343370326394
Whelan's,Rotherhithe,Rotherhithe,E05011112,-0.0474497422992286,51.49284416508576
Harrow,Hornchurch,Hylands,E05000315,0.2048905647415112,51.56482937898171
Chapel,London,Bryanston and Dorset Square,E05000632,-0.166733241709635,51.519688462282105
Berrylands,Surbiton,Berrylands,E05000401,-0.2803402749854388,51.398426076618975
Bird In Hand,Palmers Green,Bowes,E05000193,-0.1015267333667047,51.61106774152722
Hope,Richmond,North Richmond,E05000526,-0.2987780783043724,51.465986207833296
Kenton,Homerton,Hackney Wick,E05009374,-0.0441224847136367,51.54394806037632
Drayton Arms,South Kensington,Redcliffe,E05009402,-0.1835719010776532,51.49064331505332
Larkshall,Chingford,Larkswood,E05000602,-0.0002244850498288,51.61723477317154
Victoria Inn,Peckham,Rye Lane,E05011113,-0.0709479356861302,51.46754070932869
Pillars of Hercules,London,West End,E05000649,-0.1310647733763395,51.51459327615262
Rookery,Clapham,Clapham Common,E05000418,-0.1428000700500535,51.45707359771248
Tom Cribb,London,St. James's,E05000644,-0.1318893741246517,51.509588471234125
Pagination,Isle of Dogs,Canary Wharf,E05009323,-0.0216758807630543,51.505181836912605
Dulwich Beer Dispensary,East Dulwich,Dulwich Wood,E05011101,-0.0694773724164215,51.44438678844126
Pavilion End,London,Cordwainer,E05009300,-0.0939458211552826,51.51301576681979
Jono's Pub,Kingsbury,Fryent,E05000090,-0.2623058181554633,51.58118579193364
Victoria,Tottenham,Tottenham Hale,E05000281,-0.0678469703731541,51.5967411117409
Burger & Lobster,Isle of Dogs,Canary Wharf,E05009323,-0.0226121901184635,51.50751781924165
Lamb Inn,Lower Edmonton,Edmonton Green,E05000197,-0.0635677598788659,51.625374685081646
Cuckfield,Wanstead,Wanstead Village,E05011255,0.0243946578275104,51.57965560104021
Hankies at Piccadilly West End Hotel,London,West End,E05000649,-0.1318824202381028,51.51222322894625
Railway Tavern,Hornsey,Crouch End,E05000269,-0.124353957598837,51.57757851602472
Williamsons Tavern,London,Cordwainer,E05009300,-0.093762106741189,51.51327357023277
Lordship,East Dulwich,Goose Green,E05011103,-0.0767049482805986,51.45491942265435
Angies,Harlesden,Kensal Green,E05000092,-0.2434195590160081,51.53533979499112
Tyme On The Waterfront,Northolt,Greenford Broadway,E05000177,-0.3781946951756603,51.52923131444452
Dugout Sports Bar,Greenford,North Greenford,E05000183,-0.3393672799091311,51.54989217608338
Simmons,Fulham,Fulham Broadway,E05000254,-0.1994126854265437,51.48125647948551
Bridge Inn,Isleworth,Syon,E05000364,-0.3358504557303757,51.4750970399201
Earl Ferrers,Streatham,St. Leonard's,E05000428,-0.13265052832477,51.42358511597453
Tank & Paddle,London,West End,E05000649,-0.1396201909077284,51.510844425032815
Bell & Crown,Chiswick,Chiswick Riverside,E05000349,-0.2825508061894216,51.4867476254197
Queens Head,London,West End,E05000649,-0.135368612075987,51.5108488558332
Olde Clock Tower,Croydon,Selhurst,E05011479,-0.0977459211572703,51.38502040436206
Bulls Head,Croydon,Fairfield,E05011468,-0.1009832407787295,51.369650236307706
Basing House,Bethnal Green,Hoxton East & Shoreditch,E05009377,-0.0781776434263584,51.52844155359336
George,Heathrow Airport,Heathrow Villages,E05000331,-0.4872391389773695,51.47149256514529
Blue Posts,London,West End,E05000649,-0.1398673218783808,51.51326738348226
